NUMBER,STREET,CITY,STATE,POSTCODE,UNIT
1200.0,AIRPORT HEIGHTS DR,Anchorage,AK,99508,
20815.0,STERLING HWY,HAPPY VALLEY,AK,99639,
8341.0,PIONEER DR,Anchorage,AK,99504,
2521.0,LEGACY DR,Anchorage,AK,99516,
9401.0,STRATHMORE DR,Anchorage,AK,99502,
1576.0,BIRCHWOOD ST,Anchorage,AK,99508,
9130.0,GOLOVIN ST,Anchorage,AK,99507,
5300.0,E 4TH AVE,Anchorage,AK,99508,
15443.0,OLD GLENN HWY,Anchorage,AK,99577,
4200.0,E 4TH AVE,Anchorage,AK,99508,
21218.0,BARON DR,Anchorage,AK,99567,
7049.0,ARCTIC BLVD,Anchorage,AK,99518,
1711.0,LORE RD,Anchorage,AK,99507,
27665.0,MINNICK RD,KALIFORNSKY,AK,99610,
241.0,N C ST,Anchorage,AK,99501,
46401.0,SHAWNA LN,KALIFORNSKY,AK,99611,
6110.0,E 12TH AVE,Anchorage,AK,99504,
11640.0,ELLEN AVE,Anchorage,AK,99515,
2010.0,SHANNON LN,HOMER,AK,99603,
8203.0,MENTRA ST,Anchorage,AK,99518,
51632.0,FISH ST,NIKISKI,AK,99611,
4250.0,LAKESHORE DR,Anchorage,AK,99502,
3310.0,HAWKINS AVE,KETCHIKAN,AK,99901,
11355.0,TULIN PARK LOOP,Anchorage,AK,99516,
10603.0,BRIGANTINE CIR,Anchorage,AK,99515,
600.0,CORDOVA ST,Anchorage,AK,99501,
3449.0,GIBSTAY CIR,Anchorage,AK,99516,
3702.0,GALACTICA DR,Anchorage,AK,99517,
9139.0,CRANBERRY ST,Anchorage,AK,99502,
2821.0,LEXINGTON CIR,Anchorage,AK,99502,
8823.0,JEWEL TERRACE ST,Anchorage,AK,99502,
6130.0,COUNTRY LANE CIR,Anchorage,AK,99504,
407.0,W NORTHERN LIGHTS BLVD,Anchorage,AK,99503,
10300.0,COMPASS CIR,Anchorage,AK,99515,
800.0,MEDFRA ST,Anchorage,AK,99501,
3550.0,W DIMOND BLVD,Anchorage,AK,99502,
3240.0,PENLAND PKWY,Anchorage,AK,99508,
,GEORGE INLET;COON CO,KETCHIKAN,AK,99901,
935.0,BALEEN AVE,KENAI,AK,99611,
1610.0,EASTRIDGE DR,Anchorage,AK,99501,
3433.0,ALEXANDER AVE,Anchorage,AK,99508,
391.0,HIGGINS SPUR,KETCHIKAN,AK,99901,
5637.0,GRAND TETON LOOP,Anchorage,AK,99502,
4250.0,LAKESHORE DR,Anchorage,AK,99502,
45010.0,MOORING DR,RIDGEWAY,AK,99669,
420.0,IDAHO ST,Anchorage,AK,99504,
7230.0,PECK AVE,Anchorage,AK,99504,
9424.0,SNOW GOOSE RD,KETCHIKAN,AK,99901,
11478.0,DISCOVERY PARK DR,Anchorage,AK,99515,
58096.0,REA DR,FRITZ CREEK,AK,99603,
3654.0,ALAMOSA DR,Anchorage,AK,99502,
1504.0,CHARTER CIR,Anchorage,AK,99508,
8127.0,SUMMERSET DR,Anchorage,AK,99518,
1101.0,EAGLE ST,Anchorage,AK,99501,
0.0,SIDELINGER TRL REM SW,HALIBUT COVE,AK,99603,
209.0,W 14TH AVE,Anchorage,AK,99501,
7930.0,CASEY CIR,Anchorage,AK,99507,
2601.0,COMMERCIAL DR,Anchorage,AK,99501,
1834.0,JUNEAU DR,Anchorage,AK,99501,
203.0,PORTLOCK ST,KENAI,AK,99611,
3007.0,ARCTIC BLVD,Anchorage,AK,99503,
9400.0,MIDDEN WAY,Anchorage,AK,99507,
4060.0,B ST,Anchorage,AK,99503,
251.0,MC CARREY ST,Anchorage,AK,99508,
6155.0,STAEDEM DR,Anchorage,AK,99504,
11121.0,SHADY LN,Anchorage,AK,99516,
46925.0,LUANA CT,NIKISKI,AK,99611,
2625.0,WINDFLOWER DR,KENAI,AK,99611,
8210.0,KRONOS DR,Anchorage,AK,99502,
1304.0,FOURTH AVE,SEWARD,AK,99664,
6448.0,E 10TH AVE,Anchorage,AK,99504,
1400.0,AIRPORT HEIGHTS DR,Anchorage,AK,99508,
3440.0,W 86TH AVE,Anchorage,AK,99502,
1043.0,H ST,Anchorage,AK,99501,
9251.0,CAMPBELL TERRACE DR,Anchorage,AK,99502,
2009.0,RUSH LOOP,SEWARD,AK,99664,
3526.0,VASSAR DR,Anchorage,AK,99508,
67430.0,STERLING HWY,CLAM GULCH,AK,99568,
1340.0,W 80TH AVE,Anchorage,AK,99518,
19127.0,FIRST ST,Anchorage,AK,99577,
927.0,JUNEAU ST,Anchorage,AK,99501,
36850.0,EVEN LN,KALIFORNSKY,AK,99611,
3501.0,HILAND DR,Anchorage,AK,99504,
3494.0,E 84TH AVE,Anchorage,AK,99507,
6421.0,IMLACH DR,Anchorage,AK,99502,
251.0,MAIN ST,SELDOVIA,AK,99663,
2580.0,RENE CT,HOMER,AK,99603,
1645.0,SITKA ST,Anchorage,AK,99501,
11739.0,OLD EXIT GLACIER RD,BEAR CREEK,AK,99664,
31435.0,RORATH ST,ANCHOR POINT,AK,99556,
200.0,BIRDHOUSE LOOP,Anchorage,AK,99587,
505.0,JAPONSKI DR,KENAI,AK,99611,
4550.0,NORTHWOOD DR,Anchorage,AK,99517,
16635.0,CENTERFIELD DR,Anchorage,AK,99577,
35442.0,KNAACK CT,COOPER LANDING,AK,99572,
32669.0,RICKARD ST,ANCHOR POINT,AK,99556,
1202.0,FOURTH AVE,KENAI,AK,99611,
30573.0,LURE CT,FUNNY RIVER,AK,99669,
905.0,RICHARDSON VISTA RD,Anchorage,AK,99501,
7851.0,SPRING ST,Anchorage,AK,99518,
4620.0,REKA DR,Anchorage,AK,99508,
16812.0,ELEONORA ST,Anchorage,AK,99577,
273.0,YELLOW LEAF CIR,Anchorage,AK,99504,
135.0,S LEIBROCK ST,SOLDOTNA,AK,99669,
420.0,E 23RD AVE,Anchorage,AK,99503,
17641.0,BEAUJOLAIS DR,Anchorage,AK,99577,
3677.0,FOREST GLEN DR,HOMER,AK,99603,
,TONGASS HWY,KETCHIKAN,AK,99901,
7141.0,WEIMER RD,Anchorage,AK,99502,
6441.0,COACH CIR,Anchorage,AK,99507,
12.0,P FLOAT SMALL BOAT HBR,SEWARD,AK,99664,
621.0,W 32ND AVE,Anchorage,AK,99503,
9260.0,BUDDY WERNER DR,Anchorage,AK,99507,
10395.0,BEARPAW DR,BEAR CREEK,AK,99664,
36251.0,MERE CIR,STERLING,AK,99669,
35299.0,BETTY LOU DR,STERLING,AK,99672,
961.0,BARNETT PL,HOMER,AK,99603,
4241.0,ELKHORN DR,Anchorage,AK,99577,
1800.0,MULDOON CIR,Anchorage,AK,99504,
214.0,CHARLES WAY,HOMER,AK,99603,
12.0,K FLOAT SMALL BOAT HBR,SEWARD,AK,99664,
11507.0,LOWER SUNNY CIR,Anchorage,AK,99577,
64932.0,SECOND ST,HOPE,AK,99605,
180.0,PHILLIPS DR,KENAI,AK,99611,
3802.0,IOWA DR,Anchorage,AK,99517,
54695.0,COHOE LAKE DR,COHOE,AK,99610,
9710.0,VANGUARD DR,Anchorage,AK,99507,
5820.0,LAKE OTIS PKWY,Anchorage,AK,99507,
67160.0,AUNTIE MAE DR,HAPPY VALLEY,AK,99639,
240.0,BOTANICAL CIR,Anchorage,AK,99515,
13144.0,BRUNO RD,BEAR CREEK,AK,99664,
201.0,E 9TH AVE,Anchorage,AK,99501,
512.0,E 13TH AVE,Anchorage,AK,99501,
6650.0,HAMPSTEAD CT,Anchorage,AK,99518,
1249.0,POND REEF RD,KETCHIKAN,AK,99901,
30140.0,WILDLIFE AVE,STERLING,AK,99672,
2913.0,DORIS ST,Anchorage,AK,99517,
3705.0,E 19TH AVE,Anchorage,AK,99508,
1106.0,NORMAN ST,Anchorage,AK,99504,
10710.0,TAHNEETA DR,Anchorage,AK,99507,
8433.0,PECK AVE,Anchorage,AK,99504,
1201.0,AUTUMN LN,Anchorage,AK,99504,
2700.0,W DIMOND BLVD,Anchorage,AK,99502,
3555.0,ARCTIC BLVD,Anchorage,AK,99503,
30036.0,WILDLIFE AVE,STERLING,AK,99672,
1200.0,BALFOUR DR,Anchorage,AK,99515,
3510.0,SPINNAKER DR,Anchorage,AK,99516,
208.0,E 45TH AVE,Anchorage,AK,99503,
3942.0,E 8TH AVE,Anchorage,AK,99508,
3340.0,PROVIDENCE DR,Anchorage,AK,99508,
2532.0,FORAKER DR,Anchorage,AK,99517,
2307.0,CARIBOU HILL PL,Anchorage,AK,99508,
405.0,MISSION ST,KETCHIKAN,AK,99901,
119.0,W 12TH AVE,Anchorage,AK,99501,
8207.0,SKYHILLS DR,Anchorage,AK,99502,
11733.0,AURORA ST,Anchorage,AK,99577,
2910.0,ROCKY BAY CIR,Anchorage,AK,99515,
5911.0,AUSTRIA DR,Anchorage,AK,99516,
10251.0,CREST VIEW LN,Anchorage,AK,99577,
11715.0,WILDERNESS DR,Anchorage,AK,99516,
801.0,E 11TH AVE,Anchorage,AK,99501,
201.0,E 16TH AVE,Anchorage,AK,99501,
905.0,RICHARDSON VISTA RD,Anchorage,AK,99501,
1930.0,E NORTHERN LIGHTS BLVD,Anchorage,AK,99508,
1200.0,W DIMOND BLVD,Anchorage,AK,99515,
1500.0,W BENSON BLVD,Anchorage,AK,99503,
172.0,REGER AVE,SOLDOTNA,AK,99669,
48002.0,GRUBER RD,KALIFORNSKY,AK,99669,
3251.0,E 41ST AVE,Anchorage,AK,99508,
21010.0,FERNDALE ST,Anchorage,AK,99567,
4009.0,MAIN ST,HOMER,AK,99603,
13220.0,STERLING HWY,NINILCHIK,AK,99639,
3800.0,ARCTIC BLVD,Anchorage,AK,99503,
2606.0,C ST,Anchorage,AK,99503,
50697.0,MANNO AVE,KALIFORNSKY,AK,99611,
3643.0,IMAGE DR,Anchorage,AK,99504,
4521.0,KLONDIKE CT,Anchorage,AK,99508,
914.0,W 77TH AVE,Anchorage,AK,99518,
63873.0,OIL WELL RD,NINILCHIK,AK,99639,
6300.0,BOEING AVE,Anchorage,AK,99502,
202.0,W PIONEER AVE,HOMER,AK,99603,
45544.0,FISH ON DR,KALIFORNSKY,AK,99611,
6455.0,PEQUOD CIR,Anchorage,AK,99507,
841.0,FOREST AVE,KETCHIKAN,AK,99901,
6403.0,E 10TH AVE,Anchorage,AK,99504,
32425.0,VIO RD,STERLING,AK,99672,
8151.0,FAIRWOOD CIR,Anchorage,AK,99518,
3212.0,DEBARR RD,Anchorage,AK,99508,
6087.0,SPRUCE MEADOWS LOOP,Anchorage,AK,99507,
4164.0,KACHEMAK WAY,HOMER,AK,99603,
3630.0,MINCHUMINA AVE,KENAI,AK,99611,
73155.0,THURMOND AVE,ANCHOR POINT,AK,99556,
1941.0,EARLY VIEW DR,Anchorage,AK,99504,
,PRINCESS DR,KETCHIKAN,AK,99901,
3814.0,RICHMOND AVE,Anchorage,AK,99508,
105.0,ROBIN PL,SOLDOTNA,AK,99669,
2600.0,DENALI ST,Anchorage,AK,99503,
16766.0,BRODY RD,NINILCHIK,AK,99639,
27395.0,SEWARD HWY,Anchorage,AK,99540,
12830.0,MONTEREY CIR,Anchorage,AK,99516,
37639.0,ARABIAN LN,STERLING,AK,99672,
1.0,A FLOAT SMALL BOAT HBR,SEWARD,AK,99664,
41830.0,SACALOFF DR,FUNNY RIVER,AK,99669,
202.0,N KLEVIN ST,Anchorage,AK,99508,
47490.0,LUDY AVE,KALIFORNSKY,AK,99669,
15300.0,POLLOCK DR,Anchorage,AK,99516,
500.0,E 5TH AVE,Anchorage,AK,99501,
1721.0,ROGERS PARK CT,Anchorage,AK,99508,
10103.0,OUR RD,Anchorage,AK,99507,
5031.0,E 26TH AVE,Anchorage,AK,99508,
2600.0,DENALI ST,Anchorage,AK,99503,
827.0,PRICE ST,Anchorage,AK,99508,
5102.0,SHORECREST DR,Anchorage,AK,99502,
9499.0,BRAYTON DR,Anchorage,AK,99507,
7796.0,BETNU CIR,Anchorage,AK,99504,
3141.0,DONINGTON DR,Anchorage,AK,99504,
11741.0,WAGNER ST,Anchorage,AK,99516,
702.0,LAWTON DR,KENAI,AK,99611,
68040.0,STODDARD AVE,ANCHOR POINT,AK,99556,
520.0,CREEKSIDE ST,Anchorage,AK,99504,
50578.0,YRAGUI AVE,KALIFORNSKY,AK,99611,
12325.0,WILDERNESS RD,Anchorage,AK,99516,
2906.0,W 30TH AVE,Anchorage,AK,99517,
524.0,W 4TH AVE,Anchorage,AK,99501,
34708.0,SENTINEL ST,STERLING,AK,99669,
1711.0,FIFTH AVE,KENAI,AK,99611,
46885.0,AUTUMN RD,NIKISKI,AK,99611,
18990.0,FISH HATCHERY RD,Anchorage,AK,99577,
740.0,W 47TH AVE,Anchorage,AK,99503,
2903.0,TANGLEWOOD DR,Anchorage,AK,99517,
1205.0,HOLLYWOOD DR,Anchorage,AK,99501,
3740.0,PATRICIA LN,Anchorage,AK,99504,
21434.0,BLAIR AVE,Anchorage,AK,99567,
475.0,LINGONBERRY LN,SOLDOTNA,AK,99669,
8701.0,BLACKBERRY ST,Anchorage,AK,99502,
1411.0,K ST,Anchorage,AK,99501,
2304.0,MC RAE RD,Anchorage,AK,99517,
782.0,BROKEN OAR CT,SOLDOTNA,AK,99669,
1428.0,W 25TH AVE,Anchorage,AK,99503,
5901.0,E 6TH AVE,Anchorage,AK,99504,
2901.0,ASPEN DR,Anchorage,AK,99517,
3698.0,SITKA ROSE CIR,HOMER,AK,99603,
17312.0,S JUANITA LOOP,Anchorage,AK,99577,
,MILLAR ST,KETCHIKAN,AK,99901,
322.0,DEERFIELD DR,Anchorage,AK,99515,
4502.0,KLONDIKE CT,Anchorage,AK,99508,
18617.0,MOUNTAIN PLOVER CIR,Anchorage,AK,99516,
1657.0,MOUNTAINMAN LOOP,Anchorage,AK,99507,
40669.0,DIAMOND WILLOW LN,STERLING,AK,99669,
,COLEIDI LN,KETCHIKAN,AK,99901,
14821.0,SNOWSHOE LN,Anchorage,AK,99516,
198.0,W CORRAL AVE,SOLDOTNA,AK,99669,
11472.0,DISCOVERY HEIGHTS CIR,Anchorage,AK,99515,
213.0,PEPPERTREE LOOP,Anchorage,AK,99504,
9020.0,NOBLE CIR,Anchorage,AK,99502,
209.0,PRINCESS ST,KENAI,AK,99611,
,GRAVINA ISLAND; LONG LAKE,KETCHIKAN,AK,99901,
4301.0,MOUNTAIN VIEW DR,Anchorage,AK,99508,
8512.0,BOUNDARY AVE,Anchorage,AK,99504,
7831.0,MAYFAIR DR,Anchorage,AK,99502,
67971.0,VIRGINIA AVE,ANCHOR POINT,AK,99603,
9911.0,TOAKEE CIR,Anchorage,AK,99577,
13765.0,HUNTERWOOD LN,Anchorage,AK,99577,
5320.0,HENDRICKSON CIR,Anchorage,AK,99507,
1220.0,R ST,Anchorage,AK,99501,
4850.0,BRYN MAWR CT,Anchorage,AK,99508,
3821.0,W 67TH AVE,Anchorage,AK,99502,
3421.0,E 42ND AVE,Anchorage,AK,99508,
1540.0,RUSSIAN JACK DR,Anchorage,AK,99508,
6532.0,CIMARRON CIR,Anchorage,AK,99504,
3216.0,SPINNAKER DR,Anchorage,AK,99516,
3924.0,ROUNDTOP CIR,Anchorage,AK,99504,
5308.0,ARCTIC BLVD,Anchorage,AK,99518,
434.0,K ST,Anchorage,AK,99501,
1110.0,W 6TH AVE,Anchorage,AK,99501,
,FIRST AVE,KETCHIKAN,AK,99901,
20001.0,SCENIC DR,Anchorage,AK,99567,
8841.0,DANNY CIR,Anchorage,AK,99577,
17073.0,BOWEN CIR,Anchorage,AK,99577,
35185.0,ROCKWOOD DR,KALIFORNSKY,AK,99669,
14612.0,WATERFRONT LN,Anchorage,AK,99577,
442.0,D 1 LOOP RD,KETCHIKAN,AK,99901,
,FRANKLIN RD,KETCHIKAN,AK,99901,
3407.0,SPENARD RD,Anchorage,AK,99503,
1950.0,DOLLY VARDEN CIR,Anchorage,AK,99516,
905.0,RICHARDSON VISTA RD,Anchorage,AK,99501,
644.0,W 87TH AVE,Anchorage,AK,99515,
11220.0,FOREST DR,Anchorage,AK,99516,
7740.0,HOMER DR,Anchorage,AK,99518,
14734.0,WILLOW DR,BEAR CREEK,AK,99664,
11825.0,SPYGLASS CIR,Anchorage,AK,99515,
7302.0,HUNTSMEN CIR,Anchorage,AK,99518,
20388.0,BIRCHWOOD SPUR RD,Anchorage,AK,99567,
,BUNCHBERRY LN,KETCHIKAN,AK,99901,
3910.0,MC MAHON AVE,Anchorage,AK,99516,
807.0,G ST,Anchorage,AK,99501,
2644.0,BROOKSTONE LOOP,Anchorage,AK,99515,
3601.0,PETERKIN AVE,Anchorage,AK,99508,
49089.0,TOTE RD,KALIFORNSKY,AK,99669,
137.0,RAIN TREE LN,SOLDOTNA,AK,99669,
8426.0,DUBEN AVE,Anchorage,AK,99504,
20231.0,RIVERSIDE DR,Anchorage,AK,99577,
59444.0,CHICKWEED CT,GRAY CLIFF/MOOSE POINT,AK,99611,
11391.0,DISCOVERY VIEW DR,Anchorage,AK,99515,
2215.0,RADIANT CIR,Anchorage,AK,99501,
3630.0,O'MALLEY RD,Anchorage,AK,99507,
3713.0,CHALLENGER CIR,Anchorage,AK,99517,
7539.0,BELUGA CIR,Anchorage,AK,99504,
3744.0,RICHMOND AVE,Anchorage,AK,99508,
12007.0,TROLL DR,BEAR CREEK,AK,99664,
,TONGASS HWY,KETCHIKAN,AK,99901,
3701.0,RICHMOND AVE,Anchorage,AK,99508,
1117.0,CHUGACH WAY,Anchorage,AK,99503,
406.0,N GILL ST,KENAI,AK,99611,
218.0,W KATMAI AVE,SOLDOTNA,AK,99669,
926.0,W 26TH AVE,Anchorage,AK,99503,
37970.0,SCOUT LAKE LOOP RD,STERLING,AK,99672,
7505.0,BOUNDARY AVE,Anchorage,AK,99504,
1428.0,W 25TH AVE,Anchorage,AK,99503,
8047.0,WILCOX ST,Anchorage,AK,99502,
8149.0,E 2ND AVE,Anchorage,AK,99504,
5601.0,SAMOA ST,Anchorage,AK,99507,
5360.0,LAKE OTIS PKWY,Anchorage,AK,99507,
5587.0,SAPPHIRE LOOP,Anchorage,AK,99504,
1504.0,WELLS WAY,KENAI,AK,99611,
1236.0,MEDFRA ST,Anchorage,AK,99501,
1034.0,E 27TH AVE,Anchorage,AK,99508,
8010.0,BOUNDARY AVE,Anchorage,AK,99504,
4100.0,E 112TH AVE,Anchorage,AK,99516,
10645.0,WASHINGTON CIR,Anchorage,AK,99515,
37859.0,CLOUD BERRY LOOP,GRAY CLIFF/MOOSE POINT,AK,99611,
310.0,E 11TH AVE,Anchorage,AK,99501,
8241.0,FRANK ST,Anchorage,AK,99518,
6701.0,E 2ND AVE,Anchorage,AK,99504,
48370.0,GOLDDUST DR,KALIFORNSKY,AK,99669,
5705.0,ARMSTRONG LN,Anchorage,AK,99504,
26635.0,CLOYDS RD,HAPPY VALLEY,AK,99556,
12910.0,WELLSFORD CIR,Anchorage,AK,99516,
3304.0,SPENARD RD,Anchorage,AK,99503,
2300.0,D ST,Anchorage,AK,99503,
7411.0,BERN ST,Anchorage,AK,99507,
107.0,HAIDA DR,KENAI,AK,99611,
814.0,IVY ST,Anchorage,AK,99501,
53600.0,REDOUBT DR,NIKISKI,AK,99611,
12940.0,SHELBURNE RD,Anchorage,AK,99516,
218.0,FOOTHILL RD,SOLDOTNA,AK,99669,
1825.0,DIOMEDE ST,Anchorage,AK,99504,
431.0,W 7TH AVE,Anchorage,AK,99501,
11321.0,LILLIAN LN,Anchorage,AK,99515,
7760.0,HACIENDA DR,Anchorage,AK,99507,
3201.0,C ST,Anchorage,AK,99503,
209.0,VAN BUREN ST,SEWARD,AK,99664,
7415.0,MADELYNNE DR,Anchorage,AK,99504,
3886.0,CARAVELLE DR,Anchorage,AK,99502,
1200.0,E WHITNEY RD,Anchorage,AK,99501,
2263.0,BROOKSHIRE LOOP,Anchorage,AK,99504,
4900.0,OLD SEWARD HWY,Anchorage,AK,99503,
45100.0,MARY AVE,RIDGEWAY,AK,99669,
750.0,W DIMOND BLVD,Anchorage,AK,99515,
342.0,E DOWLING RD,Anchorage,AK,99518,
1001.0,BONIFACE PKWY,Anchorage,AK,99504,
42540.0,KENAI SPUR HWY,SALAMATOF,AK,99611,
13115.0,BAY CIR,Anchorage,AK,99515,
1426.0,TWINING DR,Anchorage,AK,99504,
10500.0,HAMPTON DR,Anchorage,AK,99507,
38890.0,HERMOSA DR,STERLING,AK,99672,
812.0,W 10TH AVE,Anchorage,AK,99501,
5273.0,CAPE SEVILLE DR,Anchorage,AK,99516,
2321.0,SONSTROM DR,Anchorage,AK,99517,
35501.0,JAMES ST,FUNNY RIVER,AK,99669,
8050.0,PIONEER DR,Anchorage,AK,99504,
,GEORGE INLET; COON ISLAND,KETCHIKAN,AK,99901,
724.0,N FLOWER ST,Anchorage,AK,99508,
1606.0,E 1ST AVE,Anchorage,AK,99501,
1467.0,MULDOON RD,Anchorage,AK,99504,
1200.0,KARLUK ST,Anchorage,AK,99501,
151.0,W BAYVIEW AVE,HOMER,AK,99603,
459.0,BONANZA AVE,HOMER,AK,99603,
36715.0,FORTY NINER ST,STERLING,AK,99669,
1650.0,OXFORD DR,Anchorage,AK,99503,
1544.0,NICHOLS ST,Anchorage,AK,99508,
1917.0,KULIK CIR,Anchorage,AK,99504,
3061.0,DOIL DR,Anchorage,AK,99507,
9300.0,ARLENE DR,Anchorage,AK,99502,
1003.0,E 20TH AVE,Anchorage,AK,99501,
909.0,CHUGACH WAY,Anchorage,AK,99503,
3925.0,E 9TH AVE,Anchorage,AK,99508,
32545.0,EAGLE VISTA DR,Anchorage,AK,99577,
7815.0,MESQUITE CIR,Anchorage,AK,99507,
38486.0,MEMORY CIR,KALIFORNSKY,AK,99611,
11251.0,WOOD RIVER WAY,Anchorage,AK,99577,
18594.0,JUDE ISLAND CIR,Anchorage,AK,99577,
52149.0,PUSHKI CT,FRITZ CREEK,AK,99603,
495.0,LILLY DR,SOLDOTNA,AK,99669,
58.0,D FLOAT SMALL BOAT HBR,SEWARD,AK,99664,
13115.0,CAPE CIR,Anchorage,AK,99515,
1627.0,WOODROE LN,Anchorage,AK,99507,
627.0,YAKUTAT ST,Anchorage,AK,99501,
424.0,LAWTON DR,KENAI,AK,99611,
741.0,N BUNN ST,Anchorage,AK,99508,
63367.0,SAINTS SERGUS AND HERMAN ST,NANWALEK,AK,99603,
700.0,W 53RD AVE,Anchorage,AK,99518,
17.0,O FLOAT SMALL BOAT HBR,SEWARD,AK,99664,
2410.0,E 17TH AVE,Anchorage,AK,99508,
6611.0,DEBARR RD,Anchorage,AK,99504,
5340.0,E 26TH AVE,Anchorage,AK,99508,
8400.0,WILLIWA CIR,Anchorage,AK,99504,
820.0,W 88TH AVE,Anchorage,AK,99515,
33749.0,WOLF TRAIL LN,BEAR CREEK,AK,99664,
6313.0,E 32ND AVE,Anchorage,AK,99504,
6401.0,E 9TH AVE,Anchorage,AK,99504,
11367.0,TULIN PARK LOOP,Anchorage,AK,99516,
36695.0,BRADFORD RD,STERLING,AK,99672,
282.0,LORRAINE CT,SOLDOTNA,AK,99669,
1180.0,GOLDEN DAWN CIR,Anchorage,AK,99515,
3900.0,WESTLAND AVE,Anchorage,AK,99517,
415.0,N BRAGAW ST,Anchorage,AK,99508,
4221.0,EAU CLAIRE PL,Anchorage,AK,99508,
126.0,N PARK ST,Anchorage,AK,99508,
10545.0,PACER PL,Anchorage,AK,99507,
4308.0,REKA DR,Anchorage,AK,99508,
5307.0,E 24TH AVE,Anchorage,AK,99508,
2652.0,ASPEN HEIGHTS LOOP,Anchorage,AK,99508,
1012.0,THIRD AVE,SEWARD,AK,99664,
313.0,SCHODDE ST,Anchorage,AK,99508,
1428.0,KETCHIKAN LAKES RD,KETCHIKAN,AK,99901,
3964.0,BARTLETT ST,HOMER,AK,99603,
2922.0,WIND CHASE CT,Anchorage,AK,99507,
13150.0,ROSSER DR,Anchorage,AK,99577,
8101.0,E 3RD AVE,Anchorage,AK,99504,
627.0,E 78TH AVE,Anchorage,AK,99518,
1410.0,W 32ND AVE,Anchorage,AK,99503,
34165.0,EASTLAND LOOP,FRITZ CREEK,AK,99603,
3900.0,CROSSON DR,Anchorage,AK,99517,
3601.0,C ST,Anchorage,AK,99503,
5414.0,W DIMOND BLVD,Anchorage,AK,99502,
3101.0,MINCHUMINA AVE,KENAI,AK,99611,
305.0,E PIONEER AVE,HOMER,AK,99603,
2021.0,WASHINGTON AVE,Anchorage,AK,99515,
64947.0,TALL TREE AVE,NIKOLAEVSK,AK,99556,
19066.0,CROOKED CREEK RD,COHOE,AK,99610,
7599.0,BETNU CIR,Anchorage,AK,99504,
7249.0,KIDRON ST,Anchorage,AK,99502,
46140.0,RIVERSIDE LN,RIDGEWAY,AK,99669,
1605.0,ELMENDORF DR,Anchorage,AK,99504,
4200.0,GARFIELD ST,Anchorage,AK,99503,
923.0,ELAINE DR,Anchorage,AK,99504,
,NORDSTROM DR,KETCHIKAN,AK,99901,
3401.0,W 88TH AVE,Anchorage,AK,99502,
2810.0,W NORTHERN LIGHTS BLVD,Anchorage,AK,99517,
4904.0,ROGER DR,Anchorage,AK,99507,
4554.0,HOMER DR,Anchorage,AK,99503,
536.0,W 15TH AVE,Anchorage,AK,99501,
14567.0,JESSES TRL,NINILCHIK,AK,99639,
836.0,M ST,Anchorage,AK,99501,
20305.0,RIVERSIDE DR,Anchorage,AK,99577,
66355.0,ALDER AVE,NINILCHIK,AK,99639,
740.0,N BRAGAW ST,Anchorage,AK,99508,
14700.0,SURF ST,CLAM GULCH,AK,99568,
1066.0,W 23RD AVE,Anchorage,AK,99503,
19225.0,POTTER HIGHLANDS DR,Anchorage,AK,99516,
1336.0,W 23RD AVE,Anchorage,AK,99503,
600.0,E 48TH AVE,Anchorage,AK,99503,
652.0,PARK AVE,KETCHIKAN,AK,99901,
733.0,E 73RD AVE,Anchorage,AK,99518,
12000.0,EDGEWATER CIR,Anchorage,AK,99515,
59.0,J FLOAT SMALL BOAT HBR,SEWARD,AK,99664,
3227.0,CAMPBELL AIRSTRIP RD,Anchorage,AK,99504,
4050.0,LAKESHORE DR,Anchorage,AK,99502,
13840.0,KNOB HILL DR,Anchorage,AK,99577,
13251.0,GINPOLE CIR,Anchorage,AK,99516,
30255.0,STUBBLEFIELD DR,KALIFORNSKY,AK,99669,
12401.0,LANDMARK ST,Anchorage,AK,99515,
41066.0,SEWARD HWY,MOOSE PASS,AK,99631,
33450.0,VINEWOOD LN,BEAR CREEK,AK,99664,
602.0,N BLISS ST,Anchorage,AK,99508,
3945.0,MARIAH DR,Anchorage,AK,99577,
2420.0,SENTRY DR,Anchorage,AK,99507,
8201.0,E 6TH AVE,Anchorage,AK,99504,
2509.0,RIVES CT,Anchorage,AK,99507,
47863.0,CABIN LAKE DR,NIKISKI,AK,99611,
6470.0,DEBARR RD,Anchorage,AK,99504,
3905.0,MERRILL DR,Anchorage,AK,99517,
4670.0,REKA DR,Anchorage,AK,99508,
9310.0,GAMBELL ST,Anchorage,AK,99515,
3443.0,W 79TH AVE,Anchorage,AK,99502,
3202.0,PETERKIN AVE,Anchorage,AK,99508,
72205.0,SHANNON RD,ANCHOR POINT,AK,99556,
46595.0,MILLER LOOP RD,NIKISKI,AK,99611,
3105.0,LAKESHORE DR,Anchorage,AK,99517,
51599.0,LINDSEY LN,COHOE,AK,99610,
801.0,E 82ND AVE,Anchorage,AK,99518,
1713.0,NORTHWESTERN AVE,Anchorage,AK,99508,
1101.0,FRIENDLY LN,Anchorage,AK,99504,
832.0,W 75TH AVE,Anchorage,AK,99518,
1102.0,INLET WOODS DR,KENAI,AK,99611,
1137.0,E 68TH AVE,Anchorage,AK,99518,
47071.0,KUCHTA ST,NIKISKI,AK,99611,
35670.0,SOUTHERN BLUFF ST,STERLING,AK,99669,
19337.0,SPRUCE CREST DR,Anchorage,AK,99567,
41255.0,SUTHERLIN RD,STERLING,AK,99669,
3808.0,W 61ST AVE,Anchorage,AK,99502,
4100.0,DEBARR RD,Anchorage,AK,99508,
260.0,CREEKSIDE ST,Anchorage,AK,99504,
2221.0,MULDOON RD,Anchorage,AK,99504,
4051.0,ROMANZOF CIR,Anchorage,AK,99517,
7050.0,FERGY CIR,Anchorage,AK,99507,
33560.0,JOHNSONS DR,FUNNY RIVER,AK,99669,
37843.0,SPARROWSON AVE,STERLING,AK,99672,
11131.0,FIREBALL ST,Anchorage,AK,99577,
1720.0,ADAMS CIR,Anchorage,AK,99515,
17420.0,BETTIJEAN ST,Anchorage,AK,99516,
2401.0,E 42ND AVE,Anchorage,AK,99508,
363.0,LUPINE ST,SOLDOTNA,AK,99669,
43495.0,COTMAN CT,RIDGEWAY,AK,99669,
1236.0,CONTRARY CT,Anchorage,AK,99515,
14917.0,ECHO CANYON RD,Anchorage,AK,99516,
1931.0,BARTLETT DR,Anchorage,AK,99507,
3431.0,DICKSON RD,Anchorage,AK,99504,
47150.0,EMERY ST,NIKISKI,AK,99611,
660.0,W 34TH AVE,Anchorage,AK,99503,
34898.0,CARIBOU HEIGHTS CIR,COOPER LANDING,AK,99572,
804.0,W 16TH AVE,Anchorage,AK,99501,
49454.0,BEAM AVE,KALIFORNSKY,AK,99669,
3100.0,BRIDLE LN,Anchorage,AK,99517,
3645.0,BURL CT,Anchorage,AK,99504,
4775.0,UNIVERSITY DR,Anchorage,AK,99508,
6630.0,STELLA PL,Anchorage,AK,99507,
10733.0,KATLIAN DR,Anchorage,AK,99577,
200.0,LOWELL POINT RD,SEWARD,AK,99664,
17571.0,BEAN CREEK RD,COOPER LANDING,AK,99572,
33881.0,STERLING HWY,STERLING,AK,99672,
1200.0,W DIMOND BLVD,Anchorage,AK,99515,
33835.0,GAS WELL RD,KALIFORNSKY,AK,99669,
4645.0,CAMPUS CIR,Anchorage,AK,99507,
836.0,M ST,Anchorage,AK,99501,
1336.0,W 23RD AVE,Anchorage,AK,99503,
48710.0,STERLING HWY,KALIFORNSKY,AK,99669,
37895.0,HARBIN AVE,STERLING,AK,99672,
6932.0,FAIRWEATHER DR,Anchorage,AK,99518,
3531.0,TANGLEWOOD PL,Anchorage,AK,99517,
18212.0,NORTH FIRE LAKE AVE,Anchorage,AK,99577,
3440.0,W 86TH AVE,Anchorage,AK,99502,
33846.0,JOHNSONS DR,FUNNY RIVER,AK,99669,
54502.0,KISHKA ST,NIKISKI,AK,99611,
3013.0,BREE AVE,KENAI,AK,99611,
5151.0,FAIRBANKS ST,Anchorage,AK,99503,
18910.0,EAGLEWOOD LOOP,Anchorage,AK,99577,
10213.0,JAMESTOWN DR,Anchorage,AK,99507,
38775.0,COREY ST,STERLING,AK,99672,
11128.0,JUNE AGNES CIR,Anchorage,AK,99577,
1407.0,WOLVERINE ST,Anchorage,AK,99504,
8138.0,PECK AVE,Anchorage,AK,99504,
6029.0,DEBARR RD,Anchorage,AK,99504,
1098.0,ALPINE WAY,HOMER,AK,99603,
3843.0,LAKESIDE CIR,HOMER,AK,99603,
7933.0,LADASA PL,Anchorage,AK,99507,
2701.0,LEGACY DR,Anchorage,AK,99516,
51230.0,DRAGONFLY ST,NIKISKI,AK,99611,
3310.0,BERING ST,Anchorage,AK,99503,
20850.0,MOUNTAINSIDE DR,Anchorage,AK,99577,
3254.0,LATOUCHE ST,Anchorage,AK,99508,
526.0,W 19TH AVE,Anchorage,AK,99503,
4554.0,HOMER DR,Anchorage,AK,99503,
4200.0,LAKE OTIS PKWY,Anchorage,AK,99508,
5701.0,SAMOA ST,Anchorage,AK,99507,
7500.0,PECK AVE,Anchorage,AK,99504,
2197.0,W DIMOND BLVD,Anchorage,AK,99515,
701.0,TAYLOR ST,Anchorage,AK,99508,
37720.0,SPRING CT,STERLING,AK,99672,
1500.0,RUSSIAN JACK DR,Anchorage,AK,99508,
1020.0,TURPIN ST,Anchorage,AK,99504,
3656.0,BISQUIER DR,Anchorage,AK,99508,
22012.0,BLAIR AVE,Anchorage,AK,99567,
9163.0,CRANBERRY ST,Anchorage,AK,99502,
37937.0,JOYFUL RD,STERLING,AK,99672,
4018.0,SCENIC VIEW DR,Anchorage,AK,99504,
35295.0,ROCKWOOD DR,KALIFORNSKY,AK,99669,
4003.0,MINNESOTA DR,Anchorage,AK,99503,
3147.0,PETERKIN AVE,Anchorage,AK,99508,
2610.0,TELEQUANA DR,Anchorage,AK,99517,
,CREEK ST,KETCHIKAN,AK,99901,
600.0,W 76TH AVE,Anchorage,AK,99518,
836.0,E LOOP RD,Anchorage,AK,99501,
3911.0,DANDELION WINE CIR,Anchorage,AK,99507,
925.0,JAYME CT,Anchorage,AK,99518,
35563.0,KENAI SPUR HWY,SOLDOTNA,AK,99669,
3481.0,RED ROCK CT,Anchorage,AK,99502,
306.0,FIRST AVE,SEWARD,AK,99664,
5948.0,FRANKLIN DR,Anchorage,AK,99518,
56062.0,HUTLER RD,FRITZ CREEK,AK,99603,
19905.0,BIRCHWOOD SPUR RD,Anchorage,AK,99567,
6901.0,DEBARR RD,Anchorage,AK,99504,
43528.0,SEWARD HWY,Anchorage,AK,99587,
2741.0,W 62ND AVE,Anchorage,AK,99502,
73450.0,SEABURY RD,ANCHOR POINT,AK,99556,
41945.0,STERLING HWY,DIAMOND RIDGE,AK,99603,
3938.0,COPE ST,Anchorage,AK,99503,
360.0,SHORELINE DR,SELDOVIA,AK,99663,
1525.0,WINDWARD DR,KENAI,AK,99611,
10501.0,LONE TREE DR,Anchorage,AK,99507,
19165.0,S BIRCHWOOD LOOP RD,Anchorage,AK,99567,
3815.0,BARBARA DR,Anchorage,AK,99517,
3804.0,RESURRECTION DR,Anchorage,AK,99504,
8500.0,E 20TH AVE,Anchorage,AK,99504,
6911.0,WESTFORD LN,Anchorage,AK,99516,
1014.0,NORMAN ST,Anchorage,AK,99504,
1065.0,CHERRY ST,Anchorage,AK,99504,
6610.0,ZURICH ST,Anchorage,AK,99507,
295.0,CRESTWOOD CIR,HOMER,AK,99603,
1035.0,RACE RD,HOMER,AK,99603,
575.0,WESTWOOD AVE,HOMER,AK,99603,
4323.0,DEFIANCE ST,Anchorage,AK,99504,
1385.0,BENNINGTON DR,Anchorage,AK,99508,
7341.0,E 4TH AVE,Anchorage,AK,99504,
20334.0,STEFFES ST,Anchorage,AK,99567,
46240.0,BALTO DR,NIKISKI,AK,99611,
5400.0,W DIMOND BLVD,Anchorage,AK,99502,
5826.0,E NORTHERN LIGHTS BLVD,Anchorage,AK,99504,
57091.0,CLAM SHOVEL AVE,CLAM GULCH,AK,99568,
14630.0,PARK HILLS DR,Anchorage,AK,99516,
8000.0,LITTLE DIPPER AVE,Anchorage,AK,99504,
19850.0,VILLAGES SCENIC PKWY,Anchorage,AK,99516,
52799.0,SECORA AVE,COHOE,AK,99610,
2211.0,E 66TH AVE,Anchorage,AK,99507,
34480.0,BROWNS LAKE RD,FUNNY RIVER,AK,99669,
10946.0,IDITAROD CIR,Anchorage,AK,99577,
606.0,W 34TH AVE,Anchorage,AK,99503,
3515.0,MOUNTAIN VIEW DR,Anchorage,AK,99508,
525.0,W 3RD AVE,Anchorage,AK,99501,
3604.0,WILLIAMS ST,Anchorage,AK,99508,
13145.0,STERLING HWY,NINILCHIK,AK,99639,
8902.0,FOREST VILLAGE DR,Anchorage,AK,99502,
1410.0,ERMINE ST,Anchorage,AK,99504,
35143.0,MOFFIT PL,ANCHOR POINT,AK,99556,
501.0,E BLUFF DR,Anchorage,AK,99501,
1761.0,WESTVIEW CIR,Anchorage,AK,99504,
8440.0,RAINTREE CIR,Anchorage,AK,99507,
2331.0,GREENRIDGE CIR,Anchorage,AK,99507,
,WILLOW CIR,KETCHIKAN,AK,99901,
9566.0,CANTON LOOP,Anchorage,AK,99515,
7202.0,FOXRIDGE CIR,Anchorage,AK,99518,
4112.0,O'MALLEY RD,Anchorage,AK,99507,
4001.0,DALE ST,Anchorage,AK,99508,
4829.0,KENT ST,Anchorage,AK,99503,
1841.0,DARE AVE,Anchorage,AK,99515,
3405.0,BRIARCLIFF DR,Anchorage,AK,99508,
8337.0,SUNDI DR,Anchorage,AK,99502,
24958.0,AMBER DR,KASILOF,AK,99610,
3439.0,MC KENZIE DR,Anchorage,AK,99517,
20457.0,ICEFALL DR,Anchorage,AK,99577,
39305.0,MOOSE RANGE DR,STERLING,AK,99672,
18011.0,TONGASS HWY,KETCHIKAN,AK,99901,
37455.0,STERLING HWY,ANCHOR POINT,AK,99556,
2140.0,E 63RD AVE,Anchorage,AK,99507,
4025.0,W 50TH AVE,Anchorage,AK,99502,
308.0,G ST,Anchorage,AK,99501,
2383.0,MARITIME LOOP,Anchorage,AK,99515,
34160.0,HMS RESOLUTION RD,ANCHOR POINT,AK,99556,
909.0,NASH RD,SEWARD,AK,99664,
2476.0,HAVENSHIRE PL,Anchorage,AK,99504,
2102.0,CLEVELAND AVE,Anchorage,AK,99517,
63740.0,GRAHAM RD,PORT GRAHAM,AK,99603,
330.0,W 32ND AVE,Anchorage,AK,99503,
4926.0,VIRGO AVE,Anchorage,AK,99516,
2434.0,FOURTH AVE,KETCHIKAN,AK,99901,
6900.0,ROUND TREE DR,Anchorage,AK,99507,
230.0,W 14TH AVE,Anchorage,AK,99501,
3630.0,CHINIAK BAY DR,Anchorage,AK,99515,
33823.0,TRESSLER AVE,BEAR CREEK,AK,99664,
,EAGLE AVE,KETCHIKAN,AK,99901,
18849.0,BEAVER LN,HOPE,AK,99605,
,FRONT ST,KETCHIKAN,AK,99901,
1200.0,W DIMOND BLVD,Anchorage,AK,99515,
41980.0,TISCHER AVE,STERLING,AK,99669,
4000.0,COSMOS DR,Anchorage,AK,99517,
5243.0,KACHEMAK DR,HOMER,AK,99603,
65386.0,NIKOLAEVSK RD,NIKOLAEVSK,AK,99556,
416.0,N LANE ST,Anchorage,AK,99508,
1281.0,E 19TH AVE,Anchorage,AK,99501,
33954.0,RIPPA CT,STERLING,AK,99672,
3942.0,E 8TH AVE,Anchorage,AK,99508,
2030.0,PAXSON DR,Anchorage,AK,99504,
6871.0,BURLWOOD DR,Anchorage,AK,99507,
4306.0,COPE ST,Anchorage,AK,99503,
4711.0,POTTER CREST CIR,Anchorage,AK,99516,
8601.0,KATHLEEN DR,Anchorage,AK,99502,
601.0,E 16TH AVE,Anchorage,AK,99501,
6969.0,STELLA PL,Anchorage,AK,99507,
34569.0,JABILA DR,STERLING,AK,99669,
13200.0,SEAN CIR,Anchorage,AK,99516,
7021.0,ARLENE ST,Anchorage,AK,99502,
1281.0,E 19TH AVE,Anchorage,AK,99501,
147.0,SKYLINE DR,HOMER,AK,99603,
13341.0,REEF PL,Anchorage,AK,99515,
4801.0,SHELIKOF ST,Anchorage,AK,99507,
6761.0,ROUND TREE DR,Anchorage,AK,99507,
2003.0,PARKVIEW CIR,Anchorage,AK,99501,
38136.0,HALL RD,STERLING,AK,99672,
3721.0,CORE CT,Anchorage,AK,99502,
14339.0,CARIBOU HILLS REM SW,NINILCHIK,AK,99639,
7122.0,AMBLER LN,Anchorage,AK,99504,
48222.0,NEW ORLEANS AVE,NIKISKI,AK,99611,
31992.0,HANNAH RENE RD,ANCHOR POINT,AK,99556,
8006.0,COUNTRY WOODS DR,Anchorage,AK,99502,
4140.0,FOLKER ST,Anchorage,AK,99508,
6437.0,PEQUOD CIR,Anchorage,AK,99507,
52191.0,PUSHKI CT,FRITZ CREEK,AK,99603,
13280.0,STERLING HWY,NINILCHIK,AK,99639,
306.0,SOHI LN,SOLDOTNA,AK,99669,
3633.0,E 68TH AVE,Anchorage,AK,99507,
23266.0,RICKY WAY,Anchorage,AK,99567,
4160.0,DEFIANCE ST,Anchorage,AK,99504,
54405.0,SMITH DONNELLY RD,COHOE,AK,99610,
3811.0,CARAVELLE DR,Anchorage,AK,99502,
,HILLSIDE RD,KETCHIKAN,AK,99901,
5610.0,LAKE OTIS PKWY,Anchorage,AK,99507,
2030.0,E 74TH AVE,Anchorage,AK,99507,
618.0,GAMBELL ST,Anchorage,AK,99501,
4310.0,WORONZOF DR,Anchorage,AK,99517,
3675.0,TAJEN LN,HOMER,AK,99603,
4510.0,TOWNE HEIGHTS LN,HOMER,AK,99603,
13050.0,RIDGEVIEW DR,Anchorage,AK,99516,
2160.0,E 56TH AVE,Anchorage,AK,99507,
1105.0,HOLLYWOOD DR,Anchorage,AK,99501,
8856.0,BROOKRIDGE DR,Anchorage,AK,99504,
12021.0,TOY DR,Anchorage,AK,99515,
3230.0,PETERKIN AVE,Anchorage,AK,99508,
1441.0,E 11TH AVE,Anchorage,AK,99501,
623.0,RIDGEWAY CT,HOMER,AK,99603,
2606.0,W 30TH AVE,Anchorage,AK,99517,
958.0,W 58TH AVE,Anchorage,AK,99518,
640.0,E 76TH AVE,Anchorage,AK,99518,
24720.0,HAMANN RD,Anchorage,AK,99577,
13200.0,BADGER LN,Anchorage,AK,99516,
1408.0,TWINING DR,Anchorage,AK,99504,
39070.0,JENNIFER DR,STERLING,AK,99669,
51805.0,HARLIE AVE,KASILOF,AK,99610,
9700.0,SLALOM DR,Anchorage,AK,99507,
212.0,W MARYDALE AVE,SOLDOTNA,AK,99669,
26226.0,VALLIHI CIR,Anchorage,AK,99577,
35602.0,KING SALMON AVE,FUNNY RIVER,AK,99669,
528.0,STATE ST,Anchorage,AK,99504,
1751.0,RIERIE DR,Anchorage,AK,99507,
3950.0,LAKESHORE DR,Anchorage,AK,99502,
422.0,OCEAN POINT DR,Anchorage,AK,99515,
880.0,N ST,Anchorage,AK,99501,
1185.0,OCEANVIEW DR,Anchorage,AK,99515,
2100.0,PATRIOT CIR,Anchorage,AK,99515,
3024.0,BALCHEN DR,Anchorage,AK,99517,
5720.0,LAKE OTIS PKWY,Anchorage,AK,99507,
41012.0,KALIFORNSKY BEACH RD,KALIFORNSKY,AK,99611,
4201.0,TUDOR CENTRE DR,Anchorage,AK,99508,
1206.0,FOURTH AVE,SEWARD,AK,99664,
110.0,E 11TH AVE,Anchorage,AK,99501,
11567.0,DISCOVERY PARK DR,Anchorage,AK,99515,
401.0,DAILEY AVE,Anchorage,AK,99515,
5953.0,GLENKERRY DR,Anchorage,AK,99504,
9017.0,LITTLE BROOK ST,Anchorage,AK,99507,
12801.0,HILLSIDE DR,Anchorage,AK,99516,
2745.0,PORCUPINE TRAIL RD,Anchorage,AK,99516,
18139.0,KANTISHNA DR,Anchorage,AK,99577,
1775.0,MISSION RD,HOMER,AK,99603,
1718.0,BELLEVUE LOOP,Anchorage,AK,99515,
305.0,DONNA DR,Anchorage,AK,99504,
3165.0,CAMPBELL AIRSTRIP RD,Anchorage,AK,99504,
7902.0,CREEKSIDE CENTER DR,Anchorage,AK,99504,
748.0,OCEANVIEW DR,Anchorage,AK,99515,
1545.0,HOYT ST,Anchorage,AK,99508,
11616.0,KENAI SPUR HWY,KENAI,AK,99611,
521.0,LANE ST,Anchorage,AK,99508,
2055.0,E 79TH AVE,Anchorage,AK,99507,
705.0,MULDOON RD,Anchorage,AK,99504,
12850.0,GOLDEN EAGLE DR,Anchorage,AK,99577,
2217.0,E TUDOR RD,Anchorage,AK,99507,
3590.0,NEBULA CIR,Anchorage,AK,99517,
1137.0,HUFFMAN RD,Anchorage,AK,99515,
140.0,ACES CIR,Anchorage,AK,99504,
2105.0,JEFFERSON AVE,Anchorage,AK,99517,
3501.0,SPINNAKER DR,Anchorage,AK,99516,
12846.0,LINDSEY CIR,Anchorage,AK,99516,
14198.0,TROLLERS RD,KETCHIKAN,AK,99901,
37635.0,MIDWAY DR,STERLING,AK,99672,
7330.0,CANTONMENT CT,Anchorage,AK,99507,
4145.0,RASPBERRY RD,Anchorage,AK,99502,
2426.0,WINTER RIDGE CT,Anchorage,AK,99507,
3240.0,PENLAND PKWY,Anchorage,AK,99508,
421.0,E HARVARD AVE,Anchorage,AK,99501,
682.0,W 34TH AVE,Anchorage,AK,99503,
2118.0,E 56TH AVE,Anchorage,AK,99507,
2901.0,SECLUSION BAY DR,Anchorage,AK,99515,
811.0,BIRCH ST,Anchorage,AK,99501,
5700.0,OLD SEWARD HWY,Anchorage,AK,99518,
1711.0,ELCADORE DR,Anchorage,AK,99507,
616.0,N BRAGAW ST,Anchorage,AK,99508,
733.0,PRICE ST,Anchorage,AK,99508,
7850.0,LINDA LN,Anchorage,AK,99518,
31087.0,SEWARD HWY,CROWN POINT,AK,99631,
6167.0,TONGASS HWY,KETCHIKAN,AK,99901,
37325.0,MOUNTAIN RIDGE RD,STERLING,AK,99672,
1900.0,W 32ND AVE,Anchorage,AK,99517,
7025.0,GOLD KINGS AVE,Anchorage,AK,99504,
3808.0,BEN WALTERS LN,HOMER,AK,99603,
3605.0,GARDNER ST,Anchorage,AK,99508,
249.0,N ASPEN DR,SOLDOTNA,AK,99669,
9127.0,CRANBERRY ST,Anchorage,AK,99502,
4440.0,DELONG DR,Anchorage,AK,99502,
22015.0,ARMAS DR,Anchorage,AK,99567,
37821.0,DIANE ST,STERLING,AK,99672,
5901.0,E 6TH AVE,Anchorage,AK,99504,
14710.0,E LAKE RIDGE DR,Anchorage,AK,99577,
13403.0,VASILI DR,Anchorage,AK,99577,
1305.0,FIFTH AVE,KENAI,AK,99611,
17527.0,SILVERWOOD WAY,Anchorage,AK,99577,
28214.0,COHOE LOOP RD,COHOE,AK,99610,
568.0,WADDELL ST,HOMER,AK,99603,
36731.0,RIVER VIEW TERRACE DR,FUNNY RIVER,AK,99669,
324.0,FOREST PARK DR,KETCHIKAN,AK,99901,
1402.0,VALARIAN ST,Anchorage,AK,99508,
11860.0,PORTAGE CIR,Anchorage,AK,99515,
532.0,E 24TH AVE,Anchorage,AK,99503,
9501.0,MORNINGSIDE LOOP,Anchorage,AK,99515,
63584.0,RESURRECTION CREEK RD,HOPE,AK,99605,
2001.0,SHORE DR,Anchorage,AK,99515,
27065.0,JOHANSEN DR,COHOE,AK,99610,
6415.0,TOLHURST CT,Anchorage,AK,99504,
7100.0,LAKE OTIS PKWY,Anchorage,AK,99507,
4205.0,SAN ERNESTO AVE,Anchorage,AK,99508,
8300.0,KING ST,Anchorage,AK,99518,
3240.0,PENLAND PKWY,Anchorage,AK,99508,
521.0,BRAGAW ST,Anchorage,AK,99508,
13324.0,ALPWEG,Anchorage,AK,99516,
5300.0,CAPE SEVILLE DR,Anchorage,AK,99516,
69094.0,WILD COTTON RD,ANCHOR POINT,AK,99556,
43.0,MOUNTAIN ASH HTS,KETCHIKAN,AK,99901,
354.0,PORCUPINE CT,SOLDOTNA,AK,99669,
16781.0,TONGASS HWY,KETCHIKAN,AK,99901,
14050.0,SHADY LN,LOWELL POINT,AK,99664,
3561.0,KACHEMAK CIR,Anchorage,AK,99515,
740.0,GRANT ST,KETCHIKAN,AK,99901,
9141.0,PECK AVE,Anchorage,AK,99504,
54932.0,CHINA POOT BAY REM SW,HALIBUT COVE,AK,99603,
19162.0,MOUNTAIN RD,Anchorage,AK,99567,
2904.0,W 29TH AVE,Anchorage,AK,99517,
181.0,AGOSTINO MINE RD,Anchorage,AK,99587,
1001.0,REDOUBT AVE,KENAI,AK,99611,
4141.0,JOHNNY DR,Anchorage,AK,99577,
33602.0,COMMUNITY COLLEGE DR,KALIFORNSKY,AK,99669,
618.0,N PINE ST,Anchorage,AK,99508,
45820.0,FOX CIR,SALAMATOF,AK,99611,
2131.0,SORBUS WAY,Anchorage,AK,99508,
1627.0,W 32ND AVE,Anchorage,AK,99517,
46885.0,MOOSEBERRY AVE,KALIFORNSKY,AK,99611,
3760.0,CHAFFEE CIR,Anchorage,AK,99517,
2031.0,FARMER PL,Anchorage,AK,99508,
2100.0,BANBURY CIR,Anchorage,AK,99504,
4110.0,DEBARR RD,Anchorage,AK,99508,
2455.0,BAY RIDGE RD,HOMER,AK,99603,
5601.0,RICKY RD,Anchorage,AK,99516,
460.0,ROY WAY,KENAI,AK,99611,
3820.0,ROBIN ST,Anchorage,AK,99504,
3240.0,PENLAND PKWY,Anchorage,AK,99508,
340.0,BRAGAW ST,Anchorage,AK,99508,
921.0,E 20TH AVE,Anchorage,AK,99501,
4109.0,LYNN DR,Anchorage,AK,99508,
,KILLER WHALE AVE,KETCHIKAN,AK,99901,
4510.0,SPENARD RD,Anchorage,AK,99517,
8841.0,JULIANA ST,Anchorage,AK,99502,
4621.0,JUMAR AVE,Anchorage,AK,99516,
35110.0,RABBIT RUN RD,FUNNY RIVER,AK,99669,
2615.0,MARITIME LOOP,Anchorage,AK,99515,
7200.0,TREE TOP CIR,Anchorage,AK,99507,
1627.0,W 32ND AVE,Anchorage,AK,99517,
6730.0,FREEBIRD CIR,Anchorage,AK,99507,
1691.0,ELCADORE DR,Anchorage,AK,99507,
1708.0,RUSSIAN JACK DR,Anchorage,AK,99508,
8390.0,STRATTON CIR,Anchorage,AK,99507,
44982.0,CARIBOU LAKE REM SW,FOX RIVER,AK,99603,
63564.0,ELIZABETH AVE,NINILCHIK,AK,99639,
53352.0,CLARKSON AVE,NINILCHIK,AK,99639,
38105.0,DORIS CT,STERLING,AK,99672,
119.0,W BUNNELL AVE,HOMER,AK,99603,
618.0,N ST,Anchorage,AK,99501,
19101.0,TIMBERLINE DR,Anchorage,AK,99577,
14658.0,SURF ST,CLAM GULCH,AK,99568,
47024.0,CLARENCE DR,KALIFORNSKY,AK,99669,
31.0,JENCK RD,KETCHIKAN,AK,99901,
47814.0,BARANOFF DR,NIKISKI,AK,99611,
350.0,W 19TH AVE,Anchorage,AK,99503,
411.0,SITKA ST,Anchorage,AK,99501,
905.0,RICHARDSON VISTA RD,Anchorage,AK,99501,
6941.0,ROVENNA ST,Anchorage,AK,99518,
24865.0,TEAL LOOP,Anchorage,AK,99567,
53475.0,MEEZIE RD,COHOE,AK,99610,
2701.0,MERGANSER AVE,Anchorage,AK,99516,
3711.0,CORE CT,Anchorage,AK,99502,
3150.0,TONGASS HWY,KETCHIKAN,AK,99901,
1120.0,HUFFMAN RD,Anchorage,AK,99515,
725.0,E 79TH AVE,Anchorage,AK,99518,
6466.0,COACHMAN CIR,Anchorage,AK,99507,
1623.0,JUNEAU DR,Anchorage,AK,99501,
824.0,LANE ST,Anchorage,AK,99508,
815.0,BROWN DEER RD,KETCHIKAN,AK,99901,
800.0,E DIMOND BLVD,Anchorage,AK,99515,
2400.0,W 79TH AVE,Anchorage,AK,99502,
43459.0,KENAI SPUR HWY,SALAMATOF,AK,99611,
6943.0,TERRY ST,Anchorage,AK,99502,
17818.0,ARCTURUS LOOP,HAPPY VALLEY,AK,99639,
4400.0,FORREST RD,Anchorage,AK,99517,
8116.0,E 6TH AVE,Anchorage,AK,99504,
51850.0,REDISKE AVE,NIKISKI,AK,99611,
15419.0,OLD GLENN HWY,Anchorage,AK,99577,
24301.0,REBECCA HILL CIR,Anchorage,AK,99567,
320.0,W 5TH AVE,Anchorage,AK,99501,
440.0,W 90TH AVE,Anchorage,AK,99515,
20236.0,CHUGACH PARK DR,Anchorage,AK,99567,
1210.0,PORTSIDE DR,KENAI,AK,99611,
9518.0,W PARKVIEW TERRACE LOOP,Anchorage,AK,99577,
35753.0,DAWN DR,RIDGEWAY,AK,99669,
6772.0,DELONG LANDING CIR,Anchorage,AK,99502,
15149.0,W LAKE RIDGE DR,Anchorage,AK,99577,
411.0,W 91ST AVE,Anchorage,AK,99515,
911.0,W 75TH AVE,Anchorage,AK,99518,
6314.0,RED TREE CIR,Anchorage,AK,99507,
33584.0,JOHNSONS DR,FUNNY RIVER,AK,99669,
909.0,CHUGACH WAY,Anchorage,AK,99503,
635.0,W 45TH AVE,Anchorage,AK,99503,
1200.0,W DIMOND BLVD,Anchorage,AK,99515,
5881.0,ARCTIC BLVD,Anchorage,AK,99518,
1600.0,O'MALLEY RD,Anchorage,AK,99507,
37117.0,BORDON ST,STERLING,AK,99669,
36901.0,KICAM CIR,FUNNY RIVER,AK,99669,
13411.0,OLD SEWARD HWY,Anchorage,AK,99515,
7321.0,BIGLERVILLE CIR,Anchorage,AK,99507,
36430.0,OWEN ST,FUNNY RIVER,AK,99669,
39445.0,RIVER RIDGE RD,STERLING,AK,99672,
38289.0,OLD STERLING HWY,ANCHOR POINT,AK,99556,
3220.0,BRIARCLIFF DR,Anchorage,AK,99508,
,TONGASS HWY,KETCHIKAN,AK,99901,
,PENNOCK ISLAND; WEST CHANNEL,KETCHIKAN,AK,99901,
2437.0,LOUSSAC DR,Anchorage,AK,99517,
6364.0,REBEL RD,KETCHIKAN,AK,99901,
443.0,W 4TH AVE,Anchorage,AK,99501,
5452.0,LANCELOT CIR,Anchorage,AK,99508,
3161.0,ROSALIND LOOP,Anchorage,AK,99507,
3309.0,LAKESIDE DR,Anchorage,AK,99515,
4140.0,FOLKER ST,Anchorage,AK,99508,
13940.0,FIRE CREEK TRAIL DR,Anchorage,AK,99577,
51861.0,PEMBROKE DR,NIKISKI,AK,99611,
3253.0,ROSE ST,Anchorage,AK,99508,
2329.0,SAINT ELIAS DR,Anchorage,AK,99517,
38217.0,HALL RD,STERLING,AK,99672,
3344.0,BERING ST,Anchorage,AK,99503,
3601.0,C ST,Anchorage,AK,99503,
4200.0,ELMORE RD,Anchorage,AK,99508,
1001.0,BONIFACE PKWY,Anchorage,AK,99504,
,ADAMS ST,KETCHIKAN,AK,99901,
1930.0,BLUEGRASS CIR,Anchorage,AK,99502,
33620.0,BEAR LAKE RD,BEAR CREEK,AK,99664,
69680.0,TALL TREE AVE,HAPPY VALLEY,AK,99556,
23836.0,IRTON SLONE ST,KASILOF,AK,99610,
599.0,SALMONBERRY CIR,KETCHIKAN,AK,99901,
22330.0,KNIK VISTA ST,Anchorage,AK,99567,
4100.0,DEBARR RD,Anchorage,AK,99508,
14711.0,W LAKE RIDGE DR,Anchorage,AK,99577,
38645.0,FRITZ CREEK VALLEY DR,FRITZ CREEK,AK,99603,
177.0,BAY ST,SELDOVIA,AK,99663,
4003.0,MINNESOTA DR,Anchorage,AK,99503,
213.0,BIRCH ST,KENAI,AK,99611,
3303.0,WYOMING DR,Anchorage,AK,99517,
4303.0,GREENLAND DR,Anchorage,AK,99517,
2781.0,RUBY DR,Anchorage,AK,99502,
4028.0,REKA DR,Anchorage,AK,99508,
22537.0,MERIDIAN ST,COHOE,AK,99610,
33840.0,TIEHACKER RD,BEAR CREEK,AK,99664,
7056.0,FAIRWEATHER PARK LOOP,Anchorage,AK,99518,
4250.0,REKA DR,Anchorage,AK,99508,
6600.0,BABY BEAR DR,Anchorage,AK,99507,
7260.0,HUNTSMEN CIR,Anchorage,AK,99518,
301.0,ELLEN CIR,Anchorage,AK,99515,
1310.0,KAKNU WAY,KENAI,AK,99611,
53100.0,BORGEN AVE,SALAMATOF,AK,99611,
21514.0,PEG ST,Anchorage,AK,99567,
3644.0,CHALLENGER CIR,Anchorage,AK,99517,
35880.0,DAWN DR,RIDGEWAY,AK,99669,
2430.0,W 70TH CIR,Anchorage,AK,99502,
6500.0,O'MALLEY RD,Anchorage,AK,99507,
2976.0,TONGASS HWY,KETCHIKAN,AK,99901,
48790.0,AUBURN CT,KALIFORNSKY,AK,99669,
2638.0,KENMORE CIR,Anchorage,AK,99504,
39355.0,GREENFIELD DR,STERLING,AK,99672,
8160.0,WOODGREEN CIR,Anchorage,AK,99518,
4555.0,EMERALD RD,HOMER,AK,99603,
7850.0,SNOW VIEW DR,Anchorage,AK,99507,
9103.0,SAHALEE DR,Anchorage,AK,99507,
160.0,OKLAHOMA ST,Anchorage,AK,99504,
3319.0,DALE ST,KETCHIKAN,AK,99901,
14020.0,VENUS WAY,Anchorage,AK,99515,
904.0,CHUGACH WAY,Anchorage,AK,99503,
13924.0,ARBORETUM ST,Anchorage,AK,99516,
