NUMBER,STREET,CITY,STATE,POSTCODE,UNIT
8604.0,HWY 119,ALABASTER,AL,35007,
14840.0,RIVERVIEW DR,Tuscaloosa,AL,35444,
1317.0,DEANS DR SE,Huntsville,AL,35802,
6097.0,MORELAND AVE,Tuscaloosa,AL,35406,
1112.0,Crest Ave,Jefferson,AL,35209,
5104.0,WALTER AVE NW,Huntsville,AL,35810,
3641.0,CHASEWOOD DR SW,Huntsville,AL,35805,
925.0,WILBERFORCE AV,Autauga,AL,36067,
2744.0,Pike Road,Jefferson,AL,35208,
3299.0,JARRETT RD,Mobile,AL,36613,
8324.0,CHADBURN CROSSING,MONTGOMERY,AL,36116,
4591.0,HALEY St,Jefferson,AL,35235,
902.0,85TH St South,Jefferson,AL,35206,
6745.0,BARNES DR E,Mobile,AL,36582,
124.0,HERITAGE LN,Madison,AL,35758,
107.0,HILARYLEIGH DR,New Market,AL,35761,
4409.0,TREE CROSSING Parkway,Jefferson,AL,35244,
905.0,HILLSBORO LN,HELENA,AL,35080,
220.0,ROSECLIFF DR,Harvest,AL,35749,
1661.0,COUNTY RD 2267,BRUNDIDGE,AL,36010,
14684.0,SAWMILL RD,Tuscaloosa,AL,35452,
6712.0,NATHAN Circle,Jefferson,AL,35111,
413.0,PINECREST Loop,Jefferson,AL,35094,
120.0,BIG OAK DR,MAYLENE,AL,35114,
4011.0,HIGHLAND RIDGE RD,Shelby,AL,35242,
2324.0,LESTER Lane,Jefferson,AL,35226,
54.0,CREEKSIDE DR,WETUMPKA,AL, ,
401.0,W COLLINS ST,ECLECTIC,AL, ,
6621.0,APPLE CROSS DR S,Mobile,AL,36695,
5931.0,Old SPRINGVILLE Road,Jefferson,AL,35126,
18690.0,NORRIS LN,ELKMONT,AL,35620,
2613.0,WOODLAND HILLS DR,Tuscaloosa,AL,35405,
301.0,HOLCOMBE LN,COLUMBIANA,AL,35051,
19065.0,CO RD 36,SUMMERDALE,AL,36580,
801.0,39TH St South,Jefferson,AL,35222,
33.0,Ridge Drive,Jefferson,AL,35213,
11.0,RIVERHILLS DR,TALLASSEE,AL, ,
4845.0,COVE VALLEY DR SE,Owens Cross Roads,AL,35763,
4281.0,BRUMBELOE Drive,Jefferson,AL,35126,
5216.0,SHORT LEAF Lane,Jefferson,AL,35071,
1414.0,MARION CT,Shelby,AL,35242,
311.0,LA PLAYA Place,Jefferson,AL,35209,
1821.0,ARROW DR,ALABASTER,AL,35007,
1092.0,HILLCREST Drive,Jefferson,AL,35022,
5089.0,GOVERNMENT BLVD,Mobile,AL,36693,405.0
4831.0,LETSON St,Jefferson,AL,35020,
5397.0,CEDAR CREEK Way,Jefferson,AL,35022,
1149.0,HARDWICK Lane,Jefferson,AL,35209,
4600.0,BLUE CREEK Road,Jefferson,AL,35023,
5214.0,GAYLE Lane,Jefferson,AL,35023,
18.0,HIGHRIDGE CIR,Tuscaloosa,AL,35405,
1604.0,WELLINGTON Road,Jefferson,AL,35209,
458.0,DEXTER AVE,Mobile,AL,36604,
901.0,BAY AVE,Mobile,AL,36605,
235.0,LYNWOOD DR,MONTGOMERY,AL,36105,
2366.0,FOREST LAKES LN,Shelby,AL,35147,
616.0,MORGAN Road,Jefferson,AL,35173,
328.0,SHENANDOAH Drive,Jefferson,AL,35226,
17.0,PERTH DR SE,Huntsville,AL,35802,
2414.0,5TH ST,Tuscaloosa,AL,35476,
222.0,SHADY HILL DR,MONTEVALLO,AL,35115,
450.0,MAURY ST,MONTGOMERY,AL,36104,
4271.0,ASHINGTON DR,BIRMINGHAM,AL,35242,
11977.0,CHIGGER RIDGE RD,Tuscaloosa,AL,35444,
4034.0,29TH St North,Jefferson,AL,35207,
23.0,PERKINS ST,WETUMPKA,AL, ,
1814.0,ARLINGTON Ave,Jefferson,AL,35020,
411.0,WOODLAND RIDGE RD,St Clair,AL,35120,
3125.0,DAWES RD,Mobile,AL,36695,
700.0,5TH AVE,ATHENS,AL,35611,
1901.0,16TH Way North,Jefferson,AL,35020,
7806.0,BENTON ST SE,Huntsville,AL,35802,
8802.0,VALLEY VIEW DR SE,Huntsville,AL,35802,
2570.0,NORTH Road,Jefferson,AL,35071,
8058.0,BLUFF RIDGE Road,Jefferson,AL,35022,
1129.0,OATES RD,Autauga,AL,36066,
2109.0,10TH Way,Jefferson,AL,35214,
425.0,N   BURBANK DR,MONTGOMERY,AL,36117,
967.0,LANSDALE CT,Mobile,AL,36609,
3700.0,SCHILLINGER RD N,Mobile,AL,36575,
1453.0,SECRETARIAT DR,HELENA,AL,35080,
107.0,STILLWOOD DR,COLUMBIANA,AL,35051,
312.0,Forest Drive,Jefferson,AL,35173,
624.0,LIBERTY LAKE Drive,Jefferson,AL,35242,
0.0,HIGHLANDS TRACE,St Clair,AL,33734,
9931.0,SUMMER WOODS CIR N,Mobile,AL,36695,
6567.0,MILL CREEK CIR,BIRMINGHAM,AL,35242,
7810.0,MOFFETT RD,Mobile,AL,36575,
520.0,CAMERON CIR,St Clair,AL,35120,
1720.0,LEE Ave,Jefferson,AL,35211,
3349.0,47TH St Southwest,Jefferson,AL,35221,
1480.0,ATKIN HILL RD,WETUMPKA,AL, ,
2951.0,SHORE DR,St Clair,AL,35953,
5860.0,MAIN ST,MILLBROOK,AL, ,
27722.0,W LIMESTONE SCHOOL RD,LESTER,AL,35647,
1253.0,ALLBRITTON Road,Jefferson,AL,35180,
1274.0,CROSS CREEK RD,Autauga,AL,36067,
7016.0,WATCHMAN CIR,MONTGOMERY,AL,36116,
1509.0,HALSTON CIR NW,Huntsville,AL,35816,
217.0,GRASSLANDS RD,Huntsville,AL,35811,
501.0,LAROSE DR,Mobile,AL,36609,
432.0,EDWARD ST,MONTGOMERY,AL,36110,
514.0,MAPLE ST,TROY,AL,36081,
10640.0,MIMOSA DR E,Mobile,AL,36544,
23206.0,HILBUN WAY,BIRMINGHAM,AL,35242,
115.0,S   HOPPER ST,MONTGOMERY,AL,36107,
1813.0,STOKES ST,MONTGOMERY,AL,36107,
950.0,HAWTHORN LN,St Clair,AL,35244,
1715.0,20TH AVE,Tuscaloosa,AL,35476,
374.0,SUGAR LOAF HILL RD,DEATSVILLE,AL, ,
20954.0,HARRIS LOOP,ELKMONT,AL,35620,
2600.0,VAUGHN LAKES BLVD,MONTGOMERY,AL,36117,
3201.0,TUCKER DR NW,Huntsville,AL,35810,
1971.0,HARMON ST,MONTGOMERY,AL,36107,
27125.0,PORTOBELLO RD,Shelby,AL,35242,
8317.0,CROSSLAND LOOP,MONTGOMERY,AL,36117,
,COUNTY RD 122,Autauga,AL,36022,
408.0,5TH St,Jefferson,AL,35214,
3044.0,FLOYD BRADFORD Road,Jefferson,AL,35173,
3700.0,CARLYLE CLS,Mobile,AL,36609,701.0
25933.0,STEF LN,ATHENS,AL,35613,
227.0,BUSH DR,WILSONVILLE,AL,35186,
3002.0,HEATHER LN,BIRMINGHAM,AL,35242,
1236.0,CHESSER DR SE,Huntsville,AL,35803,
8500.0,RUTHERFORD DR,Tuscaloosa,AL,35456,
7276.0,CHARLIE SHIRLEY RD,Tuscaloosa,AL,35473,
113.0,MELANIE LN,New Hope,AL,35760,
5724.0,GREEN TREE RD,Mobile,AL,36609,
4630.0,GUN CLUB Road,Jefferson,AL,35210,
283.0,HENRY ST CLAIR RD,New Market,AL,35761,
4105.0,43RD Ave North,Jefferson,AL,35217,
310.0,HAROLDS DR NW,Huntsville,AL,35806,
100.0,LAUREL RDG,ALEXANDER CITY,AL, ,
13485.0,DOUBLE GATE ESTATES,Tuscaloosa,AL,35456,
334.0,INVERNESS DR SW,Huntsville,AL,35802,
3344.0,WARRIOR RIVER Road,Jefferson,AL,35023,
16599.0,MCCULLEY MILL RD,ATHENS,AL,35613,
29605.0,MCKEE RD,TONEY,AL,35773,
1947.0,WOODRUN DR,MONTGOMERY,AL,36117,
27.0,VALLEY HILLS DR,Tuscaloosa,AL,35476,
227.0,RIVER CREST CIR N,Shelby,AL,35080,
314.0,CHAPELRIDGE Place,Jefferson,AL,35071,
158.0,S CEDAR ST,Mobile,AL,36602,
4213.0,SHILOH Drive,Jefferson,AL,35213,
3048.0,KELLY CIR,MONTGOMERY,AL,36116,
5701.0,BELLEAU DR,MONTGOMERY,AL,36117,
60.0,5TH Ave South,Jefferson,AL,35205,
1254.0,BUTLER RD,ALABASTER,AL,35007,
2609.0,CRENSHAW RD,WETUMPKA,AL, ,
1526.0,CARSON Road North,Jefferson,AL,35217,
1816.0,Canyon Road,Jefferson,AL,35216,
106.0,PORTSMOUTH CIR,New Market,AL,35761,
255.0,GOVERNMENT ST,Mobile,AL,36602,
0.0,BROOKE LN,St Clair,AL,35120,
22620.0,AL HWY 99,ELKMONT,AL,35620,
400.0,West  SMITHFIELD Drive,Jefferson,AL,35061,978826.0
212.0,HAYDEN ST,New Hope,AL,35760,
2924.0,GRAY CT,Mobile,AL,36605,
145.0,COCHISE CIR,MONTEVALLO,AL,35115,
3114.0,ZELDA RD,MONTGOMERY,AL,36106,
4207.0,PATTON RD SW,Huntsville,AL,35805,
220.0,MARTIN ST,St Clair,AL,35125,
5063.0,REEDER Road,Jefferson,AL,35062,
3893.0,WINEWOOD Road,Jefferson,AL,35215,
755.0,WEST ST,Shelby,AL,35115,
3325.0,EXETER Ave,Jefferson,AL,35020,
2407.0,OSAGE ST,Mobile,AL,36617,
1112.0,3RD St West,Jefferson,AL,35204,
5107.0,11TH St South,Jefferson,AL,35020,
1316.0,9TH Ave West,Jefferson,AL,35228,
260.0,CENTENNIAL CIR,MONTGOMERY,AL,36104,
125.0,JAMES I HARRISON JR PKWY,Tuscaloosa,AL,35405,
5056.0,CANTEBURY Court,Jefferson,AL,35215,
16769.0,NEWBY CHAPEL RD,ATHENS,AL,35613,
2731.0,THOMPSON DR N,Mobile,AL,36606,
26605.0,UNION HILL RD,ANDERSON,AL,35610,
416.0,OLD MONTGOMERY HWY,WETUMPKA,AL, ,
820.0,ANDREW JACKSON WAY NE,Huntsville,AL,35801,
500.0,CALDWELL TRCE,Shelby,AL,35242,
1825.0,MAPLECREST Lane,Jefferson,AL,35068,
1825.0,PALLISTER PL W,Mobile,AL,36618,
1145.0,PEBBLE CREEK Parkway,Jefferson,AL,35214,
2322.0,11TH Place North,Jefferson,AL,35204,
480.0,MOUNTAIN MEADOWS LN,WETUMPKA,AL, ,
12480.0,HWY 43,VANDIVER,AL,35176,
8324.0,HILL LOOP RD,St Clair,AL,35094,
6403.0,DUNNAVANT PL NW,Huntsville,AL,35806,
1444.0,BRIDGE CREEK RD,Autauga,AL,36067,
1292.0,MANORA ESTATES DR,Tuscaloosa,AL,35405,
5330.0,OVERTON Road,Jefferson,AL,35210,
7024.0,SOUTHCREEK DR SE,Owens Cross Roads,AL,35763,
3050.0,GURLEY PKE,Gurley,AL,35748,
20.0,DEAN CT,DEATSVILLE,AL,36054,
6904.0,OLD PASCAGOULA RD,Mobile,AL,36582,1.0
4.0,West  MONTCREST Drive,Jefferson,AL,35213,
3807.0,WEST WIND CIR SW,Huntsville,AL,35805,
4431.0,TORRANCE DR NW,Huntsville,AL,35816,
3050.0,ASBURY PARK Place,Jefferson,AL,35243,
131.0,STAN-RYAN RD,Toney,AL,35773,
933.0,GLENNWOOD Road,Jefferson,AL,35116,
132.0,SHORT ST,St Clair,AL,35173,
5600.0,CARMICHAEL RD,MONTGOMERY,AL,36117,
7107.0,HAYGROUND DR SE,Owens Cross Roads,AL,35763,
110.0,COMANCHE ST,Shelby,AL,35115,
6150.0,ST GALLEN AVE N,Mobile,AL,36608,
6700.0,WALL ST,Mobile,AL,36695,
221.0,MAIN St,Jefferson,AL,35073,
3068.0,FENDLEY AVE,Mobile,AL,36606,
4639.0,BATTERY Lane,Jefferson,AL,35213,
117.0,OAKWELL ST,Shelby,AL,35040,
6123.0,FOXTAIL DR,Mobile,AL,36693,
2510.0,ATWOOD FERRY Road,Jefferson,AL,35118,
9770.0,EAST WAY DR,Mobile,AL,36575,
363.0,AZALEA RD,Mobile,AL,36609,
2415.0,ROYAL LN,Shelby,AL,35124,
511.0,RICKELS Drive,Jefferson,AL,35091,
360.0,WINTHROP CT,MONTGOMERY,AL,36104,
5250.0,OVERLAND Trace,Jefferson,AL,35244,
1663.0,HILLCREST RD,Mobile,AL,36695,289.0
2539.0,48TH PL E,Tuscaloosa,AL,35405,
3641.0,WOODLEY RD,MONTGOMERY,AL,36116,
107.0,KING VALLEY ST,PELHAM,AL,35124,
2927.0,RIFLE RANGE RD,WETUMPKA,AL, ,
628.0,ALLIANCE Road,Jefferson,AL,35023,
7801.0,MALLARD RD SW,Huntsville,AL,35802,
3805.0,ASHLAND DR SW,Huntsville,AL,35805,
570.0,RIVER HILL Drive,Jefferson,AL,35006,
3219.0,BLACKERBY Court,Jefferson,AL,35020,
1064.0,EVAN CIR,Shelby,AL,35043,
3315.0,BELCREST DR SE,Huntsville,AL,35801,
356.0,PAYSON RD,DEATSVILLE,AL,36022,
,CROSSINGS DR,MILLBROOK,AL, ,
2412.0,41ST Ave North,Jefferson,AL,35207,
2216.0,DAKOTA Trail,Jefferson,AL,35217,
2210.0,EUFAULA Ave,Jefferson,AL,35208,
3629.0,WESTCHESTER Circle,Jefferson,AL,35223,
761.0,GRAMOR Drive,Jefferson,AL,35022,
2320.0,BLACKRIDGE DR,Shelby,AL,35244,
201.0,GOODWIN ST,COLUMBIANA,AL,35051,
709.0,W OSCEOLA ST,WETUMPKA,AL, ,
18265.0,BELMONT CIR,Athens,AL,35613,
5538.0,MAIN DR,New Hope,AL,35760,
172.0,CARRIGER RD,Hazel Green,AL,35750,
101.0,ROYAL DR,Madison,AL,35758,
4108.0,KENLEY WAY,BIRMINGHAM,AL,35242,
2602.0,RANDY AVE NE,Huntsville,AL,35811,
7348.0,BROOKMOOR CT,Mobile,AL,36695,
153.0,BROOK HIGHLAND CV,Shelby,AL,35242,
8106.0,FAITH CT,MONTGOMERY,AL,36117,
5708.0,8TH Court South,Jefferson,AL,35212,
8341.0,AIRPORT BLVD,Mobile,AL,36608,
3923.0,WOODLEY RD,MONTGOMERY,AL,36116,
7990.0,FIFTEENTH ST,Mobile,AL,36544,
,SIMS RD,COOSADA,AL, ,
245.0,CAGLES CV,ECLECTIC,AL, ,
10110.0,CAMP OLIVER Road,Jefferson,AL,35006,
5475.0,VIRGINIA Trace,Jefferson,AL,35022,
21.0,SWEET GUM LN,CHELSEA,AL,35043,
3927.0,GOVERNMENT BLVD,Mobile,AL,36693,
9217.0,MOBILE HWY,HOPE HULL,AL,36043,
1620.0,MAPLE Ave Southwest,Jefferson,AL,35211,
102.0,EASY ST,TROY,AL,36081,
215.0,COACH LAMP DR,Madison,AL,35758,
781.0,PINEDALE RD,St Clair,AL,35953,
927.0,PARKER Ave,Jefferson,AL,35071,
4516.0,MARYLAND Ave,Jefferson,AL,35210,
4558.0,STERLING GLEN Lane,Jefferson,AL,35126,
314.0,MARLETTE DR,Autauga,AL,36067,
1675.0,KNOLLWOOD DR,Mobile,AL,36609,496.0
136.0,3RD ST,Autauga,AL,36067,
1145.0,DYKES RD N,Mobile,AL,36608,
4229.0,CALDWELL MILL Road,Jefferson,AL,35243,
3801.0,CABANA BLVD N,Mobile,AL,36609,204.0
1640.0,HUNTERS RUN,Tuscaloosa,AL,35405,
1257.0,ROWAN SPRINGS Drive,Jefferson,AL,35094,
208.0,22ND St South,Jefferson,AL,35233,
3904.0,37TH Ave North,Jefferson,AL,35217,
1345.0,PINE RIDGE RD,MONTGOMERY,AL,36109,
4125.0,AL HWY 87,TROY,AL,36079,
2402.0,ISABELLE CIR NE,Huntsville,AL,35811,
1516.0,88TH St North,Jefferson,AL,35206,
1757.0,PARKWAY DR,Mobile,AL,36605,
7826.0,RAINBOW CT,Mobile,AL,36544,
6125.0,MOUNTAIN RIDGE Road,Jefferson,AL,35173,
4320.0,CENTER POINT Road,Jefferson,AL,35126,
4584.0,RIVERVIEW Drive,Jefferson,AL,35244,
17068.0,SEARCY RD,Tuscaloosa,AL,35475,
3901.0,MICHAEL BLVD,Mobile,AL,36609,198.0
10338.0,SUNSHINE VALLEY RD,Tuscaloosa,AL,35475,
8345.0,EMERALD LAKE Drive East,Jefferson,AL,35126,
7427.0,Old BRADFORD Road,Jefferson,AL,35126,
1805.0,HEATHERBROOKE RD,Shelby,AL,35242,
1210.0,ATHEY RD,Mobile,AL,36608,
2520.0,CHUCHURA RD,BIRMINGHAM,AL,35244,
1912.0,2ND Place Northwest,Jefferson,AL,35215,
13192.0,COVINGTON DR,ATHENS,AL,35613,
6901.0,CARY HAMILTON RD,Mobile,AL,36582,15.0
2100.0,ROCKLAND Drive,Jefferson,AL,35226,
141.0,WILSON GLEN DR,WILSONVILLE,AL,35186,
253.0,MARWOOD LN,Shelby,AL,35244,
204.0,MONTCLAIRE Circle,Jefferson,AL,35216,
1608.0,NORTHVIEW DR,Mobile,AL,36618,
3388.0,AUGUSTA PL,MONTGOMERY,AL,36111,
3601.0,CCI DR NW,Huntsville,AL,35805,
8146.0,OLDFIELD RD SW,Huntsville,AL,35802,
2105.0,EUCLID RD NW,Huntsville,AL,35810,
925.0,5TH AVE NW,ALABASTER,AL,35007,
2541.0,HOBBS ISLAND RD,Huntsville,AL,35803,
4240.0,HARPERS FERRY Circle,Jefferson,AL,35213,
6811.0,HW 82  E,Tuscaloosa,AL,35405,
6941.0,JOY CT,Mobile,AL,36582,
1501.0,OLD MONROVIA RD NW,Huntsville,AL,35806,
115.0,HALE LOOP,ECLECTIC,AL, ,
7864.0,BLUFF RIDGE Road,Jefferson,AL,35022,
7754.0,PEPPERTREE HIGHLANDS Circle,Jefferson,AL,35173,
12475.0,LAKEWOOD HILLS DR,Tuscaloosa,AL,35475,
6941.0,US 72 W HWY NW,Huntsville,AL,35806,
4932.0,DEER FOOT Cove,Jefferson,AL,35126,
300.0,N FAIRWINDS,ALEXANDER CITY,AL, ,
1514.0,SKYLAND BLVD E,Tuscaloosa,AL,35405,
206.0,PIN OAK DR,CHELSEA,AL,35043,
1391.0,MIMOSA PARK RD,Tuscaloosa,AL,35405,
7459.0,TURNBERRY Drive,Jefferson,AL,35071,
2020.0,PLUM ST,MONTGOMERY,AL,36107,
5123.0,HILLSIDE Drive,Jefferson,AL,35064,
9665.0,BEACH RD,Mobile,AL,36582,
6336.0,SYCAMORE DR,MONTGOMERY,AL,36117,
135.0,QUAIL NEST RD,St Clair,AL,35120,
100.0,ORILEY CT,Madison,AL,35758,
3708.0,MARGARET Ave Southwest,Jefferson,AL,35221,
129.0,BRYNHURST DR,CHELSEA,AL,35043,
6100.0,BOARDWALK BLVD,MONTGOMERY,AL,36117,
101.0,HAWKS CREST DR NW,Madison,AL,35757,
134.0,RIDGEWOOD Drive,Jefferson,AL,35173,
1601.0,KNOLLWOOD DR,Mobile,AL,36609,25.0
200.0,GRANITE WAY,WETUMPKA,AL, ,
12.0,WATERTOWN Circle,Jefferson,AL,35235,
101.0,PARK LN,ATHENS,AL,35611,
19730.0,STURMA LN (A),ROBERTSDALE,AL,36567,
758.0,82ND Place South,Jefferson,AL,35206,
3104.0,LEEMAN FERRY RD SW,Huntsville,AL,35801,
430.0,OAKLAND RD,Madison,AL,35758,
724.0,LILY FLAGG RD SE,Huntsville,AL,35802,
15804.0,EDWARDIAN DR,Tuscaloosa,AL,35475,
6562.0,THEODORE DAWES RD,Mobile,AL,36582,
444.0,MARIETTA RD,St Clair,AL,35209,
5.0,INDIAN LN,TALLASSEE,AL,36078,
3856.0,ROSA L PARKS AVE,MONTGOMERY,AL,36105,
4293.0,BRIAR GREEN DR SW,Huntsville,AL,35802,
458.0,CHIN ST,Mobile,AL,36610,
933.0,TULIP POPLAR LN,BIRMINGHAM,AL,35244,
964.0,NARROWS POINT DR,Shelby,AL,35242,
5200.0,HARGROVE RD E,Tuscaloosa,AL,35405,
421.0,PARK LAKE DR,MONTGOMERY,AL,36117,
45.0,BARKER DR,CHELSEA,AL,35043,
785.0,DIVIDING RIDGE DR,BIRMINGHAM,AL,35244,
5354.0,LONGRIDGE DR N,Mobile,AL,36693,
1816.0,MARTINIQUE Drive,Jefferson,AL,35215,
934.0,ALEXANDER ST,MONTGOMERY,AL,36108,
4027.0,4TH Ave,Jefferson,AL,35020,
1014.0,CHAPEL CREEK Lane,Jefferson,AL,35068,
3990.0,GOVERNMENT BLVD,Mobile,AL,36693,
7885.0,BELLE VUE CIR,Tuscaloosa,AL,35406,
2411.0,ALEXANDER DR,Tuscaloosa,AL,35405,
6130.0,KAREN DAVIE DR NW,Huntsville,AL,35806,
5685.0,EXPRESS DR,MONTGOMERY,AL,36116,
1415.0,EDGEFIELD Lane,Jefferson,AL,35023,
931.0,VALLEY RIDGE Drive,Jefferson,AL,35209,210.0
357.0,SIMINGTON DR,Mobile,AL,36617,
8602.0,Hwy 75,Jefferson,AL,35126,
4415.0,HUNTER RIDGE Lane,Jefferson,AL,35235,201.0
120.0,BUSH AVE,Mobile,AL,36604,
342.0,BEDFORD Ave,Jefferson,AL,35226,
216.0,BERWYN DR W,Mobile,AL,36608,43.0
268.0,CEDAR CREST,Tuscaloosa,AL,35401,
15.0,FREDA JANE Lane,Jefferson,AL,35215,
1006.0,WINDHAM ST NE,Huntsville,AL,35801,
7035.0,ABBEY LOOP,Tuscaloosa,AL,35453,
6708.0,CANDLE LIGHT CT,Mobile,AL,36695,
100.0,SHALLOWHILL RD,Huntsville,AL,35811,
1621.0,CASTLEBERRY Way,Jefferson,AL,35214,
215.0,BLACKWOOD DR NW,Madison,AL,35757,
118.0,49TH ST E,Tuscaloosa,AL,35405,
4571.0,NARROW LANE RD,MONTGOMERY,AL,36116,
2536.0,2ND Place Northwest,Jefferson,AL,35215,
23276.0,CO RD 38,SUMMERDALE,AL,36580,
4064.0,SIERRA DR,Tuscaloosa,AL,35406,
1042.0,KENSINGTON WAY,St Clair,AL,35004,
11294.0,APPLE VALLEY RD,Tuscaloosa,AL,35111,
2646.0,WHISPERING PINE DR,MONTGOMERY,AL,36116,
2459.0,THIRD AVE,Mobile,AL,36617,
2130.0,HWY 109,WILSONVILLE,AL,35186,
801.0,MONTCLAIR Road,Jefferson,AL,35213,5206.0
792.0,BLAKE BOTTOM RD,Huntsville,AL,35806,
21746.0,CO RD 38,SUMMERDALE,AL,36580,
191.0,OAK HOLLOW LN,HARPERSVILLE,AL,35078,
5622.0,UNION CHAPEL TERRACE,Tuscaloosa,AL,35473,
142.0,TURNER PL,MONTGOMERY,AL,36109,
1523.0,DORROUGH St,Jefferson,AL,35094,
4390.0,WATER Trail,Jefferson,AL,35073,
4132.0,CARMICHAEL RD,MONTGOMERY,AL,36106,
1009.0,80TH St South,Jefferson,AL,35206,
5501.0,CYPRESS CREEK AVE E,Tuscaloosa,AL,35405,
3461.0,N  BROKEN BOW DR,BIRMINGHAM,AL,35242,
1506.0,LAKEFRONT DR SW,Huntsville,AL,35824,
123.0,TAMMY GAINES LN,Huntsville,AL,35811,
3285.0,JARRETT RD,Mobile,AL,36613,
1808.0,LONG MEADOW RD,Mobile,AL,36609,
6333.0,YELLOWHAMMER Drive,Jefferson,AL,35126,
95.0,AMERICANA DR,St Clair,AL,35120,
251.0,NEW HARMONY RD,DEATSVILLE,AL, ,
455.0,AVONDALE RD,MONTGOMERY,AL,36109,
6234.0,STEWART Road,Jefferson,AL,35094,
1043.0,OAKLAND DR,Mobile,AL,36609,
1323.0,31ST St,Jefferson,AL,35218,
248.0,SOUTH HILLCREST RD,St Clair,AL,84119,
281.0,OLD 431 HWY SE,Owens Cross Roads,AL,35763,
22852.0,EASTERN VALLEY RD,Tuscaloosa,AL,35111,
131.0,4TH Ave North,Jefferson,AL,35020,
3818.0,VALLEY HAVEN CIRCLE,St Clair,AL,35004,
3142.0,RENFRO Road,Jefferson,AL,35216,
1416.0,22ND St North,Jefferson,AL,35234,
529.0,PEACE CHURCH RD,WETUMPKA,AL, ,
190.0,MYRICK RD,DEATSVILLE,AL, ,
3529.0,BURLINGTON Drive,Jefferson,AL,35068,
21165.0,AL HWY 99,ATHENS,AL,35614,
2025.0,OLD MONTGOMERY HWY,Shelby,AL,35244,
511.0,JASMINE TR,Autauga,AL,36066,
2870.0,BELLE FONTAINE BLVD,Mobile,AL,36582,
4604.0,10TH Ave,Jefferson,AL,35224,
107.0,STONEY POINT DR,Harvest,AL,35749,
999.0,CURT JARRETT RD,St Clair,AL,35953,
4331.0,6TH Ave South,Jefferson,AL,35222,
3905.0,DEBBY Circle,Jefferson,AL,35005,
42.0,FIRE STATION RD,ELMORE,AL,36025,
720.0,BROOKHAVEN DR,St Clair,AL,35120,
2528.0,WESTWOOD DR,MONTGOMERY,AL,36108,
110.0,LINDBERG Road,Jefferson,AL,35023,
4475.0,VILLAGE GREEN DR,BIRMINGHAM,AL,35242,
3299.0,THOMAS Lane,Jefferson,AL,35215,
122.0,LOS ROBLES DR,TROY,AL,36079,
211.0,GREEN VALLEY RD,Owens Cross Roads,AL,35763,
8277.0,BLUE SPRINGS DR,ATHENS,AL,35611,
10331.0,HUNTERS RIDGE DR,Mobile,AL,36695,
1023.0,GERMANTOWN RD,Tuscaloosa,AL,35406,
801.0,TAYLOR OAKS CIR,MONTGOMERY,AL,36117,
1601.0,HALE ST,MONTGOMERY,AL,36104,
2825.0,ST PATRICK PL,HELENA,AL,35080,
75.0,DANA DR,MONTEVALLO,AL,35115,
80.0,MEADOW OAKS CT,MILLBROOK,AL,36054,
5937.0,PATTON Ave,Jefferson,AL,35020,
2447.0,MEADOWRIDGE LN,MONTGOMERY,AL,36117,
2557.0,MOUNTAIN LODGE Circle,Jefferson,AL,35216,
4224.0,LINDSEY LOOP Road,Jefferson,AL,35022,
1572.0,WHITE St,Jefferson,AL,35061,
203.0,REENEY DR,New Market,AL,35761,
806.0,STANHOPE DR NE,Huntsville,AL,35801,
57.0,VALLEY VIEW RD,St Clair,AL,35128,
200.0,DOUG BAKER BLVD,BIRMINGHAM,AL,35242,
1421.0,OAK Terrace,Jefferson,AL,35235,
153.0,NORTON PL,Mobile,AL,36607,
736.0,CIRCLEWOOD Lane,Jefferson,AL,35214,
365.0,SHADESWOOD Drive,Jefferson,AL,35226,
1724.0,STARLING DR,Mobile,AL,36605,
430.0,MORRISON LOOP,ELMORE,AL, ,
1285.0,CARSON RD E,Mobile,AL,36695,
392.0,DEER RIDGE LN,Shelby,AL,35043,
3055.0,PARADISE ACRES,Jefferson,AL,35244,
3037.0,MOORCROFT DR,MONTGOMERY,AL,36116,
20005.0,YARBROUGH RD,ATHENS,AL,35613,
3640.0,43RD Ave North,Jefferson,AL,35207,
1003.0,WOODLAWN DR W,Mobile,AL,36605,
,MAIN ST,MILLBROOK,AL, ,
14618.0,OLE OAK DR,Tuscaloosa,AL,35453,
3728.0,GEORGE Ave Southwest,Jefferson,AL,35221,
13121.0,ALLISON DR,Tuscaloosa,AL,35111,
4801.0,PARK TOWNE WAY,MONTGOMERY,AL,36116,
5113.0,COURT M,Jefferson,AL,35208,
0.0,CLEVELAND FARMS PKY,St Clair,AL,35223,
6131.0,GLADSTONE DR,MONTGOMERY,AL,36117,
1207.0,PUTMAN DR NW,Huntsville,AL,35816,
1840.0,N THREE NOTCH ST,TROY,AL,36081,
6527.0,QUAIL RUN DR,PELHAM,AL,35124,
98.0,ERIC LN,St Clair,AL,35173,
101.0,ROSA LEE DR,Meridianville,AL,35759,
2778.0,SW ROCKHOUSE RD,MADISON,AL,35758,
3930.0,PINSON VALLEY Parkway,Jefferson,AL,35217,
29222.0,CARNABY LN,TONEY,AL,35773,
685.0,PROVIDENCE MAIN ST NW,Huntsville,AL,35806,
12892.0,LUCAS FERRY RD,ATHENS,AL,35611,
949.0,VILLAGE MILL Road,Jefferson,AL,35215,
924.0,DANIEL Drive,Jefferson,AL,35228,
211.0,WEST DR,Mobile,AL,36608,12.0
2706.0,FRIENDSHIP RD,TALLASSEE,AL, ,
5078.0,PINSON VALLEY Parkway,Jefferson,AL,35215,
333.0,ROCK Drive,Jefferson,AL,35071,
3229.0,FREDERICKSBURG DR,MONTGOMERY,AL,36116,
3321.0,REYNOLDS DR NW,Huntsville,AL,35810,
513.0,2ND AV,TALLASSEE,AL, ,
8015.0,GOOSE RIDGE DR SE,Owens Cross Roads,AL,35763,
3733.0,4TH St West,Jefferson,AL,35207,
,SOUTH RDG,ALEXANDER CITY,AL, ,
4069.0,BEECHWOOD LN,Mobile,AL,36609,
110.0,WILDER WAY,MILLBROOK,AL, ,
111.0,SPRING GARDENS Way,Jefferson,AL,35217,
3514.0,15TH ST,Tuscaloosa,AL,35401,
209.0,SUSSEX AV,TROY,AL,36081,
124.0,BELFORD WAY,ALABASTER,AL,35007,
3733.0,MCCLELLAN Ave,Jefferson,AL,35020,
3003.0,BARCODY RD SE,Huntsville,AL,35802,
32.0,CRESCENT RIDGE LN,DEATSVILLE,AL, ,
103.0,EULA WAY,Huntsville,AL,35811,
831.0,6TH Ave West,Jefferson,AL,35204,
1250.0,EGG AND BUTTER RD,COLUMBIANA,AL,35051,
109.0,BRIDLETRACE LN,Madison,AL,35758,
1921.0,CHARLOTTE Drive,Jefferson,AL,35226,
300.0,10TH Court West,Jefferson,AL,35204,
464.0,RED FOX RD,WETUMPKA,AL, ,
990.0,BLAIR FARM RD,St Clair,AL,35120,
3205.0,LLOYDS LN,Mobile,AL,36693,
1200.0,SHADY GROVE Road,Jefferson,AL,35005,
2923.0,EXETER Ave,Jefferson,AL,35020,
1529.0,WHITECLOUD DRIVE,Autauga,AL,36022,
206.0,MACON RD,Hazel Green,AL,35750,
130.0,OLYMPIA Drive,Jefferson,AL,35209,
2365.0,MCCLELLAN Road,Jefferson,AL,35172,
3420.0,ELKWOOD SECTION RD,Toney,AL,35773,
718.0,FULTON SPRINGS RD,ALABASTER,AL,35007,
3805.0,ASBURY Place,Jefferson,AL,35243,
1605.0,SANDLIN AVE SE,Huntsville,AL,35801,
5684.0,EDDINS RD,MONTGOMERY,AL,36117,
223.0,MAGNOLIA DR,Autauga,AL,36067,
80.0,COTTON TERRACE LOOP,DEATSVILLE,AL, ,
287.0,RENAISSANCE DR E,Mobile,AL,36603,
4534.0,WOODDALE DR,PELHAM,AL,35124,
4662.0,Old LOONEY MILL Road,Jefferson,AL,35243,
7441.0,CANADA Ave,Jefferson,AL,35224,
5693.0,OAK RIDGE CT,Mobile,AL,36619,
17467.0,EAST LIMESTONE RD,ATHENS,AL,35613,
6023.0,PEACH POND WAY SE,Owens Cross Roads,AL,35763,
2101.0,WATERFORD Place,Jefferson,AL,35244,
1509.0,ST CHARLES AVE,MONTGOMERY,AL,36107,
620.0,HIGH FIELD RD,Tuscaloosa,AL,35405,
525.0,JALNA Road,Jefferson,AL,35214,
3830.0,PINE FOREST AVE,MONTGOMERY,AL,36116,
111.0,A ST,TROY,AL,36081,
6517.0,ALABAMA St,Jefferson,AL,35173,
914.0,DUNN ADAMS RD,ECLECTIC,AL, ,
6734.0,AL HWY 130,BANKS,AL,36005,
9133.0,9TH Ave North,Jefferson,AL,35206,
1515.0,GREENLAWN DR,Mobile,AL,36605,
28855.0,PINEDALE RD,ARDMORE,AL,35739,
917.0,RIDGEGATE PL NE,Huntsville,AL,35801,
483.0,PAIGE Drive,Jefferson,AL,35226,
1008.0,68TH ST,Tuscaloosa,AL,35405,
241.0,JAMES DR,MILLBROOK,AL, ,
3495.0,MISTY HOLLOW Drive,Jefferson,AL,35022,
2003.0,BURLINGAME DR SE,Huntsville,AL,35803,
226.0,CEDAR CREEK CIR,New Market,AL,35761,
321.0,SOUTHERN HILLS DR,WETUMPKA,AL, ,
12406.0,CASTLE RIDGE CIR,Tuscaloosa,AL,35111,
8300.0,KERMIT JOHNSON Road,Jefferson,AL,35126,
775.0,HUNTERS CROSSING RD,St Clair,AL,35120,
7084.0,SELF Road,Jefferson,AL,35126,
1253.0,HUIE ST,Autauga,AL,36066,
303.0,WILLIAMS AVE SW,Huntsville,AL,35801,
25475.0,NICK DAVIS RD,ATHENS,AL,35613,
3592.0,WHITE Road,Jefferson,AL,35062,
4641.0,WARREN DR,MILLBROOK,AL,36054,
5004.0,CLARDY RD NW,Huntsville,AL,35810,
3.0,SAHAMA VILLAGE,Tuscaloosa,AL,35401,
1523.0,HOLLINS Drive,Jefferson,AL,35214,
2419.0,CHRISTOPHER Place,Jefferson,AL,35243,
63.0,GREENPARK DR,Mobile,AL,36695,
1010.0,RISON AVE NE,Huntsville,AL,35801,
145.0,Crest Road East,Jefferson,AL,35023,
3438.0,HEATHER Lane,Jefferson,AL,35216,
2428.0,29TH ST,Tuscaloosa,AL,35401,
6460.0,SOUTHERN TRACE Drive,Jefferson,AL,35094,
235.0,KNIGHT Ave,Jefferson,AL,35023,
512.0,WINTERPARK Circle,Jefferson,AL,35215,
2904.0,45TH Ave North,Jefferson,AL,35207,
1826.0,AUSTIN ST,MONTGOMERY,AL,36110,
2005.0,PRINCETON BLV SW,Huntsville,AL,35801,
820.0,FERN RD,WETUMPKA,AL, ,
12.0,DOGWOOD CIR,Mobile,AL,36608,
211.0,CHASE DR,PELHAM,AL,35124,
3178.0,SHERA Lane,Jefferson,AL,35023,
1505.0,DRIFTWOOD DR N,Mobile,AL,36605,
1856.0,PAKE AVE,Mobile,AL,36605,
22776.0,BIG OAK DR,ATHENS,AL,35613,
5605.0,CALMAR DR,MONTGOMERY,AL,36116,
200.0,BROOKWOOD DR E,ATHENS,AL,35613,
108.0,KARLA TOON DR,Harvest,AL,35749,
4363.0,BIRCHWOOD DR E,Mobile,AL,36693,
3741.0,CHESTNUT RIDGE Lane,Jefferson,AL,35216,1105.0
818.0,34TH AVE,Tuscaloosa,AL,35401,
102.0,NEW MOON CT,Autauga,AL,36067,
170.0,BRANTLEYVILLE RD,MAYLENE,AL,35114,
5208.0,MASTIN LAKE RD NW,Huntsville,AL,35810,
8513.0,2ND Ave North,Jefferson,AL,35206,
5119.0,SHAMROCK DR,HELENA,AL,35080,
1431.0,WINDSOR CT,Shelby,AL,35007,
4800.0,BRADFORD DR NW,Huntsville,AL,35816,
7097.0,POCAHONTAS Road,Jefferson,AL,35022,
29905.0,LITTLE CREEK RD,ARDMORE,AL,35739,
388.0,Park Ave,Jefferson,AL,35226,
6300.0,MAURICE POIROUX RD,Mobile,AL,36582,
408.0,TUSCANY CIR,Shelby,AL,35043,
2365.0,SHADY GROVE Road,Jefferson,AL,35005,
27256.0,BAIN RD,ATHENS,AL,35613,
711.0,MOHICAN Circle,Jefferson,AL,35214,
1001.0,MARGARET Drive,Jefferson,AL,35068,
440.0,SIMMSVILLE RD,ALABASTER,AL,35007,
833.0,GLEN ACRES DR E,Mobile,AL,36608,
17185.0,EUNICE LN,ATHENS,AL,35613,
140.0,SADDLE CREEK DR,St Clair,AL,35128,
2335.0,17TH St,Jefferson,AL,35208,
225.0,SARAH Way,Jefferson,AL,35091,
401.0,WOODVALE Lane,Jefferson,AL,35209,
704.0,IRVIN ST,ATHENS,AL,35611,
711.0,28TH ST,St Clair,AL,35135,
1014.0,EDGEWATER DR SW,Huntsville,AL,35824,
7381.0,CLOVER DR,Mobile,AL,36544,
3105.0,BUSBY RD,Mobile,AL,36695,
28.0,BOOTH ESTATES,Tuscaloosa,AL,35473,
310.0,DEAN ST,TROY,AL,36081,
2105.0,HARRIS RD NW,Huntsville,AL,35810,
110.0,DAVENTRY DR,CALERA,AL,35040,
4287.0,UPPER RIVER RD,TALLASSEE,AL, ,
4009.0,OLD SHELL RD,Mobile,AL,36608,
520.0,20TH Ave Northeast,Jefferson,AL,35215,
100.0,DOGWOOD LN,Shelby,AL,35040,
4838.0,1ST Ave South,Jefferson,AL,35222,
3216.0,ESSEX PLACE DR,Mobile,AL,36695,
2024.0,CHESTNUT ST,MONTGOMERY,AL,36106,
100.0,MADISON AVE,Madison,AL,35758,
1005.0,MOUNTAIN TRCE,Shelby,AL,35242,
429.0,HARDEN Road,Jefferson,AL,35071,
7560.0,OLYMPIC LN,Mobile,AL,36582,613.0
5075.0,DIAMOND CIR,Tuscaloosa,AL,35405,
3380.0,MCFARLAND BLVD,Tuscaloosa,AL,35473,
2068.0,VENETIA RD,Mobile,AL,36605,
2037.0,RUSSET WOODS Trail,Jefferson,AL,35244,
140.0,ROYAL DR,Madison,AL,35758,
2575.0,MOUNTAIN LODGE Circle,Jefferson,AL,35216,
925.0,BLUE RIDGE WAY,St Clair,AL,35120,
1601.0,PARKVIEW Lane,Jefferson,AL,35209,302.0
553.0,68TH St North,Jefferson,AL,35206,
1475.0,PLAZA DR,Mobile,AL,36605,
116.0,OAK BRANCH CIR,Harvest,AL,35749,
1501.0,DAVENPORT Drive,Jefferson,AL,35217,
1456.0,PARAMOUNT DR NW,Huntsville,AL,35806,
426.0,OAK RIDGE DR,St Clair,AL,35004,
6313.0,OLD MADISON PKE NW,Huntsville,AL,35806,
4855.0,EASTON DR,Tuscaloosa,AL,35405,
3701.0,CARLYLE CLS,Mobile,AL,36609,1021.0
1631.0,CENTER POINT Parkway,Jefferson,AL,35215,
309.0,BROOKVIEW DR,MONTGOMERY,AL,36110,
1212.0,WHITTEN Road,Jefferson,AL,35117,
1876.0,SIESTA DR,Autauga,AL,36067,
320.0,18TH ST,Tuscaloosa,AL,35401,
3437.0,S   PERRY ST,MONTGOMERY,AL,36105,
4140.0,Old LEEDS Lane,Jefferson,AL,35213,
43370.0,HWY 25,VINCENT,AL,35178,
2220.0,MILL RUN Circle,Jefferson,AL,35226,
3601.0,GROTE ST SW,Huntsville,AL,35805,
26.0,HOUSTON DR,PELHAM,AL,35124,
12565.0,HWY 41,LEEDS,AL,35094,
237.0,TOM SALTER Road,Jefferson,AL,35023,
2.0,COTTON TERRACE CT,DEATSVILLE,AL, ,
21695.0,MILWAUKEE ST,ROBERTSDALE,AL,36567,
3216.0,UVALDE LN NW,Huntsville,AL,35810,
215.0,CEDAR CREST,Tuscaloosa,AL,35401,
2036.0,WINDSOR AVE,MONTGOMERY,AL,36107,
5500.0,HW 43  N,Tuscaloosa,AL,35473,
1334.0,BROWN CIR,ALABASTER,AL,35007,
1142.0,OAKLEY Drive,Jefferson,AL,35214,
1982.0,JOHNSON ST,MONTGOMERY,AL,36110,
1327.0,US HWY 72   E,ATHENS,AL,35611,
319.0,MILDRED Ave,Jefferson,AL,35214,
3206.0,MILLBROOK DR NW,Huntsville,AL,35810,
157.0,THIRD AVE,Mobile,AL,36608,
2251.0,US HWY 31   S,ATHENS,AL,35611,
5150.0,MERIDIAN ST NE,Huntsville,AL,35810,
2351.0,WAGNER ST,Mobile,AL,36617,
1700.0,ASPEN WOOD CT,Mobile,AL,36609,
152.0,COUNTY RD 2229,TROY,AL,36079,
4100.0,HUNTERS RIDGE DR SW,Huntsville,AL,35802,
849.0,LINCOLN St Southwest,Jefferson,AL,35211,
168.0,CHERRY Court,Jefferson,AL,35023,
11197.0,WALL TRIANA HWY,Toney,AL,35773,
513.0,9TH Terrace,Jefferson,AL,35127,
4244.0,ROY FORD CIR,Shelby,AL,35244,
114.0,DANIKA DR,Huntsville,AL,35806,
1344.0,MCCOY St,Jefferson,AL,35210,
105.0,FLORIDA RD,St Clair,AL,35125,
213.0,WESTCLIFF Drive,Jefferson,AL,35226,
1540.0,64TH St,Jefferson,AL,35228,
1360.0,MORROW St,Jefferson,AL,35061,
2615.0,MEMORIAL PKY NW,Huntsville,AL,35810,
3501.0,BIRCHWOOD Lane,Jefferson,AL,35243,
834.0,HAMP SIMMONS RD,TALLASSEE,AL, ,
1441.0,BEASON COVE,St Clair,AL,35987,
3956.0,BUYCK RD,TITUS,AL, ,
308.0,PIERSON Drive,Jefferson,AL,35173,
685.0,PROVIDENCE MAIN ST NW,Huntsville,AL,35806,
2216.0,MEMORIAL PKY NW,Huntsville,AL,35810,
1101.0,WEYBRIDGE RD,Shelby,AL,35124,
2606.0,SKYLINE DR NW,Huntsville,AL,35810,
4504.0,RATON BLV NW,Huntsville,AL,35810,
3329.0,3RD ST NE,Tuscaloosa,AL,35404,
5001.0,SLASH PINE DR,MONTGOMERY,AL,36116,
140.0,BUDDY VINES Loop,Jefferson,AL,35023,
2100.0,EPWORTH DR NE,Huntsville,AL,35811,
141.0,15TH Ave West,Jefferson,AL,35204,
143.0,7TH ST,Autauga,AL,36067,
2348.0,18TH Place Southwest,Jefferson,AL,35211,
28.0,FALCON LN,Shelby,AL,35115,
2608.0,LULLWATER RD,BIRMINGHAM,AL,35242,
3150.0,LEES LN,Mobile,AL,36693,
356.0,LAKEVIEW DR,ECLECTIC,AL, ,
3702.0,BELVOIR DR SW,Huntsville,AL,35805,
2403.0,ELEVENTH ST SW,Huntsville,AL,35805,
124.0,STURDIVANT ST,Madison,AL,35758,
9841.0,SHADOW WOOD DR,Mobile,AL,36608,
6111.0,FAIRFIELD DR,Huntsville,AL,35811,
6500.0,WALDEN RUN CIR NW,Huntsville,AL,35806,
140.0,ELM St Southwest,Jefferson,AL,35022,
304.0,BEIRNE AVE NE,Huntsville,AL,35801,
902.0,GARY ALAN TRACE,St Clair,AL,35004,
1628.0,COBBLESTONE CT,MONTGOMERY,AL,36117,
476.0,AVON RD,MONTGOMERY,AL,36109,
3360.0,ALEMEDA Ave Southwest,Jefferson,AL,35221,
124.0,PASEUR ST,New Hope,AL,35760,
14981.0,CAPSTONE LN,ATHENS,AL,35613,
7904.0,4TH Ave North,Jefferson,AL,35206,
3223.0,JOSLIN ST SW,Huntsville,AL,35805,
6570.0,WHITE OAK Lane,Jefferson,AL,35023,
408.0,BALD EAGLE RUN SW,Huntsville,AL,35824,
1565.0,BREWSTER Circle,Jefferson,AL,35235,
3408.0,NAIL Road,Jefferson,AL,35180,
10418.0,HI RD,Tuscaloosa,AL,35490,
2805.0,MICMAC Drive,Jefferson,AL,35215,
4136.0,Old LEEDS Lane,Jefferson,AL,35213,
2055.0,AUTUMN LEAF DR W,Mobile,AL,36695,
118.0,CRIMSON ROSE DR NW,MADISON,AL,35758,12.0
1385.0,SWAN Drive,Jefferson,AL,35022,
3036.0,MANOR BROOK Drive,Jefferson,AL,35243,
424.0,UPPER KINGSTON RD,Autauga,AL,36067,
344.0,13TH St,Jefferson,AL,35127,
4400.0,CYPRESS BUSINESS PARK DR,Mobile,AL,36619,
3624.0,68TH St North,Jefferson,AL,35206,
404.0,56TH St,Jefferson,AL,35064,
1006.0,BARBARA DR E,Mobile,AL,36617,
534.0,EDGECREST Circle,Jefferson,AL,35209,
82.0,RICHFIELD CT,DEATSVILLE,AL,36022,
4400.0,GOVERNMENT BLVD,Mobile,AL,36693,15.0
105.0,SHADY LN,ALABASTER,AL,35007,
624.0,LLOYD NOLAND Parkway,Jefferson,AL,35064,
3103.0,CHELSEA PARK RDG,Shelby,AL,35043,
23460.0,HWY 145,COLUMBIANA,AL,35051,
301.0,GRIFFIN PARK TRCE,Shelby,AL,35242,
10309.0,SEGERS RD,Madison,AL,35756,
3951.0,SOUTH SHADES CREST RD,Shelby,AL,35244,
4082.0,JUBILEE LN,St Clair,AL,35004,
6305.0,SONNIE CT,MONTGOMERY,AL,36117,
,MT HEBRON RD,ELMORE,AL, ,
1423.0,AL HWY 10,BRUNDIDGE,AL,36010,
1352.0,STONEHENGE RD,MONTGOMERY,AL,36117,
2227.0,CASSIE LN,Mobile,AL,36605,
6664.0,DESTINEE NICOLE DR,Mobile,AL,36582,
108.0,CARTERS LN,COLUMBIANA,AL,35051,
1322.0,S   MCDONOUGH ST,MONTGOMERY,AL,36104,
3109.0,HORSESHOE BEND,Mobile,AL,36693,
3134.0,RENFRO Road,Jefferson,AL,35216,
726.0,STONECREST DR,Shelby,AL,35242,
12902.0,MARBLE DR,MADISON,AL,35758,
208.0,N LAFAYETTE ST,Mobile,AL,36604,
1860.0,16TH St North,Jefferson,AL,35204,
4729.0,COURT M,Jefferson,AL,35208,
19945.0,BOULDER LN,ROBERTSDALE,AL,36567,
512.0,MONTGOMERY Hwy,Jefferson,AL,35216,300.0
7521.0,MOORES MILL RD,Huntsville,AL,35811,
7206.0,3RD Ave North,Jefferson,AL,35206,
1008.0,WOODLAWN DR W,Mobile,AL,36605,
6950.0,HW 82  E,Tuscaloosa,AL,35405,
724.0,WYNN Ave,Jefferson,AL,35023,
125.0,DARTMOUTH DR,Madison,AL,35757,
7328.0,DIVISION Ave,Jefferson,AL,35206,
6201.0,OLD SHELL RD,Mobile,AL,36608,107.0
744.0,CAHABA FOREST Cove,Jefferson,AL,35242,
720.0,RYAN ST,MONTGOMERY,AL,36107,
4995.0,BRANCHVILLE Road,Jefferson,AL,35173,
5188.0,COOSADA RD,COOSADA,AL,36020,
901.0,REGENTS DR W,Mobile,AL,36609,
123.0,CASTLEWOOD DR,MADISON,AL,35758,
1556.0,SCHILLINGER RD S,Mobile,AL,36695,
3700.0,PIN OAK DR,Mobile,AL,36608,5.0
7820.0,BANKHEAD Hwy,Jefferson,AL,35062,
126.0,BELLINGHAM DR,Madison,AL,35758,
751.0,NARROWS POINT CIR,BIRMINGHAM,AL,35242,
7556.0,DICKEY SPRINGS Road,Jefferson,AL,35022,
105.0,STARLING DR,MADISON,AL,35758,
8143.0,OLD MADISON PKE,Madison,AL,35758,
501.0,OAK GLEN TRCE,BIRMINGHAM,AL,35244,
21.0,BOYD ST,MONTGOMERY,AL,36110,
1531.0,2ND St Southeast,Jefferson,AL,35073,
7900.0,BAILEY COVE RD SE,Huntsville,AL,35802,
2010.0,FAIRWAY HILLS DR SW,Huntsville,AL,35802,
315.0,TURTLE BAY CIR,Tuscaloosa,AL,35473,
4140.0,49TH Terrace North,Jefferson,AL,35217,
2144.0,PIONEER Drive,Jefferson,AL,35226,
1903.0,EOLINE ST,Mobile,AL,36617,
7362.0,MULBERRY Circle,Jefferson,AL,35022,
3503.0,8TH Ave North,Jefferson,AL,35020,
1404.0,S BRUNDIDGE ST,TROY,AL,36081,
5141.0,BEACON Drive,Jefferson,AL,35210,
651.0,Old HICKORY Road,Jefferson,AL,35180,
1125.0,MADISON PARK DR NW,Madison,AL,35758,
101.0,SENECA LN,Gurley,AL,35748,
1056.0,CROSS GATES PL,Mobile,AL,36609,
93.0,TURTLE ROCK RD,St Clair,AL,35125,
3630.0,WIND RIDGE Lane,Jefferson,AL,35022,
15604.0,AUDUBON LN,ATHENS,AL,35611,306.0
2913.0,NORWOOD Boulevard,Jefferson,AL,35234,
28889.0,RED BIRD LN,HARVEST,AL,35749,
1109.0,BAYLOR DR,Mobile,AL,36618,
599.0,COMPANY ST,WETUMPKA,AL, ,
2804.0,HOLIDAY DR SW,Huntsville,AL,35805,
144.0,CHRISTY DR,Shelby,AL,35143,
6617.0,GRELOT RD,Mobile,AL,36695,
90.0,GILMORE-NICK CIR,MONTEVALLO,AL,35115,
2834.0,SWEENEY HOLLOW Road,Jefferson,AL,35215,
233.0,CHESWICK DR,Madison,AL,35757,
1501.0,TAYLOR OAKS CIR,MONTGOMERY,AL,36117,
1707.0,BOOTH CIR,Autauga,AL,36008,
2866.0,REGAL Circle,Jefferson,AL,35216,
810.0,CANDY MOUNTAIN Road,Jefferson,AL,35217,
5191.0,SCARLET OAK Circle,Jefferson,AL,35022,
304.0,5TH Place,Jefferson,AL,35214,
176.0,WINCHESTER RD NE,Huntsville,AL,35811,
7327.0,GEORGIA RD,Jefferson,AL,35212,
14078.0,MARY DR,Tuscaloosa,AL,35475,
1404.0,STONEHENGE RD,MONTGOMERY,AL,36117,
204.0,BLUE RIDGE RD,St Clair,AL,35216,
1212.0,ASH CV,ALABASTER,AL,35007,
2780.0,OLD ORCHARD LN,MONTGOMERY,AL,36116,
3002.0,SUMMIT VIEW CIR SE,Brownsboro,AL,35741,
4234.0,WILDERNESS Road,Jefferson,AL,35213,
2511.0,HUNTSVILLE ST NW,Huntsville,AL,35811,
11051.0,HOWELLS FERRY RD,Mobile,AL,36575,
72.0,BONNIE BLUE LN,COLUMBIANA,AL,35051,
309.0,HAROLDS DR NW,Huntsville,AL,35806,
11602.0,MEMORIAL PKY SW,Huntsville,AL,35803,
210.0,BENTMOOR LN,HELENA,AL,35080,
48.0,BULLFROG DR,CALERA,AL,35040,
1024.0,DOGWOOD Place,Jefferson,AL,35023,
6121.0,SCENIC WEST DR,Mobile,AL,36693,
1330.0,16TH St North,Jefferson,AL,35204,
2329.0,RINGOLD DR E,Mobile,AL,36693,
16638.0,MULBERRY LN,ATHENS,AL,35613,
105.0,JOE FLETCHER DR,Madison,AL,35756,
463.0,BELSAW AVE,Mobile,AL,36603,
7080.0,WESTCHESTER DR,Mobile,AL,36619,
5216.0,BURMA RD W,Mobile,AL,36693,
962.0,PALMETTO ST,Mobile,AL,36604,
5269.0,MEADOW GARDEN LN,Shelby,AL,35242,
3203.0,OVERHILL ST NW,Huntsville,AL,35810,
11106.0,US 231-431 N HWY,Meridianville,AL,35759,
4725.0,9TH Terrace North,Jefferson,AL,35212,
1522.0,VANDERBILT Place,Jefferson,AL,35234,
2450.0,KOWALIGA RD,ECLECTIC,AL, ,
2304.0,HIGHWAY 31 N,Autauga,AL,36022,
9955.0,SUNLIGHT DR,Tuscaloosa,AL,35405,
916.0,BERMUDA Drive,Jefferson,AL,35071,
706.0,THORNTON PL,Mobile,AL,36609,
1966.0,WAGNER ST,Mobile,AL,36617,308.0
1533.0,87TH St North,Jefferson,AL,35206,
516.0,MEADOW DR,BIRMINGHAM,AL,35242,
108.0,MINIVER PL NW,Madison,AL,35757,
118.0,DU RHU DR,Mobile,AL,36608,
7031.0,1ST Ave South,Jefferson,AL,35206,
8132.0,ANDERSON Drive,Jefferson,AL,35116,
4100.0,5TH Ave South,Jefferson,AL,35222,
2298.0,PORTER Road,Jefferson,AL,35005,
5407.0,JAVA Ave,Jefferson,AL,35224,
3572.0,42ND Ave North,Jefferson,AL,35207,
245.0,13TH Ave Northeast,Jefferson,AL,35215,
1425.0,MONTGOMERY Hwy,Jefferson,AL,35216,99.0
20430.0,WINFRED DR,TANNER,AL,35671,
7417.0,US 72 W HWY NW,Madison,AL,35758,
5479.0,SKYLAND BLVD E,Tuscaloosa,AL,35453,
1401.0,PETAL FALL DR,Shelby,AL,35242,
4029.0,ALSTON Way,Jefferson,AL,35242,
202.0,DOUGLAS CIR,Autauga,AL,36067,
1924.0,Center St South,Jefferson,AL,35211,
505.0,BRECKENRIDGE DR E,Mobile,AL,36608,
5317.0,BRIDLE PATH Lane,Jefferson,AL,35126,
1033.0,GIPSON ST,Autauga,AL,36066,
1503.0,CARTER GROVE RD,Hazel Green,AL,35750,
6140.0,SOUTHBEND DR N,Mobile,AL,36619,
12792.0,PULASKI PKE,Ardmore,AL,35739,
1808.0,CARGILE Drive,Jefferson,AL,35006,
5100.0,HENDERSON Road,Jefferson,AL,35005,
196.0,ARROW LEAF TR,TALLASSEE,AL, ,
424.0,SHEPPARD Lane,Jefferson,AL,35006,
33.0,INVERNESS CENTER PKWY,BIRMINGHAM,AL,35242,
209.0,CREEKEDGE CIR NW,Madison,AL,35757,
12646.0,CAMP CHERRY AUSTIN RD,Tuscaloosa,AL,35444,
1813.0,MOLLY Lane,Jefferson,AL,35235,
7270.0,MURRAY HEIGHTS DR S,Mobile,AL,36544,
7371.0,THOMAS HALL Drive,Jefferson,AL,35173,
1340.0,KINGSTON OAKS DR,Autauga,AL,36067,
3651.0,GOVERNMENT BLVD,Mobile,AL,36693,
3440.0,33RD Ave North,Jefferson,AL,35207,
1001.0,BURTON RD,TALLASSEE,AL, ,
6040.0,MAY Ave,Jefferson,AL,35126,
1436.0,CAHABA FOREST Cove,Jefferson,AL,35242,
551.0,VILLAGE GREEN DR E,Mobile,AL,36609,30.0
1808.0,SHOAL RUN TRL,BIRMINGHAM,AL,35242,
1230.0,SARAH DR,Mobile,AL,36575,
1910.0,Crescent Ave,Jefferson,AL,35020,
1092.0,LONG LEAF LAKE Drive,Jefferson,AL,35022,
135.0,BRIDGEFIELD RD,Madison,AL,35758,
2450.0,BEAR CREEK COVE LN,Tuscaloosa,AL,35456,
745.0,COUNTY RD 21 N,Autauga,AL,36067,
301.0,MACON St,Jefferson,AL,35214,
3381.0,MORGAN Road,Jefferson,AL,35022,
3807.0,LAKEWOOD DR,MONTGOMERY,AL,36108,
2618.0,RED HILL RD,ECLECTIC,AL, ,
6403.0,HOMESTEAD RD,Huntsville,AL,35811,
4132.0,CARMICHAEL RD,MONTGOMERY,AL,36106,
201.0,FERN BANK DR,Hazel Green,AL,35750,
200.0,CLINTON AVE NW,Huntsville,AL,35801,
486.0,GOLSON ROAD,Autauga,AL,36067,
926.0,54TH AVE E,Tuscaloosa,AL,35404,
424.0,COUNTY RD 2207,TROY,AL,36079,
872.0,WALNUT St,Jefferson,AL,35210,
500.0,KITTRELL RD NW,Huntsville,AL,35806,
18024.0,ARROWHEAD CIR,ATHENS,AL,35611,11.0
121.0,AEDRE WAY,MADISON,AL,35758,27.0
600.0,S WASHINGTON AVE,Mobile,AL,36603,54.0
108.0,MEADOW CROFT CIR,BIRMINGHAM,AL,35242,
645.0,LAUNCH DR,St Clair,AL,35953,
9521.0,CORNELIUS RD,Mobile,AL,36544,
1600.0,FRANKLIN PARC Drive,Jefferson,AL,35180,
7844.0,ROPER Road,Jefferson,AL,35173,
1607.0,11TH Ave North,Jefferson,AL,35203,
12730.0,COVERED BRIDGE RD,Tuscaloosa,AL,35444,
1826.0,WILLOW SPRINGS RD,WETUMPKA,AL, ,
5605.0,CALMAR DR,MONTGOMERY,AL,36116,
2236.0,15TH St North,Jefferson,AL,35020,
325.0,66TH St South,Jefferson,AL,35212,
211.0,KNOTTING PL,Madison,AL,35758,
180.0,COUNTRY RIDGE RD,MONTEVALLO,AL,35115,
46.0,HAWTHORN ST,BIRMINGHAM,AL,35242,
1000.0,FIELDCREST DR,Tuscaloosa,AL,35406,
2073.0,CLINTON ST,Mobile,AL,36617,
2537.0,2ND Place Northwest,Jefferson,AL,35215,
5351.0,WASHINGTON BLVD,Mobile,AL,36582,
2100.0,GILBREATH RD NW,Huntsville,AL,35810,
3966.0,GOVERNMENT BLVD,Mobile,AL,36693,
3700.0,CARLYLE CLS,Mobile,AL,36609,758.0
5500.0,COURT P,Jefferson,AL,35208,
257.0,MACALLAN DR,Shelby,AL,35124,
1813.0,LYLE Drive,Jefferson,AL,35235,
9825.0,AIRPORT Road,Jefferson,AL,35217,
700.0,FLAG Circle,Jefferson,AL,35226,
1824.0,Corner Road,Jefferson,AL,35180,
8041.0,COPPERFIELD DR,MONTGOMERY,AL,36117,
3250.0,DAUPHIN ST,Mobile,AL,36606,
117.0,NORTH HIGHLAND DR,COLUMBIANA,AL,35051,
900.0,DOWNTOWNER BLVD,Mobile,AL,36609,623.0
1624.0,KESTWICK Drive,Jefferson,AL,35226,
12895.0,HENDERSON LN,Madison,AL,35756,
319.0,ARNOLD RD,New Market,AL,35761,
1195.0,BESSEMER Road,Jefferson,AL,35228,
2745.0,Pike Road,Jefferson,AL,35208,
1701.0,PROVIDENCE PARK,Shelby,AL,35242,
31287.0,HWY 25,WILSONVILLE,AL,35186,
9.0,EAGLE POINT CIRCLE,St Clair,AL,35128,
1016.0,PARKMONT WAY,Shelby,AL,35043,
2174.0,MT MEIGS RD,MONTGOMERY,AL,36107,
585.0,SUMMIT LAKES DR,ATHENS,AL,35613,
2044.0,LIV DR,St Clair,AL,35173,
216.0,SAXON Drive,Jefferson,AL,35209,
856.0,RIVER LANDING BLV SW,Madison,AL,35756,
303.0,N ANN AV,TALLASSEE,AL, ,
3731.0,MAGNOLIA Court,Jefferson,AL,35071,
445.0,ANNIE LEE RD,St Clair,AL,35004,
5660.0,HICKORY DR,MILLBROOK,AL,36054,
,COBBS FORD RD,Autauga,AL,36066,
4001.0,POPLAR Drive,Jefferson,AL,35005,
817.0,BALFOUR RD,MONTGOMERY,AL,36117,
233.0,SHORT 25TH AVE E,Tuscaloosa,AL,35404,
3481.0,BIRCH TREE Drive,Jefferson,AL,35226,
0.0,I-65 NORTHBOUND   N,MONTGOMERY,AL,36108,
4222.0,SOUTHWOOD DR,MONTGOMERY,AL,36116,
105.0,ELLA CT NW,Madison,AL,35758,
