NUMBER,STREET,CITY,STATE,POSTCODE,UNIT
2821.0,N 63RD DR,PHOENIX,AZ,85035,
6829.0,E GOLDEN HILLS WY,MESA,AZ,85208,
,N WILLOW AVE,WHETSTONE,AZ,85616,
1749.0,W NIDO AVE,MESA,AZ,85202,
12727.0,W BLUE BONNET DR,SUN CITY WEST,AZ,85375,
14161.0,W POINSETTIA DR,SURPRISE,AZ,85379,
16613.0,N AVENIDA DE LA CANADA,TUCSON,AZ,85739,
18217.0,N 63RD AVE,GLENDALE,AZ,85308,
4343.0,N 21ST ST,PHOENIX,AZ,85016,109.0
353.0,S 172ND DR,GOODYEAR,AZ,85338,
5510.0,N 62ND DR,GLENDALE,AZ,85301,
8265.0,E SOUTHERN AVE,MESA,AZ,85209,367.0
537.0,W LA PAZ ST,TUCSON,AZ,85701,
7311.0,W RIVULET DR,TUCSON,AZ,85743,
1613.0,N DESERT PL,TUCSON,AZ,85712,
8516.0,E ALDER AVE,MESA,AZ,85208,
4013.0,N 63RD DR,PHOENIX,AZ,85033,
7609.0,E 35TH ST,TUCSON,AZ,85710,
3062.0,E CAMINO ST,MESA,AZ,85213,
11711.0,E WETHERSFIELD RD,SCOTTSDALE,AZ,85259,
11445.0,E SUNDANCE DR,TUCSON,AZ,85749,
7725.0,E OAKWOOD CI,TUCSON,AZ,85750,
908.0,S POWER RD,MESA,AZ,85206,224.0
1138.0,N BELVEDERE AV,TUCSON,AZ,85712,
17216.0,W 3RD ST,ARIVACA,AZ,85601,
7527.0,N 47TH LN,GLENDALE,AZ,85301,
7186.0,W TRAILS DR,GLENDALE,AZ,85308,
7550.0,E 2ND ST,SCOTTSDALE,AZ,85251,
4034.0,W MISSOURI AVE,PHOENIX,AZ,85019,
2672.0,"RANGO DR, LAKE HAVASU CITY",LAKE HAVASU CITY,AZ,86405,
15578.0,W GELDING DR,SURPRISE,AZ,85379,
5960.0,W OREGON AVE,GLENDALE,AZ,85301,127.0
2227.0,W GREENBRIAR DR,PHOENIX,AZ,85023,
2855.0,E JOHN L AVE,KINGMAN,AZ,86409,
178.0,S PASEO SECO,GREEN VALLEY,AZ,85614,
5000.0,N MALL WAY,Flagstaff,AZ,86004,
2057.0,S PEPPERTREE DR,GILBERT,AZ,85295,
4700.0,S FULTON RANCH BLVD,CHANDLER,AZ,85248,61.0
4935.0,W BEAUTIFUL LN,LAVEEN,AZ,85339,
12439.0,W DEL RIO LN,AVONDALE,AZ,85323,
7040.0,E BROADWAY BL,TUCSON,AZ,85710,
4216.0,N 42ND PL,PHOENIX,AZ,85018,
332.0,W PALMDALE ST,TUCSON,AZ,85714,
3720.0,E CLOUD RD,CAVE CREEK,AZ,85331,
8220.0,S POWER RD,GILBERT,AZ,85297,
2299.0,E SADDLEBROOK RD,GILBERT,AZ,85298,
192.0,LOCUST DR,LAKE HAVASU CITY,AZ,86403,
6774.0,S FOUR PEAKS WY,CHANDLER,AZ,85249,
7212.0,N 25TH LN,PHOENIX,AZ,85051,
18417.0,N WELK DR,SUN CITY,AZ,85373,
7945.0,E GLADE AVE,MESA,AZ,85209,
25953.0,W SEQUOIA DR,BUCKEYE,AZ,85396,
6614.0,S MCKEMY ST,TEMPE,AZ,85283,
15141.0,W ASTER DR,SURPRISE,AZ,85379,
201.0,W MAIN ST,PAYSON,AZ,85541,
1599.0,KALIL,BULLHEAD CITY,AZ,86442,
5550.0,W CAVEDALE DR,PHOENIX,AZ,85083,
4302.0,N 103RD AVE,PHOENIX,AZ,85037,65.0
13129.0,W ROWEL RD,PEORIA,AZ,85383,
7717.0,W CROCUS DR,PEORIA,AZ,85381,
4409.0,N 112TH AVE,PHOENIX,AZ,85037,
3785.0,"N MELODY ST, KINGMAN 000000000",KINGMAN,AZ,86409,
,N 8TH ST,TOMBSTONE CITY,AZ,85638,
3047.0,W WINDSONG DR,PHOENIX,AZ,85045,
10717.0,E EMELITA AVE,MESA,AZ,85208,
2091.0,E FAIRVIEW ST,CHANDLER,AZ,85225,
1350.0,S GREENFIELD RD,MESA,AZ,85206,2043.0
3136.0,W CREST LN,PHOENIX,AZ,85027,
16378.0,W PICCADILLY RD,GOODYEAR,AZ,85395,
2902.0,N RIVER CREEK PL,TUCSON,AZ,85745,
6680.0,W BELL RD,GLENDALE,AZ,85308,
5347.0,W GARDEN DR,GLENDALE,AZ,85304,
5907.0,W QUESTA DR,GLENDALE,AZ,85310,
580.0,W SAHUARO ST,TUCSON,AZ,85705,
3725.0,S LEAD FLOWER AV,TUCSON,AZ,85735,
7610.0,N LA CHOLLA BL,TUCSON,AZ,85741,
311.0,E CONSTITUTION DR,Gilbert,AZ,85296,
1230.0,S CROSSBOW PL,CHANDLER,AZ,85286,
12230.0,W MARICOPA ST,AVONDALE,AZ,85323,
4786.0,N KELLI LN,KINGMAN,AZ,86401,
3527.0,N KACHINA LN,SCOTTSDALE,AZ,85251,
29221.0,N 53RD ST,CAVE CREEK,AZ,85331,
1450.0,W KAIBAB LN,Flagstaff,AZ,86001,
,S MARICOPA PL,SIERRA VISTA,AZ,85650,
909.0,S CLARA VISTA CI,GREEN VALLEY,AZ,85614,
15409.0,S 45TH PL,PHOENIX,AZ,85044,
7302.0,W MAPLE RIDGE DR,TUCSON,AZ,85743,
318.0,E FONTANA PL,TUCSON,AZ,85705,
715.0,E KAIBAB DR,CHANDLER,AZ,85249,
210.0,N 54TH ST,MESA,AZ,85205,
19726.0,N 53RD DR,GLENDALE,AZ,85308,
1471.0,N SAN FRANCISCO ST,Flagstaff,AZ,86001,
357.0,E BELLUZZI BLVD,PAYSON,AZ,85541,
1615.0,N TYNDALL AV,TUCSON,AZ,85719,
3010.0,E VISTA DR,PHOENIX,AZ,85032,
19241.0,N 78TH LN,GLENDALE,AZ,85308,
14601.0,S 46TH ST,PHOENIX,AZ,85044,
8039.0,S 25TH ST,PHOENIX,AZ,85042,
131.0,N HIGLEY RD,MESA,AZ,85205,18.0
9315.0,W DEL MONTE DR,GRANADA HILLS,AZ,91344,
1705.0,W DILLON WAY,PAYSON,AZ,85541,
4337.0,N 20TH ST,PHOENIX,AZ,85016,
5613.0,W WYOMING ST,TUCSON,AZ,85757,
12220.0,N 23RD ST,PHOENIX,AZ,85022,
2564.0,S PECAN VALLEY PL,GREEN VALLEY,AZ,85614,
12019.0,W BLOOMFIELD RD,EL MIRAGE,AZ,85335,
1355.0,E WELDON AVE,PHOENIX,AZ,85014,
13314.0,W ACAPULCO LN,SURPRISE,AZ,85379,
18005.0,N 44TH WY,PHOENIX,AZ,85032,
2326.0,E INDIGO BAY DR,Gilbert,AZ,85234,
1350.0,E NORTHERN AVE,PHOENIX,AZ,85020,142.0
846.0,S NIELSON CT,Gilbert,AZ,85296,
6551.0,S CLASSIC WY,GILBERT,AZ,85298,
1915.0,S 39TH ST,MESA,AZ,85206,52.0
77.0,E MISSOURI AVE,PHOENIX,AZ,85012,43.0
10255.0,E VIA LINDA,SCOTTSDALE,AZ,85258,1068.0
13744.0,W ACAPULCO LN,SURPRISE,AZ,85379,
2521.0,E TOMAHAWK CT,GILBERT,AZ,85298,
3417.0,E CRESCENT WY,GILBERT,AZ,85298,
9636.0,N 36TH AVE,PHOENIX,AZ,85051,
6600.0,E CACTUS WREN PL,PARADISE VALLEY,AZ,85253,
7644.0,W MISSOURI AVE,GLENDALE,AZ,85303,
14000.0,N 94TH ST,SCOTTSDALE,AZ,85260,1160.0
18803.0,N PALOMAR DR,SUN CITY WEST,AZ,85375,
2071.0,N VILLAS LN,CHANDLER,AZ,85224,
107.0,S 3RD ST,BUCKEYE,AZ,85326,
871.0,"ROADRUNNER DR, BULLHEAD CITY 000000000",BULLHEAD CITY,AZ,86442,
1959.0,E SAGEBRUSH ST,Gilbert,AZ,85296,
21488.0,S 222ND PL,QUEEN CREEK,AZ,85142,
4827.0,W WILLOW WIND PL,TUCSON,AZ,85741,
12405.0,W PALO VERDE DR,LITCHFIELD PARK,AZ,85340,
5637.0,E 2ND ST,TUCSON,AZ,85711,
4576.0,E ENCINAS AVE,GILBERT,AZ,85234,
2573.0,E IRONSIDE CT,Gilbert,AZ,85298,
4050.0,E HIGHLAND AVE,PHOENIX,AZ,85018,
1705.0,S PARKSIDE DR,TEMPE,AZ,85281,
630.0,LOS ALTOS DR,WICKENBURG,AZ,85390,
261.0,W ROADRUNNER DR,CHANDLER,AZ,85286,
10018.0,W OCOTILLO DR,SUN CITY,AZ,85373,
1265.0,W OVERTON DR,PALM BEACH GARDENS,AZ,33418,
301.0,W PIMA ST,GILA BEND,AZ,85337,
40564.0,N TERRITORY TR,PHOENIX,AZ,85086,
839.0,E MARCONI AVE,PHOENIX,AZ,85022,
,14TH ST,DOUGLAS CITY SECTOR B,AZ,85607,
4012.0,W WONDERVIEW RD,PHOENIX,AZ,85019,
18655.0,N 7TH ST,PHOENIX,AZ,85024,
507.0,E LEISURE LN,PHOENIX,AZ,85086,
7055.0,N DONATELLO WY,TUCSON,AZ,85741,
3014.0,S 95TH DR,TOLLESON,AZ,85353,
4133.0,E MORELAND ST,PHOENIX,AZ,85008,
1960.0,E COLGATE DR,TEMPE,AZ,85283,
7510.0,N SARIVAL AVE,LITCHFIELD PARK,AZ,85340,
15878.0,W ALVARADO DR,GOODYEAR,AZ,85395,
915.0,"SEA SPRAY DR, BULLHEAD CITY",CHLORIDE,AZ,86431,
17505.0,S GRASSLAND WY,VAIL,AZ,85641,
758.0,W TIPTON DR,TUCSON,AZ,85705,
20890.0,E SONOQUI DR,QUEEN CREEK,AZ,85142,
,E MUSTANG TRL,PALOMINAS,AZ,85615,
3150.0,S ALDEBARAN PL,TUCSON,AZ,85730,
19630.0,N 25TH PL,PHOENIX,AZ,85050,
5010.0,W ASTER DR,GLENDALE,AZ,85304,
309.0,N 85TH ST,MESA,AZ,85207,
14490.0,S STAGECOACH RD,TUCSON,AZ,85736,
15207.0,N DESERT ROSE DR,SUN CITY,AZ,85351,
6212.0,E COLBY ST,MESA,AZ,85205,
3214.0,N FOURTH ST,Flagstaff,AZ,86004,
2436.0,W CROCUS DR,PHOENIX,AZ,85023,
19234.0,N 68TH AVE,GLENDALE,AZ,85308,
15953.0,W MEEKER AV,TUCSON,AZ,85736,
13385.0,S HUNTING DOG RD,VAIL,AZ,85641,
1145.0,W UNIVERSITY DR,MESA,AZ,85201,
4509.0,E 22ND ST,TUCSON,AZ,85711,
6051.0,W CAROL ANN WAY,GLENDALE,AZ,85306,
3978.0,N 151ST LN,GOODYEAR,AZ,85395,
0.0,000000000,KINGMAN,AZ,86401,
,E CHRISTMAS TREE LN,SUNSITES,AZ,85625,
335.0,S RED ROCK ST,GILBERT,AZ,85296,
12973.0,W RED FOX RD,PEORIA,AZ,85383,
4909.0,E 12TH ST,TUCSON,AZ,85711,
1619.0,N DYSART RD,AVONDALE,AZ,85392,
3755.0,E BROADWAY RD,MESA,AZ,85206,109.0
14925.0,W ANTELOPE DR,SUN CITY WEST,AZ,85375,
4915.0,W ECHO LN,GLENDALE,AZ,85302,
7780.0,E JACK OAK RD,TUCSON,AZ,85756,
8735.0,W FLOWER ST,PHOENIX,AZ,85037,
9948.0,W OCOTILLO DR,SUN CITY,AZ,85373,
4750.0,E INDIAN BEND RD,PARADISE VALLEY,AZ,85253,
1946.0,IMPERIAL,KINGMAN,AZ,86409,
1975.0,"E BIG BASS CV, LAKE HAVASU CITY 000000000",LAKE HAVASU CITY,AZ,86404,
2645.0,S SOUTHWIND DR,GILBERT,AZ,85295,
12602.0,W MYER LN,EL MIRAGE,AZ,85335,
11135.0,E GOLF LINKS RD,TUCSON,AZ,85730,
,S SAN FRANCISCO ST,Flagstaff,AZ,86001,
224.0,E SHEFFIELD CT,GILBERT,AZ,85296,
11416.0,N 105TH AVE,SUN CITY,AZ,85351,
16101.0,W MC CLOUD DR,ARIVACA,AZ,85601,
15832.0,E RAY RD,GILBERT,AZ,85296,
3148.0,S POWER RD,Gilbert,AZ,85234,
2925.0,N PALO VERDE AV,TUCSON,AZ,85716,
3014.0,W TONOPAH DR,PHOENIX,AZ,85027,
5200.0,W GLENVIEW PL,CHANDLER,AZ,85226,
2030.0,W JULIE CIR,PHOENIX,AZ,85027,
3941.0,E KROLL CT,Gilbert,AZ,85234,
5116.0,S 11TH AVE,PHOENIX,AZ,85041,
2544.0,"BORA TRL, BULLHEAD CITY",KINGMAN,AZ,86401,
14231.0,N 37TH PL,PHOENIX,AZ,85032,
3556.0,W ORCHID LN,PHOENIX,AZ,85051,
7851.0,S COLLEGE AVE,TEMPE,AZ,85284,
3062.0,E CARLA VISTA DR,Gilbert,AZ,85295,
10239.0,W CHARTER OAK DR,SUN CITY,AZ,85351,
8361.0,W ROCKWOOD DR,PEORIA,AZ,85382,
4062.0,E HOPE ST,MESA,AZ,85205,
20402.0,W MORNING STAR LN,WITTMANN,AZ,85361,
1712.0,E VAN BUREN ST,PHOENIX,AZ,85006,
2223.0,E CAMPBELL AVE,PHOENIX,AZ,85016,
5002.0,S 36TH DR,PHOENIX,AZ,85041,
5938.0,W STELLA AVE,GLENDALE,AZ,85301,
25.0,S 41ST ST,PHOENIX,AZ,85034,
3268.0,E REGAL DR,QUEEN CREEK,AZ,85142,
1288.0,N RIDGELINE DR,NOGALES,AZ,85621,
,N VALENZUELA RD,DOUGLAS,AZ,85607,
25790.0,W VICTORY ST,BUCKEYE,AZ,85326,
3901.0,N CALLE BARRANCO,TUCSON,AZ,85750,
7610.0,N 13TH AVE,PHOENIX,AZ,85021,
1345.0,E CHANDLER BLVD,PHOENIX,AZ,85048,121.0
6370.0,S HILDRETH AV,TUCSON,AZ,85746,
5146.0,E OAK ST,PHOENIX,AZ,85008,4.0
9345.0,E 26TH ST,TUCSON,AZ,85710,
18612.0,N 68TH AVE,GLENDALE,AZ,85308,
16415.0,S 46TH WY,PHOENIX,AZ,85048,
1836.0,N STAPLEY DR,MESA,AZ,85203,165.0
420.0,E LINDA LN,GILBERT,AZ,85234,
15154.0,"S HWY 66, TOPOCK",UPLAND,AZ,91784,
8455.0,W GLENROSA AVE,PHOENIX,AZ,85037,
11902.0,W SANDARIO HOLLOW TR,TUCSON,AZ,85735,
2224.0,N TREAT AV,TUCSON,AZ,85716,
126.0,E KINDERMAN DR,AVONDALE,AZ,85323,
1401.0,N FOURTH ST,Flagstaff,AZ,86004,
2969.0,E MELROSE ST,GILBERT,AZ,85297,
1701.0,W ANGEL FIRE TER,PHOENIX,AZ,85027,
8221.0,E 1ST AVE,MESA,AZ,85208,
1800.0,CLUB HOUSE DR B 16,HUNTINGTON BEACH,AZ,92647,
3622.0,N 34TH AVE,PHOENIX,AZ,85017,
8634.0,E VIRGINIA AVE,SCOTTSDALE,AZ,85257,
7469.0,S VIA RANCHO LA COSTA,TUCSON,AZ,85756,
3437.0,W DIANA AVE,PHOENIX,AZ,85051,
2314.0,"ASHLEY CT, KINGMAN 000000000",KINGMAN,AZ,86402,
1506.0,W BRAVO TAXIWAY,PAYSON,AZ,85541,11.0
9201.0,W MAYBROOK PL,MARANA,AZ,85653,
1725.0,W CHILTON ST,CHANDLER,AZ,85224,
12410.0,W LEWIS AVE,AVONDALE,AZ,85392,
4262.0,E PALM BEACH DR,CHANDLER,AZ,85249,
5449.0,S 51ST AVE,LAVEEN,AZ,85339,
2917.0,N 32ND ST,PHOENIX,AZ,85018,
7043.0,N 2ND AVE,PHOENIX,AZ,85021,
11127.0,E STARFLOWER CT,SUN LAKES,AZ,85248,
17751.0,W LANGER LN,SURPRISE,AZ,85388,
6620.0,W BUTLER DR,GLENDALE,AZ,85302,51.0
2608.0,W PEROLA DR,PHOENIX,AZ,85085,
5712.0,N 67TH AVE,GLENDALE,AZ,85301,125.0
4845.0,S MILL AVE,TEMPE,AZ,85282,
6924.0,W ZOE ELLA WAY,PEORIA,AZ,85382,
714.0,W LA PRYOR LN,Gilbert,AZ,85233,
125.0,N SMITH AV,TUCSON,AZ,85719,
909.0,E WHITTON AVE,PHOENIX,AZ,85014,
6022.0,N PANORAMA PARK DR,TUCSON,AZ,85704,
3660.0,W BETHANY HOME RD,PHOENIX,AZ,85019,
8817.0,E MEADOW HILLS DR,SCOTTSDALE,AZ,85260,
8039.0,W MURAL HILL DR,TUCSON,AZ,85743,
5175.0,"S JACK RABBIT DR, FORT MOHAVE",FORT MOHAVE,AZ,86426,
2024.0,N MADELYN AV,TUCSON,AZ,85712,
6021.0,E LONG SHADOW TR,SCOTTSDALE,AZ,85266,
12724.0,W CHUCKS AVE,PEORIA,AZ,85383,
959.0,E SORENSON ST,MESA,AZ,85203,
1885.0,E FRYE RD,GILBERT,AZ,85295,102.0
36419.0,N 20TH ST,PHOENIX,AZ,85086,
5250.0,E CORTLAND BLVD,Flagstaff,AZ,86004,
17609.0,W HEARN RD,SURPRISE,AZ,85388,
12459.0,W BARNETT FARMS DR,MARANA,AZ,85653,
223.0,N GILBERT RD,Gilbert,AZ,85234,
13801.0,N PRIMROSE ST,EL MIRAGE,AZ,85335,
6502.0,E CALLE CAPPELA,TUCSON,AZ,85710,
6749.0,W WOLF ST,PHOENIX,AZ,85033,
4205.0,W DUBLIN CT,CHANDLER,AZ,85226,
12471.0,N 71ST DR,PEORIA,AZ,85381,
19002.0,N 90TH PL,SCOTTSDALE,AZ,85255,
2237.0,E CAPRI CIR,MESA,AZ,85204,
1629.0,N 65TH AVE,PHOENIX,AZ,85035,
5841.0,N CALLE KINO,TUCSON,AZ,85704,
12725.0,W REDFIELD RD,EL MIRAGE,AZ,85335,
20850.0,E SHETLAND ST,QUEEN CREEK,AZ,85142,
4264.0,E CANADA SV,TUCSON,AZ,85706,
13044.0,E COCHISE RD,SCOTTSDALE,AZ,85259,
8203.0,N IRON RIDGE DR,TUCSON,AZ,85743,
1711.0,S ROCA,MESA,AZ,85204,
6844.0,N 14TH DR,PHOENIX,AZ,85013,
9110.0,W FILLMORE ST,TOLLESON,AZ,85353,
6940.0,E COCHISE RD,PARADISE VALLEY,AZ,85253,1009.0
3270.0,E CANARY WY,CHANDLER,AZ,85286,
5221.0,E 7TH ST,TUCSON,AZ,85711,
51515.0,N MOCKINGBIRD RD,WICKENBURG,AZ,85390,
2156.0,"REDONDO LN, BULLHEAD CITY 86442",BULLHEAD CITY,AZ,86442,
8931.0,N 95TH AVE,PEORIA,AZ,85345,
8401.0,N 67TH AVE,GLENDALE,AZ,85302,110.0
1214.0,N 358TH AVE,TONOPAH,AZ,85354,
3917.0,W ASTER DR,PHOENIX,AZ,85029,
4420.0,W ORCHID LN,GLENDALE,AZ,85302,
1728.0,E SAMUEL DR,PHOENIX,AZ,85024,
3811.0,S VINEYARD AVE,Gilbert,AZ,85297,
4023.0,W LAS PALMARITAS DR,PHOENIX,AZ,85051,
12919.0,W BUTTERFIELD DR,SUN CITY WEST,AZ,85375,
4621.0,N SHINUMO DR,TUCSON,AZ,85749,
9722.0,N LONG CREEK DR,TUCSON,AZ,85743,
4410.0,E CERRADA DEL CHARRO,TUCSON,AZ,85718,
406.0,W MOUNTAIN VIEW DR,AVONDALE,AZ,85323,
2231.0,"LAKESIDE DR, BULLHEAD CITY 86442",RANCHO CUCAMONGA,AZ,91701,
7364.0,E ED RICE AVE,MESA,AZ,85208,
6771.0,W CREST LN,GLENDALE,AZ,85310,
14527.0,W ANTELOPE DR,SUN CITY WEST,AZ,85375,
10750.0,N AIRLINE RD,MARANA,AZ,85653,
13061.0,N 55TH DR,GLENDALE,AZ,85304,
5650.0,N BILTMORE ESTATES DR,PHOENIX,AZ,85016,
3118.0,W T RYAN LN,PHOENIX,AZ,85041,
39306.0,W FLOWER ST,TONOPAH,AZ,85354,
2661.0,N RILEY RD,BUCKEYE,AZ,85396,
5437.0,W GROVE ST,LAVEEN,AZ,85339,
1902.0,"E VIA SAN MARCO, FORT MOHAVE 000000000",LAS VEGAS,AZ,89137,
14399.0,E CORRINE DR,SCOTTSDALE,AZ,85259,
8345.0,E CYPRESS POINT LN,TUCSON,AZ,85710,
570.0,N 54TH ST,CHANDLER,AZ,85226,
2607.0,E BEEKMAN PL,PHOENIX,AZ,85016,
4826.0,E PRINCESS DR,MESA,AZ,85205,
1572.0,S 174TH LN,GOODYEAR,AZ,85338,
917.0,W HEATHERBRAE DR,PHOENIX,AZ,85013,
5557.0,W BAR X ST,TUCSON,AZ,85713,
5255.0,W CHOLLA ST,GLENDALE,AZ,85304,
2629.0,E BERYL AVE,PHOENIX,AZ,85028,
5412.0,S 331ST AVE,TONOPAH,AZ,85354,
2090.0,S DORSEY LN,TEMPE,AZ,85282,1037.0
15357.0,W EVANS DR,SURPRISE,AZ,85379,
3454.0,ORO GRANDE BLVD,LAKE HAVASU CITY,AZ,86406,
8710.0,E 28TH ST,TUCSON,AZ,85710,
533.0,NAVAJO RD,MESA,AZ,85205,
2450.0,W GLENROSA AVE,PHOENIX,AZ,85015,23.0
5339.0,W EUGIE AVE,GLENDALE,AZ,85304,
18639.0,W BETHANY HOME RD,LITCHFIELD PARK,AZ,85340,
921.0,S TUCANA LN,Gilbert,AZ,85296,
10186.0,W WHITE FEATHER LN,PEORIA,AZ,85383,
10940.0,S COLT DR,TUCSON,AZ,85736,
20957.0,E STARFLOWER DR,QUEEN CREEK,AZ,85142,
839.0,ROLLING HILLS PLZ,VALLEJO,AZ,94591,
20664.0,W NELSON PL,BUCKEYE,AZ,85396,
1285.0,W PICKERING DR,GREEN VALLEY,AZ,85614,
11069.0,E KAREN DR,SCOTTSDALE,AZ,85255,
40725.0,N COURAGE TR,PHOENIX,AZ,85086,
6920.0,W HEDGE ROSE DR,TUCSON,AZ,85757,
276.0,E CALLE PUENTE AZUL,SAHUARITA,AZ,85629,
5583.0,W SOLITUDE TRAILS LOOP,PINE,AZ,85544,
1542.0,W CHILTON AVE,GILBERT,AZ,85233,
2087.0,"WILL ROGERS WAY, KINGMAN 864090000",KINGMAN,AZ,86409,
7705.0,W SUMMER SKY DR,TUCSON,AZ,85743,
15797.0,W CINNABAR DR,SURPRISE,AZ,85374,
2989.0,S GILBERT RD,Gilbert,AZ,85295,
11141.0,E SERAFINA AVE,MESA,AZ,85212,
580.0,S EDEN RD,GOLDEN VALLEY,AZ,86413,
23860.0,W LA SALLE ST,BUCKEYE,AZ,85326,
1194.0,W SALMON CT,GILBERT,AZ,85233,
1244.0,N AMBROSIA,MESA,AZ,85205,
4213.0,E WEATHER VANE RD,Gilbert,AZ,85296,
20801.0,N 90TH PL,SCOTTSDALE,AZ,85255,162.0
133.0,E ROGER RD,TUCSON,AZ,85705,
6744.0,W ROMA AVE,PHOENIX,AZ,85033,
2850.0,N CALLE CASTELLON,TUCSON,AZ,85745,
7213.0,W DUPONT WY,TUCSON,AZ,85757,
1105.0,E PONDEROSA PKWY,Flagstaff,AZ,86001,
6242.0,N SABINO SHADOW LN,TUCSON,AZ,85750,
2230.0,N ESCUDILLA DR,GLOBE,AZ,85501,
715.0,W KILAREA AVE,MESA,AZ,85210,
7714.0,E SWEETWATER AVE,SCOTTSDALE,AZ,85260,
4880.0,W BETHANY HOME RD,GLENDALE,AZ,85301,68.0
324.0,E ALTA VISTA RD,PHOENIX,AZ,85042,
2139.0,HOLLY AVE,LAKE HAVASU CITY,AZ,86403,
355.0,N CONSTELLATION RD,WICKENBURG,AZ,85390,
5339.0,S SABRINA,MESA,AZ,85212,
17681.0,W CEDARWOOD LN,GOODYEAR,AZ,85338,
6801.0,E 17TH ST,TUCSON,AZ,85710,
7661.0,E TORREY POINT CIR,MESA,AZ,85207,
8289.0,S CAMINO DE CAFE,TUCSON,AZ,85747,
2511.0,N 143RD DR,GOODYEAR,AZ,85395,
44393.0,N AZ HIGHWAY 188,TONTO BASIN,AZ,85553,
2028.0,E MEAD PL,CHANDLER,AZ,85249,
7258.0,E GLENCOVE ST,MESA,AZ,85207,
13525.0,N LON ADAMS RD,MARANA,AZ,85653,
3767.0,N WATERTANK RD,PINE,AZ,85544,
3006.0,W SELDON LN,PHOENIX,AZ,85051,
,LEXINGTON DR,SIERRA VISTA CITY,AZ,85635,
,CARMELITA DR,SIERRA VISTA CITY,AZ,85635,
3234.0,S 74TH LN,PHOENIX,AZ,85043,
210.0,S BEELINE HWY,PAYSON,AZ,85541,
750.0,N SADDLEBACK TR,WICKENBURG,AZ,85390,
3351.0,S TATUM LN,Gilbert,AZ,85297,
2940.0,S MANDY CIR,MESA,AZ,85212,
707.0,E RANCHO RD,PAYSON,AZ,85541,
0.0,000000000,KINGMAN,AZ,86401,
1331.0,S CANYON OAKS WY,CHANDLER,AZ,85286,
7750.0,E BROADWAY RD,MESA,AZ,85208,649.0
260.0,W NAUGLE AVE,PATAGONIA,AZ,85624,
3122.0,N SNEAD DR,GOODYEAR,AZ,85395,
744.0,S ST PAUL CIR,MESA,AZ,85206,
4144.0,W MARIPOSA GRANDE,GLENDALE,AZ,85310,
1117.0,E 8TH ST,TUCSON,AZ,85719,
4930.0,W WICHALAKAS,TUCSON,AZ,85757,
17777.0,W GELDING DR,SURPRISE,AZ,85388,
4036.0,E CAMINO ST,MESA,AZ,85205,
0.0,000000000,LITTLEFIELD,AZ,86432,
12026.0,N 60TH AVE,GLENDALE,AZ,85304,
4347.0,E CORRAL ST,PHOENIX,AZ,85044,
7317.0,E INDIGO ST,MESA,AZ,85207,
4361.0,N WILMOT RD,TUCSON,AZ,85750,
5240.0,E BOG SPRINGS RD,SAHUARITA,AZ,85629,
1533.0,W MULBERRY DR,PHOENIX,AZ,85015,
15349.0,W GELDING DR,SURPRISE,AZ,85379,
3422.0,E POWELL WY,GILBERT,AZ,85298,
7634.0,E MINNEZONA AVE,SCOTTSDALE,AZ,85251,
5042.0,W CAMINO DE MANANA,TUCSON,AZ,85742,
5460.0,S MORRIS CI,TUCSON,AZ,85706,
2006.0,W CACTUS RUN DR,GREEN VALLEY,AZ,85622,
5660.0,W PIERSON ST,PHOENIX,AZ,85031,
12810.0,E TORTOISE POINTE DR,VAIL,AZ,85641,
7513.0,E GARFIELD ST,SCOTTSDALE,AZ,85257,
5553.0,E PLAYER PL,MESA,AZ,85215,
12945.0,E CAPE HORN DR,TUCSON,AZ,85749,
11001.0,N 50TH ST,SCOTTSDALE,AZ,85254,
323.0,E LAGUNA DR,TEMPE,AZ,85282,
8150.0,N 61ST AVE,GLENDALE,AZ,85302,3131.0
9928.0,E OBISPO AVE,MESA,AZ,85212,
8601.0,N 71ST AVE,GLENDALE,AZ,85301,142.0
6212.0,S 44TH DR,LAVEEN,AZ,85339,
531.0,W OCATILLO AV,AJO,AZ,85321,
5400.0,S CANADA DR,TUCSON,AZ,85706,
730.0,N LAZY J WY,TUCSON,AZ,85748,
4413.0,N 62ND ST,SCOTTSDALE,AZ,85251,
10346.0,E MCLELLAN RD,MESA,AZ,85207,
13822.0,W SOLANO DR,LITCHFIELD PARK,AZ,85340,
5909.0,W FETLOCK TR,PHOENIX,AZ,85083,
10802.0,W HIBISCUS DR,SUN CITY,AZ,85373,
5933.0,E SANDRA TER,SCOTTSDALE,AZ,85254,
4521.0,E SCOTT AVE,GILBERT,AZ,85234,
23844.0,S 209TH ST,QUEEN CREEK,AZ,85142,
2075.0,W PECOS RD,CHANDLER,AZ,85224,
2673.0,E INDIGO PL,CHANDLER,AZ,85286,
3245.0,W SAHUARO DR,PHOENIX,AZ,85029,
561.0,W ARAGON RD,TUCSON,AZ,85756,
4978.0,E KINGS AVE,SCOTTSDALE,AZ,85254,
14133.0,W PECOS LN,SUN CITY WEST,AZ,85375,
8502.0,W SHERIDAN ST,PHOENIX,AZ,85037,
2480.0,E ENCINAS AVE,GILBERT,AZ,85234,
1831.0,S NORRIS AV,TUCSON,AZ,85713,
10930.0,N 139TH ST,SCOTTSDALE,AZ,85259,
7101.0,E OLD PECOS RD,MESA,AZ,85212,
6883.0,N 78TH AVE,GLENDALE,AZ,85303,
4645.0,S LAKESHORE DR,TEMPE,AZ,85282,8.0
8432.0,E TETHER TR,SCOTTSDALE,AZ,85255,
11205.0,W GRANADA RD,AVONDALE,AZ,85392,
2296.0,E PARKSIDE DR,NEEDLES,AZ,92363,
38.0,W BADGER CREEK TRL,Flagstaff,AZ,86005,
1410.0,N CAMERON AV,AJO,AZ,85321,
21208.0,N 52ND AVE,GLENDALE,AZ,85308,
8432.0,E STELLA LN,SCOTTSDALE,AZ,85250,
842.0,W CALLE DE MARZO,GREEN VALLEY,AZ,85614,
2861.0,W DAKOTA ST,TUCSON,AZ,85746,
5918.0,E WINDROSE DR,SCOTTSDALE,AZ,85254,
8620.0,N 65TH AVE,GLENDALE,AZ,85302,133.0
5763.0,E 29TH ST,TUCSON,AZ,85711,
2934.0,E ARROYO CHICO,TUCSON,AZ,85716,
2603.0,E MILLER DR,Flagstaff,AZ,86004,
4233.0,W IRWIN AVE,PHOENIX,AZ,85041,
582.0,N ARIZONA AVE,CHANDLER,AZ,85225,
1225.0,E TENNESSEE ST,TUCSON,AZ,85714,
7681.0,E TULIP TREE ST,TUCSON,AZ,85730,
3577.0,DESERT ROSE PL,LINDSTROM,AZ,55045,
5014.0,N 76TH PL,SCOTTSDALE,AZ,85250,
193.0,W RAVEN DR,CHANDLER,AZ,85286,
9747.0,N EDWARDS DR,SUN CITY,AZ,85351,
2601.0,N HARTFORD ST,CHANDLER,AZ,85225,
2011.0,W CORONA RD,TUCSON,AZ,85746,
2931.0,E MELODY LN,Gilbert,AZ,85234,
46.0,CIRCULO VERDUGO,RIO RICO,AZ,85648,
11515.0,N 91ST ST,SCOTTSDALE,AZ,85260,216.0
2346.0,N 56TH DR,PHOENIX,AZ,85035,
1621.0,"E COTTONWOOD LN, MOHAVE VALLEY 000000000",BULLHEAD CITY,AZ,86439,
8556.0,N 107TH DR,PEORIA,AZ,85345,
2516.0,E CAMELLIA DR,Gilbert,AZ,85296,
10765.0,W ALVARADO RD,AVONDALE,AZ,85392,
1402.0,MCCULLOCH BLVD 42,RAPID CITY,AZ,49676,
2158.0,W PAINTED SUNSET CI,TUCSON,AZ,85745,
6924.0,W GRAND AVE,GLENDALE,AZ,85302,11.0
,S AVA RANCH RD,PORTAL,AZ,85632,
0.0,000000000,BULLHEAD CITY,AZ,86442,
4726.0,W INDIANOLA AVE,PHOENIX,AZ,85031,
3415.0,N HERITAGE WY,CHANDLER,AZ,85224,
8731.0,W CINNABAR AVE,PEORIA,AZ,85345,
12226.0,N GADWALL DR,MARANA,AZ,85653,
,W 3RD ST,BOWIE,AZ,85605,
8837.0,N 95TH AVE,PEORIA,AZ,85345,
4462.0,E EARLL DR,PHOENIX,AZ,85018,
4417.0,E GLENHAVEN DR,PHOENIX,AZ,85048,
10721.0,W CHERYL DR,SUN CITY,AZ,85351,
5610.0,S 8TH WY,PHOENIX,AZ,85040,
3341.0,E QUEEN CREEK RD,GILBERT,AZ,85297,107.0
13224.0,S KIVA RD,BUCKEYE,AZ,85326,
4322.0,W SIERRA ST,GLENDALE,AZ,85304,
10650.0,N GILA RD,TUCSON,AZ,85742,
971.0,N POINCIANA RD,Gilbert,AZ,85234,
,E FRY BLVD,SIERRA VISTA CITY,AZ,85635,
5690.0,W TREASURE COVE LP,TUCSON,AZ,85713,
3674.0,E STRAWBERRY DR,Gilbert,AZ,85298,
1280.0,"MOHAVE DR 29A, BULLHEAD CITY 86442",GILBERTSVILLE,AZ,19525,
3512.0,"KIOWA BLVD, LAKE HAVASU CITY",LAKE HAVASU CITY,AZ,86404,
13524.0,W PECK DR,LITCHFIELD PARK,AZ,85340,
5501.0,W GRANADA RD,PHOENIX,AZ,85035,
4957.0,W JOYCE CIR,GLENDALE,AZ,85308,
731.0,N TIAGO CT,Gilbert,AZ,85233,
2072.0,E SOUTHERN AVE,TEMPE,AZ,85282,
113.0,E RODEO DR,TUCSON,AZ,85714,
3973.0,E SANDPIPER DR,PHOENIX,AZ,85050,
1547.0,W VIA MIRASOL,GREEN VALLEY,AZ,85622,
6075.0,N 39TH PL,PARADISE VALLEY,AZ,85253,
6285.0,S 162ND ST,GILBERT,AZ,85298,
6351.0,W CAMPO BELLO DR,GLENDALE,AZ,85308,
7499.0,E SONORAN TR,SCOTTSDALE,AZ,85266,
7323.0,W CLEAR CANYON DR,TUCSON,AZ,85743,
13229.0,N 19TH PL,PHOENIX,AZ,85022,
1588.0,E ALVORD RD,TUCSON,AZ,85706,
3677.0,HATTERAS LN,LAKE HAVASU CITY,AZ,86404,
,E ROADRUNNER RDG,TOMBSTONE,AZ,85638,
8413.0,W HILTON AVE,TOLLESON,AZ,85353,
11644.0,E NAVAJO DR,CHANDLER,AZ,85249,
10340.0,W PIMA ST,TOLLESON,AZ,85353,
1738.0,S CHOLLA,MESA,AZ,85202,
6330.0,N CASA BLANCA ST,PARADISE VALLEY,AZ,85253,
11401.0,E RAINTREE DR,SCOTTSDALE,AZ,85255,
5252.0,W MAUNA LOA LN,GLENDALE,AZ,85306,
1731.0,W TAMARISK ST,PHOENIX,AZ,85041,
2692.0,S YAVAPAI RD,LAS VEGAS,AZ,89148,
,"DUGAS RD, GOLDEN VALLEY",BELLEVUE,AZ,98004,
415.0,GARDNER CANYON RD,SONOITA,AZ,85637,
7575.0,"N VARALLO DR, KINGMAN",KINGMAN,AZ,86409,
4201.0,W OCOTILLO RD,PHOENIX,AZ,85019,
8137.0,E CLARENDON AVE,SCOTTSDALE,AZ,85251,
5899.0,W CEDAR MEADOW LN,PINE,AZ,85544,
4126.0,E ROMA AVE,PHOENIX,AZ,85018,
530.0,E MCDOWELL RD,PHOENIX,AZ,85004,
2014.0,W SPOTTED TOAD CT,TUCSON,AZ,85704,
13076.0,W DUSTY FLAT PL,TUCSON,AZ,85735,
3341.0,S MEAD AV,TUCSON,AZ,85730,
2434.0,E PRESCOTT ST,Gilbert,AZ,85298,
6801.0,W OCOTILLO RD,GLENDALE,AZ,85301,3060.0
3279.0,"E BOQUILLAS DR, KINGMAN 86401",KINGMAN,AZ,86409,
5615.0,E ARGYLE DR,PHOENIX,AZ,85018,
15509.0,N 136TH LN,SURPRISE,AZ,85374,
830.0,"N MT BANG WAY, LITTLEFIELD",HEBER CITY,AZ,84032,
25932.0,W WAHALLA LN,BUCKEYE,AZ,85396,
1418.0,W ASTER DR,PHOENIX,AZ,85029,
5636.0,E DALLAS ST,MESA,AZ,85205,
5694.0,E GREYTHORN DR,SCOTTSDALE,AZ,85266,
760.0,W LOCUST DR,CHANDLER,AZ,85248,
11201.0,N EL MIRAGE RD,EL MIRAGE,AZ,85335,160.0
3863.0,E CAVALRY CT,Gilbert,AZ,85297,
18807.0,E WHITEWING DR,RIO VERDE,AZ,85263,
5839.0,E WILSHIRE DR,SCOTTSDALE,AZ,85257,
10887.0,W DAVIS LN,AVONDALE,AZ,85323,
35018.0,N 27TH LN,PHOENIX,AZ,85086,
11213.0,N 52ND DR,GLENDALE,AZ,85304,
26056.0,W TONTO LN,BUCKEYE,AZ,85396,
7327.0,W CAVALIER DR,GLENDALE,AZ,85303,
4227.0,E FAIRMOUNT AVE,PHOENIX,AZ,85018,
,DOUGLAS ST,BISBEE CITY AREA 2,AZ,85603,
1232.0,E SIERRA MADRE AVE,Gilbert,AZ,85296,
16115.0,W DESERT COVE WY,SURPRISE,AZ,85374,
3140.0,N 64TH DR,PHOENIX,AZ,85033,
10806.0,W VIRGINIA AVE,AVONDALE,AZ,85392,
,QUAIL RUN DR,SIERRA VISTA CITY,AZ,85635,
2500.0,S HUFFER LN,Flagstaff,AZ,86001,
8402.0,E NIGHTINGALE STAR DR,SCOTTSDALE,AZ,85266,
4311.0,E BASELINE RD,GILBERT,AZ,85234,
1594.0,LAKESIDE DR,BULLHEAD CITY,AZ,86442,
4801.0,W LAVEY RD,GLENDALE,AZ,85306,
11810.0,S AGUA VERDE RD,VAIL,AZ,85641,
3819.0,N COPPER HILLS RD,GLOBE,AZ,85501,
3540.0,W LOST VILLAGE LN,TUCSON,AZ,85746,
15480.0,S ELMHURST AV,TUCSON,AZ,85736,
9435.0,W HUTTON DR,SUN CITY,AZ,85351,
21681.0,N 77TH AVE,PEORIA,AZ,85382,
,W WILCOX DR,SIERRA VISTA CITY,AZ,85635,
6044.0,W GELDING DR,GLENDALE,AZ,85306,
3214.0,E MADISON ST,PHOENIX,AZ,85034,
202.0,W MILBRAE SPRINGS DR,TUCSON,AZ,85755,
6081.0,N 85TH DR,GLENDALE,AZ,85305,
7553.0,N 21ST AVE,PHOENIX,AZ,85021,
8750.0,W BOPP RD,TUCSON,AZ,85735,
8891.0,W WHITE HILLS RD,HENDERSON,AZ,89052,
2581.0,W GAIL DR,CHANDLER,AZ,85224,
9663.0,"N SETTLERS DR, KINGMAN",KINGMAN,AZ,86401,
1269.0,W AYLESBURY DR,GREEN VALLEY,AZ,85614,
5264.0,E EMELITA AVE,MESA,AZ,85206,
848.0,W JUNIPER AVE,GILBERT,AZ,85233,
7309.0,E STETSON DR,SCOTTSDALE,AZ,85251,
14408.0,E MOURNING DOVE DR,FOUNTAIN HILLS,AZ,85268,
4926.0,E 17TH ST,TUCSON,AZ,85711,
3027.0,N 81ST DR,PHOENIX,AZ,85033,
9603.0,N 63RD DR,GLENDALE,AZ,85302,
1289.0,W BRUCE AVE,GILBERT,AZ,85233,
320.0,W MEADOWBROOK DR,TUCSON,AZ,85704,
8080.0,E CORTEZ DR,SCOTTSDALE,AZ,85260,
1930.0,"EL RODEO RD, FORT MOHAVE 000000000",FORT MOHAVE,AZ,86427,
1446.0,E MISSION LN,PHOENIX,AZ,85020,
1328.0,E 9TH ST,TUCSON,AZ,85719,
766.0,W MONTANA ST,TUCSON,AZ,85706,
21052.0,E SUNSET DR,QUEEN CREEK,AZ,85142,
12433.0,W VIRGINIA AVE,AVONDALE,AZ,85392,
314.0,E MAGEE RD,TUCSON,AZ,85704,
2660.0,S EQUESTRIAN DR,Gilbert,AZ,85295,105.0
912.0,E HOLAWAY DR,TUCSON,AZ,85719,
2897.0,S STACY DR,TUCSON,AZ,85713,
700.0,W UNIVERSITY AVE,Flagstaff,AZ,86001,
7063.0,E PORTOBELLO AVE,MESA,AZ,85212,
1546.0,E VILLA THERESA DR,PHOENIX,AZ,85022,
5331.0,W KESLER LN,CHANDLER,AZ,85226,
8646.0,W SHAW BUTTE DR,PEORIA,AZ,85345,
1018.0,N 7TH AV,TUCSON,AZ,85705,
8121.0,E ENSENADA ST,MESA,AZ,85207,
25727.0,W ROCKAWAY HILLS DR,MORRISTOWN,AZ,85342,
2689.0,E KING ST,TUCSON,AZ,85716,
12584.0,E CALLE TANGO,TUCSON,AZ,85749,
4007.0,E LUSHFIELD DR,TUCSON,AZ,85756,
20251.0,N 75TH AVE,GLENDALE,AZ,85308,1030.0
4223.0,E JASPER DR,Gilbert,AZ,85296,
15218.0,N BOLIVAR DR,SUN CITY,AZ,85351,
1830.0,S MILTON RD,Flagstaff,AZ,86001,
1145.0,N WINSTEL BL,TUCSON,AZ,85716,
1373.0,W SWAN CT,CHANDLER,AZ,85286,
1625.0,E CALLE GRANDIOSA,TUCSON,AZ,85706,
5901.0,W MEDLOCK DR,GLENDALE,AZ,85301,
4747.0,E CABALLERO ST,MESA,AZ,85205,
1445.0,"W VOCK CANYON RD, KINGMAN",KINGMAN,AZ,86409,
6316.0,"S VIA FORTUNA, FORT MOHAVE 000000000",RIVERSIDE,AZ,92507,
3725.0,"TOTEM DR, LAKE HAVASU CITY",CONCORD,AZ,94521,
341.0,N SHARON RD,VAIL,AZ,85641,
15023.0,W CARIBBEAN LN,SURPRISE,AZ,85379,
15240.0,N CLUBGATE DR,SCOTTSDALE,AZ,85254,128.0
4860.0,N 73RD ST,SCOTTSDALE,AZ,85251,16.0
,11TH ST,DOUGLAS CITY SECTOR B,AZ,85607,
12399.0,E LOU BOCK PL,TUCSON,AZ,85749,
8318.0,N 62ND AVE,GLENDALE,AZ,85302,
2626.0,E SYLVIA ST,TUCSON,AZ,85716,
38.0,W INGRAM ST,MESA,AZ,85201,
132.0,E EUGIE AVE,PHOENIX,AZ,85022,
287.0,E CLIFTON AVE,Gilbert,AZ,85295,
2662.0,E CINNABAR AVE,PHOENIX,AZ,85028,
112.0,S ROCKFORD DR,TEMPE,AZ,85281,
13790.0,S GARVEY RD,TUCSON,AZ,85736,
2815.0,W FOOTHILL DR,PHOENIX,AZ,85027,2.0
4701.0,E EDGEMONT AVE,PHOENIX,AZ,85008,
1920.0,S SADDLE ST,Gilbert,AZ,85233,
5109.0,W MONTE CRISTO AVE,GLENDALE,AZ,85306,
2495.0,E SPRING PIONEER LN,TUCSON,AZ,85755,
701.0,N POPLAR ST,GILBERT,AZ,85233,
3867.0,E PARK AVE,Gilbert,AZ,85234,
7468.0,E SAND HILLS RD,SCOTTSDALE,AZ,85255,
6534.0,W NORTH LN,GLENDALE,AZ,85302,
3636.0,N CABALLERO PL,TUCSON,AZ,85705,
4435.0,W KALER CIR,GLENDALE,AZ,85301,
1507.0,W ST JOHN RD,PHOENIX,AZ,85023,
15417.0,N 60TH AVE,GLENDALE,AZ,85306,
14464.0,W ALMERIA RD,GOODYEAR,AZ,85395,
411.0,E APACHE SPRINGS,YOUNG,AZ,85554,
7710.0,E HARTFORD DR,SCOTTSDALE,AZ,85255,
41221.0,N ROLLING GREEN WY,PHOENIX,AZ,85086,
2222.0,W VILLAGE DR,PHOENIX,AZ,85023,
23615.0,N 21ST PL,PHOENIX,AZ,85024,
15138.0,W DOLTON AV,TUCSON,AZ,85736,
15011.0,E WINDYHILL DR,FOUNTAIN HILLS,AZ,85268,
27324.0,N MAKENA PL,PEORIA,AZ,85383,
3733.0,W NANCY LN,PHOENIX,AZ,85041,
35.0,S RIVER RD,NOGALES,AZ,85621,1.0
6632.0,E 39TH ST,TUCSON,AZ,85730,
12320.0,W JUN FERNANDO WY,MARANA,AZ,85653,
1303.0,W JUNIPER AVE,GILBERT,AZ,85233,
15818.0,N 25TH ST,PHOENIX,AZ,85032,109.0
7681.0,E PEROLA DR,SCOTTSDALE,AZ,85266,
1940.0,"CORONADO DR, BULLHEAD CITY 86442",LAUGHLIN,AZ,89029,
6431.0,W PUGET AVE,GLENDALE,AZ,85302,
,W MANZANITA AVE,WHETSTONE,AZ,85616,
9960.0,E DESERT AIRE DR,TUCSON,AZ,85730,
,SYCAMORE DR,SIERRA VISTA CITY,AZ,85635,
16739.0,W CORONADO RD,GOODYEAR,AZ,85395,
47440.0,N 31ST AVE,NEW RIVER,AZ,85087,
901.0,S 3RD ST,AVONDALE,AZ,85323,
9049.0,W PEORIA AVE,PEORIA,AZ,85345,
1860.0,"MERCED DR, BULLHEAD CITY",BULLHEAD CITY,AZ,86442,
907.0,S PINECONE ST,PAYSON,AZ,85541,
3883.0,"HERITAGE LN, KINGMAN 000000000",KINGMAN,AZ,86409,
79.0,N CHILDRESS CIR,STAR VALLEY,AZ,85541,
2132.0,E ALTA VISTA RD,PHOENIX,AZ,85042,
2746.0,W MADERO AVE,MESA,AZ,85202,
1510.0,"E WAGON WHEEL LN, FORT MOHAVE 864260000",LAS VEGAS,AZ,89136,
1511.0,E SILVERWOOD DR,PHOENIX,AZ,85048,
4992.0,N BLACKTAIL RD,MARANA,AZ,85653,
4418.0,W MYRTLE AVE,GLENDALE,AZ,85301,
10054.0,E TUPELO AVE,MESA,AZ,85212,
12497.0,N GOLDEN MIRROR DR,MARANA,AZ,85658,
12202.0,S POTOMAC ST,PHOENIX,AZ,85044,
16246.0,N 33RD DR,PHOENIX,AZ,85053,
1320.0,W PANORAMA RD,TUCSON,AZ,85704,
17837.0,N 75TH DR,GLENDALE,AZ,85308,
16420.0,S ROUNDELAY RD,TUCSON,AZ,85736,
11016.0,W SANTA FE DR,SUN CITY,AZ,85351,
8447.0,E SHERIDAN ST,SCOTTSDALE,AZ,85257,
9618.0,W GREENWAY RD,SUN CITY,AZ,85351,
20437.0,N 95TH PL,SCOTTSDALE,AZ,85255,
267.0,W CONSTITUTION DR,Gilbert,AZ,85233,
17223.0,N PINION LN,SUN CITY,AZ,85373,
5702.0,N 124TH LN,LITCHFIELD PARK,AZ,85340,
1720.0,W BROADWAY RD,MESA,AZ,85202,
1942.0,S EMERSON,MESA,AZ,85210,128.0
16531.0,N QUEEN ESTHER DR,SURPRISE,AZ,85378,
4506.0,E RAKESTRAW LN,GILBERT,AZ,85298,
2336.0,N FREMONT BLVD,Flagstaff,AZ,86001,
1133.0,W VAUGHN AVE,GILBERT,AZ,85233,
7428.0,W SOUTHGATE AVE,PHOENIX,AZ,85043,
6112.0,N 67TH AVE,GLENDALE,AZ,85301,274.0
17783.0,W TASHA DR,SURPRISE,AZ,85388,
3421.0,W LITTLE HOPI DR,PHOENIX,AZ,85086,
8424.0,E 25TH ST,TUCSON,AZ,85710,
4757.0,W MCRAE WY,GLENDALE,AZ,85308,
4021.0,E EMILE ZOLA AVE,PHOENIX,AZ,85032,
3422.0,E POWELL WY,Gilbert,AZ,85298,
10902.0,W CHASE LN,AVONDALE,AZ,85323,
8659.0,W TIERRA BUENA LN,PEORIA,AZ,85382,
8940.0,E DESERT AIRE ST,TUCSON,AZ,85730,
3800.0,S CANTABRIA CIR,CHANDLER,AZ,85248,1012.0
0.0,000000000,WHITE HILLS,AZ,86445,
1862.0,E CATAMARAN DR,Gilbert,AZ,85234,
4448.0,S 3RD ST,PHOENIX,AZ,85040,
128.0,N MORLEY AVE,NOGALES,AZ,85621,
4711.0,W MAGDALENA LN,LAVEEN,AZ,85339,
14409.0,N PRIMROSE ST,EL MIRAGE,AZ,85335,
121.0,E HARVARD DR,TEMPE,AZ,85283,
2105.0,W DETROIT ST,CHANDLER,AZ,85224,
4601.0,N 48TH AVE,PHOENIX,AZ,85031,
2319.0,N 66TH ST,SCOTTSDALE,AZ,85257,
907.0,E HEARNE WY,Gilbert,AZ,85234,
3921.0,E MALLORY CIR,MESA,AZ,85215,
1360.0,E CLIFTON AVE,GILBERT,AZ,85295,
7621.0,W WELDON AVE,PHOENIX,AZ,85033,
4455.0,E DESERT VIEW DR,PHOENIX,AZ,85044,
3016.0,N 84TH PL,SCOTTSDALE,AZ,85251,
4922.0,W HUBBELL ST,PHOENIX,AZ,85035,
4751.0,S WARREN AV,TUCSON,AZ,85714,
519.0,S 201ST AVE,BUCKEYE,AZ,85326,
6575.0,W OCOTILLO RD,GLENDALE,AZ,85301,2024.0
7979.0,E PRINCESS DR,SCOTTSDALE,AZ,85255,
1932.0,E WALTANN LN,PHOENIX,AZ,85022,
11141.0,E QUARTET AVE,MESA,AZ,85212,
705.0,W LOCUST DR,CHANDLER,AZ,85248,
7369.0,E FLEDGLING DR,SCOTTSDALE,AZ,85255,
10170.0,"S RED LAKE RD, YUCCA",CHICO,AZ,95927,
2168.0,RUDOLPH DR,LAKE HAVASU CITY,AZ,86406,
,S 2ND ST,SIERRA VISTA CITY,AZ,85635,
28996.0,N 122ND DR,PEORIA,AZ,85383,
1414.0,E ROOSEVELT ST,PHOENIX,AZ,85006,
1224.0,E HAMMOND LN,PHOENIX,AZ,85034,
10118.0,W ALBENIZ PL,TOLLESON,AZ,85353,
5860.0,N MOCCASIN TR,TUCSON,AZ,85750,
3003.0,E EDISON ST,TUCSON,AZ,85716,
8761.0,E POMEGRANATE ST,TUCSON,AZ,85730,
24029.0,N 76TH PL,SCOTTSDALE,AZ,85255,
1402.0,N 2ND ST,PHOENIX,AZ,85004,
502.0,S 97TH WY,MESA,AZ,85208,
4407.0,S LA CORTA DR,TEMPE,AZ,85282,
4202.0,E BROADWAY RD,MESA,AZ,85206,123.0
6819.0,W TURQUOISE AVE,PEORIA,AZ,85345,
1073.0,W WASHINGTON AVE,GILBERT,AZ,85233,
139.0,E RAYMOND ST,PHOENIX,AZ,85040,
721.0,W GENEVA DR,TEMPE,AZ,85282,
3697.0,S MISSION DR,LA VERNE,AZ,91750,
3092.0,E AUSTIN DR,Gilbert,AZ,85296,
3800.0,S CANTABRIA CIR,CHANDLER,AZ,85248,1025.0
9881.0,E VISTA MONTANAS,TUCSON,AZ,85749,
,MEAD DR,MARCO ISLAND,AZ,34145,
12705.0,N 57TH DR,GLENDALE,AZ,85304,
450.0,N DODGE BL,TUCSON,AZ,85716,
5531.0,W BARBARA AVE,GLENDALE,AZ,85302,
6058.0,E SKYLINE DR,CAVE CREEK,AZ,85331,
37.0,W 5TH ST,TUCSON,AZ,85705,
13133.0,W FAIRMOUNT AVE,LITCHFIELD PARK,AZ,85340,
1730.0,E BRANHAM LN,PHOENIX,AZ,85042,
25220.0,W LA MONT AVE,BUCKEYE,AZ,85326,
550.0,W JUANITA AVE,MESA,AZ,85210,
7920.0,W AVRA VALLEY RD,MARANA,AZ,85653,
3118.0,W SAN MIGUEL AVE,PHOENIX,AZ,85017,
215.0,S 64TH AVE,PHOENIX,AZ,85043,
1378.0,"E EMPIRE RD, MOHAVE VALLEY 000000000",VICTORVILLE,AZ,92392,
910.0,DOUGLAS RD,MESA,AZ,85205,
5023.0,E CASPER ST,MESA,AZ,85205,
,E ROAD RUNNER HL,WILLCOX,AZ,85643,
3001.0,E GLENEAGLE DR,CHANDLER,AZ,85249,
3670.0,N PRINCE VILLAGE PL,TUCSON,AZ,85719,
15131.0,N 100TH PL,SCOTTSDALE,AZ,85260,
10441.0,E LOMITA AVE,MESA,AZ,85209,
1807.0,W BLUEBIRD DR,CHANDLER,AZ,85286,
6237.0,E MONTEREY WY,SCOTTSDALE,AZ,85251,
1881.0,W PLACITA DE DICIEMBRE,GREEN VALLEY,AZ,85622,
3519.0,E ERIE ST,GILBERT,AZ,85295,
2448.0,E CONTESSA ST,MESA,AZ,85213,
5106.0,W PURDUE AVE,GLENDALE,AZ,85302,
3323.0,S FELDSPAR AV,TUCSON,AZ,85735,
3656.0,S AVENIDA DE ENCINO,GREEN VALLEY,AZ,85614,
5062.0,W LAURIE LN,GLENDALE,AZ,85302,
2211.0,N AVENIDA TABICA,GREEN VALLEY,AZ,85614,
11430.0,N 39TH PL,PHOENIX,AZ,85028,
131.0,S CALIFORNIA ST,CHANDLER,AZ,85225,
1925.0,E FELLARS DR,PHOENIX,AZ,85022,
5412.0,W MALDONADO RD,LAVEEN,AZ,85339,
3241.0,S BONANZA AV,TUCSON,AZ,85730,
3109.0,S EUGENE,MESA,AZ,85212,
7028.0,W CAROL ANN WY,PEORIA,AZ,85382,
5202.0,W DUBLIN LN,CHANDLER,AZ,85226,
719.0,W COCOPAH ST,PHOENIX,AZ,85007,
1762.0,W HOMESTEAD DR,CHANDLER,AZ,85286,
15393.0,W CAMINO ESTRELLA DR,SURPRISE,AZ,85374,
5375.0,W FLYING CIRCLE ST,TUCSON,AZ,85713,
19847.0,N 45TH AVE,GLENDALE,AZ,85308,
8111.0,W GLENDALE AVE,GLENDALE,AZ,85303,39.0
2715.0,E GERMANN RD,GILBERT,AZ,85297,
5880.0,W EL CAMINO DEL CERRO,TUCSON,AZ,85745,
922.0,W TORTOLITA MOUNTAIN CI,TUCSON,AZ,85755,
2842.0,N RICHEY BL,TUCSON,AZ,85716,
14618.0,N ALTO ST,EL MIRAGE,AZ,85335,
981.0,W FOX RIDGE LN,TUCSON,AZ,85737,
984.0,S WESTERN SKIES DR,GILBERT,AZ,85296,
451.0,E PINTO DR,Gilbert,AZ,85296,
6201.0,N CAMINO ALMONTE,TUCSON,AZ,85718,
4853.0,S DESERT VIEW TRL,MOHAVE VALLEY,AZ,86440,
8615.0,E VIA DE LOS LIBROS,SCOTTSDALE,AZ,85258,
4702.0,N CAMINO FELIZ,TUCSON,AZ,85705,
2448.0,E FAIRFIELD ST,MESA,AZ,85213,
900.0,N CARRIBEAN AV,TUCSON,AZ,85748,
11433.0,W AMOLE CI,MARANA,AZ,85658,
4228.0,W REDFIELD RD,PHOENIX,AZ,85053,
9269.0,W ORAIBI DR,PEORIA,AZ,85382,
12721.0,N 75TH DR,PEORIA,AZ,85381,
1081.0,W 1ST ST,TEMPE,AZ,85281,9.0
10803.0,W RUTH AVE,PEORIA,AZ,85345,
,N BEAVER ST,Flagstaff,AZ,86001,
,N RIVER RD,ST DAVID,AZ,85630,
2606.0,N 44TH ST,PHOENIX,AZ,85008,
11745.0,N 99TH ST,SCOTTSDALE,AZ,85260,
706.0,N MEADOWLARK LN,CHANDLER,AZ,85226,
,MONARCH DR,SIERRA VISTA CITY,AZ,85635,
21036.0,E SONOQUI DR,QUEEN CREEK,AZ,85142,
4162.0,N AZ HIGHWAY 87,PINE,AZ,85544,
,HAZZARD ST,BISBEE CITY AREA 2,AZ,85603,
5451.0,W TOPEKA DR,GLENDALE,AZ,85308,
1021.0,GRAND AVE,PHOENIX,AZ,85007,
582.0,RUBEN CT,RIO RICO,AZ,85648,
1255.0,"TANQUERAY DR, LAKE HAVASU CITY 864040000",CHINO HILLS,AZ,91709,
7594.0,E MAJESTIC PALM LN,TUCSON,AZ,85756,
2705.0,N GOYETTE AV,TUCSON,AZ,85712,
23314.0,N 44TH PL,PHOENIX,AZ,85050,
14606.0,N 126TH AVE,EL MIRAGE,AZ,85335,
25005.0,N VADO CT,RIO VERDE,AZ,85263,
19762.0,N LONE CACTUS DR,SURPRISE,AZ,85374,
41213.0,N WHISTLING STRAIT CT,PHOENIX,AZ,85086,
8620.0,E VICKSBURG ST,TUCSON,AZ,85710,
4201.0,E PONCA ST,PHOENIX,AZ,85044,
6133.0,E GREENWAY RD,SCOTTSDALE,AZ,85254,
8920.0,W SILENT SAGUARO DR,MARANA,AZ,85653,
,E UTE PL,SIERRA VISTA,AZ,85650,
18455.0,W STATLER ST,SURPRISE,AZ,85388,
3911.0,E KENT AVE,GILBERT,AZ,85296,
2239.0,W CATALINA AVE,MESA,AZ,85202,
17247.0,E MELODY DR,Gilbert,AZ,85234,
9854.0,N CAMINO VADO,TUCSON,AZ,85742,
5820.0,W ROSEWOOD LN,PHOENIX,AZ,85031,
2172.0,W REDWOOD DR,CHANDLER,AZ,85248,
1150.0,E VOGEL AVE,PHOENIX,AZ,85020,
909.0,E CAMELBACK RD,PHOENIX,AZ,85014,1030.0
325.0,E DEEPDALE RD,PHOENIX,AZ,85022,
7546.0,E HIGH POINT DR,SCOTTSDALE,AZ,85266,
2381.0,W PLACITA ALGODON,TUCSON,AZ,85741,
11878.0,W WASHINGTON ST,AVONDALE,AZ,85323,
6515.0,E DOVE VALLEY RD,CAVE CREEK,AZ,85331,
3203.0,N MARGATE PL,CHANDLER,AZ,85224,
7032.0,E EDGEMONT ST,TUCSON,AZ,85710,
8201.0,E 22ND ST,TUCSON,AZ,85710,
3048.0,N OLYMPIC,MESA,AZ,85215,
16802.0,N 46TH LN,GLENDALE,AZ,85306,
16621.0,N 33RD DR,PHOENIX,AZ,85053,
6008.0,E HARVARD ST,SCOTTSDALE,AZ,85257,
3302.0,N 7TH ST,PHOENIX,AZ,85014,150.0
10602.0,W TROPICANA CIR,SUN CITY,AZ,85351,
908.0,S POWER RD,MESA,AZ,85206,2390.0
105.0,S PARK ST,Flagstaff,AZ,86001,
1149.0,E PRINCETON AVE,Gilbert,AZ,85234,
5020.0,N 83RD ST,SCOTTSDALE,AZ,85250,
902.0,E CLARIDGE PL,TUCSON,AZ,85755,
8549.0,N 84TH PL,SCOTTSDALE,AZ,85258,
13861.0,N HERITAGE CANYON DR,MARANA,AZ,85658,
4718.0,E PIERCE ST,PHOENIX,AZ,85008,
12880.0,N WHITE FENCE WY,MARANA,AZ,85653,
10434.0,N 44TH ST,PHOENIX,AZ,85028,
3150.0,W ECHO LN,PHOENIX,AZ,85051,
14036.0,N 8TH PL,PHOENIX,AZ,85022,
701.0,S CHOLLA DR,GLOBE,AZ,85501,
2010.0,E UNIVERSITY DR,TEMPE,AZ,85281,
880.0,E BAYLOR LN,CHANDLER,AZ,85225,
4031.0,S SOBOBA ST,Gilbert,AZ,85297,
2225.0,N 17TH AVE,PHOENIX,AZ,85007,
3207.0,N PATTERSON BLVD,Flagstaff,AZ,86004,
238.0,S VALLE VERDE,MESA,AZ,85208,
6432.0,E INGLEWOOD ST,MESA,AZ,85205,
1244.0,E TREMAINE AVE,Gilbert,AZ,85234,
1853.0,S GENTRY,MESA,AZ,85204,
632.0,MARKET ST,KINGMAN,AZ,86401,
,N CALLE PRIMERO,WHETSTONE,AZ,85616,
7410.0,W MARYLAND AVE,GLENDALE,AZ,85303,
4202.0,E 25TH ST,TUCSON,AZ,85711,
12015.0,N MILLER RD,SCOTTSDALE,AZ,85260,
2325.0,ALAMOGORDO LN,GERMANTOWN,AZ,62245,
908.0,S POWER RD,MESA,AZ,85206,2660.0
2585.0,E AVENIDA DE MARIA,TUCSON,AZ,85718,
370.0,W HACKBERRY DR,CHANDLER,AZ,85248,
10369.0,E PERSHING AVE,SCOTTSDALE,AZ,85260,
5439.0,E ELMWOOD ST,MESA,AZ,85205,
1707.0,E SHERIDAN ST,PHOENIX,AZ,85006,
4040.0,E PASEO DORADO,TUCSON,AZ,85711,
25429.0,W ELLIS DR,BUCKEYE,AZ,85326,
31006.0,N 163RD DR,SURPRISE,AZ,85387,
21211.0,N 38TH PL,PHOENIX,AZ,85050,
15772.0,W FAIRMOUNT AVE,GOODYEAR,AZ,85395,
4162.0,E SUNDANCE AVE,GILBERT,AZ,85297,
3609.0,E HIGHLAND AVE,PHOENIX,AZ,85018,
9132.0,W QUAIL AVE,PEORIA,AZ,85382,
2971.0,"N ARROW DR, KINGMAN",KINGMAN,AZ,86401,
9320.0,W GOLD DUST AVE,PEORIA,AZ,85345,
10981.0,N HONEYBEE PL,TUCSON,AZ,85737,
619.0,"CARLTON ST, KINGMAN 86401",KINGMAN,AZ,86409,
8848.0,W GREER AVE,PEORIA,AZ,85345,
6138.0,W CLAREMONT ST,GLENDALE,AZ,85301,
1540.0,W VUELTA SALVATIERRA,GREEN VALLEY,AZ,85622,
4115.0,W MEDLOCK DR,PHOENIX,AZ,85019,
,N 3RD ST,HUACHUCA CITY TOWN,AZ,85616,
399.0,W KLINGER CANYON DR,TUCSON,AZ,85755,
855.0,HAVASUPAI CT,LAKE FOREST,AZ,92630,
20582.0,N 263RD DR,BUCKEYE,AZ,85396,
630.0,E JENSEN ST,MESA,AZ,85203,161.0
1255.0,E WEIMER CI,TUCSON,AZ,85719,
8715.0,W TOWNLEY AVE,PEORIA,AZ,85345,
436.0,S PASEO CERRO,GREEN VALLEY,AZ,85614,
5451.0,W VIRGINIA AVE,PHOENIX,AZ,85035,
885.0,N CHERI LYNN DR,CHANDLER,AZ,85225,
15714.0,W BALLAD DR,SUN CITY WEST,AZ,85375,
2255.0,E FOREST HEIGHTS DR,Flagstaff,AZ,86004,
3026.0,N 35TH DR,PHOENIX,AZ,85019,
4721.0,E LEWIS AVE,PHOENIX,AZ,85008,
14201.0,N HAYDEN RD,SCOTTSDALE,AZ,85260,
4011.0,E CHOLLA ST,PHOENIX,AZ,85028,
4107.0,E INDIANOLA AVE,PHOENIX,AZ,85018,
14110.0,N 125TH DR,EL MIRAGE,AZ,85335,
1029.0,W 17TH ST,TEMPE,AZ,85281,
2512.0,WICKIEUP AVE,GOLDEN VALLEY,AZ,86413,
6529.0,N 67TH AVE,GLENDALE,AZ,85301,
6353.0,E RAVEN RUN LP,TUCSON,AZ,85756,
9402.0,N DANCING GECKO PL,TUCSON,AZ,85743,
21973.0,N 102ND LN,PEORIA,AZ,85383,410.0
3331.0,W LUCIA DR,PHOENIX,AZ,85083,
622.0,S SAHUARO DR,Gilbert,AZ,85233,
118.0,W EUCLID AVE,PHOENIX,AZ,85041,
611.0,S 2ND ST,AVONDALE,AZ,85323,
4804.0,W LAURIE LN,GLENDALE,AZ,85302,
5127.0,E CHARLESTON AVE,SCOTTSDALE,AZ,85254,
15703.0,N 172ND LN,SURPRISE,AZ,85388,
2634.0,N MESA DR,MESA,AZ,85201,
615.0,E PORTLAND ST,PHOENIX,AZ,85004,180.0
14860.0,"S 59 ADMISSION WAY, LAKE HAVASU CITY",VALENCIA,AZ,91354,
313.0,E VAUGHN AVE,Gilbert,AZ,85234,
6811.0,E MONTGOMERY RD,SCOTTSDALE,AZ,85266,
11355.0,N INDIGO DALEA CT,MARANA,AZ,85653,
4522.0,E MELANIE DR,CAVE CREEK,AZ,85331,
20206.0,N MEDALLION CT,SUN CITY WEST,AZ,85375,
9450.0,W WHISPERING WIND DR,PEORIA,AZ,85383,
5217.0,W BOWKER ST,LAVEEN,AZ,85339,
825.0,N PHEASANT DR,GILBERT,AZ,85234,
3032.0,N SAWYER,MESA,AZ,85207,
25237.0,S PAPAGO PL,SUN LAKES,AZ,85248,
2027.0,E UNIVERSITY DR,TEMPE,AZ,85281,124.0
863.0,E POWELL WY,CHANDLER,AZ,85249,
12437.0,W SCOTTS DR,EL MIRAGE,AZ,85335,
