NUMBER,STREET,CITY,STATE,POSTCODE,UNIT
825.0,North Crest Drive,Grand Junction,CO,81506,
6152.0,Eldora Street,Golden,CO,80403,
17639.0,West 84Th Place,Arvada,CO,80007,
3051.0,Wellington Avenue,Grand Junction,CO,81504,
433.0,South Kittredge Street,Aurora,CO,80017,
1914.0,6Th Street,Greeley,CO,80631,
7859.0,West Portland Avenue,Littleton,CO,80128,
3847.0,Royal Drive,FORT COLLINS,CO,80526,
8333.0,East Davies Avenue,Centennial,CO,80112,
8726.0,South Kline Street,Littleton,CO,80127,103.0
188.0,South Sable,Aurora,CO,80012,107.0
1241.0,Clarkes Circle,Castle Rock,CO,80109,
2627.0,County Road 141,DURANGO,CO,0,
10569.0,Wildhurst Circle,Highlands Ranch,CO,80126,
828.0,Burnham Lane,BAYFIELD,CO,81122,
505.0,West Hook Drive,PUEBLO WEST,CO,81007,
919.0,East Abriendo Avenue,PUEBLO,CO,81004,
50.0,Sebring Lane,Johnstown,CO,80534,
1600.0,West Plum Street,Fort Collins,CO,80521,
28776.0,Summit Ranch Drive,Golden,CO,80401,
33157.0,Red Sparrow Trail,Pine,CO,80470,
2576.0,East Easter Avenue,Centennial,CO,80122,
1206.0,Pine Street,PUEBLO,CO,81004,
11093.0,Cherryvale Street,Firestone,CO,80504,
262.0,West Prospect Road,Fort Collins,CO,80521,
5446.0,Craftsman Drive,Parker,CO,80134,
1548.0,New Season Drive,Windsor,CO,80550,
9943.0,East Mexico Avenue,Denver,CO,80247,
7468.0,West 73Rd Circle,Arvada,CO,80003,
10488.0,Christopher Drive,Conifer,CO,80433,
7015.0,Hyland Hills Street,Castle Pines,CO,80108,
235.0,Columbus Canyon Road,Grand Junction,CO,81507,
19773.0,East Wagontrail Drive,Centennial,CO,80015,
2554.0,Westwood Drive,Grand Junction,CO,81505,
6906.0,Winter Ridge Place,Castle Pines,CO,80108,
6152.0,South Jackson Gap Court,Aurora,CO,80016,
823.0,Freestone Street,Lochbuie,CO,80603,
5991.0,South Vivian Street,Littleton,CO,80127,
3643.0,East Lake Drive,Centennial,CO,80121,
4121.0,West Lake Circle North,Littleton,CO,80123,
7711.0,South Forest Street,Centennial,CO,80122,
3490.0,South Eagle Street,Aurora,CO,80014,101.0
8136.0,East Fremont Avenue,Centennial,CO,80112,
35.0,San De Cristo Circle,PUEBLO,CO,81003,
81.0,Castle Royal Drive,PUEBLO,CO,81005,
5317.0,Mail Creek Lane,FORT COLLINS,CO,80525,
4650.0,South Cole Way,Morrison,CO,80465,
7685.0,South Everett Street,Littleton,CO,80128,
18227.0,West 3Rd Place,Golden,CO,80401,2.0
7255.0,South Millbrook Court,Aurora,CO,80016,
5162.0,South Washington Street,Littleton,CO,80121,
4145.0,Outlook Boulevard,PUEBLO,CO,81008,
3295.0,Miller Street,Wheat Ridge,CO,80033,
2182.0,Skys End Drive,Windsor,CO,80550,
39526.0,Sunset Ridge Court,Severance,CO,80610,
6982.0,Secrest Court,Arvada,CO,80007,
2151.0,Sawmill Gulch Road,Golden,CO,80401,
487.0,Vallejo Drive,Grand Junction,CO,81507,
1320.0,Allison Street,Lakewood,CO,80214,
882.0,52,Weld,CO,80516,
2420.0,West 31St Street,PUEBLO,CO,81008,
11921.0,Bear Creek Drive,Franktown,CO,80116,
7905.0,South Grand Baker Street,Aurora,CO,80016,
4730.0,Independence Street,Wheat Ridge,CO,80033,
1248.0,Dallas Street,Aurora,CO,80010,102.0
2205.0,Albany Court,Loveland,CO,80538,
7061.0,Carr Street,Arvada,CO,80004,
8220.0,Spinnaker Bay Drive,WINDSOR,CO,80528,
4500.0,19Th Street,Boulder,CO,80304,561.0
11380.0,Big Bend,Weld,CO,80504,
2111.0,South Blackhawk Street,Aurora,CO,80014,
5727.0,South Kenton Street,Englewood,CO,80111,
1717.0,West Drake Road,Fort Collins,CO,80526,
1670.0,Kalmia,Boulder,CO,80304,
7725.0,Yankee Court,Arvada,CO,80007,
2938.0,North Avenue,Grand Junction,CO,81504,
2812.0,Wills Boulevard,PUEBLO,CO,81003,
27154.0,North Turkey Creek Road,Evergreen,CO,80439,
2302.0,2Nd Street,Greeley,CO,80631,
235.0,Columbus Canyon Road,Grand Junction,CO,81507,
5861.0,South Moore Street,Littleton,CO,80127,
2102.0,Flora Court,LOVELAND,CO,80537,
11731.0,Center Drive,Weld,CO,80504,
1631.0,Conestoga Trail,Fort Lupton,CO,80621,
6766.0,Chase Street,Arvada,CO,80003,
7576.0,South Willow Way,Centennial,CO,80112,
660.0,26 Road,Grand Junction,CO,81506,
8697.0,South Peoria Street,Englewood,CO,80112,
14600.0,Crabapple Road,Golden,CO,80401,
10320.0,Commonwealth Street,Lone Tree,CO,80124,4106.0
22100.0,East Jamison Place,Aurora,CO,80016,
16276.0,Beauty Bush Place,Parker,CO,80134,
20.0,W Bourg Trail,Pitkin County,CO,81656,
13125.0,Andiron Way,Larkspur,CO,80118,
1002.0,Ridge West Drive,Windsor,CO,80550,
6070.0,South Versailles Parkway,Aurora,CO,80015,
440.0,South Larkspur Drive,Castle Rock,CO,80104,
6835.0,Lynch Lane,Castle Rock,CO,80108,
1012.0,4Th Street,Golden,CO,80403,
9771.0,Moss Rose Circle,Highlands Ranch,CO,80129,
5699.0,East Evans Avenue,Denver,CO,80222,
6214.0,Castlegate Drive West,Castle Rock,CO,80108,3105.0
870.0,Lee Street,Lakewood,CO,80215,
1816.0,Ptarmigan Trail,Estes Park,CO,80517,
413.0,31 Road,Grand Junction,CO,81504,
19903.0,East Lasalle Drive,Aurora,CO,80013,
2001.0,West W 2Nd Street,Rifle,CO,81650,
1002.0,South County Highway 67,Sedalia,CO,80135,
7428.0,South Quail Circle,Littleton,CO,80127,1725.0
6508.0,Half Moon Bay Drive,Windsor,CO,80550,
500.0,West Prospect Road,Fort Collins,CO,80521,
2896.0,Orchard Avenue,Grand Junction,CO,81501,
10890.0,West Evans Avenue,Lakewood,CO,80227,
1600.0,West Plum Street,Fort Collins,CO,80521,
19105.0,East Prentice Circle,Centennial,CO,80015,
10896.0,Belmont Street,Firestone,CO,80504,
15770.0,Sandtrap Way,Morrison,CO,80465,
9778.0,Cascade Street,Firestone,CO,80504,
1200.0,Florida Road,DURANGO,CO,81301,
4732.0,South Acoma Street,Englewood,CO,80110,3.0
13630.0,East Longview Avenue,Centennial,CO,80111,
1016.0,Beulah Avenue,PUEBLO,CO,81004,
492.0,Long Trail Road,Black Hawk,CO,80422,
2560.0,Steamboat Springs Street,LOVELAND,CO,80538,
1251.0,Yost Street,Aurora,CO,80011,
962.0,West Capistrano Avenue,PUEBLO WEST,CO,81007,
2621.0,Thoreau Drive,FORT COLLINS,CO,80524,
3222.0,C Road,Grand Junction,CO,81503,
725.0,Orchard Avenue,Grand Junction,CO,81501,
3224.0,Silverthorne Drive,FORT COLLINS,CO,80526,
1316.0,College Place,Grand Junction,CO,81501,19.0
1015.0,South Birch Street,Denver,CO,80246,409.0
5987.0,South Milwaukee Way,Centennial,CO,80121,
12537.0,East Amherst Circle,Aurora,CO,80014,
6005.0,10Th Street,Greeley,CO,80634,
708.0,Horizon Drive,Grand Junction,CO,81506,143.0
6606.0,Salvia Court,Arvada,CO,80007,
15005.0,West Warren Avenue,Lakewood,CO,80228,
1910.0,North 12Th Street,Grand Junction,CO,81501,
1480.0,South Chase Court,Lakewood,CO,80232,
4898.0,23Rd Avenue,Weld,CO,80620,
4119.0,Beaver Creek,Fort Collins,CO,80526,
9697.0,Rockhampton Way,Highlands Ranch,CO,80130,
2102.0,South Haystack Circle,Fruita,CO,81521,
6058.0,Quail Court,Arvada,CO,80004,
17352.0,East Asbury Place,Aurora,CO,80013,
7036.0,South Miller Court,Littleton,CO,80127,
2232.0,South Fundy Way,Aurora,CO,80013,
9650.0,Cougar Road,Littleton,CO,80127,
8101.0,South Humboldt Circle,Centennial,CO,80122,
4795.0,Fenwood Drive,Highlands Ranch,CO,80130,
235.0,Columbus Canyon Road,Grand Junction,CO,81507,
21975.0,East Costilla Drive,Aurora,CO,80016,
7066.0,South Revere,Centennial,CO,80112,
3745.0,Benton Street,Wheat Ridge,CO,80212,
20.0,Loyola Lane,PUEBLO,CO,81005,
4174.0,Plum Creek Drive,LOVELAND,CO,80538,
9590.0,East Florida Avenue,Denver,CO,80247,2029.0
5775.0,South Jellison Circle,Littleton,CO,80123,
13890.0,Braun Drive,Golden,CO,80401,
1315.0,Anita Street,PUEBLO,CO,81001,
1557.0,South Sheridan Boulevard,Lakewood,CO,80232,
3706.0,Stratford Court,FORT COLLINS,CO,80525,
1968.0,South Van Gordon Street,Lakewood,CO,80228,
2550.0,Winding River Drive,Broomfield,CO,80023,
21090.0,East Whitaker Drive,Aurora,CO,80015,
415.0,South Howes Street,FORT COLLINS,CO,80521,
2390.0,South Holly Place,Denver,CO,80222,
1917.0,South Shields Street,Fort Collins,CO,80526,
1009.0,West Laurel Street,Fort Collins,CO,80523,
5911.0,South Eudora Way,Centennial,CO,80121,
25130.0,East Ottawa Drive,Aurora,CO,80016,
9139.0,Ridgeline Boulevard,Highlands Ranch,CO,80129,100.0
5829.0,South Datura Street,Littleton,CO,80120,220.0
1901.0,Table Drive,Golden,CO,80401,
4173.0,South Ireland Court,Aurora,CO,80013,
10274.0,West Wesley Drive,Lakewood,CO,80227,
1405.0,East 8Th Street,PUEBLO,CO,81001,
3901.0,Taft Court,Wheat Ridge,CO,80033,
124.0,North 3Rd Avenue,Weld,CO,80610,
2764.0,East Nichols Circle,Centennial,CO,80122,
100.0,Marian Drive,PUEBLO,CO,81004,
2102.0,West 13Th Street,PUEBLO,CO,81003,
772.0,Idalia Street,Aurora,CO,80011,
614.0,North Sheridan Avenue,LOVELAND,CO,80537,
2649.0,East Mulberry Street,FORT COLLINS,CO,80524,
6022.0,Devinney Way,Arvada,CO,80004,
2755.0,Riverside Parkway,Grand Junction,CO,81501,44.0
467.0,Oakwood Avenue,Fruita,CO,81521,
6465.0,Globeflower Street,Wellington,CO,80549,
1945.0,South Oakland Way,Aurora,CO,80014,
3130.0,24Th,Boulder,CO,80304,
8937.0,West Maplewood Drive,Littleton,CO,80123,
8165.0,South Cody Street,Littleton,CO,80128,
400.0,Hickory Street,FORT COLLINS,CO,80524,
4342.0,South Ceylon Way,Aurora,CO,80015,
12134.0,West 61St Avenue,Arvada,CO,80004,
28384.0,Belle Mont Trail,Conifer,CO,80433,
426.0,Quinby Street,FORT COLLINS,CO,80524,
1490.0,Brown,Boulder,CO,80305,
983.0,East Moonbeam Drive,PUEBLO WEST,CO,81007,
980.0,South Miller Way,Lakewood,CO,80226,
2885.0,East Midway Boulevard,Broomfield,CO,80234,
9051.0,Harlan Street,Westminster,CO,80031,
3144.0,West Eider Court,Grand Junction,CO,81504,
1211.0,13,Weld,CO,80516,
3377.0,Mill Vista Road,Littleton,CO,80129,57.0
50515.0,East 18,Bennett,CO,80102,
525.0,East Drake Road,Fort Collins,CO,80525,
10652.0,West Parkhill Drive,Littleton,CO,80127,
5540.0,East Vassar Avenue,Denver,CO,80222,
3401.0,Gem Drive,PUEBLO,CO,81005,
1761.0,South Youngfield Court,Lakewood,CO,80228,
348.0,South Pierson Street,Lakewood,CO,80226,
1418.0,Emporia Street,Aurora,CO,80010,
1322.0,Florida Road,DURANGO,CO,81301,
10727.0,East Kentucky Avenue,Aurora,CO,80012,215.0
8180.0,West 16Th Place,Lakewood,CO,80214,
16423.0,Alcott Place,Broomfield,CO,80023,
3721.0,Woodchuck Drive,LOVELAND,CO,80538,
3783.0,Evergreen Parkway,Evergreen,CO,80439,
2030.0,Connecticut Court,FORT COLLINS,CO,80525,
17247.0,Road Z,Yellow Jacket,CO,81335,
1180.0,Airport Boulevard,Aurora,CO,80011,
16388.0,County Road 177,MATHESON,CO,80830,
6300.0,Agave Avenue,Castle Rock,CO,80108,
9007.0,Maribou Court,Highlands Ranch,CO,80130,
1773.0,Brookside Drive,Highlands Ranch,CO,80126,
1501.0,North 1St Street,Grand Junction,CO,81505,318.0
3091.0,Mill Vista Road,Littleton,CO,80129,34.0
2055.0,Placer Street,Franktown,CO,80116,
200.0,North 25Th Avenuecourt,Greeley,CO,80631,
22920.0,East Long Drive,Aurora,CO,80016,
3650.0,35Th Avenue,Evans,CO,80620,1.0
5137.0,Alkire Street,Arvada,CO,80002,
6770.0,Gaillardia Road,Larkspur,CO,80118,
401.0,North Timberline Road,FORT COLLINS,CO,80524,
38800.0,Road D,Cahone,CO,81320,
1267.0,South Beeler Court,Denver,CO,80247,
4629.0,Tarragon Drive,Johnstown,CO,80537,
1336.0,South Idalia Street,Aurora,CO,80017,
12715.0,Xavier Street,Broomfield,CO,80020,
8147.0,South Fillmore Way,Centennial,CO,80122,
5364.0,South Cimarron Road,Littleton,CO,80123,
401.0,Dove Ranch Road,BAYFIELD,CO,81122,
27392.0,Torchey Way,PUEBLO,CO,81006,
3855.0,West Radcliff Avenue,Denver,CO,80236,
4212.0,7Th Streetroad,Greeley,CO,80634,
1106.0,103Rd Avenuecourt,Greeley,CO,80634,
73.0,Shady Lane,BAYFIELD,CO,81122,
919.0,3Rd Street,Golden,CO,80403,
7094.0,South Elm Street,Centennial,CO,80122,
3836.0,Canyon Ranch Road,Highlands Ranch,CO,80126,101.0
515.0,Canyon View Drive,Golden,CO,80403,
14268.0,Mckay Park Circle,Broomfield,CO,80023,
6878.0,South Roslyn Circle,Centennial,CO,80112,
15761.0,East Exposition Drive,Aurora,CO,80017,
1913.0,Waters Edge Street,Fort Collins,CO,80526,
1946.0,Treetop Drive,Castle Rock,CO,80109,
530.0,South Taft Hill Road,FORT COLLINS,CO,80521,
2070.0,Blue Water Drive,Fruita,CO,81521,
6504.0,East Asbury Avenue,Denver,CO,80224,
16278.0,White Hawk Drive,Parker,CO,80134,
4019.0,Dove Lane,Evans,CO,80620,
1613.0,Caroline Avenue,Weld,CO,80621,
1200.0,Florida Road,DURANGO,CO,81301,
4245.0,South Halifax Way,Aurora,CO,80013,
2189.0,Kennington Court,LOVELAND,CO,80538,
12621.0,West Dakota Drive,Lakewood,CO,80228,
1404.0,Faraway Road,Snowmass Village,CO,81615,
25.0,Ordnance Lane,PUEBLO,CO,81006,
58.0,Carla Way,Broomfield,CO,80020,
909.0,White Star Drive,Pitkin County,CO,81611,
107.0,Van Dorn Road,Glenwood Springs,CO,81601,
3609.0,Heatherwood Way,Evergreen,CO,80439,
220.0,North Franklin Avenue,LOVELAND,CO,80537,
4193.0,South Decatur Street,Englewood,CO,80110,
447.0,Red Jewel Drive,Windsor,CO,80550,
2421.0,Cactus Bluff Place,Highlands Ranch,CO,80129,
2575.0,Des Moines Drive,FORT COLLINS,CO,80525,
1409.0,106Th Avenue,Greeley,CO,80634,
2007.0,Aurora,Aurora,CO,80012,
400.0,Impala Circle,Fort Collins,CO,80521,
6059.0,East Briarwood Drive,Centennial,CO,80112,
3144.0,Elk View Drive,Evergreen,CO,80439,
4855.0,10Th,Boulder,CO,80304,
1200.0,Florida Road,DURANGO,CO,81301,
34448.0,Pine Ridge Circle,ELIZABETH,CO,80107,
125.0,Miles Avenue,Sedgwick,CO,80749,
417.0,North Santa Fe Avenue,PUEBLO,CO,81003,
4205.0,South Buckley Road,Aurora,CO,80013,
4123.0,Stonegate Court,FORT COLLINS,CO,80525,
2631.0,Baneberry Court,Highlands Ranch,CO,80129,
608.0,West 2Nd Street,Julesburg,CO,80737,
1020.0,East 10Th Avenue,Broomfield,CO,80020,
9850.0,Zenith Meridian Drive,Englewood,CO,80112,303.0
6890.0,South Dover Way,Littleton,CO,80128,
227.0,Pinon Drive,Snowmass Village,CO,81615,
10410.0,West Fair Avenue,Littleton,CO,80127,
6842.0,Snowshoe Trail,Evergreen,CO,80439,
4045.0,Wadsworth Boulevard,Wheat Ridge,CO,80033,80.0
7251.0,Palisade Drive,Highlands Ranch,CO,80130,
2040.0,4Th Avenue,Greeley,CO,80631,
9484.0,South Aspen Hill Way,Lone Tree,CO,80124,
5245.0,Timber Place,ELIZABETH,CO,80107,
23712.0,Pondview Place,Golden,CO,80401,
900.0,Pitkin Street,Fort Collins,CO,80523,
56281.0,East Colfax Avenue,Uninc Adam,CO,80136,
1190.0,Opal Street,Broomfield,CO,80020,
2236.0,Beechnut Place,Castle Rock,CO,80108,
1213.0,Carlyle Park Circle,Highlands Ranch,CO,80129,
462.0,West 10Th Street,Loveland,CO,80537,
5304.0,South Hoyt Street,Littleton,CO,80123,
10408.0,Drake Place,Parker,CO,80134,
552.0,Hanging Rock Place,Castle Rock,CO,80108,
462.0,South Reed Court,Lakewood,CO,80226,
9515.0,Webster Way,Westminster,CO,80021,
5425.0,West 115Th Place,Westminster,CO,80020,
17900.0,East Brown Place,Aurora,CO,80013,
5393.0,West 25Th Avenue,Edgewater,CO,80214,
7474.0,East Costilla Place,Centennial,CO,80112,
4255.0,South Dale Court,Englewood,CO,80110,
235.0,Columbus Canyon Road,Grand Junction,CO,81507,
919.0,Crown Court,Fruita,CO,81521,
7836.0,South Fairfax Court,Centennial,CO,80122,
1326.0,10Th Street,Greeley,CO,80631,
2690.0,South Jersey Street,Denver,CO,80222,
17017.0,East Warren Place,Aurora,CO,80013,
6023.0,South Tibet Street,Aurora,CO,80015,
13355.0,West Progress Circle,Littleton,CO,80127,
424.0,32 Road,Clifton,CO,81520,297.0
2120.0,Timber Creek Drive,Fort Collins,CO,80528,
5392.0,South Danube Court,Centennial,CO,80015,
15464.0,South Interstate 25,Larkspur,CO,80118,
1111.0,Bonforte Boulevard,PUEBLO,CO,81001,
10226.0,Progress Lane,Parker,CO,80134,12.0
726.0,36 1/10 Road,Palisade,CO,81526,
243.0,South Ingalls Street,Lakewood,CO,80226,
6030.0,East Caley Drive,Centennial,CO,80111,
1309.0,Standing Deer Drive,Silt,CO,81652,
4321.0,Laurel Drive,Evans,CO,80620,
4173.0,East Hinsdale Circle,Centennial,CO,80122,
17500.0,Road 16,Cahone,CO,81320,
1829.0,South Union Boulevard,Lakewood,CO,80228,
432.0,North Annabelle Court,Fruita,CO,81521,
7453.0,South Quail Circle,Littleton,CO,80127,213.0
2514.0,East Routt Avenue,PUEBLO,CO,81004,
9821.0,Bucknell Court,Highlands Ranch,CO,80129,
8620.0,Ridge Road,BEULAH,CO,81023,
1968.0,East Euclid Avenue,Centennial,CO,80121,
1011.0,Vivian,Boulder,CO,80303,
1544.0,P Road,Loma,CO,81524,
2820.0,Annelise Way,FORT COLLINS,CO,80525,
1455.0,North 12Th Street,Grand Junction,CO,81501,149.0
107.0,North Norma Avenue,Milliken,CO,80543,
4258.0,South Biscay Circle,Aurora,CO,80013,
24342.0,East 2Nd Drive,Aurora,CO,80018,
10901.0,Parker Vista Road,Parker,CO,80138,
626.0,Monte Vista Road,Golden,CO,80401,
428.0,North Loomis Avenue,FORT COLLINS,CO,80521,
6789.0,Dover Street,Arvada,CO,80004,
17.0,Ordnance Lane,PUEBLO,CO,81006,
5316.0,Windrift Drive,Morrison,CO,80465,
1301.0,19Th Street,Golden,CO,80401,
25470.0,49,Weld,CO,80631,
493.0,Coronado Way,Clifton,CO,81520,
6003.0,South Perth Street,Centennial,CO,80015,
11143.0,West 17Th Avenue,Lakewood,CO,80215,
5416.0,Military Trail,Parker,CO,80134,
10547.0,Tigers Eye,Littleton,CO,80124,
1675.0,Quay Street,Lakewood,CO,80214,
2374.0,Leafdale Circle,Castle Rock,CO,80109,
318.0,6Th Street,Mead,CO,80542,
200.0,37Th Street,Evans,CO,80620,90.0
6391.0,South Millbrook Way,Aurora,CO,80016,
2630.0,North Greenwood Street,PUEBLO,CO,81003,
1065.0,Sunrise Circle,Milliken,CO,80543,
16659.0,Trail Sky Circle,Parker,CO,80134,
5162.0,Holmes,Boulder,CO,80303,
1432.0,104Th Avenuecourt,Greeley,CO,80634,
2800.0,Kalmia Avenue,Boulder,CO,80301,
568.0,East Dry Creek Place,Centennial,CO,80122,
1777.0,Pinnacle Avenue,Lochbuie,CO,80603,
3825.0,South Atchison Way,Aurora,CO,80014,
10279.0,Dover Street,Firestone,CO,80504,
9466.0,West Nichols Place,Littleton,CO,80128,
1313.0,South Zeno Street,Aurora,CO,80017,
2699.0,Malibu Drive,Grand Junction,CO,81506,
2120.0,Timber Creek Drive,Fort Collins,CO,80528,
513.0,Prairie Clover Way,Severance,CO,80550,
1861.0,Raven Avenue,Estes Park,CO,80517,
2598.0,South Lewis Way,Lakewood,CO,80227,
17491.0,East Powers Drive,Centennial,CO,80015,
384.0,Dusk Court,Erie,CO,80516,
4409.0,Turnberry Crescent,PUEBLO,CO,81001,
181.0,Bridge Lane,Snowmass Village,CO,81615,
2031.0,Eaton Street,Edgewater,CO,80214,
32222.0,Highway 550  North,DURANGO,CO,81301,45.0
1202.0,6Th Street,Greeley,CO,80631,
2527.0,21St Avenuecourt,Greeley,CO,80631,
7331.0,West Bayaud Place,Lakewood,CO,80226,
610.0,Virginia Street,DURANGO,CO,81301,
15234.0,East Florida Avenue,Aurora,CO,80012,
51283.0,24 Highway,Glenwood Springs,CO,81601,
7559.0,South Holland Court,Littleton,CO,80128,
213.0,Jackson Street,PUEBLO,CO,81004,
14920.0,Road 30.2,Dolores,CO,81323,
1620.0,South Laredo Court,Aurora,CO,80017,
42905.0,County Road County Road 17-21,ELIZABETH,CO,0,
803.0,Blondel Street,FORT COLLINS,CO,80524,
3099.0,East Weaver Avenue,Centennial,CO,80121,
86.0,Oak Ridge Road,Snowmass Village,CO,81615,
9700.0,Running Buffalo Road,Franktown,CO,80116,
1461.0,South Cody Street,Lakewood,CO,80232,
586.0,Greenspire Drive,Windsor,CO,80550,
2996.0,Danbury Avenue,Highlands Ranch,CO,80126,
891.0,Shirttail Peak Drive,Windsor,CO,80550,
6054.0,South Sedalia Court,Aurora,CO,80016,
195.0,Laurel Street,Broomfield,CO,80020,
450.0,West 3Rd Avenue Drive,Broomfield,CO,80020,
984.0,West 41St Street,LOVELAND,CO,80538,
19064.0,East 16Th Avenue,Aurora,CO,80011,
200.0,West City Center Drive,PUEBLO,CO,81003,
12030.0,East Canal Drive,Aurora,CO,80011,
7745.0,Marshall Street,Arvada,CO,80003,
1101.0,Gary Avenue,PUEBLO,CO,81001,
3415.0,F 3/4 Road,Clifton,CO,81520,
7922.0,South Depew Street,Littleton,CO,80128,
515.0,East Laurel Street,FORT COLLINS,CO,80524,
9465.0,West Ontario Drive,Littleton,CO,80128,
1808.0,Habitat Lane,Greeley,CO,80631,
1300.0,14Th Street SW,LOVELAND,CO,80537,
322.0,Dakota Court,Grand Junction,CO,81507,
4412.0,Emerald Lane,PUEBLO,CO,81008,
8239.0,Zorn Road,RYE,CO,81069,
1761.0,South Estes Street,Lakewood,CO,80232,
13065.0,Grove Way,Broomfield,CO,80020,
2611.0,12Th Avenuecourt,Greeley,CO,80631,
532.0,Oriole Drive,Grand Junction,CO,81507,
5327.0,South Fox Street,Littleton,CO,80120,
11660.0,Crow Hill Drive,Parker,CO,80134,
5518.0,2Nd Street,Greeley,CO,80634,
235.0,Columbus Canyon Road,Grand Junction,CO,81507,
371.0,East Allen Street,Castle Rock,CO,80108,
8657.0,Devinney Street,Arvada,CO,80005,
2220.0,South Chambers Road,Aurora,CO,80014,
1974.0,South Zuni Street,Denver,CO,80223,
5358.0,South Valdai Way,Aurora,CO,80015,
1800.0,Central Avenue,Dolores,CO,81323,
118.0,Lichen Court,BELLVUE,CO,80512,
248.0,Castle Drive,Severance,CO,80550,
3764.0,Eureka Way,Frederick,CO,80516,4.0
3160.0,Preble Creek Parkway,Broomfield,CO,80023,
6420.0,West Caley Place,Littleton,CO,80123,
709.0,Glenmoor Drive,FORT COLLINS,CO,80521,
278.0,Cody Lane,DURANGO,CO,81301,
165.0,Applewood Drive,Fruita,CO,81521,
4726.0,Starfire Circle,Castle Rock,CO,80104,
1890.0,South Arbutus Street,Lakewood,CO,80228,
523.0,Cowan Street,FORT COLLINS,CO,80524,
2130.0,Wedgewood Drive,Greeley,CO,80631,
2400.0,53,Meeker,CO,80501,
3623.0,29Th Street,Greeley,CO,80634,4.0
4428.0,South Eagle Circle,Aurora,CO,80015,
1531.0,Sunny Mead Lane,ESTES PARK,CO,80517,
485.0,Appaloosa Lane,Grand Junction,CO,81504,
11772.0,Pleasant View Ridge,Weld,CO,80504,
3024.0,Ross Drive,Fort Collins,CO,80526,
3051.0,South Helena Street,Aurora,CO,80013,
2508.0,Baneberry Lane,Highlands Ranch,CO,80129,
1548.0,Briarhollow Lane,Highlands Ranch,CO,80129,
704.0,Horizon Drive,Grand Junction,CO,81506,114.0
2311.0,West 165Th Avenue,Broomfield,CO,80023,
1514.0,East Easter Circle,Centennial,CO,80122,
235.0,Columbus Canyon Road,Grand Junction,CO,81507,
2020.0,Marshall Street,Edgewater,CO,80214,
14249.0,West Evans Circle,Lakewood,CO,80228,
539.0,Kingston Court,Grand Junction,CO,81507,
3437.0,Rosato Drive,Highlands Ranch,CO,80126,
2185.0,Candleglow Street,Castle Rock,CO,80109,
4090.0,Deer Valley Drive,Castle Rock,CO,80104,
20577.0,East Weaver Drive,Aurora,CO,80016,
3306.0,Butternut Drive,Loveland,CO,80538,
2214.0,Canyon Rim Drive,Grand Junction,CO,81507,
1125.0,East Jaroso Drive,PUEBLO WEST,CO,81007,
1810.0,40Th Lane,PUEBLO,CO,81006,
6355.0,East Tufts Avenue,Englewood,CO,80111,
3904.0,South Tibet Way,Aurora,CO,80018,
118.0,South Grant Avenue,FORT COLLINS,CO,80521,
10754.0,West 13Th Avenue,Lakewood,CO,80215,
10025.0,2,Weld,CO,80603,
11497.0,East Amherst Circle South,Aurora,CO,80014,
6822.0,South Netherland Way,Aurora,CO,80016,
26751.0,East Peakview Place,Aurora,CO,80016,
415.0,Jay Street,Lakewood,CO,80226,
399.0,Rockwood Lane,Grand Junction,CO,81507,
8570.0,West 79Th Avenue,Arvada,CO,80005,
599.0,Elk Valley Road,BAYFIELD,CO,81122,
136.0,Happy Hunting Drive,BELLVUE,CO,80512,
22429.0,46,Weld,CO,80645,
5684.0,South Jericho Way,Centennial,CO,80015,
539.0,Hoover Court,Grand Junction,CO,81504,
2460.0,Outlook Trail,Broomfield,CO,80020,
4257.0,South Crystal Court,Aurora,CO,80014,229.0
6531.0,Freeport Drive,Highlands Ranch,CO,80130,
12401.0,West 75Th Avenue,Arvada,CO,80005,
11700.0,West 8Th Avenue,Lakewood,CO,80401,
435.0,32 Road,Grand Junction,CO,81504,564.0
1221.0,Maudslay Avenue,PUEBLO,CO,81001,
1002.0,Farraday Road,DURANGO,CO,81303,
2035.0,Blue Mesa Court,Loveland,CO,80538,
16964.0,East Crestline Avenue,Centennial,CO,80015,
9743.0,East Crestline Circle,Greenwood Village,CO,80111,
8376.0,Dressage Road,Littleton,CO,80125,
5416.0,South Laredo Street,Centennial,CO,80015,
6651.0,South Otis Way,Littleton,CO,80123,
841.0,Rainbow River Drive,JELM,CO,82063,
145.0,South Zang Way,Lakewood,CO,80228,
355.0,Lark Place,LOVELAND,CO,80537,
7980.0,South Vincennes Way,Centennial,CO,80112,
3408.0,Montrose Street,Evans,CO,80620,
1123.0,North 3Rd Street,Johnstown,CO,80534,
4300.0,Warbler Drive,FORT COLLINS,CO,80526,
4724.0,Pearcrest Court,PUEBLO,CO,81005,
3280.0,Cody Court,Wheat Ridge,CO,80033,
5510.0,Stonewall Place,Boulder,CO,80303,13.0
1906.0,Vinewood Lane,PUEBLO,CO,81005,
18470.0,East Colgate Circle,Aurora,CO,80013,
6267.0,South Ponds Way,Littleton,CO,80123,
12302.0,East Bates Circle,Aurora,CO,80014,
11032.0,Twenty Mile Road,Parker,CO,80134,202.0
1837.0,County Road 220,DURANGO,CO,81303,
4330.0,South Braun Court,Morrison,CO,80465,
818.0,South Vance Street,Lakewood,CO,80226,
405.0,12Th Street,Windsor,CO,80550,
2690.0,East Otero Place,Centennial,CO,80122,7.0
1628.0,Fenton Street,Lakewood,CO,80214,
1789.0,South Union Boulevard,Lakewood,CO,80228,
9533.0,West Alameda Service Road,Lakewood,CO,80226,
17778.0,East Anthem Drive,Parker,CO,80134,
5853.0,Swadley Court,Arvada,CO,80004,
6234.0,Red Canyon Drive,Highlands Ranch,CO,80130,
10803.0,Fairmont Lane,Highlands Ranch,CO,80126,
11892.0,East Yale Court,Aurora,CO,80014,
120.0,Oak Street,Windsor,CO,80550,
6210.0,Castlegate Drive West,Castle Rock,CO,80108,2203.0
7333.0,South Platte River Parkway,Littleton,CO,80120,304.0
2635.0,Mapleton Avenue,Boulder,CO,80304,50.0
6365.0,East Tufts Avenue,Englewood,CO,80111,
10796.0,West 55Th Lane,Arvada,CO,80002,
4536.0,Bramble Road,Frederick,CO,80504,
2557.0,South Coors Street,Lakewood,CO,80228,
3058.0,Isabell Court,Golden,CO,80401,
1475.0,Moraine Valley Drive,Severance,CO,80550,
952.0,South Yukon Street,Lakewood,CO,80226,
10348.0,Fairlawn Trail,Highlands Ranch,CO,80130,
4216.0,Buffalo Trail,Evans,CO,80620,
1220.0,Rossum Drive,LOVELAND,CO,80537,
7782.0,West Alder Drive,Littleton,CO,80128,
9746.0,East Colfax Avenue,Aurora,CO,80010,
1755.0,Brightwater Lane,Meeker,CO,81641,
1423.0,Grand Avenue,Windsor,CO,80550,
23472.0,East Briarwood Drive,Aurora,CO,80016,
3703.0,Little Dipper Drive,FORT COLLINS,CO,80528,
24194.0,Road L,Cortez,CO,81321,
671.0,Halbach Lane,ESTES PARK,CO,80517,
1855.0,29Th Street,Boulder,CO,80301,1164.0
3500.0,South King Street,Denver,CO,80236,74.0
2225.0,Antelope Way,PUEBLO,CO,81005,
117.0,Spur Ridge Lane,Snowmass Village,CO,81615,
6961.0,West Friend Place,Littleton,CO,80128,
7509.0,South Jackson Street,Centennial,CO,80122,
814.0,East 1St Street,PUEBLO,CO,81001,
432.0,Marine,Boulder,CO,80302,
1030.0,Davidson Drive,Fort Collins,CO,80526,
963.0,Pitkin Street,Fort Collins,CO,80523,
3655.0,South Malta Court,Aurora,CO,80013,
1087.0,East Wild Rose Lane,PUEBLO WEST,CO,81007,
6558.0,South Louthan Street,Littleton,CO,80120,
520.0,Court Road,Grand Junction,CO,81501,902.0
1212.0,Lakeview Avenue,PUEBLO,CO,81004,
3650.0,South Federal Boulevard,Englewood,CO,80110,95.0
634.0,296 County Road,Rifle,CO,81650,
865.0,5Th Street,Eaton,CO,80615,
10543.0,West 54Th Place,Arvada,CO,80002,
235.0,Columbus Canyon Road,Grand Junction,CO,81507,
9226.0,West Ontario Drive,Littleton,CO,80128,
519.0,Wright Street,Lakewood,CO,80228,305.0
3000.0,Regatta Lane,Fort Collins,CO,80525,
2512.0,Banbury Lane,FORT COLLINS,CO,80524,
17306.0,East Fair Place,Aurora,CO,80016,
2845.0,South Elati Street,Englewood,CO,80110,
1124.0,Belaire Drive,FORT COLLINS,CO,80521,
943.0,Rosalie Drive,DURANGO,CO,81301,
4412.0,Meadowlark Lane,PUEBLO,CO,81008,
3618.0,Post Road,LAPORTE,CO,80535,
6934.0,Winter Peak Court,TIMNATH,CO,80547,
7525.0,South Flanders Street,Centennial,CO,80016,
31266.0,Tanoa Road,Evergreen,CO,80439,
5790.0,Majestic Oak Lane,Parker,CO,80134,
10600.0,West 38Th Avenue,Wheat Ridge,CO,80033,
10775.0,West Berry Drive,Littleton,CO,80127,
1108.0,Glen Creighton Drive,Dacono,CO,80514,
16531.0,East Auburn Hills Drive,Parker,CO,80134,
2117.0,South Elkhart Street,Aurora,CO,80014,
10203.0,Spring Green Drive,Englewood,CO,80112,
11600.0,East Adriatic Place,Aurora,CO,80014,
7111.0,South Vine Circle West,Centennial,CO,80122,
9425.0,State Highway 78,BEULAH,CO,81023,
475.0,Braceland Lane,DURANGO,CO,81303,
2645.0,South Xanadu Way,Aurora,CO,80014,
831.0,Thames Street,Highlands Ranch,CO,80126,
62.0,East 14Th Place,Broomfield,CO,80020,
645.0,Pyramid Peak Street,BERTHOUD,CO,80513,
523.0,Jay Lee Street,Clifton,CO,81520,
1112.0,Grand Avenue,Windsor,CO,80550,
88.0,Inverness Circle East,Englewood,CO,80112,
3825.0,Kenwood Circle,JOHNSTOWN,CO,80534,
526.0,South Arriba Drive,PUEBLO WEST,CO,81007,
11231.0,West 107Th Place,Westminster,CO,80021,
8140.0,West Highway 34,LOVELAND,CO,80537,
7950.0,Cherry Blossom Drive,WINDSOR,CO,80550,
2736.0,B Road,Grand Junction,CO,81503,
15855.0,Diamond Point,Broomfield,CO,80023,
4885.0,Hahns Peak Drive,LOVELAND,CO,80538,
2251.0,Bluff,Boulder,CO,80304,
8159.0,Flower Circle,Arvada,CO,80005,
6755.0,South Field Street,Littleton,CO,80128,622.0
266.0,East Danbury Circle,Grand Junction,CO,81503,
4400.0,Rawhide Road,PUEBLO,CO,81008,
3523.0,South Jasper Way,Aurora,CO,80013,
3005.0,Parfet Drive,Lakewood,CO,80215,
9655.0,Sara Gulch Circle,Parker,CO,80138,
9420.0,West 68Th Avenue,Arvada,CO,80004,
187.0,Lamb Lane,Golden,CO,80401,
4630.0,South Braun Court,Morrison,CO,80465,
1489.0,West Briarwood Avenue,Littleton,CO,80120,
20934.0,East Princeton Place,Aurora,CO,80013,
3805.0,Cayman,Boulder,CO,80301,
70.0,332 County Road,Rifle,CO,81650,
440.0,Elm Avenue,ESTES PARK,CO,80517,
1491.0,237 County Road,Silt,CO,81652,
16498.0,East Hialeah Drive,Centennial,CO,80015,
2844.0,Denver Drive,FORT COLLINS,CO,80525,
1112.0,Gard Place,Loveland,CO,80537,
11290.0,South Deer Creek Road,Littleton,CO,80127,
3990.0,Red Rock Drive,Larkspur,CO,80118,
3316.0,Sagewater Court,FORT COLLINS,CO,80528,
2809.0,SE Grapevine Road,Idledale,CO,80453,
8741.0,West Cornell Avenue,Lakewood,CO,80227,7.0
9784.0,Mayfair Street,Englewood,CO,80112,
1495.0,Goldsmith Drive,Highlands Ranch,CO,80126,
5293.0,Parfet Street,Arvada,CO,80002,
106.0,7Th Avenue,Deer Trail,CO,80105,
1481.0,10Th Street,Greeley,CO,80631,
3100.0,Granada Boulevard,PUEBLO,CO,81005,
7066.0,South Cook Way,Centennial,CO,80122,
6714.0,South Winnipeg Circle,Aurora,CO,80016,104.0
5652.0,South Florence Street,Greenwood Village,CO,80111,
4037.0,Florence Drive,LOVELAND,CO,80538,
622.0,Dawson Street,Aurora,CO,80011,
8490.0,Golden Eye Drive,Parker,CO,80134,
4289.0,Monroe Drive,Boulder,CO,80303,
3145.0,Standford Road,Fort Collins,CO,80525,
3895.0,Allison Street,Wheat Ridge,CO,80033,
49.0,Lemon Street,DURANGO,CO,81301,
2011.0,44Th Avenue,Greeley,CO,80634,
6046.0,Crossroads Boulevard,Loveland,CO,80538,
400.0,S,Boulder,CO,80305,
7995.0,Wadsworth Boulevard,Arvada,CO,80003,
1671.0,South Chase Street,Lakewood,CO,80232,
7189.0,Reed Court,Arvada,CO,80003,
537.0,North Colorado Avenue,Dove Creek,CO,81324,
3505.0,Possum Lane,PUEBLO,CO,81005,
11704.0,West Stanford Drive,Morrison,CO,80465,
167.0,Willowleaf Drive,Littleton,CO,80127,
8354.0,Russet Lane,Uninc Doug,CO,80126,
218.0,North 25Th Avenuecourt,Greeley,CO,80631,
518.0,Holyoke Court,FORT COLLINS,CO,80525,
115.0,Johnson Street,Weld,CO,80530,
419.0,Stevens Circle,Platteville,CO,80651,
258.0,Steamer Court,ESTES PARK,CO,80517,
4042.0,South Lisbon Way,Aurora,CO,80013,
15095.0,East Hinsdale Drive,Centennial,CO,80112,
235.0,North Garfield Avenue,LOVELAND,CO,80537,
1625.0,West Plum Street,Fort Collins,CO,80521,
16926.0,West 71St Place,Arvada,CO,80007,
2391.0,South Salem Circle,Aurora,CO,80014,
2323.0,Cedar Street,PUEBLO,CO,81004,
1907.0,Windemere Lane,Erie,CO,80516,
5900.0,Northwood Drive,Evergreen,CO,80439,
1915.0,East 8Th Street,PUEBLO,CO,81001,
905.0,Everett Street,Lakewood,CO,80215,
6909.0,South Holly Circle,Centennial,CO,80112,160.0
11800.0,Villagecreek Parkway,Parker,CO,80138,
2012.0,West Nantucket Court,Littleton,CO,80120,
31598.0,Niakwa Road,Evergreen,CO,80439,
3800.0,West 144Th Avenue,Broomfield,CO,80023,
440.0,Boyd Drive,Carbondale,CO,81623,
30.0,Tecoma Circle,Littleton,CO,80127,
442.0,Choke Cherry Court,Golden,CO,80403,
9897.0,East Aberdeen Avenue,Englewood,CO,80111,
8250.0,East Harvard Avenue,Denver,CO,80231,207.0
695.0,Ithaca,Boulder,CO,80305,
5358.0,West 100Th Court,Westminster,CO,80020,
10168.0,Parkglenn Way,Parker,CO,80138,
4447.0,South Gibraltar Street,Centennial,CO,80015,
3614.0,G 7/10 Road,Palisade,CO,81526,
910.0,Grand Avenue,Glenwood Springs,CO,81601,
212.0,3Rd Street,Ovid,CO,80744,
1717.0,5Th Street,Greeley,CO,80631,150.0
20482.0,East Union Circle,Aurora,CO,80015,
3490.0,South Platte River Drive,Englewood,CO,80110,303.0
786.0,10Th Street,Meeker,CO,81641,
4088.0,Zodiac Place,Castle Rock,CO,80109,
1830.0,Newland Court,Lakewood,CO,80214,227.0
727.0,West 8Th Street,PUEBLO,CO,81003,
8721.0,West Progress Place,Littleton,CO,80123,
1600.0,West Plum Street,Fort Collins,CO,80521,
10517.0,West Maplewood Drive,Littleton,CO,80127,
2526.0,South Allison Court,Lakewood,CO,80227,
615.0,36Th Avenuecourt,Greeley,CO,80634,
5922.0,East Briarwood Drive,Centennial,CO,80112,
3437.0,South Norfolk Way,Aurora,CO,80013,
3712.0,Boulder Street,Evans,CO,80620,
9949.0,Gwendelyn Place,Highlands Ranch,CO,80129,
525.0,10Th Street,FORT COLLINS,CO,80524,
235.0,Columbus Canyon Road,Grand Junction,CO,81507,
4629.0,South Youngfield Street,Morrison,CO,80465,
4135.0,Westcliffe,Boulder,CO,80301,
5829.0,South Datura Street,Littleton,CO,80120,455.0
98.0,South 157,Strasburg,CO,80136,
12567.0,West Alameda Drive,Lakewood,CO,80228,
912.0,Wagonwheel Drive,FORT COLLINS,CO,80526,
7501.0,North Highway 287,LAPORTE,CO,80535,
5420.0,Tiller Court,WINDSOR,CO,80528,
2224.0,South Vallejo Street,Englewood,CO,80110,
1012.0,Mantz Place,FORT COLLINS,CO,80521,
333.0,West Lehow Avenue,Englewood,CO,80110,23.0
5117.0,Iris Street,Arvada,CO,80002,
4581.0,County Road 501A,BAYFIELD,CO,81122,
2266.0,West 44Th Street,LOVELAND,CO,80538,
2305.0,East Arapahoe Road,Centennial,CO,80122,
333.0,North Avenue,Grand Junction,CO,81501,4.0
679.0,Mount Massive Drive,LIVERMORE,CO,80536,
7448.0,West Geddes Place,Littleton,CO,80128,
10960.0,West 44Th Avenue,Wheat Ridge,CO,80033,
2629.0,South Moore Drive,Lakewood,CO,80227,
1730.0,19Th Avenue,Greeley,CO,80631,
1040.0,East 10Th Avenue,Broomfield,CO,80020,
7610.0,Halleys Drive,Littleton,CO,80125,
10445.0,Vienna Street,Parker,CO,80134,305.0
8400.0,East Prentice Avenue,Greenwood Village,CO,80111,535.0
1322.0,Florida Road,DURANGO,CO,81301,
4871.0,Isabella Drive,COLORADO CITY,CO,81019,
31101.0,Black Eagle Drive,Evergreen,CO,80439,
3419.0,North Point Drive,Evans,CO,80620,
210.0,10Th Street,Carbondale,CO,81623,
5453.0,South Sicily Street,Aurora,CO,80015,
2748.0,East Geddes Avenue,Centennial,CO,80122,
719.0,Rocky Mountain,Fort Collins,CO,80526,
757.0,Union Street,Lakewood,CO,80401,
311.0,Hubbell Street,BERTHOUD,CO,80513,
517.0,South Broadway,Grand Junction,CO,81507,
10512.0,Evansville Street,Parker,CO,80134,
1068.0,13Th,Boulder,CO,80302,
14312.0,Cottage Way,Broomfield,CO,80023,
4912.0,North Platte River Road,Littleton,CO,80125,
2518.0,Myrtle Court,FORT COLLINS,CO,80521,
520.0,North Sherwood Street,Fort Collins,CO,80521,
105.0,Montcalm Drive,PUEBLO,CO,81005,
5905.0,Zinnia Court,Arvada,CO,80004,
11926.0,West 107Th Avenue,Westminster,CO,80021,
7184.0,Glacier Road,Boulder,CO,80503,
1005.0,Bragdon Avenue,PUEBLO,CO,81004,
585.0,Interlocken Boulevard,Broomfield,CO,80021,
801.0,West Laurel Street,Fort Collins,CO,80523,
702.0,Cairnes Drive,FORT COLLINS,CO,80524,
765.0,14Th Street Sout*,Loveland,CO,80537,
105.0,E Lupine Drive,Pitkin County,CO,81611,
3098.0,Keepsake Way,Castle Rock,CO,80109,
8649.0,West Cottontail Drive,Lakewood,CO,80232,
620.0,Botley Drive,Windsor,CO,80550,
116.0,Magnolia Avenue,Rangley,CO,81648,
1925.0,Angelo Drive,FORT COLLINS,CO,80528,
1845.0,West Lilley Avenue,Littleton,CO,80120,
3948.0,Heatherwood Circle,JOHNSTOWN,CO,80534,
2933.0,Shelley Drive,Grand Junction,CO,81503,
16334.0,Deer Mountain Drive,Littleton,CO,80127,
1407.0,Willow Drive,BERTHOUD,CO,80513,
1488.0,South Biscay Court,Aurora,CO,80017,
1020.0,South Jackson Street,Denver,CO,80209,
2150.0,South Flower Way,Lakewood,CO,80227,
4301.0,East Girard Avenue,Denver,CO,80222,
8227.0,East State Highway 86,Franktown,CO,80116,
12553.0,South Robinson Ranch Court,Parker,CO,80134,
6399.0,West Roxbury Place,Littleton,CO,80128,
55.0,Oak Drive,BAYFIELD,CO,81122,
1394.0,Madison Avenue,Loveland,CO,80537,
5361.0,Neighbors Parkway,Firestone,CO,80504,
3457.0,Yule Trail,Fort Collins,CO,80524,
12710.0,West 42Nd Avenue,Wheat Ridge,CO,80033,
235.0,Columbus Canyon Road,Grand Junction,CO,81507,
605.0,West 57Th Street,LOVELAND,CO,80538,
20419.0,Sagewood Lane,Parker,CO,80138,
1628.0,Poplar Drive,Grand Junction,CO,81505,
1105.0,Applewood Avenue,Fort Lupton,CO,80621,
7171.0,West 52Nd Avenue,Arvada,CO,80002,
5191.0,South Richfield Street,Centennial,CO,80015,
10579.0,Parkington Lane,Highlands Ranch,CO,80126,
242.0,Lincoln Lane,Grand Junction,CO,81503,
200.0,Bradley Drive,FORT COLLINS,CO,80524,
5002.0,Silverwood Drive,JOHNSTOWN,CO,80534,
19303.0,East Asbury Drive,Aurora,CO,80013,
409.0,West W 3Rd Street,Rifle,CO,81650,
1105.0,Sherman Drive,Dacono,CO,80514,
8498.0,Rogers Loop,Arvada,CO,80007,
5085.0,West 136Th Avenue,Broomfield,CO,80023,
2608.0,Kansas Drive,FORT COLLINS,CO,80525,
11255.0,West Coal Mine Drive,Littleton,CO,80127,
2179.0,Blue Duck Court,LOVELAND,CO,80537,
3666.0,Pikes Peak Road,PARKER,CO,80138,
1020.0,East 10Th Avenue,Broomfield,CO,80020,
3328.0,Coyote Lane,Evans,CO,80620,
401.0,North Timberline Road,FORT COLLINS,CO,80524,
258.0,West Gloucester Circle,Grand Junction,CO,81503,
626.0,South Xenon Court,Lakewood,CO,80228,
3190.0,51St Avenue,Greeley,CO,80634,
501.0,West 10Th Street,PUEBLO,CO,81003,
2115.0,Kennedy Avenue,LOVELAND,CO,80538,
7145.0,Glacier Road,Boulder,CO,80503,
2020.0,West 10Th Avenue,Broomfield,CO,80020,
1064.0,Chambers Court,Aurora,CO,80011,205.0
3405.0,Valmont Road,Boulder,CO,80301,
1405.0,Kalmia,Boulder,CO,80304,
11.0,Senate Court,PUEBLO,CO,81005,
701.0,Struthers Avenue,Grand Junction,CO,81501,
7002.0,South Bryant Street,Littleton,CO,80120,
4620.0,Holland Street,Wheat Ridge,CO,80033,
3404.0,Terry Lake Road,FORT COLLINS,CO,80524,
1401.0,Colt Circle,Castle Rock,CO,80109,
3052.0,South Grape Way,Denver,CO,80222,
17191.0,East Mercer Drive,Aurora,CO,80013,
3671.0,South Mobile Way,Aurora,CO,80013,
1216.0,Quartz Mountain Road,Larkspur,CO,80118,
4623.0,Rist Canyon Road,LAPORTE,CO,80535,
181.0,Falcon Ridge Drive,Grand Junction,CO,81503,
582.0,Sinatra Way,Grand Junction,CO,81501,
1056.0,South Salem Street,Aurora,CO,80012,307.0
15680.0,East Asbury Place,Aurora,CO,80013,
57.0,Ridge Road,Snowmass Village,CO,81615,
433.0,Princeton Road,FORT COLLINS,CO,80525,
2429.0,South Ellis Court,Lakewood,CO,80228,
2515.0,Coach House Loop,Castle Rock,CO,80109,
7240.0,West Custer Avenue,Lakewood,CO,80226,115.0
1450.0,Zamia,Boulder,CO,80304,
4795.0,Deer Trail Court,FORT COLLINS,CO,80526,
2918.0,Hwy 50,Grand Junction,CO,81503,
8445.0,2Nd Street,WELLINGTON,CO,80549,
450.0,Bulla Drive,Grand Junction,CO,81504,
6750.0,Carr Street,Arvada,CO,80004,
11.0,Malibu Court,PUEBLO,CO,81005,
2625.0,Marys Lake Road,ESTES PARK,CO,80517,
10585.0,Jewelberry Trail,Highlands Ranch,CO,80130,
1306.0,Colorado Court,Glenwood Springs,CO,81601,
217.0,Cattail Bay,Windsor,CO,80550,
8678.0,Concord Center Drive,Englewood,CO,80112,200.0
2120.0,Cherry Avenue,Weld,CO,80631,
35504.0,Thistle Wood Court,ELIZABETH,CO,80107,
707.0,Jordan Place,Cortez,CO,81321,
1405.0,North College Avenue,FORT COLLINS,CO,80524,
1187.0,25Th Lane,PUEBLO,CO,81006,
1945.0,South Balsam Street,Lakewood,CO,80227,
3870.0,Mallard Drive,Highlands Ranch,CO,80126,
18539.0,West 60Th Avenue,Golden,CO,80403,
1171.0,Springfield Drive,Fort Collins,CO,80521,
85.0,Kiowa Road,LYONS,CO,80540,
2465.0,Lewis Street,Lakewood,CO,80215,
657.0,Fairchild Drive,Highlands Ranch,CO,80126,
11887.0,East Kepner Drive,Aurora,CO,80012,
232.0,East Valley View Drive,BAYFIELD,CO,0,
608.0,North N Traver Trail,Glenwood Springs,CO,81601,
4000.0,E,Boulder,CO,80303,
15772.0,East Progress Drive,Centennial,CO,80015,
4393.0,South Taft Street,Morrison,CO,80465,
17305.0,East Lincoln Avenue,Parker,CO,80134,
817.0,Redwood Court,BELLVUE,CO,80512,
3287.0,San Marco Place,Clifton,CO,81520,
23306.0,East 5Th Place,Aurora,CO,80018,202.0
2626.0,1St Street,Greeley,CO,80631,190.0
2516.0,Calvert Place,PUEBLO,CO,81001,
3003.0,Edison,Boulder,CO,80301,
6700.0,Indiana Street,Arvada,CO,80007,
11024.0,Twenty Mile Road,Parker,CO,80134,200.0
2980.0,North Avenue,Grand Junction,CO,81504,
21258.0,East Nassau Avenue,Aurora,CO,80013,
7021.0,County Road 136,HESPERUS,CO,0,
14808.0,East 12Th Avenue,Aurora,CO,80011,
11703.0,Elk Head Range Road,Littleton,CO,80127,
1942.0,N Road,Fruita,CO,81521,
4359.0,South Lincoln Street,Englewood,CO,80113,
1.0,Mayweed Court,PUEBLO,CO,81001,
7125.0,West 35Th Avenue,Wheat Ridge,CO,80033,
601.0,Jones Avenue,PUEBLO,CO,81004,
641.0,Coolwater Road,BAYFIELD,CO,81122,
851.0,221 County Road,Rifle,CO,81650,
15015.0,East Louisiana Drive,Aurora,CO,80012,
2222.0,East 16Th Street,Weld,CO,80631,
534.0,3Rd Avenue,Castle Rock,CO,80108,
4320.0,Butler,Boulder,CO,80305,
125.0,Franklin Avenue,Grand Junction,CO,81505,107.0
4662.0,South Abilene Circle,Aurora,CO,80015,
3027.0,South Grant Street,Englewood,CO,80113,
10406.0,Independence Street,Westminster,CO,80021,
34630.0,19,Weld,CO,80550,
12214.0,South Red Sky Drive,Parker,CO,80134,
760.0,32Nd,Boulder,CO,80303,
235.0,Columbus Canyon Road,Grand Junction,CO,81507,
502.0,Mountain Chickadee Road,Highlands Ranch,CO,80126,
3578.0,South Fairplay Way,Aurora,CO,80014,
8385.0,North Pinery Parkway,Parker,CO,80134,
7946.0,South Gaylord Way,Centennial,CO,80122,
1173.0,Olathe Street,Aurora,CO,80011,
38.0,Mountain Laurel Drive,Littleton,CO,80127,
12641.0,West Louisiana Avenue,Lakewood,CO,80228,
4070.0,11Th Street,Greeley,CO,80634,16.0
508.0,Canyon Wren Avenue,LOVELAND,CO,80537,
7812.0,17,Weld,CO,80621,
1115.0,Park Avenue,Rifle,CO,81650,
2463.0,Ash Avenue,Greeley,CO,80631,74.0
2801.0,East Stanford Drive,Englewood,CO,80113,
6712.0,Kipling Street,Arvada,CO,80004,
4334.0,Goodnight Avenue,PUEBLO,CO,81005,
2885.0,East Midway Boulevard,Broomfield,CO,80234,
51.0,Ponderosa Drive,Glenwood Springs,CO,81601,
13682.0,Plaster Point,Broomfield,CO,80023,
1261.0,South Wheeling Way,Aurora,CO,80012,
2655.0,Grey Fox Drive,ESTES PARK,CO,80517,
9653.0,Cordova Drive,Highlands Ranch,CO,80130,
49.0,East Red Creek Springs Road,PUEBLO,CO,81005,
811.0,Gunnison Avenue,Grand Junction,CO,81501,
3007.0,Milburn Drive,Grand Junction,CO,81504,
2818.0,11Th,Boulder,CO,80304,
14314.0,East Princeton Place,Aurora,CO,80014,318.0
1603.0,12Th Street,Greeley,CO,80631,
887.0,Summer Drive,Highlands Ranch,CO,80126,
1987.0,Piney River,Loveland,CO,80538,
12460.0,West 84Th Circle,Arvada,CO,80005,
2708.0,Park Lake,Fort Collins,CO,80525,
217.0,Ranae Drive,LOVELAND,CO,80537,
801.0,West Wonderview Avenue,ESTES PARK,CO,80517,
2943.0,South Argonne Street,Aurora,CO,80013,
210.0,West Third Street,Palisade,CO,81526,3.0
6193.0,Snowberry Avenue,Firestone,CO,80504,
719.0,Brookhaven Court,Fort Collins,CO,80525,
1135.0,A Street,Golden,CO,80401,
19128.0,East Dickenson Drive,Aurora,CO,80013,
9092.0,West Phillips Drive,Littleton,CO,80128,
9032.0,West Ken Caryl Avenue,Littleton,CO,80128,
6859.0,Otis Court,Arvada,CO,80003,
3124.0,Sam Houston Circle,FORT COLLINS,CO,80526,
17100.0,State Hwy 8,Morrison,CO,80465,
15870.0,West 64Th Place,Arvada,CO,80007,
101.0,East Welch Avenue,BERTHOUD,CO,80513,
7455.0,South Clarkson Circle,Centennial,CO,80122,
907.0,Jordache Drive,LOVELAND,CO,80538,
23582.0,Pondview Place,Golden,CO,80401,
9718.0,Queenscliffe Drive,Highlands Ranch,CO,80130,
1277.0,Winterwood Way,Highlands Ranch,CO,80126,
11910.0,Meadowood Lane,Parker,CO,80138,
835.0,Lake View Drive,BAYFIELD,CO,81122,
13884.0,East Lehigh Avenue,Aurora,CO,80014,
822.0,Thames Street,Highlands Ranch,CO,80126,
1515.0,3Rd Avenue,Greeley,CO,80631,
1040.0,East 10Th Avenue,Broomfield,CO,80020,
6028.0,Caribou Court,Frederick,CO,80516,
186.0,East Parkridge Drive,PUEBLO WEST,CO,81007,
3085.0,Mill Vista Road,Littleton,CO,80129,49.0
236.0,Honeysuckle Circle,Fruita,CO,81521,
379.0,Stagecoach Lane,Carbondale,CO,81623,
3380.0,East County Line Road,Uninc Doug,CO,80126,
131.0,North Bower Avenue,Palisade,CO,81526,6.0
304.0,South Madison Avenue,LOVELAND,CO,80537,
4317.0,Benton Street,Mountain View,CO,80212,
1355.0,Lee Street,Lakewood,CO,80215,
10193.0,Highland Meadow Loop,Parker,CO,80134,
7139.0,Estes Drive,Arvada,CO,80004,
3607.0,Marigold Street,Evans,CO,80620,
8318.0,South Independence Circle,Littleton,CO,80128,202.0
7197.0,Winter Berry Lane,Castle Pines,CO,80108,
4271.0,South Buckley Road,Aurora,CO,80013,
1721.0,Bonny Brae Lane,PUEBLO,CO,81001,
10450.0,Winding Meadow Drive,KIOWA,CO,80117,
12612.0,Zenobia Street,Broomfield,CO,80020,
3010.0,Veneto Court,Highlands Ranch,CO,80126,
850.0,Ponderosa Place,Eaton,CO,80615,
39.0,Skyline Drive,Wheat Ridge,CO,80215,
10772.0,Glengate Circle,Highlands Ranch,CO,80130,
3238.0,I70B,Clifton,CO,81520,28.0
1700.0,Kiowa Road,LYONS,CO,80540,
