NUMBER,STREET,CITY,STATE,POSTCODE,UNIT
46,Founders Rd,Glastonbury,CT,06033,
11,Woodside Dr,Naugatuck,CT,06770,
1559,Ridge Rd,North Haven,CT,06473,
168,Wolcott St,New Haven,CT,06513,
2,Nearwater Rd,Norwalk,CT,06853,
26,Michael Dr,Farmington,CT,06032,
1576,Boulevard,West Hartford,CT,06107,
67,S Water St,New Haven,CT,06519,
271,Hebron Rd,Bolton,CT,06043,
88,Vista View Dr,Southbury,CT,06488,
14,Hamden Park Dr,Hamden,CT,06517,
1472,Ridge Rd,North Haven,CT,06473,
1655,Ella T Grasso Blvd,New Haven,CT,06511,
118,Meloy Rd,West Haven,CT,06516,
399,Jefferson,Bridgeport,CT,06607,
40,Platt,Bridgeport,CT,06606,
74,Garden St,Ansonia,CT,06401,
75,Old Farm Rd,Hamden,CT,06517,
404,Granby St,Hartford,CT,06112,
110,Brushy Hill Rd,Woodbury,CT,06798,
320,Bayberry Ln,Westport,CT,06880,
56,Budney Rd,Newington,CT,06111,
33,Ocean Ave,Milford,CT,06460,
15,Pressprich St,Stamford,CT,06902,
599,Franklin Ave,Hartford,CT,06114,
10,Knotter Dr,Cheshire,CT,06410,
175,Tamarac Dr,Glastonbury,CT,06033,
12,Farmington Chase Cres,Farmington,CT,06032,
240,E Main St,Meriden,CT,06450,
33,Prospect Hill Rd,Branford,CT,06405,
66,Williamsburg Dr,Cheshire,CT,06410,
224,N Elm St,Torrington,CT,06790,
416,Colony St,Meriden,CT,06451,
734,Reservoir Rd,Southbury,CT,06488,
16,Moore Dr,Torrington,CT,06790,
,Judson Ave,East Hartford,CT,06118,
27,Fair St,Bristol,CT,06010,
389,Meadow St,Waterbury,CT,06702,
1,Bailey Blvd,Bethel,CT,06801,
10,Ridgecrest Dr,Cheshire,CT,06410,
700,Hale St,Suffield,CT,06078,
39,Ball Pond,Danbury,CT,06811,
91,Linwood,Bridgeport,CT,06605,
35,Robincrest Dr,Waterbury,CT,06708,
57,Mountain View Rd,Glastonbury,CT,06033,
17,Laurie Dr,Enfield,CT,06082,
45,Arrowhead Ln,Bethlehem,CT,06751,
174,Main St,Glastonbury,CT,06073,
27,Orlando Rd,Norwalk,CT,06854,
317,Bantam Lake Rd,Morris,CT,06763,
326,Lambert Rd,Orange,CT,06477,
15,Broad Leaf Ln,Enfield,CT,06082,
37,Stonycrest Dr,Meriden,CT,06450,
166,Joffre Ave,Stamford,CT,06905,
2,West Ridge Rd,New Fairfield,CT,06812,
1031,E Main St,Stratford,CT,06614,
559,Artillery Rd,Watertown,CT,06795,
60,Haddam Neck Rd,East Hampton,CT,06424,
26,Charles St,New Haven,CT,06511,
11,Angel Trce,Ellington,CT,06029,
60,Main St,East Hampton,CT,06424,
2,Watson Farm Dr,South Windsor,CT,06074,
7,Signal Hill Rd,Madison,CT,06443,
656,Lakeside,Bridgeport,CT,06606,
21,Clermont St,Hartford,CT,06106,
742,Lambert Rd,Orange,CT,06477,
1871,Boston Post Rd,Westbrook,CT,06498,
5,Ponderosa Dr,Greenwich,CT,06830,
185,Turkey Hills Rd,East Granby,CT,06026,
1,Keith St,Norwalk,CT,06854,
50,Hilltop Ave,Thomaston,CT,06787,
39,Wyman St,Waterbury,CT,06710,
33,Chidsey Ave,East Haven,CT,06512,
24,Bear Hill Rd,Bethany,CT,06524,
214,Overlook Rd,Glastonbury,CT,06033,
260,Pine St,Waterbury,CT,06710,
6,Westport Ave,Westport,CT,06880,
29,Sword Ave,Enfield,CT,06082,
71,Rees Dr,Oxford,CT,06478,
95,Hebron Rd,Andover,CT,06232,
51,Shortwoods Rd,New Fairfield,CT,06812,
445,Bow Ln,Middletown,CT,06457,
21,Birchwood Dr,Ansonia,CT,06401,
749,South Meriden Rd,Cheshire,CT,06410,
11,Bittersweet Ct,Newington,CT,06111,
71,Burnham St,Hartford,CT,06112,
540,East St,New Britain,CT,06051,
1,Little John Ln,Stamford,CT,06907,
27,Lyman Rd,Waterbury,CT,06704,
70,Utica St,Milford,CT,06461,
70,Copper Rdg,Southington,CT,06489,
12,Hopp Brook Ln,Bethany,CT,06524,
20,Heritage Dr,Cheshire,CT,06410,
25,West Point Ter,West Hartford,CT,06107,
51,Columbia Blvd,Waterbury,CT,06710,
159,Newton St,Meriden,CT,06450,
144,Lockwood Rd,Greenwich,CT,06878,
375,Grassy Hill Rd,Woodbury,CT,06798,
23,Kimball Rd,Wethersfield,CT,06109,
10,Timberwood Cir,North Branford,CT,06471,
25,Vincellette,Bridgeport,CT,06606,
698,Mulberry Point Rd,Guilford,CT,06437,
17,Glenbrook Dr,New Milford,CT,06776,
9,Irontree Ct,Avon,CT,06001,
3,Catalina Dr,Ansonia,CT,06401,
69,Birch St,Waterbury,CT,06704,
263,Byron Rd,Meriden,CT,06451,
41,W Dayton Hill Rd,Wallingford,CT,06492,
60,N Main St,Waterbury,CT,06702,
74,Whitewood Dr,Rocky Hill,CT,06067,
23,Seaview Ave,Madison,CT,06443,
489,Orange Ave,Milford,CT,06461,
4,Windsor Pl,Naugatuck,CT,06770,
159,Greenwood Ave,Bethel,CT,06801,
111,Southington Ave,Southington,CT,06489,
25,Stanley Dr,South Windsor,CT,06074,
65,Harrison St,New Britain,CT,06052,
98,Northwood Dr,Guilford,CT,06437,
11,West Wynd Ter,Middletown,CT,06457,
35,Main St,Wethersfield,CT,06109,
48,Mallard Dr,Glastonbury,CT,06033,
31,Webatuck Rd,New Milford,CT,06755,
150,Blue Hills Ave,Hartford,CT,06112,
94,Elmwood,Bridgeport,CT,06605,
49,Longview Dr,Windsor,CT,06095,
5,Mail Coach Dr,Norwalk,CT,06850,
32,Dudley St,Hamden,CT,06517,
35,Arlen Rd,Westport,CT,06880,
139,Summit St,Newington,CT,06111,
40,Woolam Rd,East Windsor,CT,06088,
324,New Park Ave,Hartford,CT,06110,
433,Torringford West St,Torrington,CT,06790,
11,Wood Dr,Enfield,CT,06082,
5,Old Hemlock Rd,Brookfield,CT,06804,
82,Cambridge St,Manchester,CT,06042,
381,Eden Rd,Stamford,CT,06907,
67,Grouse Hill Rd,Glastonbury,CT,06033,
4429,Durham Rd,Guilford,CT,06437,
38,Aloha Dr,Enfield,CT,06082,
104,Woods Hollow Rd,Suffield,CT,06093,
88,Russell Rd,Southington,CT,06479,
389,Pine St,Middletown,CT,06457,
6,Robert St,Woodbridge,CT,06525,
83,Wall St,Norwalk,CT,06850,
58,Woods Hill Rd,North Branford,CT,06472,
45,Woodmere Rd,Newington,CT,06111,
2,Center St,Andover,CT,06232,
154,Lake Dr,Bethlehem,CT,06751,
188,High Wood Dr,Glastonbury,CT,06073,
1793,Main St,East Hartford,CT,06108,
25,Custer St,West Hartford,CT,06110,
223,Palmer Hill Rd,Greenwich,CT,06870,
330,Elm St,Meriden,CT,06450,
46,Lawlor Rd,Tolland,CT,06084,
159,Watertown Rd,Morris,CT,06763,
133,Vanderbilt Ave,West Hartford,CT,06110,
449,Taulman Rd,Orange,CT,06477,
702,Summer Hill Dr,South Windsor,CT,06074,
124,Farmington Chase Cres,Farmington,CT,06032,
2,Spruce Brook Rd,Seymour,CT,06483,
223,Annelise Ave,Southington,CT,06489,
137,South Ave,North Haven,CT,06473,
145,Austin Ryer Ln,Branford,CT,06405,
19,N Cone Rd,East Hampton,CT,06424,
54,Break Neck Hill Rd,Westbrook,CT,06498,
189,Sigourney St,Hartford,CT,06105,
106,Putney Dr,West Haven,CT,06516,
66,Gordon St,East Haven,CT,06512,
151,Flat Iron Rd,Guilford,CT,06437,
9,Salem Straits,Darien,CT,06820,
18,Farmstead Ln,Ellington,CT,06029,
111,Kings Wood Dr,Avon,CT,06001,
3,Glenn Dr,Tolland,CT,06084,
10,Padanaram Rd,Danbury,CT,06811,
121,Beverly Rd,Wethersfield,CT,06109,
40,Hawley Rd,Danbury,CT,06811,
528,Horton Hill Rd,Naugatuck,CT,06770,
138,Carey St,Southington,CT,06489,
682,Atlantic,Bridgeport,CT,06604,
582,East St N,Suffield,CT,06078,
446,Parker St,Manchester,CT,06042,
322,Hoyt Farm Rd,New Canaan,CT,06840,
126,Walker St,Manchester,CT,06040,
43,Hunting Hill Ave,Middletown,CT,06457,
205,Harvard St,Hartford,CT,06106,
246,Fairfield Ave,Waterbury,CT,06708,
21,Grandview Ave,Norwalk,CT,06850,
254,Lanyon Dr,Cheshire,CT,06410,
8,Mountain Laurel Ln,Danbury,CT,06811,
11,Strawberry Ridge Rd,Ridgefield,CT,06877,
16,Leatherman Trl,Hamden,CT,06518,
175,Four Rod Rd,Hamden,CT,06514,
5,Oakwood Cir,Ellington,CT,06029,
29,Selah St,Waterbury,CT,06705,
384,Wells,Bridgeport,CT,06606,
32,Meeting House Rd,Greenwich,CT,06831,
52,Bellamy Ln,Bethlehem,CT,06751,
60,Hanover St,Meriden,CT,06451,
397,Hawley,Bridgeport,CT,06606,
3,Hollow Wood Ln,Greenwich,CT,06831,
132,Liberty St,Southington,CT,06489,
21,Lower Fish Rock Rd,Southbury,CT,06488,
40,Schoolhouse Rd,Wallingford,CT,06492,
28,Marjorie Dr,North Branford,CT,06471,
4,Babbling Brook Dr,Sherman,CT,06784,
22,Fenwood Grove Rd,Old Saybrook,CT,06475,
31,Crossen Dr,Tolland,CT,06084,
32,Wilmot,Bridgeport,CT,06607,
38,McKinley Ave,Bristol,CT,06010,
10,Elizabeth Ln,Greenwich,CT,06878,
80,Broadway,Bridgeport,CT,06606,
324,North St,Milford,CT,06461,
303,Rockwood Dr,Southington,CT,06489,
54,Chatham St,Hartford,CT,06112,
566,Huntington,Bridgeport,CT,06610,
4,Greenwich Ct,Middletown,CT,06457,
64,Strawberry Ln,Manchester,CT,06040,
1267,Torringford St,Torrington,CT,06790,
43,Floradale Dr,East Hartford,CT,06108,
179,Anns Farm Rd,Hamden,CT,06518,
56,Washington Cir,West Hartford,CT,06119,
4,Kelsey Pl,Bloomfield,CT,06002,
15,Pennywhistle Rd,East Granby,CT,06026,
,Thimble Islands Rd,Branford,CT,06405,
123,Wallacks Dr,Stamford,CT,06902,
,Davis St,New Haven,CT,06515,
1249,Boulevard,West Hartford,CT,06119,
27,Delwood Ave,Clinton,CT,06413,
412,Long Hill Rd,Wallingford,CT,06492,
17,Mills Rd,Windsor,CT,06095,
12,Middlesex St,Waterbury,CT,06704,
152,Pineridge Rd,Waterbury,CT,06706,
211,Nautilus,Bridgeport,CT,06606,
58,Vineyard Rd,North Haven,CT,06473,
62,Linden Ave,Branford,CT,06405,
141,Triangle St,Danbury,CT,06810,
8,Aspen Ledges Rd,Ridgefield,CT,06877,
278,Franklin Rd,Hamden,CT,06517,
23,Christopher Dr,Milford,CT,06460,
1705,Asylum Ave,West Hartford,CT,06119,
12,Anthony Dr,Bristol,CT,06010,
14,Garden St,Meriden,CT,06451,
177,Weed St,New Canaan,CT,06840,
22,Cambridge St,Manchester,CT,06042,
1,Colonial Dr,Enfield,CT,06082,
112,Murlyn Rd,Hamden,CT,06518,
2391,Stanley St,New Britain,CT,06053,
336,Wickham Rd,Glastonbury,CT,06033,
5,Bassett Rd,Branford,CT,06405,
1,Merritt Ln,Old Saybrook,CT,06475,
2,Park Pl,Granby,CT,06035,
23,Taylor Ave,Bethel,CT,06801,
14,Binney Rd,Old Lyme,CT,06371,
14,Sycamore Way,Branford,CT,06405,
188,Sigourney St,Hartford,CT,06105,
142,Bailey Rd,Rocky Hill,CT,06067,
80,Los Angeles Ave,Stratford,CT,06614,
80,Hanover St,Meriden,CT,06451,
74,Lyness St,Manchester,CT,06040,
441,Chapel St,New Haven,CT,06511,
79,Greenhurst Rd,West Hartford,CT,06107,
26,Anderson Rd,Greenwich,CT,06830,
97,Virginia Ln,Tolland,CT,06084,
230,Chester St,East Hartford,CT,06108,
97,Putnam Park Rd,Bethel,CT,06801,
49,Stonehill Dr,Rocky Hill,CT,06067,
268,Southbury Rd,Roxbury,CT,06783,
111,Medford St,West Haven,CT,06516,
75,Pebblebrook,Windsor,CT,06095,
76,Nicole Dr,Glastonbury,CT,06073,
4,Mulberry Ln,Enfield,CT,06082,
46,Robbie Rd,Tolland,CT,06084,
38,Spring St,Milford,CT,06460,
2,Willowbrook Rd,Cromwell,CT,06416,
102,Wetherell St,Manchester,CT,06040,
47,Cambridge Dr,South Windsor,CT,06074,
58,Grove St,Branford,CT,06405,
79,Maple Ave,Old Saybrook,CT,06475,
35,Hawleyville Rd,Bethel,CT,06801,
18,Punkin Dr,Ellington,CT,06029,
473,Garfield,Bridgeport,CT,06606,
5,Georgetown Rd,Bristol,CT,06010,
1,Abrahms Blvd,West Hartford,CT,06117,
64,Andover Rd,Windsor Locks,CT,06096,
8,Long Lots Ln,Westport,CT,06880,
4005,Ridge Rd,North Haven,CT,06473,
263,Red Mountain Ave,Torrington,CT,06790,
80,Lancaster Ct,Middletown,CT,06457,
,Glen Haven Rd,New Haven,CT,06513,
95,Nod Rd,Ridgefield,CT,06877,
118,Cynthia Dr,Berlin,CT,06037,
50,Zurko Farm Rd,Milford,CT,06461,
58,Orchard Rdg,Berlin,CT,06037,
66,Chapin Ave,Waterbury,CT,06708,
10,Avondale Rd,West Hartford,CT,06117,
53,Mount Vernon Dr,Vernon,CT,06066,
22,Weaver Cir,North Haven,CT,06473,
30,Benedict St,Norwalk,CT,06850,
37,Christian Ln,Brookfield,CT,06804,
214,Lum Lot Rd,Southbury,CT,06488,
274,Maplewood Ave,Milford,CT,06460,
234,Fans Rock Rd,Hamden,CT,06518,
56,Blackstone Ln,East Hartford,CT,06108,
459,Middlesex Rd,Darien,CT,06820,
433,Old Cellar Rd,Orange,CT,06477,
238,White Birch Rd,East Hampton,CT,06424,
492,King St,South Windsor,CT,06074,
717,Guernseytown Rd,Watertown,CT,06795,
114,Milne,Bridgeport,CT,06604,
19,Fox Den Rd,Bethel,CT,06801,
51,Devine Rd,Suffield,CT,06078,
508,Maple St,Wethersfield,CT,06109,
245,Crest St,Wethersfield,CT,06109,
183,N Condor Dr,Rocky Hill,CT,06067,
64,Wayne Ln,Meriden,CT,06450,
31,Beard Dr,New Milford,CT,06776,
,Cosey Beach Ave,East Haven,CT,06512,
57,Benton Ln,Glastonbury,CT,06033,
225,Lovely St,Avon,CT,06001,
557,Union,Bridgeport,CT,06607,
35,Oxford Rd,Oxford,CT,06478,
8,Cedarwood Dr,Ellington,CT,06029,
86,Dillon Rd,Hartford,CT,06112,
277,Robinwood Rd,Waterbury,CT,06708,
5,Anchorage Ln,Old Saybrook,CT,06475,
68,Fairview Dr,Wethersfield,CT,06109,
15,Edwin,Bridgeport,CT,06607,
151,Farmington Ave,Waterbury,CT,06710,
43,Douglas Ln,Ridgefield,CT,06877,
71,Tarragon Dr,East Hampton,CT,06424,
80,Washington Ave,Seymour,CT,06483,
63,Acacea Ct,Middletown,CT,06457,
79,S Center St,Windsor Locks,CT,06096,
480,Main St S,Woodbury,CT,06798,
20,Amato Dr,South Windsor,CT,06074,
4,Fletcher Rd,Enfield,CT,06082,
39,Lewelyn Rd,Stamford,CT,06902,
96,Sherman St,Hartford,CT,06105,
165,Mountain Brook Dr,Cheshire,CT,06410,
100,Great Meadow Rd,Wethersfield,CT,06109,
22,Shirley St,Norwalk,CT,06850,
35,Summer Hill Ct,Cheshire,CT,06410,
28,Island Hill Ave,Ridgefield,CT,06877,
877,New Britain Ave,Hartford,CT,06106,
146,Linkfield Rd,Watertown,CT,06795,
29,Leigh Dr,East Haven,CT,06512,
51,Butternut Ln,Bristol,CT,06010,
46,Ginger Ln,Torrington,CT,06790,
16,Driftwood Ln,Norwalk,CT,06851,
274,Jefferson Woods,Branford,CT,06405,
158,Mayflower St,West Hartford,CT,06110,
97,Hirsch Rd,Stamford,CT,06905,
143,Jeanne Ct,Stamford,CT,06903,
116,Berlin Ave,Southington,CT,06489,
95,Alexandra Dr,Stratford,CT,06614,
130,King St,Danbury,CT,06811,
62,Bayberry Rd,Glastonbury,CT,06033,
18,Chamberlain Ct,Cheshire,CT,06410,
4,Old Camp Ln,Greenwich,CT,06807,
19,Arrowhead Rd,North Haven,CT,06473,
25,Hammick Rd,West Hartford,CT,06107,
14,Karen Dr,Portland,CT,06480,
729,S Quaker Ln,West Hartford,CT,06110,
197,Thompson Hill Rd,Portland,CT,06480,
142,Weed St,New Canaan,CT,06840,
380,Horsepond Rd,Madison,CT,06443,
45,Central Ave,West Haven,CT,06516,
12,Michael St,East Haven,CT,06513,
129,Ashpohtag Rd,Norfolk,CT,06058,
3,Mansfield Grove Rd,East Haven,CT,06512,
201,Boston St,Guilford,CT,06437,
25,Middleton Dr,New Fairfield,CT,06812,
40,Salvatore Ave,Bristol,CT,06010,
39,Great Plain Rd,Danbury,CT,06811,
54,Roosevelt Blvd,Enfield,CT,06082,
314,Old Mill Rd,Middletown,CT,06457,
6,Calhoun,Bridgeport,CT,06604,
31,Carter Ave,Meriden,CT,06451,
72,Oxbow Dr,Meriden,CT,06450,
1720,Ellington Rd,South Windsor,CT,06074,
229,Plains Rd,Haddam,CT,06438,
800,N Brooksvale Rd,Cheshire,CT,06410,
15,Eileen Rd,West Haven,CT,06516,
140,Kane St,West Hartford,CT,06119,
93,Franklin St,Danbury,CT,06810,
80,Bigelow St,Manchester,CT,06040,
535,William,Bridgeport,CT,06608,
1,Dry Hill Ct,Norwalk,CT,06851,
70,Saunders St,East Hartford,CT,06108,
23,Highline Trl S,Stamford,CT,06902,
83,Hartford Ave,Old Lyme,CT,06371,
4,Acadia St,West Hartford,CT,06119,
250,Platt Ln,Cheshire,CT,06410,
90,Woodhouse Ave,Wallingford,CT,06492,
8,Village St,Manchester,CT,06040,
50,Cedar Grove Ter,Essex,CT,06426,
123,Greenwood Ave,Bethel,CT,06801,
789,Mt Carmel Ave,North Haven,CT,06473,
1562,Albany Ave,Hartford,CT,06112,
313,Moose Hill Rd,Guilford,CT,06437,
7,Liberty St,Clinton,CT,06413,
16,Stoneboat Rd,Westport,CT,06880,
128,Chatham St,Hartford,CT,06112,
642,Governors Hwy,South Windsor,CT,06074,
26,Sable St,Norwalk,CT,06854,
26,Stoneybrook Rd,Naugatuck,CT,06770,
19,Lake Dr,Darien,CT,06820,
1,Lonicera Ct,Old Lyme,CT,06371,
20,West St,Ansonia,CT,06401,
275,Sylvan,Bridgeport,CT,06606,
66,Autumn Dr,Southington,CT,06489,
316,Exchange St,New Haven,CT,06513,
255,Hebron Ave,Glastonbury,CT,06033,
28,Valentine St,Waterbury,CT,06708,
275,Old Post Rd,North Branford,CT,06472,
98,Magnolia Rd,Milford,CT,06461,
2037,Shippan Ave,Stamford,CT,06902,
280,Peter Green Rd,Tolland,CT,06084,
74,Albion St,Naugatuck,CT,06770,
156,Nunzio Dr,Southington,CT,06479,
59,Cynthia Cir,West Haven,CT,06516,
81,Cove Rd,Bristol,CT,06010,
38,Larchmont Ave,Waterbury,CT,06708,
33,Benton St,Manchester,CT,06040,
118,North Ave,Westport,CT,06880,
960,Still Hill Rd,Hamden,CT,06518,
27,Woodland St,Newington,CT,06111,
111,Kirkwood Rd,West Hartford,CT,06117,
47,East Side Blvd,Waterbury,CT,06712,
12,Pine Knob Dr,South Windsor,CT,06074,
10,Trumbull St,Newington,CT,06111,
328,Gravel St,Meriden,CT,06450,
31,Frog Hollow Rd,Ellington,CT,06029,
150,High St,South Windsor,CT,06074,
25,Bogart Ln,Newington,CT,06111,
330,Ives St,Hamden,CT,06518,
216,Linkfield Rd,Watertown,CT,06795,
2,Maple Ave,Wallingford,CT,06492,
207,Skyview Dr,Cromwell,CT,06416,
10,Mill Pond Ln,Old Lyme,CT,06371,
10,Laurel St,Manchester,CT,06040,
54,Pleasant St,Manchester,CT,06040,
976,North St,Greenwich,CT,06831,
5,Ole Musket Ln,Danbury,CT,06810,
3,Varno Ln,Enfield,CT,06082,
60,Robin Ln,Cheshire,CT,06410,
143,Sound Beach Ave,Greenwich,CT,06870,
3,Trout Dr,Granby,CT,06026,
17,Harkim Rd,Greenwich,CT,06831,
344,N Steele Rd,West Hartford,CT,06117,
434,Stratford,Bridgeport,CT,06608,
60,Lancaster Rd,Wethersfield,CT,06109,
21,Ash Dr,Windsor,CT,06095,
20,Terese Rd,Beacon Falls,CT,06403,
155,Strawberry Hill Ave,Norwalk,CT,06851,
1687,Ella T Grasso Blvd,New Haven,CT,06511,
107,Sharon Dr,Tolland,CT,06084,
17,Michigan Rd,New Canaan,CT,06840,
106,Derby Ave,Derby,CT,06418,
537,Fountain St,New Haven,CT,06515,
404,Hitchcock Rd,Southington,CT,06489,
10,John Olds Dr,Manchester,CT,06042,
27,Julia Ln,Thomaston,CT,06787,
180,Sargeant St,Hartford,CT,06105,
168,Stamford Ave,Stamford,CT,06902,
407,Oak Ave,Torrington,CT,06790,
141,Wooster Ave,Stratford,CT,06615,
304,Wilton Rd,Westport,CT,06880,
35,Bachelor Oak Rd,Bethany,CT,06524,
424,N Main St,Wallingford,CT,06492,
16,Brocklesby Rd,Avon,CT,06001,
205,Vernon Ave,Vernon,CT,06066,
285,Oak Dr,Watertown,CT,06795,
2,Maple Ln,New Milford,CT,06776,
8,Migeon Ave,Torrington,CT,06790,
31,Daniel Blvd,Bloomfield,CT,06002,
532,Oakridge Dr,Cheshire,CT,06410,
23,Indian Hill Rd,Newington,CT,06111,
164,French,Bridgeport,CT,06606,
34,Grouse Ln,Madison,CT,06443,
11,Michael Ter,Waterbury,CT,06710,
118,Sill Ln,Old Lyme,CT,06371,
287,Old Post Rd,North Branford,CT,06472,
70,Hillcrest Rd,New Canaan,CT,06840,
70,Old Hill Rd,Westport,CT,06880,
118,Bayberry Dr,Thomaston,CT,06787,
53,High St,East Haven,CT,06512,
20,Prospect St,Middletown,CT,06457,
1036,Mapleton Ave,Suffield,CT,06078,
205,Bluebird Dr,Naugatuck,CT,06770,
162,Country Hills Rd,Hamden,CT,06514,
151,Cider Mill Xing,Torrington,CT,06790,
24,Webster St,Hartford,CT,06114,
117,Dibble Holw,Windsor Locks,CT,06096,
86,Fairhaven Dr,Middlebury,CT,06762,
19,Winding Ln,Enfield,CT,06082,
44,Summer St,Guilford,CT,06437,
58,Hilltop Rd,New Haven,CT,06515,
42,Thornton Dr,Newington,CT,06111,
195,Spring Rd,North Haven,CT,06473,
85,E Main St,Meriden,CT,06450,
301,Hartford Ave,Newington,CT,06111,
711,Waterville St,Waterbury,CT,06710,
40,Dean St,Stamford,CT,06902,
95,Hockanum Blvd,Vernon,CT,06066,
166,Ice House Rd,Watertown,CT,06779,
166,Lincoln St,Berlin,CT,06037,
81,Cannon St,Hamden,CT,06518,
26,Old Middle St,Goshen,CT,06756,
37,Franklin Ln,Glastonbury,CT,06033,
4,Redwood Dr,Oxford,CT,06478,
8,Burdette Pl,Milford,CT,06460,
411,Homestead Ave,Hartford,CT,06112,
55,Benton St,Manchester,CT,06040,
70,Moylan Ct,Newington,CT,06111,
34,Batterson Dr,New Britain,CT,06053,
3,Ridge Rd,Derby,CT,06418,
84,Sequin St,Newington,CT,06111,
167,Knox Blvd,Middletown,CT,06457,
23,Oakledge Dr,Essex,CT,06442,
402,Old Field Rd,Southbury,CT,06488,
277,Candlelite Dr,Rocky Hill,CT,06067,
61,Sonstrom Rd,Bristol,CT,06010,
15,Perna Ln,Greenwich,CT,06878,
383,Stillman,Bridgeport,CT,06608,
85,Carriage Dr,Stratford,CT,06614,
5,Schupp Rd,Hamden,CT,06514,
37,Alps Dr,East Hartford,CT,06108,
2,Parky Dr,Enfield,CT,06082,
5,Belaire Dr,Old Saybrook,CT,06475,
174,Flatbush Ave,Hartford,CT,06106,
209,Laurel St,Hartford,CT,06105,
58,Greenwood Ave,Bethel,CT,06801,
91,Reynolds Bridge Rd,Thomaston,CT,06787,
291,Columbus Ave,New Haven,CT,06519,
346,Kelly Rd,Vernon,CT,06066,
47,Benedict St,Norwalk,CT,06854,
127,Pine Hill Ave,Stamford,CT,06906,
79,Maple St,East Hartford,CT,06118,
359,Third Ave,West Haven,CT,06516,
,Tamarack Rd,Danbury,CT,06811,
87,Delahunty Dr,Southington,CT,06489,
129,Hillandale Rd,Westport,CT,06880,
87,Indian Head Rd,Greenwich,CT,06878,
160,Newgate Rd,Oxford,CT,06478,
142,Elmfield St,West Hartford,CT,06110,
32,Parkway Pl,Meriden,CT,06450,
0,Bassett Rd,Watertown,CT,06795,
16,Brae Burn,Glastonbury,CT,06033,
101,Anderson Ave,West Haven,CT,06516,
328,Bassett Rd,North Haven,CT,06473,
59,Hazel St,Hartford,CT,06106,
0,Gordon Dr,South Windsor,CT,06074,
38,Haviland St,Bristol,CT,06010,
95,Hawthorne Ave,Waterbury,CT,06708,
125,Bedford St,Stamford,CT,06901,
63,Circle Beach Rd,Madison,CT,06443,
944,Forbes St,East Hartford,CT,06118,
135,Lakes Rd,Bethlehem,CT,06751,
22,Green Pasture Rd,Bethel,CT,06801,
283,Circle Dr,Torrington,CT,06790,
141,Avery Heights Rd,Hartford,CT,06106,
555,Main St,Ansonia,CT,06401,
106,Field Rd,Cromwell,CT,06416,
97,Candlewood Dr,South Windsor,CT,06074,
1181,Boulevard,West Hartford,CT,06119,
1320,Asylum Ave,Hartford,CT,06105,
123,Tackora Trl,Ridgefield,CT,06877,
153,Redstone Hl,Bristol,CT,06010,
24,Kyle Ct,Meriden,CT,06450,
89,Walnut Rd,Rocky Hill,CT,06067,
326,N Colony St,Wallingford,CT,06492,
122,Gilman,Bridgeport,CT,06605,
50,Saw Mill Rd,New Fairfield,CT,06812,
622,Main St,Ridgefield,CT,06877,
12,Vernon Rd,Enfield,CT,06082,
12,Trowbridge Rd,East Haddam,CT,06469,
78,Hany Ln,Vernon,CT,06066,
89,Brush Hill Rd,Lyme,CT,06371,
328,Cascade Rd,Stamford,CT,06903,
2107,Mill Pond Dr,South Windsor,CT,06074,
19,E Porter Rd,Ellington,CT,06029,
381,Old Rock Rd,Branford,CT,06405,
1061,Hillstown Rd,Glastonbury,CT,06033,
1,Judds Bridge Rd,Roxbury,CT,06783,
51,Grouse Hill Rd,Glastonbury,CT,06033,
483,Barnum,Bridgeport,CT,06608,
304,Long Hill Dr,Glastonbury,CT,06033,
1489,Mapleton Ave,Suffield,CT,06078,
97,Ocean Dr W,Stamford,CT,06902,
2,Cross Rd,Brookfield,CT,06804,
9011,Waterville Rd,Farmington,CT,06032,
56,Concord Rd,Manchester,CT,06042,
94,Park St,Hartford,CT,06106,
584,Hill St,Bristol,CT,06010,
415,Wiese Rd,Cheshire,CT,06410,
22,Rivercliff Dr,Milford,CT,06460,
104,Cannon Ridge Dr,Watertown,CT,06795,
256,Ocean Dr W,Stamford,CT,06902,
16,Hemlock Dr,Enfield,CT,06082,
19,Hampton Rd,Hamden,CT,06518,
12,Silver Lakes Dr,Darien,CT,06820,
92,Willow Spgs,New Milford,CT,06776,
45,Freight St,Waterbury,CT,06702,
91,Rock Creek Rd,New Haven,CT,06515,
136,Atkins St,Middletown,CT,06457,
370,Washington Blvd,Stamford,CT,06902,
7,Westwood Cir,Meriden,CT,06450,
32,Nolan St,Norwalk,CT,06850,
26,Laura Dr,Danbury,CT,06811,
732,E Broadway,Milford,CT,06460,
57,Millstream Rd,Hebron,CT,06231,
232,Candlewood Lk N,New Milford,CT,06776,
40,Rolling Grn,Middletown,CT,06457,
46,Whitney Rd,Manchester,CT,06040,
11,Riverview Rd,Rocky Hill,CT,06067,
26,Lenox Dr,Glastonbury,CT,06033,
4,Fordham Trl,Old Saybrook,CT,06475,
58,Dannell Dr,Stamford,CT,06905,
665,Laurel St,East Haven,CT,06512,
68,Little Harbor Rd,Guilford,CT,06437,
25,Woodside Ave,Westport,CT,06880,
7,Burnham St,East Hartford,CT,06108,
77,Edmund St,Newington,CT,06111,
6,W Normandy Dr,West Hartford,CT,06107,
5,Brownstone Rd,Berlin,CT,06037,
185,Adams St,Manchester,CT,06042,
4,Stanwich Ln,Greenwich,CT,06830,
21,Cobblestone Ln,Meriden,CT,06450,
42,Highland Ave,Watertown,CT,06795,
52,Grouse Hill Rd,Glastonbury,CT,06033,
4,Richard Ln,Bloomfield,CT,06002,
1524,Main St,Stratford,CT,06615,
110,Traverse St,Waterbury,CT,06704,
39,High St,Glastonbury,CT,06073,
6,Greenfield Dr,New Britain,CT,06051,
1544,Main St,East Hartford,CT,06108,
12,Quail Holw,West Hartford,CT,06117,
7,Red Coat Ln,Farmington,CT,06085,
40,Sprague,Bridgeport,CT,06605,
136,West St,New Haven,CT,06519,
24,Lawton Ave,Newington,CT,06111,
95,Dunrobin Ln,Watertown,CT,06795,
13,Old Stone Rd,Darien,CT,06820,
51,Argyle Rd,Milford,CT,06460,
31,Hettiefred Rd,Greenwich,CT,06831,
10,Long Hill Rd,Clinton,CT,06413,
69,Fulling Mill Ln,Ridgefield,CT,06877,
144,S Main St,West Hartford,CT,06107,
392,Arctic,Bridgeport,CT,06608,
12,Dorothy St,Enfield,CT,06082,
22,East St,New Milford,CT,06776,
42,Pearl St,Meriden,CT,06450,
,Short Beach Rd,East Haven,CT,06512,
143,Ledgewood Dr,Glastonbury,CT,06033,
92,Buckingham Dr,Glastonbury,CT,06033,
1503,Boston Post Rd,Milford,CT,06460,
23,Hunt Ter,Greenwich,CT,06831,
6,Vernon St,East Haven,CT,06512,
132,Chestnut St,Branford,CT,06405,
145,Lucille St,Waterbury,CT,06708,
2,East Beach Dr,Norwalk,CT,06853,
303,Village St,Bristol,CT,06010,
680,Baldwin St,Waterbury,CT,06706,
286,Chipman St,Waterbury,CT,06708,
95,Carter St,Watertown,CT,06779,
59,Pepper Ln,New Canaan,CT,06840,
24,Francis Ave,Hartford,CT,06106,
37,Bryant Pl,Stratford,CT,06614,
117,Nooks Hill Rd,Cromwell,CT,06416,
179,Sheephill Rd,Greenwich,CT,06878,
116,Boardman Rd,East Haddam,CT,06423,
38,Aspinall Dr,Andover,CT,06232,
149,Sunnyslope Dr,New Britain,CT,06053,
46,S Whitney St,Hartford,CT,06106,
15,Vineyard Ln,Greenwich,CT,06831,
114,Euerle St,Stratford,CT,06614,
10,Redwood Dr,Oxford,CT,06478,
68,Portage Xing,Farmington,CT,06032,
1590,Barnum,Bridgeport,CT,06610,
51,Granger Ln,North Canaan,CT,06018,
1,Candlewick Ln,Old Lyme,CT,06371,
57,Old Middle Rd,Brookfield,CT,06804,
2537,Broadbridge Ave,Stratford,CT,06614,
424,Cook Ave,Meriden,CT,06451,
81,Park Ave,Derby,CT,06418,
900,Riverton Ter,Stratford,CT,06614,
234,Sherman Ave,Meriden,CT,06450,
80,Wilson Ave,Meriden,CT,06450,
275,South St,Vernon,CT,06066,
364,Grove St,Waterbury,CT,06710,
120,Russo Dr,Hamden,CT,06518,
120,Horseshoe Dr,Southbury,CT,06488,
37,Curtiss St,Naugatuck,CT,06770,
21,North Plains Industrial Rd,Wallingford,CT,06492,
60,Hanover St,Meriden,CT,06451,
3,Stable Dr,Danbury,CT,06810,
30,Lincoln Ct,Meriden,CT,06451,
106,Crofton St,New Haven,CT,06513,
29,Aarons Ct,Ridgefield,CT,06877,
44,Shelley Rd,Middletown,CT,06457,
26,Duane Rd,Hamden,CT,06514,
621,Riverdale Dr,Stratford,CT,06615,
6,Stone Hl,Bloomfield,CT,06002,
33,Cooper Ave,Wallingford,CT,06492,
40,Truman,Bridgeport,CT,06606,
168,Slater Rd,Tolland,CT,06084,
52,Heritage Dr,Seymour,CT,06483,
62,Wood Ridge Dr,Stamford,CT,06905,
138,Tuthill St,West Haven,CT,06516,
47,Congress St,Hartford,CT,06114,
19,Farm Rd,Sherman,CT,06784,
714,Mary Shepard Pl,Hartford,CT,06120,
30,Linden Point Rd,Branford,CT,06405,
201,Buckingham St,Hartford,CT,06106,
1042,Beechlawn Ter,Orange,CT,06477,
102,Broad St,Manchester,CT,06042,
80,Fairway Dr,New Britain,CT,06053,
124,Riverside Dr,Meriden,CT,06451,
70,Knollwood Rd,Manchester,CT,06042,
461,Jerome Ave,Bristol,CT,06010,
43,Berger St,Branford,CT,06405,
47,Blueberry Cir,Ellington,CT,06029,
2,Autumn Ridge Rd,Oxford,CT,06478,
19,Dorset Dr,New Milford,CT,06776,
219,Boyden St,Waterbury,CT,06704,
24,Reynolds Ave,Branford,CT,06405,
45,Long Hill Rd,Windsor,CT,06095,
498,Prospect Ave,Hartford,CT,06105,
820,Ocean Ave,West Haven,CT,06516,
769,Ogden,Bridgeport,CT,06608,
77,Central Ave,Waterbury,CT,06710,
208,Timber Ridge Rd,Middletown,CT,06457,
70,Rachelle Ave,Stamford,CT,06905,
11,River Rd,Old Lyme,CT,06371,
294,Green Rd,Manchester,CT,06042,
1,Foxboro Rd,Essex,CT,06426,
31,Woodland St,Hartford,CT,06105,
253,Bartholomew Rd,Middletown,CT,06457,
97,Austin St,New Britain,CT,06051,
15,Indian Neck Ave,Branford,CT,06405,
14,Weymouth Rd,Enfield,CT,06082,
,Carmel St,New Haven,CT,06511,
,Joe's Hill Rd,Danbury,CT,06811,
29,Schoolhouse Rd,Wallingford,CT,06492,
15,Bowhay Hill Rd,Branford,CT,06405,
297,Harral,Bridgeport,CT,06604,
,Juniper Rd,Bethel,CT,06801,
144,Elm St,Windsor Locks,CT,06096,
241,McGrath Ct,Stratford,CT,06615,
70,Bell,Bridgeport,CT,06610,
32,Buckwheat Hill Rd,Watertown,CT,06795,
50,Canione Rd,Glastonbury,CT,06033,
51,Village Ln,Windsor,CT,06095,
42,Goff Rd,Wethersfield,CT,06109,
6,Revonah Cir,Stamford,CT,06905,
1021,Roxbury Rd,Southbury,CT,06488,
7,Hollister Dr,West Hartford,CT,06117,
361,Hope Hill Rd,Wallingford,CT,06492,
36,Fawn Dr,Cheshire,CT,06410,
28,Tudor Ln,Naugatuck,CT,06770,
253,Main St,Hartford,CT,06106,
398,Great Swamp Rd,Glastonbury,CT,06033,
77,Main St,New Canaan,CT,06840,
300,Ivy St,Wallingford,CT,06492,
11,Meadow Rd,Bolton,CT,06043,
206,Five & 1/2 Mile Rd,Goshen,CT,06756,
33,Edward St,East Haven,CT,06512,
89,Madison Ave,Hartford,CT,06106,
25,Menunketesuck Rd,Westbrook,CT,06498,
1424,Poquonock Ave,Windsor,CT,06095,
1073,Main St,Glastonbury,CT,06073,
18,Maywood St,Waterbury,CT,06704,
1899,Chalker Hl,Glastonbury,CT,06033,
12,Miner Dr,East Haddam,CT,06423,
68,Highview Dr,Rocky Hill,CT,06067,
300,Nassau Rd,Stratford,CT,06614,
22,France St,Norwalk,CT,06851,
55,Hubbell Mountain Rd,Sherman,CT,06784,
20,Plymouth Ave,Norwalk,CT,06851,
20,Chestnut Ln,West Hartford,CT,06110,
267,Hoyt St,Darien,CT,06820,
80,Havemeyer Ln,Greenwich,CT,06870,
62,Break Neck Hill Rd,Westbrook,CT,06498,
576,Russell Ct,Orange,CT,06477,
75,Echo Dr,Vernon,CT,06066,
30,Taine Mountain Rd,Farmington,CT,06085,
175,Short Rock Rd,Southbury,CT,06488,
50,Wintergreen Rd,Bristol,CT,06010,
35,Watch Hill Rd,Cheshire,CT,06410,
80,Taylor Ave,East Haven,CT,06512,
111,Skyview Dr,Cromwell,CT,06416,
25,Old Simsbury Rd,Granby,CT,06035,
76,Old Stamford Rd,New Canaan,CT,06840,
11,Hampton Ct,Farmington,CT,06032,
214,Grandview Ave,Hamden,CT,06514,
644,Frost Rd,Waterbury,CT,06705,
46,Rustic Ter,Bristol,CT,06010,
919,Mary Shepard Pl,Hartford,CT,06120,
201,Race Hill Rd,Madison,CT,06443,
30,Homer St,Norwalk,CT,06851,
33,Millbrook Ct,Newington,CT,06111,
49,James St,Hamden,CT,06518,
912,N High St,East Haven,CT,06512,
55,Helaine Rd,Manchester,CT,06042,
355,Griswold Rd,Wethersfield,CT,06109,
40,Chester St,Hartford,CT,06114,
29,Roberts Rd,Marlborough,CT,06447,
,Thompson St,East Haven,CT,06513,
39,Woodduck Farms,Windsor,CT,06095,
15,Moody Dr,Danbury,CT,06811,
7,Lady Slipper Ln,Old Lyme,CT,06371,
96,Fulton St,New Britain,CT,06051,
473,Hollow Tree Ridge Rd,Darien,CT,06820,
72,Main St,Hartford,CT,06106,
,Russo Ave,East Haven,CT,06513,
18,General Wooster Rd,Derby,CT,06418,
98,Ledgeside Ave,Waterbury,CT,06708,
60,Burrows Hill Rd,Hebron,CT,06231,
37,Forest Ave,Danbury,CT,06810,
150,Roosevelt St,Hartford,CT,06114,
500,Brinsmayd Ave,Stratford,CT,06614,
30,Oak St,New Canaan,CT,06840,
51,Randeckers Ln,Berlin,CT,06037,
54,Beach Ave,Milford,CT,06460,
99,Ocean Ave,Milford,CT,06460,
,Peat Meadow Rd,New Haven,CT,06512,
1,Gold St,Hartford,CT,06103,
9,Lewis St,Hartford,CT,06103,
80,West Ave,Stamford,CT,06902,
76,Shorefront Park,Norwalk,CT,06854,
15,Lynn Dr,Wallingford,CT,06492,
1,Shadbush Way,South Windsor,CT,06074,
134,Davenport Rd,West Hartford,CT,06110,
87,Pond Hill Rd,Wallingford,CT,06492,
9,Carls Ln,New Milford,CT,06776,
10,Dante Pl,Hamden,CT,06514,
17,Kettle Rd,Norwalk,CT,06850,
170,Johnson Rd,Hamden,CT,06518,
4,Laura Ln,Wallingford,CT,06492,
9,Colonial,Bridgeport,CT,06606,
20,Straits Tpke Ln,Morris,CT,06763,
2,Woodland Pl,Granby,CT,06035,
70,Surrey Ln,Windsor,CT,06095,
156,North Granby Rd,Granby,CT,06035,
621,N Elm St,Wallingford,CT,06492,
59,Rockwood Rd,Hamden,CT,06514,
410,Steele Rd,New Hartford,CT,06057,
37,Davin Dr,Naugatuck,CT,06770,
5,Dairy Farm Rd,Norwalk,CT,06851,
169,Palmer Dr,South Windsor,CT,06074,
238,Old Goshen Rd,Norfolk,CT,06058,
70,Ash St,Stratford,CT,06615,
866,Orange St,New Haven,CT,06511,
21,Garfield Rd,Rocky Hill,CT,06067,
30,Sandhurst Dr,West Hartford,CT,06107,
82,Schoolhouse Xing,Wethersfield,CT,06109,
935,Chamberlain Hill Rd,Middletown,CT,06457,
104,Oakland St,Manchester,CT,06042,
289,Carroll,Bridgeport,CT,06607,
15,Apple Ln,Suffield,CT,06093,
16,Intervale Pl,Greenwich,CT,06830,
71,John Fitch Blvd,South Windsor,CT,06074,
11,Loomis Rd,Bolton,CT,06043,
35,Alvin Dr,Norwalk,CT,06850,
50,Langdon Ct,Berlin,CT,06037,
306,Cedar Ln,New Canaan,CT,06840,
744,Hope St,Stamford,CT,06907,
24,Meadowbrook Dr,North Branford,CT,06471,
630,Broad St,Meriden,CT,06450,
101,Patton Dr,Cheshire,CT,06410,
24,Rachel Ann Ct,Prospect,CT,06712,
44,Bancroft Ln,South Windsor,CT,06074,
15,Winter St,Stamford,CT,06905,
615,Hart,Bridgeport,CT,06606,
8,Country Ln,Windsor,CT,06095,
35,Valerie Ln,Danbury,CT,06811,
2,Beverly Ln,Marlborough,CT,06447,
285,White Pine Rd,Torrington,CT,06790,
770,Railroad,Bridgeport,CT,06605,
387,Grand Ave,New Haven,CT,06513,
42,Lake Dr,Madison,CT,06443,
81,Colton St,Windsor,CT,06095,
327,White Oak Shade Rd,New Canaan,CT,06840,
87,Lynn Dr,Meriden,CT,06451,
71,Clarence Ct,Middletown,CT,06457,
509,Campbell Ave,West Haven,CT,06516,
406,Waterbury Rd,Bristol,CT,06010,
22,Mallard Dr,Glastonbury,CT,06033,
33,West Hill Ter,Naugatuck,CT,06770,
9,Fox Chase Rd,Bloomfield,CT,06002,
872,Winchester Ave,New Haven,CT,06511,
44,Rockview Dr,Cheshire,CT,06410,
343,Boston Neck Rd,Suffield,CT,06078,
43,Webster Park Rd,Southington,CT,06489,
190,Allen St,New Britain,CT,06053,
44,Merritt Valley Rd,Andover,CT,06232,
95,Theodore Napper Ln,Hartford,CT,06120,
428,Hammock Rd N,Westbrook,CT,06498,
62,Miry Brook Rd,Danbury,CT,06810,
8,Lawrence St,Woodbridge,CT,06525,
7,Red Orange Rd,Middletown,CT,06455,
965,West Blvd,Hartford,CT,06106,
6,Pebble Rd,Wethersfield,CT,06109,
74,Briarwood Rd,Naugatuck,CT,06770,
162,W Rutland Rd,Milford,CT,06461,
133,Colonel Chester Dr,Wethersfield,CT,06109,
27,Cindy Ln,Berlin,CT,06037,
28,Lockwood Dr,Greenwich,CT,06870,
31,Dwight St,Waterbury,CT,06710,
255,Spruce St,Cheshire,CT,06410,
234,Harwood Rd,Waterbury,CT,06706,
102,Clifford St,Hamden,CT,06517,
107,Daly Ave,New Britain,CT,06051,
243,Amity Rd,Bethany,CT,06524,
,Laurel St,East Haven,CT,06512,
2070,Baldwin St,Waterbury,CT,06706,
2,Echo Dr,Darien,CT,06820,
14,Glen Cir,Seymour,CT,06483,
140,Music Mountain Rd,Canaan,CT,06031,
32,Laydon Ave,North Haven,CT,06473,
24,Tower Hill Rd,Clinton,CT,06413,
18,N Union Ave,West Haven,CT,06516,
39,Frissell Ter,Middletown,CT,06457,
794,Broad St,Hartford,CT,06106,
31,Norwich-Essex Tpke,East Haddam,CT,06423,
,Downes St,Waterbury,CT,06704,
85,Fairwood Rd,Naugatuck,CT,06770,
113,Olcott Way,Ridgefield,CT,06877,
420,Buckland Hills Dr,Manchester,CT,06042,
334,Foxon Rd,East Haven,CT,06512,
42,Litchfield St,Thomaston,CT,06787,
203,Cold Spring Rd,Stamford,CT,06905,
19,Michael Dr,Guilford,CT,06437,
30,Marion St,Bristol,CT,06010,
30,Wildwood Rd,East Haddam,CT,06415,
215,Cider Brook Rd,Avon,CT,06001,
833,Main St,Hamden,CT,06514,
72,Eastridge Dr,Waterbury,CT,06708,
6,Ravencrest Dr,Bethel,CT,06801,
192,Elam St,New Britain,CT,06053,
55,Congress,Bridgeport,CT,06604,
44,Indian Head Rd,Greenwich,CT,06878,
243,Cooper Pl,New Haven,CT,06515,
,Silver Sands Rd,East Haven,CT,06512,
,Mansfield St,New Haven,CT,06511,
311,Rye St,East Windsor,CT,06016,
27,Hoyt Farm Rd,New Canaan,CT,06840,
31,Monroe St,Hartford,CT,06114,
160,Morehouse,Bridgeport,CT,06605,
9,Maple St,Manchester,CT,06040,
36,Elliott St,New Haven,CT,06519,
225,Greenfield,Bridgeport,CT,06606,
86,S Branford Rd,Wallingford,CT,06492,
77,Wall St,Torrington,CT,06790,
23,Brentwood Ct,Middletown,CT,06457,
25,Goldsmith Rd,Branford,CT,06437,
81,Mountain Laurel Dr,Waterbury,CT,06704,
36,Norton St,Waterbury,CT,06708,
194,Roslyn Dr,New Britain,CT,06052,
80,Riverhill Rd,Southbury,CT,06488,
18,Surrey Dr,Newington,CT,06111,
57,County St,New Haven,CT,06511,
357,Knob Hill Rd,Meriden,CT,06451,
35,Red Fox Rd,Stratford,CT,06614,
182,Sherman Hill Rd,Woodbury,CT,06798,
41,Rolling Ridge Rd,Ridgefield,CT,06877,
63,Mountain Trl,Guilford,CT,06437,
19,Pine Hill Rd,Southbury,CT,06488,
64,James,Bridgeport,CT,06604,
190,Olde Stage Rd,Glastonbury,CT,06033,
445,Platt,Bridgeport,CT,06606,
293,Plainfield St,Hartford,CT,06112,
42,Deerfield Ave,East Hartford,CT,06108,
565,Blue Hills Ave,Hartford,CT,06112,
173,Edgewood St,Hartford,CT,06112,
44,Country Way,North Haven,CT,06473,
1,Osborne Prof Ctr,New Milford,CT,06776,
32,Vernon St,Hartford,CT,06106,
90,Blueberry Ln,Southbury,CT,06488,
76,West Ave,Darien,CT,06820,
40,Kenney St,Bristol,CT,06010,
61,Samoset Ave,North Haven,CT,06473,
49,Taft Cir,Watertown,CT,06795,
177,Ginger Ln,Torrington,CT,06790,
6,Briarwood Ln,Wallingford,CT,06492,
31,Brainard Hill Rd,Haddam,CT,06441,
41,Lawrence St,Vernon,CT,06066,
92,Deer Hill Rd,Hamden,CT,06518,
22,N Turnpike Rd,Wallingford,CT,06492,
8,Fairview St,Essex,CT,06442,
25,Cottage St,New Haven,CT,06511,
149,Cove St,New Haven,CT,06512,
100,Jewett,Bridgeport,CT,06606,
46,Cedar Knls,Branford,CT,06405,
19,Hidden Pond Dr,Waterbury,CT,06704,
81,Lexington St,New Britain,CT,06052,
100,Second Ave,Westbrook,CT,06498,
98,Lake Rd,Enfield,CT,06082,
192,Ball Pond Rd,New Fairfield,CT,06812,
