NUMBER,STREET,CITY,STATE,POSTCODE,UNIT
120,RIDGE ROAD SE,WASHINGTON,DC,20019,
2358,13TH PLACE NE,WASHINGTON,DC,20018,
5709,33RD STREET NW,WASHINGTON,DC,20015,
4551,RENO ROAD NW,WASHINGTON,DC,20008,
5000,5TH STREET NW,WASHINGTON,DC,20011,
1921,1ST STREET NW,WASHINGTON,DC,20001,
614,17TH STREET NW,WASHINGTON,DC,20006,
708,12TH STREET SE,WASHINGTON,DC,20003,
5000,FULTON STREET NW,WASHINGTON,DC,20016,
,BLADENSBURG ROAD NE,WASHINGTON,DC,20018,
1927,H STREET NE,WASHINGTON,DC,20002,
1623,NEW JERSEY AVENUE NW,WASHINGTON,DC,20001,
2637,POMEROY ROAD SE,WASHINGTON,DC,20020,
85,DISTRICT SQUARE SW,WASHINGTON,DC,20024,
398,MACDILL BOULEVARD SW,WASHINGTON,DC,20032,
2,GIRARD STREET NE,WASHINGTON,DC,20002,
2422,BRANCH AVENUE SE,WASHINGTON,DC,20020,
507,10TH STREET SE,WASHINGTON,DC,20003,
155,V STREET NE,WASHINGTON,DC,20002,
834,ALLISON STREET NW,WASHINGTON,DC,20011,
647,MORTON PLACE NE,WASHINGTON,DC,20002,
1347,QUEEN STREET NE,WASHINGTON,DC,20002,
1815,24TH STREET NW,WASHINGTON,DC,20008,
1823,BRUCE PLACE SE,WASHINGTON,DC,20020,
4717,ALBEMARLE STREET NW,WASHINGTON,DC,20016,
331,L STREET SE,WASHINGTON,DC,20003,
102,PEABODY STREET NE,WASHINGTON,DC,20011,
40,53RD PLACE SE,WASHINGTON,DC,20019,
5015,38TH STREET NW,WASHINGTON,DC,20016,
2134,WYOMING AVENUE NW,WASHINGTON,DC,20008,
1419,DOWNING STREET NE,WASHINGTON,DC,20018,
4848,QUEENS CHAPEL TERRACE NE,WASHINGTON,DC,20017,
421,37TH PLACE SE,WASHINGTON,DC,20019,
6815,9TH STREET NW,WASHINGTON,DC,20012,
2006,37TH STREET SE,WASHINGTON,DC,20020,
202,54TH STREET SE,WASHINGTON,DC,20019,
3331,CARPENTER STREET SE,WASHINGTON,DC,20020,
1924,PENNSYLVANIA AVENUE NW,WASHINGTON,DC,20006,
2921,KANAWHA STREET NW,WASHINGTON,DC,20015,
4816,9TH STREET NW,WASHINGTON,DC,20011,
3502,WINFIELD LANE NW,WASHINGTON,DC,20007,
2519,RALPH ELLISON WAY NE,WASHINGTON,DC,20018,
4126,13TH STREET NW,WASHINGTON,DC,20011,
412,RICHARDSON PLACE NW,WASHINGTON,DC,20001,
2805,POMEROY ROAD SE,WASHINGTON,DC,20020,
640,14TH STREET NW,WASHINGTON,DC,20005,
,FLORIDA AVENUE NE,WASHINGTON,DC,20002,
750,BURNS STREET SE,WASHINGTON,DC,20019,
3559,APPLETON STREET NW,WASHINGTON,DC,20008,
1200,HALF STREET SE,WASHINGTON,DC,20003,
5116,FULTON STREET NW,WASHINGTON,DC,20016,
3220,CHESTNUT STREET NW,WASHINGTON,DC,20015,
1730,LYMAN PLACE NE,WASHINGTON,DC,20002,
4800,SOUTH DAKOTA AVENUE NE,WASHINGTON,DC,20017,
5215,11TH STREET NE,WASHINGTON,DC,20011,
2722,STANTON ROAD SE,WASHINGTON,DC,20020,
1222,RHODE ISLAND AVENUE NE,WASHINGTON,DC,20018,
535,MELLON STREET SE,WASHINGTON,DC,20032,
3809,WINDOM PLACE NW,WASHINGTON,DC,20016,
1200,G STREET SE,WASHINGTON,DC,20003,
814,YUMA STREET SE,WASHINGTON,DC,20032,
1360,HALF STREET SW,WASHINGTON,DC,20024,
6007,4TH STREET NW,WASHINGTON,DC,20011,
4730,14TH STREET NW,WASHINGTON,DC,20011,
6407,8TH STREET NW,WASHINGTON,DC,20012,
813,Q STREET NW,WASHINGTON,DC,20001,
3833,S STREET NW,WASHINGTON,DC,20007,
3940,7TH STREET NE,WASHINGTON,DC,20017,
1301,ADAMS STREET NE,WASHINGTON,DC,20018,
1428,POTOMAC AVENUE SE,WASHINGTON,DC,20003,
412,NEW JERSEY AVENUE SE,WASHINGTON,DC,20003,
1355,SOMERSET PLACE NW,WASHINGTON,DC,20011,
1836,4TH STREET NW,WASHINGTON,DC,20001,
711,NEWTON PLACE NW,WASHINGTON,DC,20010,
641,PICKFORD PLACE NE,WASHINGTON,DC,20002,
2415,MINNESOTA AVENUE SE,WASHINGTON,DC,20020,
6412,EASTERN AVENUE NE,WASHINGTON,DC,20012,
3623,EVERETT STREET NW,WASHINGTON,DC,20008,
217,FLORIDA AVENUE NW,WASHINGTON,DC,20001,
5615,NORTH CAPITOL STREET NE,WASHINGTON,DC,20011,
201,RALEIGH STREET SE,WASHINGTON,DC,20032,
4910,8TH STREET NE,WASHINGTON,DC,20017,
3238,QUESADA STREET NW,WASHINGTON,DC,20015,
205,V STREET NW,WASHINGTON,DC,20001,
3,60TH STREET NE,WASHINGTON,DC,20019,
3169,HAWTHORNE DRIVE NE,WASHINGTON,DC,20017,
1648,ARGONNE PLACE NW,WASHINGTON,DC,20009,
515,9TH STREET NW,WASHINGTON,DC,20004,
4520,43RD STREET NW,WASHINGTON,DC,20016,
38,MADISON STREET NW,WASHINGTON,DC,20011,
645,E STREET NE,WASHINGTON,DC,20002,
1229,JACKSON STREET NE,WASHINGTON,DC,20017,
3221,OLIVER STREET NW,WASHINGTON,DC,20015,
432,6TH STREET NE,WASHINGTON,DC,20002,
3700,CONNECTICUT AVENUE NW,WASHINGTON,DC,20008,
518,3RD STREET NE,WASHINGTON,DC,20002,
3310,22ND STREET NE,WASHINGTON,DC,20018,
3214,PORTER STREET NW,WASHINGTON,DC,20008,
507,MADISON STREET NE,WASHINGTON,DC,20011,
5300,8TH STREET NW,WASHINGTON,DC,20011,
801,G STREET SE,WASHINGTON,DC,20003,
1442,SPRING ROAD NW,WASHINGTON,DC,20010,
527,ROXBORO PLACE NW,WASHINGTON,DC,20011,
4912,MEADE STREET NE,WASHINGTON,DC,20019,
2215,39TH PLACE NW,WASHINGTON,DC,20007,
4508,VAN NESS STREET NW,WASHINGTON,DC,20016,
1261,PENN STREET NE,WASHINGTON,DC,20002,
1353,U STREET NW,WASHINGTON,DC,20009,
3927,BURNS COURT SE,WASHINGTON,DC,20019,
1363,SHERIDAN STREET NW,WASHINGTON,DC,20011,
770,KENNEDY STREET NE,WASHINGTON,DC,20011,
905,11TH STREET NE,WASHINGTON,DC,20002,
4317,12TH STREET NE,WASHINGTON,DC,20017,
1239,GALLATIN STREET NE,WASHINGTON,DC,20017,
1639,FORT DUPONT STREET SE,WASHINGTON,DC,20020,
1837,MONROE STREET NE,WASHINGTON,DC,20018,
5332,ILLINOIS AVENUE NW,WASHINGTON,DC,20011,
1308,GIRARD STREET NW,WASHINGTON,DC,20009,
2340,AINGER PLACE SE,WASHINGTON,DC,20020,
209,BEACON PLACE NE,WASHINGTON,DC,20011,
1243,MORSE STREET NE,WASHINGTON,DC,20002,
5414,41ST STREET NW,WASHINGTON,DC,20015,
4544,43RD STREET NW,WASHINGTON,DC,20016,
4938,JUST STREET NE,WASHINGTON,DC,20019,
1167,ABBEY PLACE NE,WASHINGTON,DC,20002,
4722,CHESAPEAKE STREET NW,WASHINGTON,DC,20016,
2011,4TH STREET NW,WASHINGTON,DC,20001,
3426,PORTER STREET NW,WASHINGTON,DC,20016,
113,57TH PLACE SE,WASHINGTON,DC,20019,
721,T STREET NW,WASHINGTON,DC,20001,
4608,4TH STREET NW,WASHINGTON,DC,20011,
705,WHARF STREET SW,WASHINGTON,DC,20024,
309,35TH STREET NE,WASHINGTON,DC,20019,
1915,BELMONT ROAD NW,WASHINGTON,DC,20009,
1851,TOBIAS DRIVE SE,WASHINGTON,DC,20020,
915,52ND STREET NE,WASHINGTON,DC,20019,
3211,O STREET NW,WASHINGTON,DC,20007,
245,15TH STREET SE,WASHINGTON,DC,20003,
1509,OLIVE STREET NE,WASHINGTON,DC,20019,
3929,W STREET NW,WASHINGTON,DC,20007,
6128,GEORGIA AVENUE NW,WASHINGTON,DC,20011,
643,GALLATIN STREET NE,WASHINGTON,DC,20017,
3817,MILITARY ROAD NW,WASHINGTON,DC,20015,
509,14TH STREET NE,WASHINGTON,DC,20002,
855,VENABLE PLACE NW,WASHINGTON,DC,20012,
1813,LAWRENCE STREET NE,WASHINGTON,DC,20018,
1704,P STREET NW,WASHINGTON,DC,20036,
313,I STREET SE,WASHINGTON,DC,20003,
1416,FOXHALL ROAD NW,WASHINGTON,DC,20007,
3909,9TH STREET SE,WASHINGTON,DC,20032,
1620,FOXHALL ROAD NW,WASHINGTON,DC,20007,
5305,DORSETT PLACE NW,WASHINGTON,DC,20016,
4410,49TH STREET NW,WASHINGTON,DC,20016,
1402,EMERSON STREET NW,WASHINGTON,DC,20011,
1228,46TH STREET SE,WASHINGTON,DC,20019,
,OAK DRIVE SE,WASHINGTON,DC,20032,
3301,CONNECTICUT AVENUE NW,WASHINGTON,DC,20008,
4810,C STREET SE,WASHINGTON,DC,20019,
1750,L STREET NW,WASHINGTON,DC,20036,
1931,KENYON STREET NW,WASHINGTON,DC,20010,
1809,PARK ROAD NW,WASHINGTON,DC,20010,
4531,VAN NESS STREET NW,WASHINGTON,DC,20016,
4221,NASH STREET SE,WASHINGTON,DC,20020,
1515,TANNER STREET SE,WASHINGTON,DC,20020,
1000,29TH STREET NW,WASHINGTON,DC,20007,
690,KENNETH STREET NE,WASHINGTON,DC,20017,
404,4TH STREET NE,WASHINGTON,DC,20002,
6134,SLIGO MILL ROAD NE,WASHINGTON,DC,20011,
736,ATLANTIC STREET SE,WASHINGTON,DC,20032,
1250,24TH STREET NW,WASHINGTON,DC,20037,
1316,DELAFIELD PLACE NW,WASHINGTON,DC,20011,
407,T STREET NW,WASHINGTON,DC,20001,
2900,ORDWAY STREET NW,WASHINGTON,DC,20008,
4911,44TH STREET NW,WASHINGTON,DC,20016,
4058,1ST STREET SW,WASHINGTON,DC,20032,
2928,YOST PLACE NE,WASHINGTON,DC,20018,
301,QUACKENBOS STREET NE,WASHINGTON,DC,20011,
2120,OBSERVATORY PLACE NW,WASHINGTON,DC,20007,
3100,DOUGLAS STREET NE,WASHINGTON,DC,20018,
2360,HIGH STREET SE,WASHINGTON,DC,20020,
5745,9TH STREET NW,WASHINGTON,DC,20011,
1274,DELAFIELD PLACE NE,WASHINGTON,DC,20017,
4704,BLAGDEN TERRACE NW,WASHINGTON,DC,20011,
2314,TOWN CENTER PLACE SE,WASHINGTON,DC,20020,
335,PARKLAND PLACE SE,WASHINGTON,DC,20032,
1246,STEVENS ROAD SE,WASHINGTON,DC,20020,
450,M STREET SW,WASHINGTON,DC,20024,
1947,VALLEY TERRACE SE,WASHINGTON,DC,20032,
2314,14TH STREET NE,WASHINGTON,DC,20018,
,PATRICK CIRCLE SW,WASHINGTON,DC,20032,
413,XENIA STREET SE,WASHINGTON,DC,20032,
410,NEW JERSEY AVENUE SE,WASHINGTON,DC,20003,
644,IRVING STREET NW,WASHINGTON,DC,20010,
223,12TH STREET SE,WASHINGTON,DC,20003,
720,A STREET SE,WASHINGTON,DC,20003,
609,OTIS PLACE NW,WASHINGTON,DC,20010,
1512,T STREET NW,WASHINGTON,DC,20009,
4157,ALABAMA AVENUE SE,WASHINGTON,DC,20019,
3745,MCKINLEY STREET NW,WASHINGTON,DC,20015,
5084,LOWELL STREET NW,WASHINGTON,DC,20016,
507,49TH PLACE NE,WASHINGTON,DC,20019,
5504,SHERIER PLACE NW,WASHINGTON,DC,20016,
5733,MACARTHUR BOULEVARD NW,WASHINGTON,DC,20016,
422,7TH STREET NE,WASHINGTON,DC,20002,
1245,13TH STREET NW,WASHINGTON,DC,20005,
1210,G STREET NE,WASHINGTON,DC,20002,
4214,HUNT PLACE NE,WASHINGTON,DC,20019,
3517,PORTER STREET NW,WASHINGTON,DC,20016,
4801,NEBRASKA AVENUE NW,WASHINGTON,DC,20016,
1620,2ND STREET SW,WASHINGTON,DC,20024,
1250,PATTERSON AVENUE SE,WASHINGTON,DC,20003,
919,QUINCY STREET NW,WASHINGTON,DC,20011,
4623,MINNESOTA AVENUE NE,WASHINGTON,DC,20019,
720,G STREET NE,WASHINGTON,DC,20002,
1021,NEWTON STREET NE,WASHINGTON,DC,20017,
513,9TH STREET NE,WASHINGTON,DC,20002,
1123,CONGRESS STREET SE,WASHINGTON,DC,20032,
724,SHERIDAN STREET NW,WASHINGTON,DC,20011,
536,HAMILTON STREET NE,WASHINGTON,DC,20011,
6008,7TH PLACE NW,WASHINGTON,DC,20011,
824,BARNABY STREET SE,WASHINGTON,DC,20032,
3269,WORTHINGTON STREET NW,WASHINGTON,DC,20015,
5726,4TH STREET NW,WASHINGTON,DC,20011,
4121,48TH STREET NW,WASHINGTON,DC,20016,
,A STREET SE,WASHINGTON,DC,20003,
301,VAN BUREN STREET NW,WASHINGTON,DC,20012,
831,EUCLID STREET NW,WASHINGTON,DC,20001,
1603,34TH STREET NW,WASHINGTON,DC,20007,
523,7TH STREET SE,WASHINGTON,DC,20003,
3531,19TH STREET SE,WASHINGTON,DC,20020,
1408,WISCONSIN AVENUE NW,WASHINGTON,DC,20007,
4631,ALTON PLACE NW,WASHINGTON,DC,20016,
6424,BLAIR ROAD NW,WASHINGTON,DC,20012,
3140,LYNDALE PLACE SE,WASHINGTON,DC,20019,
4618,14TH STREET NW,WASHINGTON,DC,20011,
223,10TH STREET NE,WASHINGTON,DC,20002,
1353,SHEPHERD STREET NW,WASHINGTON,DC,20011,
1714,EUCLID STREET NW,WASHINGTON,DC,20009,
173,ELMIRA STREET SW,WASHINGTON,DC,20032,
1464,OGDEN STREET NW,WASHINGTON,DC,20010,
1014,2ND STREET SE,WASHINGTON,DC,20003,
301,JEFFERSON STREET NW,WASHINGTON,DC,20011,
3001,DAVENPORT STREET NW,WASHINGTON,DC,20008,
2311,GOOD HOPE COURT SE,WASHINGTON,DC,20020,
4231,9TH STREET NW,WASHINGTON,DC,20011,
2329,17TH STREET NW,WASHINGTON,DC,20009,
6024,EASTERN AVENUE NE,WASHINGTON,DC,20011,
3601,35TH STREET NW,WASHINGTON,DC,20016,
2033,WATERSIDE DRIVE NW,WASHINGTON,DC,20009,
3508,21ST STREET SE,WASHINGTON,DC,20020,
3419,B STREET SE,WASHINGTON,DC,20019,
6001,34TH PLACE NW,WASHINGTON,DC,20015,
1439,Q STREET NW,WASHINGTON,DC,20009,
,D STREET NE,WASHINGTON,DC,20002,
810,GERANIUM STREET NW,WASHINGTON,DC,20012,
1622,GALES STREET NE,WASHINGTON,DC,20002,
2412,T STREET SE,WASHINGTON,DC,20020,
3402,24TH STREET SE,WASHINGTON,DC,20020,
708,HIGHLAND AVENUE NW,WASHINGTON,DC,20012,
918,KENNEDY STREET NW,WASHINGTON,DC,20011,
3130,BLUES ALLEY NW,WASHINGTON,DC,20007,
210,16TH STREET NW,WASHINGTON,DC,20004,
1620,E STREET NE,WASHINGTON,DC,20002,
1781,W STREET SE,WASHINGTON,DC,20020,
1212,KIRBY STREET NW,WASHINGTON,DC,20001,
257,37TH STREET SE,WASHINGTON,DC,20019,
1005,E STREET NE,WASHINGTON,DC,20002,
3004,5TH STREET SE,WASHINGTON,DC,20032,
2640,WOODLEY PLACE NW,WASHINGTON,DC,20008,
431,QUINCY STREET NW,WASHINGTON,DC,20011,
1456,ALABAMA AVENUE SE,WASHINGTON,DC,20032,
1911,P STREET SE,WASHINGTON,DC,20020,
5329,ILLINOIS AVENUE NW,WASHINGTON,DC,20011,
818,GALLATIN STREET NW,WASHINGTON,DC,20011,
4409,3RD STREET NW,WASHINGTON,DC,20011,
4251,EADS STREET NE,WASHINGTON,DC,20019,
2101,13TH STREET SE,WASHINGTON,DC,20020,
609,G STREET SW,WASHINGTON,DC,20024,
,NEBRASKA AVENUE NW,WASHINGTON,DC,20016,
4613,6TH STREET SE,WASHINGTON,DC,20032,
1926,BENNETT PLACE NE,WASHINGTON,DC,20002,
2413,3RD STREET NE,WASHINGTON,DC,20002,
2733,RITTENHOUSE STREET NW,WASHINGTON,DC,20015,
,10TH STREET NE,WASHINGTON,DC,20017,
37,QUINCY PLACE NW,WASHINGTON,DC,20001,
4206,EMBASSY PARK DRIVE NW,WASHINGTON,DC,20016,
125,C STREET SE,WASHINGTON,DC,20003,
810,1ST STREET NE,WASHINGTON,DC,20002,
,IRVING STREET NW,WASHINGTON,DC,20010,
,MASSACHUSETTS AVENUE NW,WASHINGTON,DC,20016,
624,3RD STREET SW,WASHINGTON,DC,20024,
1122,SHEPHERD STREET NE,WASHINGTON,DC,20017,
4600,ALTON PLACE NW,WASHINGTON,DC,20016,
40,DISTRICT SQUARE SW,WASHINGTON,DC,20024,
805,MASSACHUSETTS AVENUE NE,WASHINGTON,DC,20002,
1614,14TH STREET NW,WASHINGTON,DC,20009,
2735,CATHEDRAL AVENUE NW,WASHINGTON,DC,20008,
5076,KIMI GRAY COURT SE,WASHINGTON,DC,20019,
416,FLORIDA AVENUE NW,WASHINGTON,DC,20001,
1740,BENNING ROAD NE,WASHINGTON,DC,20002,
,NEW MEXICO AVENUE NW,WASHINGTON,DC,20016,
2343,SKYLAND PLACE SE,WASHINGTON,DC,20020,
334,L STREET SE,WASHINGTON,DC,20003,
2234,CALIFORNIA STREET NW,WASHINGTON,DC,20008,
2220,KEARNY STREET NE,WASHINGTON,DC,20018,
5406,13TH STREET NW,WASHINGTON,DC,20011,
300,ALLISON STREET NW,WASHINGTON,DC,20011,
4360,F STREET SE,WASHINGTON,DC,20019,
2708,30TH STREET SE,WASHINGTON,DC,20020,
124,WEBSTER STREET NE,WASHINGTON,DC,20011,
1003,SAVANNAH STREET SE,WASHINGTON,DC,20032,
1311,10TH STREET NW,WASHINGTON,DC,20001,
2122,11TH STREET NW,WASHINGTON,DC,20001,
830,12TH STREET NE,WASHINGTON,DC,20002,
410,ELM STREET NW,WASHINGTON,DC,20001,
1339,RIGGS STREET NW,WASHINGTON,DC,20009,
3832,GARFIELD STREET NW,WASHINGTON,DC,20007,
37,RANDOLPH PLACE NW,WASHINGTON,DC,20001,
3506,19TH STREET SE,WASHINGTON,DC,20020,
301,RHODE ISLAND AVENUE NW,WASHINGTON,DC,20001,
4231,GORMAN STREET SE,WASHINGTON,DC,20019,
3218,CLEVELAND AVENUE NW,WASHINGTON,DC,20008,
4335,E STREET SE,WASHINGTON,DC,20019,
2356,CHAMPLAIN STREET NW,WASHINGTON,DC,20009,
4928,1ST STREET NW,WASHINGTON,DC,20011,
3007,34TH STREET NW,WASHINGTON,DC,20008,
4260,6TH STREET SE,WASHINGTON,DC,20032,
2912,32ND STREET NW,WASHINGTON,DC,20008,
5050,8TH STREET NE,WASHINGTON,DC,20017,
1425,SARATOGA AVENUE NE,WASHINGTON,DC,20018,
4433,6TH PLACE NE,WASHINGTON,DC,20017,
5021,7TH STREET NW,WASHINGTON,DC,20011,
3523,TEXAS AVENUE SE,WASHINGTON,DC,20020,
237,PENNSYLVANIA AVENUE SE,WASHINGTON,DC,20003,
6,ELMIRA STREET SW,WASHINGTON,DC,20032,
4411,42ND STREET NW,WASHINGTON,DC,20016,
3700,MILITARY ROAD NW,WASHINGTON,DC,20015,
2207,SHANNON PLACE SE,WASHINGTON,DC,20020,
27,8TH STREET NE,WASHINGTON,DC,20002,
4121,ALABAMA AVENUE SE,WASHINGTON,DC,20019,
4303,PONDS STREET NE,WASHINGTON,DC,20019,
5345,CHILLUM PLACE NE,WASHINGTON,DC,20011,
306,S STREET NE,WASHINGTON,DC,20002,
,REDWOOD DRIVE SE,WASHINGTON,DC,20032,
1420,4TH STREET SW,WASHINGTON,DC,20024,
1304,HOLBROOK STREET NE,WASHINGTON,DC,20002,
4421,PONDS STREET NE,WASHINGTON,DC,20019,
4312,13TH PLACE NE,WASHINGTON,DC,20017,
1117,ORREN STREET NE,WASHINGTON,DC,20002,
199,WHITE STREET SW,WASHINGTON,DC,20032,
3725,9TH STREET NW,WASHINGTON,DC,20010,
2433,SHANNON PLACE SE,WASHINGTON,DC,20020,
21,HAREWOOD ROAD NW,WASHINGTON,DC,20011,
5019,10TH STREET NE,WASHINGTON,DC,20017,
1427,34TH STREET NW,WASHINGTON,DC,20007,
3731,FESSENDEN STREET NW,WASHINGTON,DC,20016,
3626,HORNER PLACE SE,WASHINGTON,DC,20032,
4226,FORT DUPONT TERRACE SE,WASHINGTON,DC,20020,
,DEFENSE BOULEVARD SW,WASHINGTON,DC,20373,
3141,APPLE ROAD NE,WASHINGTON,DC,20018,
24,GALLEY COURT SW,WASHINGTON,DC,20032,
518,48TH PLACE NE,WASHINGTON,DC,20019,
3614,10TH STREET NW,WASHINGTON,DC,20010,
53,MISSOURI AVENUE NW,WASHINGTON,DC,20011,
3719,OAKVIEW TERRACE NE,WASHINGTON,DC,20017,
1417,CONGRESS PLACE SE,WASHINGTON,DC,20020,
613,G STREET SW,WASHINGTON,DC,20024,
5120,3RD STREET NW,WASHINGTON,DC,20011,
1626,19TH STREET NW,WASHINGTON,DC,20009,
1327,DELAFIELD PLACE NW,WASHINGTON,DC,20011,
1014,50TH STREET NE,WASHINGTON,DC,20019,
1900,VERMONT AVENUE NW,WASHINGTON,DC,20001,
433,12TH STREET SE,WASHINGTON,DC,20003,
3811,POPE STREET SE,WASHINGTON,DC,20020,
124,IRVINGTON STREET SW,WASHINGTON,DC,20032,
813,CRITTENDEN STREET NE,WASHINGTON,DC,20017,
2131,SUDBURY PLACE NW,WASHINGTON,DC,20012,
3530,CONNECTICUT AVENUE NW,WASHINGTON,DC,20008,
904,QUINCY STREET NW,WASHINGTON,DC,20011,
1109,4TH STREET SE,WASHINGTON,DC,20003,
3532,S STREET NW,WASHINGTON,DC,20007,
5520,13TH STREET NW,WASHINGTON,DC,20011,
3770,W STREET NW,WASHINGTON,DC,20007,
5028,QUEEN'S STROLL PLACE SE,WASHINGTON,DC,20019,
635,4TH STREET NE,WASHINGTON,DC,20002,
3323,RESERVOIR ROAD NW,WASHINGTON,DC,20007,
1615,EAST CAPITOL STREET SE,WASHINGTON,DC,20003,
516,C STREET NE,WASHINGTON,DC,20002,
2405,TRACY PLACE NW,WASHINGTON,DC,20008,
2201,BRANCH AVENUE SE,WASHINGTON,DC,20020,
5358,EAST CAPITOL STREET NE,WASHINGTON,DC,20019,
4526,45TH STREET NW,WASHINGTON,DC,20016,
3427,CARPENTER STREET SE,WASHINGTON,DC,20020,
2123,1ST STREET NW,WASHINGTON,DC,20001,
2905,13TH STREET NW,WASHINGTON,DC,20009,
2617,UNIVERSITY PLACE NW,WASHINGTON,DC,20009,
1747,T STREET NW,WASHINGTON,DC,20009,
1925,21ST PLACE SE,WASHINGTON,DC,20020,
4710,C STREET SE,WASHINGTON,DC,20019,
1344,LEVIS STREET NE,WASHINGTON,DC,20002,
5732,SOUTHERN AVENUE SE,WASHINGTON,DC,20019,
405,KENNEDY STREET NE,WASHINGTON,DC,20011,
147,57TH PLACE SE,WASHINGTON,DC,20019,
1705,INDEPENDENCE AVENUE SE,WASHINGTON,DC,20003,
2444,MONROE STREET NE,WASHINGTON,DC,20018,
1501,HARRY THOMAS WAY NE,WASHINGTON,DC,20002,
333,51ST STREET NE,WASHINGTON,DC,20019,
724,TUCKERMAN STREET NW,WASHINGTON,DC,20011,
5319,5TH STREET NW,WASHINGTON,DC,20011,
504,1ST STREET SE,WASHINGTON,DC,20003,
3802,KANSAS AVENUE NW,WASHINGTON,DC,20011,
1262,OWEN PLACE NE,WASHINGTON,DC,20002,
332,15TH STREET SE,WASHINGTON,DC,20003,
644,SOUTH CAROLINA AVENUE SE,WASHINGTON,DC,20003,
1223,STAPLES STREET NE,WASHINGTON,DC,20002,
1626,WEBSTER STREET NW,WASHINGTON,DC,20011,
3528,FULTON STREET NW,WASHINGTON,DC,20007,
,G STREET SE,WASHINGTON,DC,20003,
2443,MASSACHUSETTS AVENUE NW,WASHINGTON,DC,20008,
,ISAAC HULL AVENUE SE,WASHINGTON,DC,20374,
509,G STREET NE,WASHINGTON,DC,20002,
27,RANDOLPH PLACE NW,WASHINGTON,DC,20001,
653,EAST CAPITOL STREET SE,WASHINGTON,DC,20003,
2110,R STREET NW,WASHINGTON,DC,20008,
2856,28TH STREET NW,WASHINGTON,DC,20008,
1011,M STREET NW,WASHINGTON,DC,20001,
2322,SHANNON PLACE SE,WASHINGTON,DC,20020,
2200,SOUTHERN AVENUE SE,WASHINGTON,DC,20020,
1526,OGDEN STREET NW,WASHINGTON,DC,20010,
1136,16TH STREET NE,WASHINGTON,DC,20002,
1739,W STREET SE,WASHINGTON,DC,20020,
3717,WOODLEY ROAD NW,WASHINGTON,DC,20016,
4342,H STREET SE,WASHINGTON,DC,20019,
5400,1ST PLACE NW,WASHINGTON,DC,20011,
1722,U STREET NW,WASHINGTON,DC,20009,
2818,BRUCE PLACE SE,WASHINGTON,DC,20020,
4616,BROOKS STREET NE,WASHINGTON,DC,20019,
5455,BROAD BRANCH ROAD NW,WASHINGTON,DC,20015,
815,4TH STREET SE,WASHINGTON,DC,20003,
1824,RIGGS PLACE NW,WASHINGTON,DC,20009,
1530,OGDEN STREET NW,WASHINGTON,DC,20010,
423,7TH STREET NE,WASHINGTON,DC,20002,
2503,RANDOLPH STREET NE,WASHINGTON,DC,20018,
3239,THEODORE R HAGANS DRIVE NE,WASHINGTON,DC,20018,
375,MARTIN STREET SW,WASHINGTON,DC,20032,
626,MILWAUKEE PLACE SE,WASHINGTON,DC,20032,
4910,41ST STREET NW,WASHINGTON,DC,20016,
3010,45TH STREET NW,WASHINGTON,DC,20016,
511,57TH STREET NE,WASHINGTON,DC,20019,
1854,ALABAMA AVENUE SE,WASHINGTON,DC,20020,
2506,33RD STREET SE,WASHINGTON,DC,20020,
825,SHERIDAN STREET NW,WASHINGTON,DC,20011,
1741,PARK ROAD NW,WASHINGTON,DC,20010,
1311,LINDEN COURT NE,WASHINGTON,DC,20002,
3804,W STREET SE,WASHINGTON,DC,20020,
1241,EATON ROAD SE,WASHINGTON,DC,20020,
5381,BLAINE STREET NE,WASHINGTON,DC,20019,
2218,U PLACE SE,WASHINGTON,DC,20020,
2345,R STREET SE,WASHINGTON,DC,20020,
4407,FOOTE STREET NE,WASHINGTON,DC,20019,
1339,V STREET NW,WASHINGTON,DC,20009,
1501,NEAL STREET NE,WASHINGTON,DC,20002,
3213,11TH STREET NW,WASHINGTON,DC,20010,
4845,ILLINOIS AVENUE NW,WASHINGTON,DC,20011,
528,23RD STREET NW,WASHINGTON,DC,20037,
5339,42ND STREET NW,WASHINGTON,DC,20015,
1708,LAWRENCE STREET NE,WASHINGTON,DC,20018,
5314,EAST CAPITOL STREET NE,WASHINGTON,DC,20019,
1843,5TH STREET NW,WASHINGTON,DC,20001,
1514,13TH STREET NW,WASHINGTON,DC,20005,
1371,HARVARD STREET NW,WASHINGTON,DC,20009,
5020,LEE STREET NE,WASHINGTON,DC,20019,
357,L'ENFANT PROMENADE SW,WASHINGTON,DC,20585,
1515,GALLATIN STREET NW,WASHINGTON,DC,20011,
5114,KANSAS AVENUE NW,WASHINGTON,DC,20011,
2928,BRANDYWINE STREET NW,WASHINGTON,DC,20008,
616,15TH STREET NE,WASHINGTON,DC,20002,
1233,NEWTON STREET NE,WASHINGTON,DC,20017,
1739,GALES PLACE NE,WASHINGTON,DC,20002,
10,INGRAHAM STREET NW,WASHINGTON,DC,20011,
1433,EAST CAPITOL STREET SE,WASHINGTON,DC,20003,
3151,CHANDLER STREET SW,WASHINGTON,DC,20032,
315,C STREET SE,WASHINGTON,DC,20003,
3412,13TH STREET SE,WASHINGTON,DC,20032,
1244,FARRAGUT PLACE NE,WASHINGTON,DC,20017,
3231,PATTERSON STREET NW,WASHINGTON,DC,20015,
3117,GEORGIA AVENUE NW,WASHINGTON,DC,20010,
931,BRENTWOOD ROAD NE,WASHINGTON,DC,20018,
3730,APPLETON STREET NW,WASHINGTON,DC,20016,
4512,28TH STREET NW,WASHINGTON,DC,20008,
,MADISON STREET NW,WASHINGTON,DC,20011,
4048,MANSION DRIVE NW,WASHINGTON,DC,20007,
3615,PROSPECT STREET NW,WASHINGTON,DC,20007,
1829,T PLACE SE,WASHINGTON,DC,20020,
771,DELAWARE AVENUE SW,WASHINGTON,DC,20024,
1616,34TH STREET NW,WASHINGTON,DC,20007,
1833,SUMMIT PLACE NW,WASHINGTON,DC,20009,
3538,T STREET NW,WASHINGTON,DC,20007,
,WRIGHT CIRCLE SW,WASHINGTON,DC,20032,
,BEACH DRIVE NW,WASHINGTON,DC,20010,
684,ATLANTIC STREET SE,WASHINGTON,DC,20032,
3730,MINNESOTA AVENUE NE,WASHINGTON,DC,20019,
3921,S STREET SE,WASHINGTON,DC,20020,
4411,18TH STREET NW,WASHINGTON,DC,20011,
2120,13TH STREET SE,WASHINGTON,DC,20020,
1627,30TH STREET SE,WASHINGTON,DC,20020,
,E STREET SE,WASHINGTON,DC,20003,
218,4TH AVENUE SW,WASHINGTON,DC,20024,
801,KENTUCKY AVENUE SE,WASHINGTON,DC,20003,
3349,MILITARY ROAD NW,WASHINGTON,DC,20015,
1002,MASSACHUSETTS AVENUE NE,WASHINGTON,DC,20002,
3101,14TH STREET NW,WASHINGTON,DC,20010,
3238,38TH STREET NW,WASHINGTON,DC,20016,
121,PIERCE STREET NW,WASHINGTON,DC,20001,
1621,13TH STREET NW,WASHINGTON,DC,20009,
4411,DAVENPORT STREET NW,WASHINGTON,DC,20016,
1362,SPRING ROAD NW,WASHINGTON,DC,20010,
2223,KEARNY STREET NE,WASHINGTON,DC,20018,
4730,SOUTHERN AVENUE SE,WASHINGTON,DC,20019,
2430,4TH STREET NE,WASHINGTON,DC,20002,
1322,INGRAHAM STREET NW,WASHINGTON,DC,20011,
618,R STREET NW,WASHINGTON,DC,20001,
4837,BENNING ROAD SE,WASHINGTON,DC,20019,
5909,8TH STREET NE,WASHINGTON,DC,20011,
3100,APPLE ROAD NE,WASHINGTON,DC,20018,
3274,ROBERT CLIFTON WEAVER WAY NE,WASHINGTON,DC,20018,
220,JEFFERSON STREET NW,WASHINGTON,DC,20011,
3126,ELLICOTT STREET NW,WASHINGTON,DC,20008,
406,BURBANK STREET SE,WASHINGTON,DC,20019,
,REINBURG CIRCLE SW,WASHINGTON,DC,20032,
912,17TH STREET NW,WASHINGTON,DC,20006,
317,59TH STREET NE,WASHINGTON,DC,20019,
905,8TH STREET NE,WASHINGTON,DC,20002,
811,11TH STREET NE,WASHINGTON,DC,20002,
509,7TH STREET NE,WASHINGTON,DC,20002,
1831,COLUMBIA ROAD NW,WASHINGTON,DC,20009,
3519,PROSPECT STREET NW,WASHINGTON,DC,20007,
525,RANDOLPH STREET NW,WASHINGTON,DC,20011,
3320,17TH STREET NW,WASHINGTON,DC,20010,
2041,GEORGIA AVENUE NW,WASHINGTON,DC,20060,
310,EMERSON STREET NW,WASHINGTON,DC,20011,
520,QUINCY STREET NW,WASHINGTON,DC,20011,
704,7TH STREET NW,WASHINGTON,DC,20001,
432,O STREET SW,WASHINGTON,DC,20024,
4109,3RD STREET NW,WASHINGTON,DC,20011,
2743,4TH STREET NE,WASHINGTON,DC,20002,
920,11TH STREET NE,WASHINGTON,DC,20002,
2809,MCKINLEY PLACE NW,WASHINGTON,DC,20015,
1919,BELMONT ROAD NW,WASHINGTON,DC,20009,
3820,5TH STREET NW,WASHINGTON,DC,20011,
3017,7TH STREET SE,WASHINGTON,DC,20032,
17,8TH STREET SE,WASHINGTON,DC,20003,
1417,PERRY PLACE NW,WASHINGTON,DC,20010,
43,53RD PLACE SE,WASHINGTON,DC,20019,
15,MADISON STREET NW,WASHINGTON,DC,20011,
2818,28TH STREET SE,WASHINGTON,DC,20020,
625,E STREET SE,WASHINGTON,DC,20003,
207,ADAMS STREET NE,WASHINGTON,DC,20002,
,HAREWOOD ROAD NE,WASHINGTON,DC,20064,
2333,SKYLAND TERRACE SE,WASHINGTON,DC,20020,
103,54TH STREET SE,WASHINGTON,DC,20019,
6216,NEW HAMPSHIRE AVENUE NE,WASHINGTON,DC,20011,
5626,13TH STREET NW,WASHINGTON,DC,20011,
5517,CHEVY CHASE PARKWAY NW,WASHINGTON,DC,20015,
1331,QUEEN STREET NE,WASHINGTON,DC,20002,
609,FARADAY PLACE NE,WASHINGTON,DC,20017,
2733,35TH STREET NW,WASHINGTON,DC,20007,
,LORING WAY SW,WASHINGTON,DC,20032,
1426,33RD STREET NW,WASHINGTON,DC,20007,
840,JEFFERSON STREET NW,WASHINGTON,DC,20011,
2119,G STREET NE,WASHINGTON,DC,20002,
309,7TH STREET SE,WASHINGTON,DC,20003,
3413,CARPENTER STREET SE,WASHINGTON,DC,20020,
1518,CHANNING STREET NE,WASHINGTON,DC,20018,
4704,CENTRAL AVENUE NE,WASHINGTON,DC,20019,
745,CONGRESS STREET SE,WASHINGTON,DC,20032,
1139,SUMNER ROAD SE,WASHINGTON,DC,20020,
508,25TH PLACE NE,WASHINGTON,DC,20002,
1308,TALBERT COURT SE,WASHINGTON,DC,20020,
409,W STREET NE,WASHINGTON,DC,20002,
1371,DOWNING STREET NE,WASHINGTON,DC,20018,
2300,40TH STREET NW,WASHINGTON,DC,20007,
5914,SOUTHERN AVENUE SE,WASHINGTON,DC,20019,
4643,16TH STREET NW,WASHINGTON,DC,20011,
365,O STREET SW,WASHINGTON,DC,20024,
5524,MACARTHUR BOULEVARD NW,WASHINGTON,DC,20016,
1130,SHEPHERD ROAD NW,WASHINGTON,DC,20012,
4432,WINDOM PLACE NW,WASHINGTON,DC,20016,
1503,21ST STREET NW,WASHINGTON,DC,20036,
3016,M PLACE SE,WASHINGTON,DC,20019,
5311,42ND PLACE NW,WASHINGTON,DC,20015,
3420,CONNECTICUT AVENUE NW,WASHINGTON,DC,20008,
536,TAYLOR STREET NW,WASHINGTON,DC,20011,
1366,VALLEY PLACE SE,WASHINGTON,DC,20020,
619,AVA CIRCLE NE,WASHINGTON,DC,20017,
1815,17TH STREET NW,WASHINGTON,DC,20009,
61,BATES STREET NW,WASHINGTON,DC,20001,
502,DIVISION AVENUE NE,WASHINGTON,DC,20019,
1227,KENYON STREET NW,WASHINGTON,DC,20010,
237,51ST STREET NE,WASHINGTON,DC,20019,
4208,EDSON PLACE NE,WASHINGTON,DC,20019,
525,23RD STREET NW,WASHINGTON,DC,20037,
4072,MANSION DRIVE NW,WASHINGTON,DC,20007,
,WRIGHT CIRCLE SW,WASHINGTON,DC,20032,
5706,14TH STREET NW,WASHINGTON,DC,20011,
5358,43RD STREET NW,WASHINGTON,DC,20015,
838,MADISON STREET NW,WASHINGTON,DC,20011,
3300,BROWN STREET NW,WASHINGTON,DC,20010,
3209,BUENA VISTA TERRACE SE,WASHINGTON,DC,20020,
1506,HOWARD ROAD SE,WASHINGTON,DC,20020,
1007,FAIRMONT STREET NW,WASHINGTON,DC,20001,
220,WATER STREET SE,WASHINGTON,DC,20003,
1218,HALF STREET SW,WASHINGTON,DC,20024,
4514,44TH STREET NW,WASHINGTON,DC,20016,
1717,37TH STREET NW,WASHINGTON,DC,20007,
4208,BENNING ROAD NE,WASHINGTON,DC,20019,
5030,8TH STREET NW,WASHINGTON,DC,20011,
2025,O STREET NW,WASHINGTON,DC,20036,
501,ONEIDA STREET NE,WASHINGTON,DC,20011,
1527,T STREET NW,WASHINGTON,DC,20009,
6900,5TH STREET NW,WASHINGTON,DC,20012,
3137,BUENA VISTA TERRACE SE,WASHINGTON,DC,20020,
2415,MARTIN LUTHER KING JR AVENUE SE,WASHINGTON,DC,20020,
222,BRYANT STREET NE,WASHINGTON,DC,20002,
1618,BELMONT STREET NW,WASHINGTON,DC,20009,
529,CEDAR STREET NW,WASHINGTON,DC,20012,
600,20TH STREET NW,WASHINGTON,DC,20052,
1025,PARK ROAD NW,WASHINGTON,DC,20010,
2714,27TH STREET NW,WASHINGTON,DC,20008,
128,WAYNE PLACE SE,WASHINGTON,DC,20032,
3424,BROWN STREET NW,WASHINGTON,DC,20010,
4923,C STREET SE,WASHINGTON,DC,20019,
301,G STREET NW,WASHINGTON,DC,20001,
210,PEABODY STREET NW,WASHINGTON,DC,20011,
3919,BENTON STREET NW,WASHINGTON,DC,20007,
4044,7TH STREET NE,WASHINGTON,DC,20017,
1513,CHURCH STREET NW,WASHINGTON,DC,20005,
409,H STREET NE,WASHINGTON,DC,20002,
115,11TH STREET NE,WASHINGTON,DC,20002,
1228,SIMMS PLACE NE,WASHINGTON,DC,20002,
1627,11TH PLACE NE,WASHINGTON,DC,20002,
3474,23RD STREET SE,WASHINGTON,DC,20020,
3714,CAMDEN STREET SE,WASHINGTON,DC,20020,
3003,24TH STREET NE,WASHINGTON,DC,20018,
3916,HARRISON STREET NW,WASHINGTON,DC,20015,
1006,LAMONT STREET NW,WASHINGTON,DC,20010,
316,MISSOURI AVENUE NW,WASHINGTON,DC,20011,
1860,INGLESIDE TERRACE NW,WASHINGTON,DC,20010,
4020,20TH STREET NE,WASHINGTON,DC,20018,
3608,18TH STREET NE,WASHINGTON,DC,20018,
907,E STREET SE,WASHINGTON,DC,20003,
1240,MARYLAND AVENUE SW,WASHINGTON,DC,20024,
1232,POTOMAC STREET NW,WASHINGTON,DC,20007,
4726,9TH STREET NW,WASHINGTON,DC,20011,
2108,O STREET NW,WASHINGTON,DC,20037,
5025,BLAINE STREET NE,WASHINGTON,DC,20019,
1724,MASSACHUSETTS AVENUE SE,WASHINGTON,DC,20003,
202,NEWCOMB STREET SE,WASHINGTON,DC,20032,
3933,GEORGIA AVENUE NW,WASHINGTON,DC,20011,
2418,BALDWIN CRESCENT NE,WASHINGTON,DC,20018,
1408,S STREET NW,WASHINGTON,DC,20009,
1600,23RD STREET SE,WASHINGTON,DC,20020,
1642,16TH STREET SE,WASHINGTON,DC,20020,
5216,EAST CAPITOL STREET NE,WASHINGTON,DC,20019,
4403,H STREET SE,WASHINGTON,DC,20019,
1329,35TH STREET NW,WASHINGTON,DC,20007,
1226,QUINCY STREET NE,WASHINGTON,DC,20017,
165,V STREET NE,WASHINGTON,DC,20002,
2017,NAYLOR ROAD SE,WASHINGTON,DC,20020,
3418,NASH PLACE SE,WASHINGTON,DC,20019,
1638,V STREET SE,WASHINGTON,DC,20020,
2219,TAYLOR STREET NE,WASHINGTON,DC,20018,
1810,35TH STREET NW,WASHINGTON,DC,20007,
2424,ALABAMA AVENUE SE,WASHINGTON,DC,20020,
5108,PALISADE LANE NW,WASHINGTON,DC,20016,
1609,HOBART STREET NW,WASHINGTON,DC,20009,
8008,MITCHELL LOOP SW,WASHINGTON,DC,20032,
4319,MASSACHUSETTS AVENUE NW,WASHINGTON,DC,20016,
63,G STREET SW,WASHINGTON,DC,20024,
4612,SARGENT ROAD NE,WASHINGTON,DC,20017,
592,PARK ROAD NW,WASHINGTON,DC,20010,
1914,TREMONT STREET SE,WASHINGTON,DC,20020,
4819,B STREET SE,WASHINGTON,DC,20019,
1811,PROVIDENCE STREET NE,WASHINGTON,DC,20002,
3632,N STREET NW,WASHINGTON,DC,20007,
4721,MACARTHUR BOULEVARD NW,WASHINGTON,DC,20007,
4066,CHANCERY COURT NW,WASHINGTON,DC,20007,
1341,SHERIDAN STREET NW,WASHINGTON,DC,20011,
4504,45TH STREET NW,WASHINGTON,DC,20016,
432,BURBANK STREET SE,WASHINGTON,DC,20019,
5004,7TH PLACE NW,WASHINGTON,DC,20011,
3822,2ND STREET SE,WASHINGTON,DC,20032,
1124,7TH STREET NE,WASHINGTON,DC,20002,
4423,NEW HAMPSHIRE AVENUE NW,WASHINGTON,DC,20011,
3699,HIGHWOOD DRIVE SE,WASHINGTON,DC,20020,
2220,20TH STREET NW,WASHINGTON,DC,20009,
5221,5TH STREET NW,WASHINGTON,DC,20011,
4515,BROOKS STREET NE,WASHINGTON,DC,20019,
3722,JENIFER STREET NW,WASHINGTON,DC,20015,
1517,41ST STREET SE,WASHINGTON,DC,20020,
,BELLEVUE DRIVE SW,WASHINGTON,DC,20375,
1714,NEW HAMPSHIRE AVENUE NW,WASHINGTON,DC,20009,
4927,MACARTHUR BOULEVARD NW,WASHINGTON,DC,20007,
3106,CLEVELAND AVENUE NW,WASHINGTON,DC,20008,
1745,TAYLOR STREET NW,WASHINGTON,DC,20011,
,4TH STREET SE,WASHINGTON,DC,20003,
1233,WALTER STREET SE,WASHINGTON,DC,20003,
1718,37TH STREET NW,WASHINGTON,DC,20007,
1635,MONTAGUE STREET NW,WASHINGTON,DC,20011,
119,NEW YORK AVENUE NW,WASHINGTON,DC,20001,
828,LONGFELLOW STREET NW,WASHINGTON,DC,20011,
4637,WINDOM PLACE NW,WASHINGTON,DC,20016,
761,ANACOSTIA AVENUE NE,WASHINGTON,DC,20019,
3509,WHEELER ROAD SE,WASHINGTON,DC,20032,
1101,TRENTON PLACE SE,WASHINGTON,DC,20032,
5259,NEBRASKA AVENUE NW,WASHINGTON,DC,20015,
1606,C STREET NE,WASHINGTON,DC,20002,
1427,CLIFTON STREET NW,WASHINGTON,DC,20009,
3971,LANGLEY COURT NW,WASHINGTON,DC,20016,
,SCALE GATE ROAD NW,WASHINGTON,DC,20011,
606,14TH PLACE NE,WASHINGTON,DC,20002,
1031,CONNECTICUT AVENUE NW,WASHINGTON,DC,20036,
3331,CONNECTICUT AVENUE NW,WASHINGTON,DC,20008,
2319,ASHMEAD PLACE NW,WASHINGTON,DC,20009,
1702,25TH STREET SE,WASHINGTON,DC,20020,
3333,7TH STREET SE,WASHINGTON,DC,20032,
722,7TH STREET SE,WASHINGTON,DC,20003,
1752,N STREET NW,WASHINGTON,DC,20036,
6420,31ST STREET NW,WASHINGTON,DC,20015,
1224,FAIRMONT STREET NW,WASHINGTON,DC,20009,
1816,A STREET SE,WASHINGTON,DC,20003,
1702,KALMIA ROAD NW,WASHINGTON,DC,20012,
3178,MOUNT PLEASANT STREET NW,WASHINGTON,DC,20010,
231,MISSOURI AVENUE NW,WASHINGTON,DC,20011,
1351,MAPLE VIEW PLACE SE,WASHINGTON,DC,20020,
727,HOBART PLACE NW,WASHINGTON,DC,20001,
740,6TH STREET NW,WASHINGTON,DC,20001,
546,14TH STREET SE,WASHINGTON,DC,20003,
825,20TH STREET NW,WASHINGTON,DC,20006,
2724,MINNESOTA AVENUE SE,WASHINGTON,DC,20019,
1015,HALF STREET SE,WASHINGTON,DC,20003,
1101,M STREET NW,WASHINGTON,DC,20005,
701,DAHLIA STREET NW,WASHINGTON,DC,20012,
4519,36TH STREET NW,WASHINGTON,DC,20008,
2304,HARTFORD STREET SE,WASHINGTON,DC,20020,
4931,NASH STREET NE,WASHINGTON,DC,20019,
707,C STREET SE,WASHINGTON,DC,20003,
1921,P STREET SE,WASHINGTON,DC,20020,
1347,INGRAHAM STREET NW,WASHINGTON,DC,20011,
1253,LAWRENCE STREET NE,WASHINGTON,DC,20017,
3107,ALABAMA AVENUE SE,WASHINGTON,DC,20020,
1724,PORTAL DRIVE NW,WASHINGTON,DC,20012,
300,OKLAHOMA AVENUE NE,WASHINGTON,DC,20002,
1802,BELMONT ROAD NW,WASHINGTON,DC,20009,
317,34TH PLACE NE,WASHINGTON,DC,20019,
1280,4TH STREET NE,WASHINGTON,DC,20002,
610,OTIS PLACE NW,WASHINGTON,DC,20010,
1416,MISSOURI AVENUE NW,WASHINGTON,DC,20011,
4704,NASH STREET NE,WASHINGTON,DC,20019,
1134,29TH STREET NW,WASHINGTON,DC,20007,
4662,CHARLESTON TERRACE NW,WASHINGTON,DC,20007,
4000,GARRISON STREET NW,WASHINGTON,DC,20016,
423,WOODCREST DRIVE SE,WASHINGTON,DC,20032,
3661,ALABAMA AVENUE SE,WASHINGTON,DC,20020,
1634,ROSEDALE STREET NE,WASHINGTON,DC,20002,
6608,32ND PLACE NW,WASHINGTON,DC,20015,
1149,SUMNER ROAD SE,WASHINGTON,DC,20020,
3004,20TH STREET NE,WASHINGTON,DC,20018,
4215,HILDRETH STREET SE,WASHINGTON,DC,20019,
5717,POTOMAC AVENUE NW,WASHINGTON,DC,20016,
1919,SHEPHERD STREET NE,WASHINGTON,DC,20018,
132,Q STREET NW,WASHINGTON,DC,20001,
265,56TH STREET NE,WASHINGTON,DC,20019,
616,LEXINGTON PLACE NE,WASHINGTON,DC,20002,
191,WHITE STREET SW,WASHINGTON,DC,20032,
3604,WHITEHAVEN PARKWAY NW,WASHINGTON,DC,20007,
2114,HUIDEKOPER PLACE NW,WASHINGTON,DC,20007,
2436,18TH STREET NW,WASHINGTON,DC,20009,
2901,Q STREET NW,WASHINGTON,DC,20007,
817,21ST STREET NE,WASHINGTON,DC,20002,
2730,WISCONSIN AVENUE NW,WASHINGTON,DC,20007,
3203,11TH STREET NW,WASHINGTON,DC,20010,
3516,30TH STREET NW,WASHINGTON,DC,20008,
1214,WALTER STREET SE,WASHINGTON,DC,20003,
7429,8TH STREET NW,WASHINGTON,DC,20012,
202,G STREET SW,WASHINGTON,DC,20024,
3101,R STREET NW,WASHINGTON,DC,20007,
1438,36TH STREET NW,WASHINGTON,DC,20007,
2133,32ND STREET SE,WASHINGTON,DC,20020,
1377,HALF STREET SW,WASHINGTON,DC,20024,
3003,26TH STREET NE,WASHINGTON,DC,20018,
4110,LANE PLACE NE,WASHINGTON,DC,20019,
163,UPSAL STREET SE,WASHINGTON,DC,20032,
2785,DOUGLASS ROAD SE,WASHINGTON,DC,20020,
251,8TH STREET NE,WASHINGTON,DC,20002,
1400,7TH STREET NW,WASHINGTON,DC,20001,
6121,SLIGO MILL ROAD NE,WASHINGTON,DC,20011,
1531,INDEPENDENCE AVENUE SE,WASHINGTON,DC,20003,
350,TAYLOR STREET NE,WASHINGTON,DC,20017,
1229,INGRAHAM STREET NW,WASHINGTON,DC,20011,
4637,HILLSIDE ROAD SE,WASHINGTON,DC,20019,
5919,CLAY STREET NE,WASHINGTON,DC,20019,
1723,CORCORAN STREET NW,WASHINGTON,DC,20009,
539,7TH STREET SE,WASHINGTON,DC,20003,
2450,39TH STREET NW,WASHINGTON,DC,20007,
411,16TH STREET SE,WASHINGTON,DC,20003,
238,P STREET NW,WASHINGTON,DC,20001,
1371,INDEPENDENCE AVENUE SE,WASHINGTON,DC,20003,
643,FARADAY PLACE NE,WASHINGTON,DC,20017,
1732,EUCLID STREET NW,WASHINGTON,DC,20009,
5010,KIMI GRAY COURT SE,WASHINGTON,DC,20019,
808,NORTH CAROLINA AVENUE SE,WASHINGTON,DC,20003,
1108,E STREET NE,WASHINGTON,DC,20002,
1234,E STREET NE,WASHINGTON,DC,20002,
2,15TH STREET NE,WASHINGTON,DC,20002,
4937,SARGENT ROAD NE,WASHINGTON,DC,20017,
4433,MACOMB STREET NW,WASHINGTON,DC,20016,
424,ONEIDA PLACE NW,WASHINGTON,DC,20011,
306,L STREET SE,WASHINGTON,DC,20003,
5044,KLINGLE STREET NW,WASHINGTON,DC,20016,
5100,8TH STREET NW,WASHINGTON,DC,20011,
2000,C STREET NE,WASHINGTON,DC,20002,
619,49TH STREET NE,WASHINGTON,DC,20019,
5413,13TH STREET NW,WASHINGTON,DC,20011,
2018,SAVANNAH PLACE SE,WASHINGTON,DC,20020,
1707,M STREET NE,WASHINGTON,DC,20002,
937,FRENCH STREET NW,WASHINGTON,DC,20001,
1373,NICHOLSON STREET NW,WASHINGTON,DC,20011,
2108,2ND STREET NW,WASHINGTON,DC,20001,
1939,39TH STREET NW,WASHINGTON,DC,20007,
1828,LAMONT STREET NW,WASHINGTON,DC,20010,
4320,ALABAMA AVENUE SE,WASHINGTON,DC,20019,
4900,CHESAPEAKE STREET NW,WASHINGTON,DC,20016,
,OHIO DRIVE SW,WASHINGTON,DC,20242,
3017,CLEVELAND AVENUE NW,WASHINGTON,DC,20008,
5415,CONNECTICUT AVENUE NW,WASHINGTON,DC,20015,
3152,BERRY ROAD NE,WASHINGTON,DC,20018,
629,14TH PLACE NE,WASHINGTON,DC,20002,
935,L'ENFANT PLAZA SW,WASHINGTON,DC,20024,
1504,GALEN STREET SE,WASHINGTON,DC,20020,
5301,RENO ROAD NW,WASHINGTON,DC,20015,
2809,JASPER STREET SE,WASHINGTON,DC,20020,
1224,4TH STREET SW,WASHINGTON,DC,20024,
660,KENYON STREET NW,WASHINGTON,DC,20010,
2203,15TH STREET NW,WASHINGTON,DC,20009,
1927,2ND STREET NW,WASHINGTON,DC,20001,
4907,14TH STREET NW,WASHINGTON,DC,20011,
3001,PARK DRIVE SE,WASHINGTON,DC,20020,
2119,QUINCY STREET NE,WASHINGTON,DC,20018,
12,RUDDER COURT SW,WASHINGTON,DC,20032,
1420,TAYLOR STREET NW,WASHINGTON,DC,20011,
16,UNDERWOOD PLACE NE,WASHINGTON,DC,20012,
1845,BURKE STREET SE,WASHINGTON,DC,20003,
5430,CAROLINA PLACE NW,WASHINGTON,DC,20016,
5051,BENNING ROAD SE,WASHINGTON,DC,20019,
4503,MACARTHUR BOULEVARD NW,WASHINGTON,DC,20007,
3346,STEPHENSON PLACE NW,WASHINGTON,DC,20015,
3008,STANTON ROAD SE,WASHINGTON,DC,20020,
526,SHEPHERD STREET NW,WASHINGTON,DC,20011,
6622,EASTERN AVENUE NW,WASHINGTON,DC,20012,
1287,DELAWARE AVENUE SW,WASHINGTON,DC,20024,
1321,ADAMS STREET NE,WASHINGTON,DC,20018,
608,PARKSIDE PLACE NE,WASHINGTON,DC,20019,
1701,GAINESVILLE STREET SE,WASHINGTON,DC,20020,
2900,O STREET NW,WASHINGTON,DC,20007,
715,6TH STREET NW,WASHINGTON,DC,20001,
,R STREET NW,WASHINGTON,DC,20007,
3615,S STREET NW,WASHINGTON,DC,20007,
604,FARRAGUT STREET NW,WASHINGTON,DC,20011,
206,WEBSTER STREET NW,WASHINGTON,DC,20011,
4435,38TH STREET NW,WASHINGTON,DC,20016,
4234,CLAY STREET NE,WASHINGTON,DC,20019,
2266,CATHEDRAL AVENUE NW,WASHINGTON,DC,20008,
1210,STEVENS ROAD SE,WASHINGTON,DC,20020,
3618,JOCELYN STREET NW,WASHINGTON,DC,20015,
212,PARKER STREET NE,WASHINGTON,DC,20002,
2818,UNIVERSITY TERRACE NW,WASHINGTON,DC,20016,
2813,27TH STREET NW,WASHINGTON,DC,20008,
2018,15TH STREET NW,WASHINGTON,DC,20009,
644,MORTON STREET NW,WASHINGTON,DC,20010,
231,QUACKENBOS STREET NE,WASHINGTON,DC,20011,
1110,CONGRESS STREET SE,WASHINGTON,DC,20032,
200,BRYANT STREET NE,WASHINGTON,DC,20002,
1440,WHITTIER PLACE NW,WASHINGTON,DC,20012,
417,JEFFERSON STREET NW,WASHINGTON,DC,20011,
2921,28TH STREET NW,WASHINGTON,DC,20008,
37,KENNEDY STREET NE,WASHINGTON,DC,20011,
5511,UTAH AVENUE NW,WASHINGTON,DC,20015,
1329,TRINIDAD AVENUE NE,WASHINGTON,DC,20002,
1205,28TH STREET NW,WASHINGTON,DC,20007,
3800,GARRISON STREET NW,WASHINGTON,DC,20016,
1618,6TH STREET NW,WASHINGTON,DC,20001,
4706,YUMA STREET NW,WASHINGTON,DC,20016,
5307,ILLINOIS AVENUE NW,WASHINGTON,DC,20011,
4324,8TH STREET NW,WASHINGTON,DC,20011,
3808,13TH STREET NW,WASHINGTON,DC,20011,
1474,COLUMBIA ROAD NW,WASHINGTON,DC,20009,
3272,M STREET NW,WASHINGTON,DC,20007,
35,MILMARSON PLACE NW,WASHINGTON,DC,20011,
60,DARRINGTON STREET SW,WASHINGTON,DC,20032,
4702,WARREN STREET NW,WASHINGTON,DC,20016,
4735,WOODWAY LANE NW,WASHINGTON,DC,20016,
3122,P STREET NW,WASHINGTON,DC,20007,
714,NEWTON PLACE NW,WASHINGTON,DC,20010,
937,DIVISION AVENUE NE,WASHINGTON,DC,20019,
1800,4TH STREET NE,WASHINGTON,DC,20002,
1630,15TH STREET NW,WASHINGTON,DC,20009,
1857,3RD STREET NW,WASHINGTON,DC,20001,
820,55TH STREET NE,WASHINGTON,DC,20019,
319,ROCK CREEK CHURCH ROAD NW,WASHINGTON,DC,20011,
66,RANDOLPH PLACE NW,WASHINGTON,DC,20001,
1630,6TH STREET NW,WASHINGTON,DC,20001,
3816,WINDOM PLACE NW,WASHINGTON,DC,20016,
216,ASCOT PLACE NE,WASHINGTON,DC,20002,
4321,37TH STREET NW,WASHINGTON,DC,20008,
6803,LAUREL STREET NW,WASHINGTON,DC,20012,
610,JEFFERSON STREET NW,WASHINGTON,DC,20011,
307,ANACOSTIA AVENUE NE,WASHINGTON,DC,20019,
3453,CLAY STREET NE,WASHINGTON,DC,20019,
617,GALVESTON STREET SE,WASHINGTON,DC,20032,
1206,4TH STREET NW,WASHINGTON,DC,20001,
3924,18TH STREET NE,WASHINGTON,DC,20018,
4807,41ST STREET NW,WASHINGTON,DC,20016,
4720,10TH STREET NE,WASHINGTON,DC,20017,
4208,45TH STREET NW,WASHINGTON,DC,20016,
2209,MINNESOTA AVENUE SE,WASHINGTON,DC,20020,
912,5TH STREET NE,WASHINGTON,DC,20002,
3904,KANSAS AVENUE NW,WASHINGTON,DC,20011,
2818,6TH STREET NE,WASHINGTON,DC,20017,
3734,BRANDYWINE STREET NW,WASHINGTON,DC,20016,
310,KENTUCKY AVENUE SE,WASHINGTON,DC,20003,
3361,RITTENHOUSE STREET NW,WASHINGTON,DC,20015,
342,M STREET SW,WASHINGTON,DC,20024,
2813,35TH STREET NW,WASHINGTON,DC,20007,
,FORT DUPONT DRIVE SE,WASHINGTON,DC,20019,
1641,TRINIDAD AVENUE NE,WASHINGTON,DC,20002,
504,I STREET NW,WASHINGTON,DC,20001,
1343,MADISON STREET NW,WASHINGTON,DC,20011,
71,N STREET NW,WASHINGTON,DC,20001,
4525,GARRISON STREET NW,WASHINGTON,DC,20016,
5129,CHEVY CHASE PARKWAY NW,WASHINGTON,DC,20008,
3726,WINDOM PLACE NW,WASHINGTON,DC,20016,
5020,ASTOR PLACE SE,WASHINGTON,DC,20019,
3101,20TH STREET NE,WASHINGTON,DC,20018,
4613,9TH STREET NW,WASHINGTON,DC,20011,
1007,EAST CAPITOL STREET SE,WASHINGTON,DC,20003,
2548,VIRGINIA AVENUE NW,WASHINGTON,DC,20037,
525,14TH STREET SE,WASHINGTON,DC,20003,
2021,MASSACHUSETTS AVENUE NW,WASHINGTON,DC,20036,
2419,WYOMING AVENUE NW,WASHINGTON,DC,20008,
54,53RD STREET SE,WASHINGTON,DC,20019,
303,R STREET NW,WASHINGTON,DC,20001,
506,25TH PLACE NE,WASHINGTON,DC,20002,
3523,22ND STREET SE,WASHINGTON,DC,20020,
1365,F STREET NW,WASHINGTON,DC,20004,
2235,TOWN CENTER DRIVE SE,WASHINGTON,DC,20020,
1717,LYMAN PLACE NE,WASHINGTON,DC,20002,
120,18TH STREET SE,WASHINGTON,DC,20003,
2525,12TH STREET NW,WASHINGTON,DC,20009,
335,7TH STREET NW,WASHINGTON,DC,20004,
1635,ROXANNA ROAD NW,WASHINGTON,DC,20012,
848,52ND STREET NE,WASHINGTON,DC,20019,
2812,POMEROY ROAD SE,WASHINGTON,DC,20020,
1204,48TH STREET NE,WASHINGTON,DC,20019,
3309,CONNECTICUT AVENUE NW,WASHINGTON,DC,20008,
2314,20TH STREET NW,WASHINGTON,DC,20009,
3917,HIGHWOOD COURT NW,WASHINGTON,DC,20007,
2133,YOUNG STREET SE,WASHINGTON,DC,20020,
736,DELAFIELD STREET NE,WASHINGTON,DC,20017,
643,14TH PLACE NE,WASHINGTON,DC,20002,
4016,LIVINGSTON ROAD SE,WASHINGTON,DC,20032,
4813,QUEBEC STREET NW,WASHINGTON,DC,20016,
4511,POTOMAC AVENUE NW,WASHINGTON,DC,20007,
3506,TEXAS AVENUE SE,WASHINGTON,DC,20020,
627,AVA CIRCLE NE,WASHINGTON,DC,20017,
4000,CATHEDRAL AVENUE NW,WASHINGTON,DC,20016,
26,GIRARD STREET NE,WASHINGTON,DC,20002,
3223,BEECH STREET NW,WASHINGTON,DC,20015,
2213,FRANKLIN STREET NE,WASHINGTON,DC,20018,
104,RIDGE ROAD SE,WASHINGTON,DC,20019,
1415,CRITTENDEN STREET NW,WASHINGTON,DC,20011,
6427,6TH STREET NW,WASHINGTON,DC,20012,
2066,RHODE ISLAND AVENUE NE,WASHINGTON,DC,20018,
3200,PATTERSON STREET NW,WASHINGTON,DC,20015,
1001,HALF STREET SW,WASHINGTON,DC,20024,
7707,13TH STREET NW,WASHINGTON,DC,20012,
3822,CALVERT STREET NW,WASHINGTON,DC,20007,
4451,PONDS STREET NE,WASHINGTON,DC,20019,
1714,CONNECTICUT AVENUE NW,WASHINGTON,DC,20009,
626,HAMILTON STREET NW,WASHINGTON,DC,20011,
26,57TH STREET SE,WASHINGTON,DC,20019,
5029,7TH STREET NW,WASHINGTON,DC,20011,
2425,WAGNER STREET SE,WASHINGTON,DC,20020,
623,6TH STREET NE,WASHINGTON,DC,20002,
1715,ERIE STREET SE,WASHINGTON,DC,20020,
2351,Q STREET SE,WASHINGTON,DC,20020,
732,QUACKENBOS STREET NW,WASHINGTON,DC,20011,
3221,CHERRY HILL LANE NW,WASHINGTON,DC,20007,
620,MASSACHUSETTS AVENUE NE,WASHINGTON,DC,20002,
3352,C STREET SE,WASHINGTON,DC,20019,
