NUMBER,STREET,CITY,STATE,POSTCODE,UNIT
28.0,LAUREL AVE,NEWARK,DE,19711,
408.0,COLLINS ST,BETHANY BEACH,DE,19930,
1704.0,N   PARK DR,WILMINGTON,DE,19806,
48.0,VALLEY FORGE RD,NEW CASTLE,DE,19720,
606.0,HARVEY RD,CLAYMONT,DE,19703,
39.0,E   MAIN ST,MIDDLETOWN,DE,19709,
24.0,ADAMS DAM RD,ROCKLAND,DE,19732,
345.0,TRENTINO TER,Clayton,DE,19938,
,LION HOPE RD,Kent,DE,19938,
105.0,NEWBURY CT,MIDDLETOWN,DE,19709,
9.0,N LAYTON AVE,Camden Wyoming,DE,19934,
33087.0,WHITNEY DR,MILLVILLE,DE,19967,
81.0,TURIN DR,Clayton,DE,19938,
28738.0,ONEALS RD,SEAFORD,DE,19973,
131.0,MALLARD WAY,MIDDLETOWN,DE,19709,
359.0,BLUECOAT ST,Dover,DE,19901,
901.0,HOPETON RD,WILMINGTON,DE,19807,
8.0,HIDDEN HILLS DR,SEAFORD,DE,19973,
17806.0,BEAVER DAM RD,LEWES,DE,19958,
6824.0,BIG STONE BEACH RD,Milford,DE,19963,
25.0,EASTWIND CT,NEWARK,DE,19713,
150.0,GLENN FOREST RD,Magnolia,DE,19962,
521.0,LAFAYETTE BLVD,WILMINGTON,DE,19801,
34098.0,HARVARD AV,MILLSBORO,DE,19966,
4.0,CLAYTON DR,Clayton,DE,19938,
249.0,RONS WAY,Smyrna,DE,19977,
18.0,BRADFORD RD,REHOBOTH BEACH,DE,19971,
51.0,N   WOODWARD AVE,WILMINGTON,DE,19805,
1517.0,ASHLAND CLINTON SCHOOL RD,HOCKESSIN,DE,19707,
2103.0,PRIOR RD,WILMINGTON,DE,19809,
2534.0,JEBB RD,Camden Wyoming,DE,19934,
2417.0,NEWELL DR,WILMINGTON,DE,19808,
29101.0,SOOTY TERN CIR,MILLSBORO,DE,19966,
17.0,MONTAGUE RD,NEWARK,DE,19713,
2119.0,MENSER WAY,WILMINGTON,DE,19802,
14429.0,OAK RD,GREENWOOD,DE,19950,
400.0,W   SUMMIT AVE,WILMINGTON,DE,19804,
4101.0,SUMMER BROOK WAY,MILFORD,DE,19963,
12.0,WHITEKIRK DR,WILMINGTON,DE,19808,
600.0,PASTURE LN,LAUREL,DE,19956,
899.0,MARROWS RD,NEWARK,DE,19713,
11198.0,SIXTH ST,BRIDGEVILLE,DE,19933,
1133.0,OLD LANCASTER PIKE,HOCKESSIN,DE,19707,
107.0,ASH AVENUE,NEWARK,DE,19711,
11.0,SEA SIDE DR,REHOBOTH BEACH,DE,19971,
105.0,MARIE CT,NEWARK,DE,19702,
2.0,GLENDALE BLVD,NEWARK,DE,19702,
21025.0,CAMP ARROWHEAD RD,LEWES,DE,19958,
26.0,W  WOODSIDE DR,MILFORD,DE,19963,
210.0,VICKERS DR,Milford,DE,19963,
8.0,KNIGHTS XING,NEWARK,DE,19713,
106.0,GLENOAK RD,WILMINGTON,DE,19805,
75.0,SIMONDS DR,NEW CASTLE,DE,19720,
18949.0,COASTAL HWY,REHOBOTH/DEWEY,DE,19971,
33426.0,DOWNING CIR,LEWES,DE,19958,
47.0,LONGLEAF LN,BEAR,DE,19701,
30.0,OSAGE RD,CLAYMONT,DE,19703,
134.0,LOG YARD LN,TOWNSEND,DE,19734,
4110.0,CHRISTIANA MDWS,BEAR,DE,19701,
30625.0,DUPONT BLVD,DAGSBORO,DE,19939,
5519.0,LIMERIC CIR,WILMINGTON,DE,19808,
8206.0,SCHOLAR DR,NEWARK,DE,19711,
1115.0,S   OLMSTED PKY,MIDDLETOWN,DE,19709,
24011.0,SHEA RD,MILLSBORO,DE,19966,
1834.0,CAPITOL TRL,NEWARK,DE,19711,
1917.0,LONGCOME DR,WILMINGTON,DE,19810,
35065.0,MEADOW DR,FRANKFORD,DE,19945,
5099.0,WHEATLEYS POND RD,Smyrna,DE,19977,
6.0,TULIP LN,NEW CASTLE,DE,19720,
1137.0,CARDIGAN RD,MIDDLETOWN,DE,19709,
31839.0,WAPLES ST,DAGSBORO,DE,19939,
111.0,VININGS WAY,NEWARK,DE,19702,
26986.0,HARBOR RD,MILLSBORO,DE,19966,
5.0,S   MAIN ST,MIDDLETOWN,DE,19709,
83.0,CHERRY BLOSSOM CT,Camden Wyoming,DE,19934,
922.0,DECOY WAY,BEAR,DE,19701,
8.0,QUEEN ST,REHOBOTH BEACH,DE,19971,
415.0,STERLING AVE,NEW CASTLE,DE,19720,
372.0,TREVI DR,Clayton,DE,19938,
2419.0,BROOKSHIRE DR,WILMINGTON,DE,19803,
4528.0,CAGNEY LN,MIDDLETOWN,DE,19709,
2.0,MOSS CT,NEWARK,DE,19711,
33638.0,WOODLAND CIR,LEWES,DE,19958,
508.0,BLUEBILL DR,NEW CASTLE,DE,19720,
33.0,HUNTING RIDGE RD,NEWARK,DE,19702,
314.0,MINQUADALE BLVD,NEW CASTLE,DE,19720,
104.0,GARDNER RD,TOWNSEND,DE,19734,
32679.0,W  CARTERET CT,MILLSBORO,DE,19966,
9.0,KINGBURY CT,NEWARK,DE,19711,
31.0,ALBE DR,NEWARK,DE,19702,
410.0,CHRISTIANA MEDICAL CTR,NEWARK,DE,19702,
0.0,Webbs Ln,Dover,DE,19904,
31418.0,COLLINS CT,MILLSBORO,DE,19966,
209.0,E   MAIN ST,NEWARK,DE,19711,
34703.0,GOOSENECK ST,MILLSBORO,DE,19966,
38976.0,WILLOW LN,FENWICK ISLAND,DE,19944,
,W DURHAM LN,Kent,DE,19904,
38.0,SUMAC DR,Felton,DE,19943,
5.0,RED OAK CT,NEWARK,DE,19713,
100.0,AUGUSTINE CUT OFF,WILMINGTON,DE,19803,
7.0,SAWGRASS RD,MILTON,DE,19968,
1408.0,ARUNDEL DR,WILMINGTON,DE,19808,
1009.0,PIRATES TRL,SELBYVILLE,DE,19975,
3300.0,CONCORD PIKE,WILMINGTON,DE,19803,
4900.0,S   TUPELO TURN,WILMINGTON,DE,19808,
16.0,S DELAWARE ST,Smyrna,DE,19977,
34126.0,DAISEY RD,FRANKFORD,DE,19945,
255.0,SHEFFIELD DR,Dover,DE,19901,
314.0,PIAZZA DR,Clayton,DE,19938,
714.0,W   5TH ST,WILMINGTON,DE,19801,
18907.0,EDWARD DR,BRIDGEVILLE,DE,19933,
204.0,GOVERNORS AV,GREENWOOD,DE,19950,
27.0,DELAWARE AV,REHOBOTH/DEWEY,DE,19971,
305.0,CAPITOL TRAIL,NEWARK,DE,19711,
506.0,SOUTHAMPTON LN,WILMINGTON,DE,19808,
65.0,TIVERTON CIR,NEWARK,DE,19702,
16411.0,SAWGRASS DR,REHOBOTH/DEWEY,DE,19971,
16.0,THISTLE CT,WILMINGTON,DE,19810,
7159.0,SHAWNEE RD,MILFORD,DE,19963,
28.0,FRANKENBERRY DR,GEORGETOWN,DE,19947,
1519.0,NEW JERSEY AVE,NEW CASTLE,DE,19720,
2009.0,ASH CT,Dover,DE,19901,
33434.0,ELLIS GROVE RD,LAUREL,DE,19956,
6208.0,REMBRANDT CIR,NEWARK,DE,19702,
19.0,AMANDAS TEAL DR,BRIDGEVILLE,DE,19933,
39725.0,WINDSWEPT CIR,BETHANY BEACH,DE,19930,
29.0,E   STONEWALL DR,MIDDLETOWN,DE,19709,
108.0,PALACE AVE,CLAYMONT,DE,19703,
8.0,GROVE ST,REHOBOTH/DEWEY,DE,19971,
30635.0,PINEY CREEK CT,DAGSBORO,DE,19939,
33732.0,RESERVOIR DR,LEWES,DE,19958,
3506.0,KILDOON DR,NEWARK,DE,19702,
220.0,UNION ST,MILTON,DE,19968,
733.0,NAAMANS RD,CLAYMONT,DE,19703,
521.0,EASTLAWN AVE,WILMINGTON,DE,19802,
38022.0,DOVE RD,OCEAN VIEW,DE,19970,
8128.0,PINE BRANCH RD,DELMAR,DE,19940,
1701.0,CLIFTON PARK CIR,WILMINGTON,DE,19802,
304.0,S   UNION ST,WILMINGTON,DE,19805,
34283.0,HARBOR DR N,MILLSBORO,DE,19966,
36871.0,CROOKED HAMMOCK WAY,LEWES,DE,19958,
32662.0,W  RIGA DR,OCEAN VIEW,DE,19970,
28591.0,TRAMORE DR,DAGSBORO,DE,19939,
204.0,SEACHASE LN,GREENWOOD,DE,19950,
5.0,MARLIN CT,NEW CASTLE,DE,19720,
25.0,EVERGREEN DR,NEWARK,DE,19702,
17444.0,SLIPPER SHELL WAY,LEWES,DE,19958,
19798.0,SHIRLING LN,LEWES,DE,19958,
1402.0,W   4TH ST,WILMINGTON,DE,19805,
34403.0,WHITE HERON RD,MILLSBORO,DE,19966,
16725.0,HUDSON RD,MILTON,DE,19968,
39047.0,CROWS NEST LN,FRANKFORD,DE,19945,
1175.0,BUNKER HILL RD,MIDDLETOWN,DE,19709,
519.0,S   MARKET ST,WILMINGTON,DE,19801,
30728.0,IRONS LN,DAGSBORO,DE,19939,
192.0,ST JONES AVE,Dover,DE,19901,
30512.0,NAUTICAL CT,MILLSBORO,DE,19966,
1456.0,FLINTSHIRE DR,MIDDLETOWN,DE,19709,
42.0,CANVASBACK CIR,BRIDGEVILLE,DE,19933,
316.0,GALLOWAY ST,MIDDLETOWN,DE,19709,
214.0,MILLCREEK DR,Dover,DE,19904,
129.0,BRANDY LN,Felton,DE,19943,
36.0,MONITOR DR,BEAR,DE,19701,
36885.0,CROSSRAIL WAY,LEWES,DE,19958,
30.0,BAY BREEZE DR,LEWES,DE,19958,
3503.0,CINDY DR,NEWARK,DE,19702,
101.0,HIGHLAND CIR,NEWARK,DE,19713,
138.0,MATTHEW DR,BEAR,DE,19701,
4942.0,WILLOW GROVE RD,Camden Wyoming,DE,19934,
224.0,HARRINGTON ST,SEAFORD,DE,19973,
3206.0,N   MADISON ST,WILMINGTON,DE,19802,
2513.0,GARTH RD,WILMINGTON,DE,19810,
211.0,W   CREST RD,WILMINGTON,DE,19803,
128.0,HOMEWOOD RD,WILMINGTON,DE,19803,
1042.0,PORT PENN RD,MIDDLETOWN,DE,19709,
211.0,W  FOURTH ST,LEWES,DE,19958,
,SUNSHINE BLVD,Kent,DE,19946,
561.0,HAWKEY BRANCH RD,Smyrna,DE,19977,
163.0,HICKORY BRANCH CT,MILFORD,DE,19963,
13.0,WANOMA CIR,REHOBOTH BEACH,DE,19971,
616.0,POPLAR CT,BETHANY BEACH,DE,19930,
7.0,HILLSTREAM RD,NEWARK,DE,19711,
30.0,INDIANA RD,WILMINGTON,DE,19808,
312.0,MULBERRY ST,MILTON,DE,19968,
35349.0,ATLANTIC AV,MILLVILLE,DE,19967,
2.0,VAN DYKE DR,NEW CASTLE,DE,19720,
24696.0,SUSSEX BLVD,GEORGETOWN,DE,19947,
6.0,BEALE ST,GEORGETOWN,DE,19947,
16.0,E   FOURTH ST,NEW CASTLE,DE,19720,
1039.0,MILFORD-HARRINGTON HWY,Milford,DE,19963,
28.0,LEE DR,WILMINGTON,DE,19808,
166.0,COOPERS DR,NEWARK,DE,19702,
5.0,CANAL CT,REHOBOTH BEACH,DE,19971,
412.0,ST REGIS DR,NEWARK,DE,19711,
109.0,VALLEY RD,WILMINGTON,DE,19804,
4806.0,OLD CAPITOL TRL,WILMINGTON,DE,19808,
501.0,BIRMINGHAM AVE,WILMINGTON,DE,19804,
125.0,HARRIET ST,Dover,DE,19901,
257.0,N   PATRICE DR,NEWARK,DE,19702,
38.0,LINGO DR,Dover,DE,19901,
5.0,THIRD AVE,CLAYMONT,DE,19703,
6.0,OMEARA CT,MIDDLETOWN,DE,19709,
21.0,BARNARD ST,NEWARK,DE,19711,
600.0,N   FORD AVE,WILMINGTON,DE,19805,
27.0,UPLAND CT,NEWARK,DE,19713,
33784.0,BETHANY DR,FRANKFORD,DE,19945,
1401.0,PENNSYLVANIA AVE,WILMINGTON,DE,19806,
34089.0,WILLOW DR,LEWES,DE,19958,
1796.0,RED LION RD,BEAR,DE,19701,
425.0,GREENWOOD DR,WILMINGTON,DE,19808,
233.0,S UNION ST,Smyrna,DE,19977,
490.0,JACOBSEN DR,NEWARK,DE,19702,
419.0,RONALD LN,Smyrna,DE,19977,
304.0,W   22ND ST,WILMINGTON,DE,19802,
36115.0,AUBURN WAY,MILLSBORO,DE,19966,
35596.0,N  GLOUCESTER CIR,MILLSBORO,DE,19966,
20.0,FOREST GATE LN,WILMINGTON,DE,19810,
2942.0,S STATE ST,Camden Wyoming,DE,19934,
14.0,GROSVENOR CT,WILMINGTON,DE,19804,
38526.0,WESTERLEE DR,DELMAR,DE,19940,
39403.0,BRIGHTON RN,BETHANY BEACH,DE,19930,
34877.0,CHERRY LOG RD,DAGSBORO,DE,19939,
102.0,NEW CASTLE ST,REHOBOTH BEACH,DE,19971,
26.0,INGRAMTOWN RD,GEORGETOWN,DE,19947,
1133.0,LORENZO LANE,Smyrna,DE,19977,
29587.0,VINCENT VILLAGE DR,MILTON,DE,19968,
2722.0,JACQUELINE DR,WILMINGTON,DE,19810,
15.0,LOWRY DR,WILMINGTON,DE,19805,
126.0,KILLENS POND RD,Harrington,DE,19952,
59.0,CENTRAL AV,OCEAN VIEW,DE,19970,
36259.0,WINDMILL RUN,OCEAN VIEW,DE,19970,
14.0,SECOND ST,Frederica,DE,19946,
456.0,S   HYDE PL,BEAR,DE,19701,
8.0,OLIVE AV,REHOBOTH BEACH,DE,19971,
204.0,LINDA LN,BEAR,DE,19701,
28196.0,LAYTON RD,LAUREL,DE,19956,
16.0,FARM HOUSE ROAD,NEWARK,DE,19711,
906.0,S  SCHULZ RD,FENWICK ISLAND,DE,19944,
2418.0,KINGMAN DR,WILMINGTON,DE,19810,
720.0,WINDSOR ST,WILMINGTON,DE,19801,
68.0,WELSH TRACT RD,NEWARK,DE,19713,
4307.0,BIRCH CIR,WILMINGTON,DE,19808,
1210.0,LAKEWOOD DR,WILMINGTON,DE,19803,
37499.0,LEISURE DR,SELBYVILLE,DE,19975,
5681.0,REED FARM LN,GREENWOOD,DE,19950,
112.0,DEER RUN RD,TOWNSEND,DE,19734,
331.0,JUSTISON ST,WILMINGTON,DE,19801,
11498.0,COMMERCIAL LN,LAUREL,DE,19956,
1029.0,BEAR CORBITT RD,BEAR,DE,19701,
336.0,DAVID HALL RD,Dover,DE,19904,
37222.0,TRANQUIL CV,SELBYVILLE,DE,19975,
600.0,MOORES LN,NEW CASTLE,DE,19720,
516.0,W   25TH ST,WILMINGTON,DE,19802,
23731.0,FRENCH RD,GEORGETOWN,DE,19947,
33335.0,CURRAN CT,FRANKFORD,DE,19945,
133.0,ALLEN AV,LAUREL,DE,19956,
26394.0,PINE CONE DR,MILLSBORO,DE,19966,
2.0,COVE VIEW RD,MILLSBORO,DE,19966,
309.0,CHRISTIANA RIVER DR,Clayton,DE,19938,
31.0,OLD MANOR RD,NEWARK,DE,19711,
100.0,RAMUNNO DR,Smyrna,DE,19977,
4611.0,BEDFORD BLVD,WILMINGTON,DE,19803,
603.0,SPRING LAKE CT,BETHANY BEACH,DE,19930,
17.0,RUSSELL RD,NEW CASTLE,DE,19720,
17.0,W SOUTH ST,Smyrna,DE,19977,
423.0,PORT PENN RD,MIDDLETOWN,DE,19709,
403.0,KIMBERLY DR,BETHANY BEACH,DE,19930,
38156.0,DOCKSIDE DR,SELBYVILLE,DE,19975,
,OAKWYNN CIR,Kent,DE,19977,
839.0,MORROW ST,WILMINGTON,DE,19801,
22485.0,S DUPONT HWY,Greenwood,DE,19950,
416.0,HAMLET WAY,NEWARK,DE,19711,
742.0,MONTGOMERY WOODS DR,HOCKESSIN,DE,19707,
1214.0,MARYLAND AVE,WILMINGTON,DE,19805,
270.0,INDIA DR,Smyrna,DE,19977,
1000.0,ORIENTE AVE,WILMINGTON,DE,19807,
206.0,HERITAGE BLVD,MILTON,DE,19968,
110.0,HEATHFIELD CT,MIDDLETOWN,DE,19709,
219.0,CARLISLE RD,BETHANY BEACH,DE,19930,
27135.0,NOBEL CT,MILTON,DE,19968,
26391.0,W  PINTAIL RD,MILLSBORO,DE,19966,
30609.0,COVE RD,OCEAN VIEW,DE,19970,
219.0,BARBERRY DR,WILMINGTON,DE,19808,
20644.0,ANNONDELL DR,LEWES,DE,19958,
36832.0,OLD MILL BRIDGE RD,SELBYVILLE,DE,19975,
1251.0,QUINTILIO DR,BEAR,DE,19701,
40.0,MARION AVE,CLAYMONT,DE,19703,
80.0,HOUSTON ST,Dover,DE,19901,
2735.0,W   3RD ST,WILMINGTON,DE,19805,
76.0,E MAIN STREET,NEWARK,DE,19711,
125.0,EMERY CT,NEWARK,DE,19711,
319.0,S   CLEVELAND AVE,WILMINGTON,DE,19805,
2.0,N   REDSPIRE CT,NEWARK,DE,19702,
4.0,BIG MILL BRANCH RD,SEAFORD,DE,19973,
117.0,CENTER CT,WILMINGTON,DE,19810,
2718.0,SILVERSIDE RD,WILMINGTON,DE,19810,
201.0,HOLLY GROVE LN,SELBYVILLE,DE,19975,
26.0,GAIL RD,NEW CASTLE,DE,19720,
106.0,ROSEMARY CT,BEAR,DE,19701,
301.0,W   WAYNE WAY,MIDDLETOWN,DE,19709,
22146.0,REYNOLDS POND RD,ELLENDALE,DE,19941,
531.0,S  WASHINGTON ST,MILFORD,DE,19963,
20509.0,PINGUE DR,MILFORD,DE,19963,
5334.0,FARM LN,GREENWOOD,DE,19950,
1.0,W   BUCK RIDGE DR,WILMINGTON,DE,19807,
2.0,DENISON ST,NEWARK,DE,19711,
37670.0,EXETER DR,REHOBOTH BEACH,DE,19971,
46.0,RUDDY DUCK LN,BRIDGEVILLE,DE,19933,
21382.0,HILL RD,SEAFORD,DE,19973,
,JOSEPH WICK DR,Kent,DE,19977,
5.0,ALLANDALE DR,NEWARK,DE,19713,
2108.0,DUNHILL DR,WILMINGTON,DE,19810,
31678.0,BEECH PLUM CT,LEWES,DE,19958,
14.0,FAIRWAY RD,NEWARK,DE,19711,
35637.0,CENTRAL PARK CIR,DAGSBORO,DE,19939,
20.0,BARNARD ST,NEWARK,DE,19711,
30.0,LANDERS LN,NEW CASTLE,DE,19720,
1125.0,CAPITOL TRL,NEWARK,DE,19711,
163.0,W   FLAGSTONE DR,NEWARK,DE,19702,
414.0,CIRCLE RD,MILLSBORO,DE,19966,
23373.0,GREENBANK DR,HARBESON,DE,19951,
24687.0,BETTS POND RD,MILLSBORO,DE,19966,
229.0,WAVERLY RD,WILMINGTON,DE,19803,
2.0,CENTER CIR,WILMINGTON,DE,19808,
2211.0,SHERMAN AVE,WILMINGTON,DE,19804,
368.0,MOCKINGBIRD AVE,Dover,DE,19904,
514.0,S   LINCOLN ST,WILMINGTON,DE,19805,
35612.0,N  GLOUCESTER CIR,MILLSBORO,DE,19966,
36984.0,SERENITY DR,SELBYVILLE,DE,19975,
34527.0,OAKLEY CT,LEWES,DE,19958,
514.0,TOLEDO CT,TOWNSEND,DE,19734,
10894.0,WEBB FARM RD,GREENWOOD,DE,19950,
24.0,ROSE HILL DR,BEAR,DE,19701,
110.0,ODYSSEY DR,WILMINGTON,DE,19808,
33.0,CHALFONT RD,Smyrna,DE,19977,
129.0,KINGSTON DR,BEAR,DE,19701,
310.0,E   FOURTEENTH ST,NEW CASTLE,DE,19720,
208.0,HERONWOOD LN,MILTON,DE,19968,
540.0,AVIEMORE DR,TOWNSEND,DE,19734,
11.0,E   22ND ST,WILMINGTON,DE,19802,
27142.0,BUCKSKIN TR,HARBESON,DE,19951,
815.0,S  DUPONT BLVD,MILFORD,DE,19963,
2045.0,RAMBLEWOOD DR N,REHOBOTH BEACH,DE,19971,
34.0,CHELWYNNE RD,NEW CASTLE,DE,19720,
113.0,W   THIRD ST,NEW CASTLE,DE,19720,
36.0,BEECH DR,Dover,DE,19904,
1005.0,OLD FORGE RD,NEW CASTLE,DE,19720,
31755.0,MARSH ISLAND AV,LEWES,DE,19958,
9.0,MEMORIAL DR,NEW CASTLE,DE,19720,
5810.0,KIRKWOOD HWY,WILMINGTON,DE,19808,
105.0,CHRISTINA LNDG,WILMINGTON,DE,19801,
207.0,POND VIEW DR,BETHANY BEACH,DE,19930,
28.0,OAK VIEW DR,NEWARK,DE,19702,
502.0,PIRATES TRL,SELBYVILLE,DE,19975,
46.0,PALMETTO DR,NEW CASTLE,DE,19720,
1502.0,W   11TH ST,WILMINGTON,DE,19806,
175.0,N   THISTLE WAY,NEWARK,DE,19702,
1517.0,N   CLAYMONT ST,WILMINGTON,DE,19802,
43.0,SOLITUDE WAY,WILMINGTON,DE,19808,
719.0,ELKTON RD,NEWARK,DE,19711,
2034.0,HARTLY RD,Hartly,DE,19953,
32031.0,HASTINGS DR,LAUREL,DE,19956,
39977.0,JERICO CT,BETHANY BEACH,DE,19930,
23.0,LIBERTY PLZ,NEWARK,DE,19711,
405.0,WEST ST,Clayton,DE,19938,
31297.0,MAY DR,BETHANY BEACH,DE,19930,
2.0,SUTTON LN,NEW CASTLE,DE,19720,
503.0,MICHELLE CT,NEWARK,DE,19711,
117.0,WALLS WAY,BEAR,DE,19701,
287.0,VINCENT CIR,MIDDLETOWN,DE,19709,
33503.0,BELVEDERE ST,MILLVILLE,DE,19967,
3101.0,MILLER RD,WILMINGTON,DE,19802,
2316.0,WYNNWOOD RD,WILMINGTON,DE,19810,
601.0,WATER ST,SEAFORD,DE,19973,
1341.0,COULEE WAY,WILMINGTON,DE,19803,
1314.0,GALA CIR,MIDDLETOWN,DE,19709,
3160.0,KIRKWOOD HWY,WILMINGTON,DE,19808,
1431.0,JOSHUA CLAYTON RD,Dover,DE,19904,
179.0,S GOVERNORS BLVD,Dover,DE,19901,
36366.0,THRASHER LN,OCEAN VIEW,DE,19970,
18.0,HILLSTREAM RD,NEWARK,DE,19711,
1840.0,CONGRESSIONAL VILLAGE DR,MIDDLETOWN,DE,19709,
28417.0,CHEROKEE AV,MILLSBORO,DE,19966,
45.0,N   AVON DR,CLAYMONT,DE,19703,
223.0,LADY BUG DR,Dover,DE,19901,
8.0,CALDWELL PLACE,NEWARK,DE,19711,
1116.0,PONDEROSA DR,Magnolia,DE,19962,
232.0,JASMINE LN,NEWARK,DE,19702,
26825.0,WALKER RD,SEAFORD,DE,19973,
971.0,RUE MADORA,BEAR,DE,19701,
38002.0,E  CHESTER LN,OCEAN VIEW,DE,19970,
2035.0,WOODYARD RD,Harrington,DE,19952,
502.0,PAISLEY LN,NEW CASTLE,DE,19720,
1208.0,CHELMSFORD CIR,NEWARK,DE,19713,
14315.0,SHILOH WAY,LAUREL,DE,19956,
618.0,NEWARK SHOPPING CTR,NEWARK,DE,19711,
7.0,LEHIGH RD,WILMINGTON,DE,19808,
237.0,CRYSTAL CT,NEWARK,DE,19713,
37233.0,SILVAN WOOD WAY,DAGSBORO,DE,19939,
323.0,HARRINGTON ST,SEAFORD,DE,19973,
223.0,WINDING WOOD DR,Magnolia,DE,19962,
27113.0,MOUNT JOY RD,MILLSBORO,DE,19966,
30.0,WOODWARD DR,WILMINGTON,DE,19808,
1109.0,OLD FORGE RD,NEW CASTLE,DE,19720,
2.0,BERWYN HALL,NEWARK,DE,19711,
108.0,PANORAMA DRIVE,NEWARK,DE,19711,
1520.0,PINTAIL LN,MILTON,DE,19968,
4.0,STALLION DR,NEWARK,DE,19713,
36.0,BAY REACH,REHOBOTH BEACH,DE,19971,
5424.0,VALLEY GREEN DR,WILMINGTON,DE,19808,
4026.0,ROSETREE LN,NEWARK,DE,19702,
204.0,SPRUCE AVE,WILMINGTON,DE,19804,
181.0,HARBOR DR,CLAYMONT,DE,19703,
117.0,VILLAGE DR,SEAFORD,DE,19973,
160.0,DAILEY DR,Felton,DE,19943,
900.0,STONY BROOK CIR,REHOBOTH BEACH,DE,19971,
801.0,BLACKSHIRE RD,WILMINGTON,DE,19805,
34551.0,STEM ST,MILLSBORO,DE,19966,
12007.0,CONCORD RD,SEAFORD,DE,19973,
426.0,ROBERTS DR,Smyrna,DE,19977,
709.0,BERRY RD,WILMINGTON,DE,19810,
614.0,POETS WAY,MIDDLETOWN,DE,19709,
108.0,PUMPKIN PATCH LN,HOCKESSIN,DE,19707,
36.0,CANVASBACK CIR,BRIDGEVILLE,DE,19933,
358.0,FOXHUNT DR,BEAR,DE,19701,
14787.0,COASTAL HWY,MILTON,DE,19968,
15.0,MAGIL CT,NEWARK,DE,19702,
9.0,COLT LN,OCEAN VIEW,DE,19970,
513.0,RIDGELY BLVD,Dover,DE,19904,
665.0,CONNELL DR,BEAR,DE,19701,
1039.0,SCARBOROUGH AVENUE EXT,REHOBOTH/DEWEY,DE,19971,
24898.0,POT BUNKER WAY,MILLSBORO,DE,19966,
738.0,W   TWELFTH ST,NEW CASTLE,DE,19720,
24551.0,GERMAN RD,SEAFORD,DE,19973,
18882.0,FORGOTTEN HARBOR CT,REHOBOTH BEACH,DE,19971,
158.0,S COLLEGE AVENUE,NEWARK,DE,19711,
4.0,COLT LN,OCEAN VIEW,DE,19970,
32826.0,E  BERKLEY CT,MILLSBORO,DE,19966,
59.0,CHARLES DR,NEW CASTLE,DE,19720,
2.0,BASS DR,MILTON,DE,19968,
24.0,SWEDES SQ,NEW CASTLE,DE,19720,
412.0,JAYMAR BLVD,NEWARK,DE,19702,
103.0,EDGEMONT CT,NEWARK,DE,19711,
1686.0,PEACHTREE RUN,Magnolia,DE,19962,
16.0,FORSYTHIA LN,BEAR,DE,19701,
86.0,BRIDLE RUN DR,MIDDLETOWN,DE,19709,
115.0,MEDERIA CIR,NEWARK,DE,19702,
10106.0,CONCORD RD,SEAFORD,DE,19973,
1469.0,SPRUCE AVE,WILMINGTON,DE,19805,
5700.0,KIRKWOOD HWY,WILMINGTON,DE,19808,
624.0,HOMESTEAD RD,WILMINGTON,DE,19805,
36.0,E   THIRD ST,NEW CASTLE,DE,19720,
22410.0,S  ACORN WAY,LEWES,DE,19958,
25321.0,SHELBY CT,MILLSBORO,DE,19966,
107.0,PRINCE GEORGES DR,DAGSBORO,DE,19939,
485.0,W   HARVEST LN,MIDDLETOWN,DE,19709,
18.0,FARNSWORTH RD,NEWARK,DE,19713,
400.0,HOLLY CT,DELMAR,DE,19940,
12.0,SANDALWOOD DR,REHOBOTH BEACH,DE,19971,
8.0,DELAWARE AV,MILTON,DE,19968,
797.0,HICKMAN DR,OCEAN VIEW,DE,19970,
31.0,PONDEROSA DR,MIDDLETOWN,DE,19709,
9.0,MAPLEWOOD LN,WILMINGTON,DE,19810,
3910.0,BROOKFIELD DR,WILMINGTON,DE,19803,
20404.0,UNIONFIELD LN,MILFORD,DE,19963,
2750.0,ANDREWS LAKE RD,Felton,DE,19943,
26.0,CURLEW CIR,NEWARK,DE,19702,
27.0,UTAH RD,WILMINGTON,DE,19808,
10083.0,JUNIPER ST,LAUREL,DE,19956,
620.0,SOUTH ST,TOWNSEND,DE,19734,
30949.0,N  POPLAR ST,LAUREL,DE,19956,
104.0,SAILOR LN,MILTON,DE,19968,
617.0,ANDOVER RD,WILMINGTON,DE,19803,
1428.0,WOODMILL DR,Dover,DE,19904,
17473.0,DAVIS RD,GEORGETOWN,DE,19947,
1505.0,VILLA RD,WILMINGTON,DE,19809,
329.0,MATTHEW FLOCCO DR,NEWARK,DE,19713,
4.0,SANDY BRANCH DR,SELBYVILLE,DE,19975,
20451.0,HONEYSUCKLE DR,LINCOLN,DE,19960,
508.0,E  4TH ST,LAUREL,DE,19956,
104.0,CULVER DR,LAUREL,DE,19956,
1501.0,NEW JERSEY AVE,NEW CASTLE,DE,19720,
24047.0,LEWES GEORGETOWN HWY,GEORGETOWN,DE,19947,
401.0,E   3RD ST,WILMINGTON,DE,19801,
28.0,TROUBLE LANE,Smyrna,DE,19977,
21205.0,SAND DOLLAR TRL,LEWES,DE,19958,
4208.0,BURRSVILLE RD,Harrington,DE,19952,
80.0,E POPLAR ST,Frederica,DE,19946,
12.0,MILL LNDG E,MILLSBORO,DE,19966,
11297.0,SIXTH ST,BRIDGEVILLE,DE,19933,
32298.0,FALLING POINT RD,DAGSBORO,DE,19939,
26248.0,COVE DR,MILLSBORO,DE,19966,
1207.0,QUINTILIO DR,BEAR,DE,19701,
1044.0,ROBINSON RD,TOWNSEND,DE,19734,
535.0,HOMESTEAD RD,WILMINGTON,DE,19805,
502.0,WEAVER DR,Dover,DE,19901,
513.0,E   LAKE ST,MIDDLETOWN,DE,19709,
1200.0,DEATS DRIVE,Dover,DE,19904,
238.0,N   RODNEY ST,WILMINGTON,DE,19805,
15964.0,PEPPER POND LN,LAUREL,DE,19956,
109.0,CARVEL AVE,NEW CASTLE,DE,19720,
15.0,KEATS DR,CLAYMONT,DE,19703,
19942.0,2ND AV,REHOBOTH/DEWEY,DE,19971,
801.0,VILLAGE CIR,NEWARK,DE,19713,
34.0,OSPREY LN,OCEAN VIEW,DE,19970,
1474.0,MCKEE RD,Dover,DE,19904,
26185.0,FLYING BRIDGE CT,MILLSBORO,DE,19966,
11014.0,VANITY LN,GREENWOOD,DE,19950,
333.0,NEW LONDON ROAD,NEWARK,DE,19711,
30059.0,CENTER POINT RD,MILLVILLE,DE,19967,
152.0,ANCHORAGE DR,BETHANY BEACH,DE,19930,
203.0,TATMAN ST,GREENWOOD,DE,19950,
37841.0,SWANN DR,SELBYVILLE,DE,19975,
9.0,SHANNON ST,DELMAR,DE,19940,
2300.0,INGLEWOOD RD,WILMINGTON,DE,19803,
255.0,SLOAN CT,WILMINGTON,DE,19808,
28.0,HOLLY LN,NEWARK,DE,19711,
8.0,HEATHER COURT,NEWARK,DE,19711,
3341.0,VERNON RD,Harrington,DE,19952,
2705.0,THOMPSON PL,WILMINGTON,DE,19802,
761.0,FENWOOD CIR,BETHANY BEACH,DE,19930,
1311.0,WEST ST,WILMINGTON,DE,19801,
37491.0,BELLA VIA WAY,OCEAN VIEW,DE,19970,
27473.0,OAK MEADOW DR,MILLSBORO,DE,19966,
33.0,BANCROFT RD,NEW CASTLE,DE,19720,
33977.0,AVALON ST,MILLSBORO,DE,19966,
17.0,PENINSULA CT,BEAR,DE,19701,
30080.0,SURFSIDE DR,BETHANY BEACH,DE,19930,
21.0,CHESWOLD BLVD,NEWARK,DE,19713,
25488.0,JANICE DR,SEAFORD,DE,19973,
23116.0,MEADOW WOOD CT,SEAFORD,DE,19973,
24329.0,CANAL DR,MILLSBORO,DE,19966,
709.0,CONCORD AVE,WILMINGTON,DE,19802,
53.0,VALLEY FORGE DR,MILFORD,DE,19963,
39011.0,CHICKEN FARM RD,SELBYVILLE,DE,19975,
550.0,S   DUPONT HWY,NEW CASTLE,DE,19720,
108.0,RICHARDS LN,NEWARK,DE,19711,
374.0,DAVID ST,Frederica,DE,19946,
181.0,THORN LN,NEWARK,DE,19711,
18.0,N  WILLIAMS ST,SELBYVILLE,DE,19975,
26398.0,SEA MIST CT,MILLSBORO,DE,19966,
719.0,IDLEWYLD DR,MIDDLETOWN,DE,19709,
15536.0,TRINITY CHURCH RD,BRIDGEVILLE,DE,19933,
57.0,SEMANS DR,Dover,DE,19904,
517.0,SEQUOIA DR,Smyrna,DE,19977,
2617.0,FRAZER RD,NEWARK,DE,19702,
338.0,WILLOWWOOD DR,Smyrna,DE,19977,
103.0,BELLANCA LN,NEW CASTLE,DE,19720,
32338.0,APRON WAY,MILLSBORO,DE,19966,
,RADLEY DR,Kent,DE,19977,
31.0,KAREN PL,Dover,DE,19901,
300.0,LITTLE CREEK DR,LAUREL,DE,19956,
2.0,SUMMERKNOLL CIR,NEWARK,DE,19711,
37389.0,HARMONY DR,SELBYVILLE,DE,19975,
29330.0,WHITE ST,MILLSBORO,DE,19966,
19844.0,CHURCH ST,REHOBOTH BEACH,DE,19971,
135.0,SWEETBAY LN,NEW CASTLE,DE,19720,
23.0,GRM DR,Frederica,DE,19946,
3319.0,PROMENADE PL,MIDDLETOWN,DE,19709,
23380.0,IRENE LN,MILFORD,DE,19963,
409.0,N  PORTER ST,SEAFORD,DE,19973,
619.0,SOUTHERNESS DR,TOWNSEND,DE,19734,
1242.0,OLD COOCHS BRIDGE ROAD,NEWARK,DE,19713,
801.0,CHESAPEAKE HOUSE RD,BETHANY BEACH,DE,19930,
119.0,CONGRESSIONAL DR,WILMINGTON,DE,19807,
18.0,TATLOW LN,NEW CASTLE,DE,19720,
340.0,DANNA LANE,NEWARK,DE,19711,
1650.0,N LITTLE CREEK RD,Dover,DE,19901,
2110.0,PHILADELPHIA PIKE,CLAYMONT,DE,19703,
303.0,HILLCREST AVE,WILMINGTON,DE,19809,
27563.0,BRISTOL CT,MILTON,DE,19968,
32.0,VERDI CIR,NEWARK,DE,19702,
4817.0,OLD CAPITOL TRL,WILMINGTON,DE,19808,
171.0,MADISON DRIVE,NEWARK,DE,19711,
,SESKINORE CT,Kent,DE,19904,
44.0,MONITOR DR,BEAR,DE,19701,
609.0,BETHANY LOOP,BETHANY BEACH,DE,19930,
316.0,CHRISTINE LN,CLAYTON,DE,19938,
27158.0,MARSH CLAM LN,MILLSBORO,DE,19966,
281.0,CHALFONT RD,Smyrna,DE,19977,
221.0,N   BARRINGTON CT,NEWARK,DE,19702,
39479.0,JEFFERSON BRIDGE RD,BETHANY BEACH,DE,19930,
4954.0,W   BRIGANTINE CT,WILMINGTON,DE,19808,
704.0,ISLAND HOUSE RD,BETHANY BEACH,DE,19930,
202.0,COBBLE CREEK CURVE,NEWARK,DE,19702,
248.0,RIVER DR,MILLSBORO,DE,19966,
6.0,WINTERBRIDGE CT,NEWARK,DE,19711,
18508.0,BELLE GROVE RD,LEWES,DE,19958,
10.0,SWANSEA LN,NEWARK,DE,19702,
253.0,SOUTH MARSHVIEW TERRACE,Magnolia,DE,19962,
3705.0,HALEY CT,WILMINGTON,DE,19808,
29526.0,FIELDSTONE DR,MILTON,DE,19968,
19637.0,BUCK RN,GEORGETOWN,DE,19947,
113.0,5TH ST,BETHANY BEACH,DE,19930,
103.0,S   OGLE AVE,WILMINGTON,DE,19805,
25.0,E FRED CIR,Camden Wyoming,DE,19934,
7276.0,SHELL BRIDGE RD,LAUREL,DE,19956,
144.0,SPRUANCE RD,Dover,DE,19901,
16.0,LEE DR,WILMINGTON,DE,19808,
51.0,GRACIA WAY,Smyrna,DE,19977,
18.0,FAIRFIELD RD,CLAYMONT,DE,19703,
336.0,E   ROOSEVELT AVE,NEW CASTLE,DE,19720,
1305.0,N  BROOM ST,WILMINGTON,DE,19806,
65.0,LEADER DR,NEWARK,DE,19713,
313.0,WAGON WHEEL LN,HOCKESSIN,DE,19707,
90.0,MURDERKILL AVE,Frederica,DE,19946,
947.0,LISSICASEY LOOP,MIDDLETOWN,DE,19709,
30723.0,PINEY NECK RD,DAGSBORO,DE,19939,
1014.0,VALLEY STREAM DR,NEWARK,DE,19702,
28.0,WHITEKIRK DR,WILMINGTON,DE,19808,
1028.0,N WALNUT ST,Milford,DE,19963,
450.0,TOFTREES DR,MIDDLETOWN,DE,19709,
104.0,KODIAK CT,BEAR,DE,19701,
1337.0,BIRCH LN,WILMINGTON,DE,19809,
27309.0,18TH BLVD,MILLSBORO,DE,19966,
302.0,MEDFORD DR,Clayton,DE,19938,
1204.0,BOYDS CORNER RD,MIDDLETOWN,DE,19709,
4203.0,CHRISTIANA MDWS,BEAR,DE,19701,
603.0,RODMAN ST,WILMINGTON,DE,19805,
638.0,WINDROW WAY,Magnolia,DE,19962,
32431.0,BACK NINE WAY,MILLSBORO,DE,19966,
2709.0,BRYSON LN,MIDDLETOWN,DE,19709,
8492.0,CEDAR CREEK RD,LINCOLN,DE,19960,
92.0,HOBART DR,NEWARK,DE,19713,
1.0,BETHS CT,MILLSBORO,DE,19966,
19.0,YORKTOWN RD,NEW CASTLE,DE,19720,
42.0,-MINQUIL DRIVE,NEWARK,DE,19713,
26305.0,LINE RD,SEAFORD,DE,19973,
28.0,E   EDINBURGH DR,NEW CASTLE,DE,19720,
31521.0,WHITECLAY DR,MILLVILLE,DE,19967,
2407.0,N   BROOM ST,WILMINGTON,DE,19802,
7.0,MARLYN RD,NEWARK,DE,19713,
2335.0,PATWYNN RD,WILMINGTON,DE,19810,
,FURIES ST,Kent,DE,19977,
1.0,PATRICK LYNN DR,Dover,DE,19904,
1435.0,OAK HILL DR,WILMINGTON,DE,19805,
37438.0,OCEAN AIR DR,FRANKFORD,DE,19945,
33195.0,LIGHTHOUSE RD,SELBYVILLE,DE,19975,
314.0,CASTLE AVE,CLAYMONT,DE,19703,
628.0,ROBINSON LN,WILMINGTON,DE,19805,
29.0,WINTERHAVEN DR,NEWARK,DE,19702,
260.0,N GOVERNORS BLVD,Dover,DE,19901,
244.0,MANCHESTER WAY,MIDDLETOWN,DE,19709,
36156.0,WOOD DR,REHOBOTH BEACH,DE,19971,
48.0,EMBURY PL,HOCKESSIN,DE,19707,
244.0,HARVEST GROVE TRL,Dover,DE,19901,
36837.0,OLD MILL CT,OCEAN VIEW,DE,19970,
340.0,DANNA LN,NEWARK,DE,19711,
1067.0,VANCE NECK RD,MIDDLETOWN,DE,19709,
837.0,COLORADO DR,NEWARK,DE,19713,
3.0,PHELPS LN,NEWARK,DE,19711,
820.0,WESTRIDGE DR,HOCKESSIN,DE,19707,
109.0,OAKMONT DR,NEW CASTLE,DE,19720,
212.0,HARRIET ST,Dover,DE,19901,
33487.0,W  HUNTERS RN,LEWES,DE,19958,
48.0,GARDEN CIR,GEORGETOWN,DE,19947,
63.0,RINGNECK PL,BEAR,DE,19701,
18.0,N WYNWYD DRIVE,NEWARK,DE,19711,
26743.0,GUM TREE RD,DAGSBORO,DE,19939,
33291.0,SASSAFRAS CT,OCEAN VIEW,DE,19970,
320.0,CORBITT CIR,BEAR,DE,19701,
29.0,KARENS WAY,BEAR,DE,19701,
633.0,LAKE DR WEST,Smyrna,DE,19977,
4.0,ZINNIA CT,BEAR,DE,19701,
185.0,W COOK AVE,Smyrna,DE,19977,
400.0,MACDUFF ROAD,NEWARK,DE,19711,
16.0,PENARTH DR,WILMINGTON,DE,19803,
3113.0,W   BRANDYWINE AVE,CLAYMONT,DE,19703,
27529.0,DAISY LN,SEAFORD,DE,19973,
63.0,E   MAIN ST,NEWARK,DE,19711,
908.0,SE  2ND ST,MILFORD,DE,19963,
5006.0,KENNETT PIKE,WILMINGTON,DE,19807,
455.0,SMEE RD,MIDDLETOWN,DE,19709,
2622.0,N   HEALD ST,WILMINGTON,DE,19802,
240.0,BAYSHORE DR,BETHANY BEACH,DE,19930,
6.0,KORDA DR,NEWARK,DE,19713,
33.0,MAGNOLIA ST,OCEAN VIEW,DE,19970,
9717.0,HIDDEN BRANCH LN,LINCOLN,DE,19960,
83.0,ANCHOR RD,REHOBOTH BEACH,DE,19971,
45.0,CHAUCER DR,NEWARK,DE,19713,
1009.0,WILSON RD,WILMINGTON,DE,19803,
11.0,LOCKE CT,NEWARK,DE,19702,
17.0,CEDAR FARMS DR,NEWARK,DE,19702,
30233.0,JUMP LN,OCEAN VIEW,DE,19970,
1912.0,S   KERR ST,MIDDLETOWN,DE,19709,
14.0,VINCENT CT,Smyrna,DE,19977,
910.0,S   GRANT AVE,WILMINGTON,DE,19805,
2.0,THANKSGIVING WAY,NEWARK,DE,19702,
8036.0,CANNON RD,BRIDGEVILLE,DE,19933,
21.0,JERSEY ST,DEWEY BEACH,DE,19971,
1601.0,NEWPORT RD,WILMINGTON,DE,19808,
3027.0,DENNY RD,NEWARK,DE,19702,
1604.0,TUDOR PL,WILMINGTON,DE,19810,
1034.0,EDWARD WHITE AVE,BEAR,DE,19701,
12147.0,GUM BRANCH CT,BRIDGEVILLE,DE,19933,
708.0,FENWOOD CIR,BETHANY BEACH,DE,19930,
33455.0,LINDSAY WAY,LEWES,DE,19958,
743.0,TRACY CIR,TOWNSEND,DE,19734,
926.0,JOHNSON DR,MIDDLETOWN,DE,19709,
36204.0,TAYLOR DR,OCEAN VIEW,DE,19970,
10.0,TAVEN KEEP RD,NEWARK,DE,19711,
141.0,HUNTERS RUN,Dover,DE,19901,
101.0,PAISLEY LN,NEW CASTLE,DE,19720,
28929.0,HABERSHAM LN,DAGSBORO,DE,19939,
454.0,E   MAIN ST,MIDDLETOWN,DE,19709,
2401.0,PENNSYLVANIA AVE,WILMINGTON,DE,19806,
6.0,BROAD HOLLOW,REHOBOTH/DEWEY,DE,19971,
35.0,LYRIC DR,NEWARK,DE,19702,
416.0,BRADFORD ST,WILMINGTON,DE,19801,
24088.0,LAWSON RD,GEORGETOWN,DE,19947,
2303.0,WOLLASTON RD,WILMINGTON,DE,19808,
38799.0,BUNTING AV,FENWICK ISLAND,DE,19944,
417.0,DANIELS PL,BEAR,DE,19701,
101.0,HOCKESSIN DR,HOCKESSIN,DE,19707,
18539.0,ROSE CT,LEWES,DE,19958,
57.0,SPRUANCE RD,Dover,DE,19901,
21.0,COLLINS AV,DEWEY BEACH,DE,19971,
18039.0,WHITE CEDAR CT,MILTON,DE,19968,
16.0,COURT DR,WILMINGTON,DE,19805,
9.0,MISSISSIPPI AV,MILTON,DE,19968,
246.0,BAY HILL RD,Magnolia,DE,19962,
21773.0,B ST,REHOBOTH BEACH,DE,19971,
111.0,RIVERVIEW DR,NEW CASTLE,DE,19720,
1689.0,S   DUPONT HWY,SAINT GEORGES,DE,19733,
111.0,CRAWFORD ST,MIDDLETOWN,DE,19709,
4218.0,S BOWERS RD,Milford,DE,19963,
31612.0,FOUNTAIN RD,LEWES,DE,19958,
6247.0,MILFORD-HARRINGTON HWY,Harrington,DE,19952,
1161.0,AIRPORT RD,Milford,DE,19963,
1813.0,MARSH RD,WILMINGTON,DE,19810,
1112.0,JANICE DRIVE,NEWARK,DE,19713,
1402.0,N   UNION ST,WILMINGTON,DE,19806,
1.0,SAW MILL CT,NEWARK,DE,19711,
4816.0,HOLLETTS CORNER RD,Clayton,DE,19938,
5.0,LOBLOLLY CT,HOCKESSIN,DE,19707,
247.0,OYSTER SHELL COVE,BETHANY BEACH,DE,19930,
7.0,COLONY BLVD,WILMINGTON,DE,19802,
1008.0,SCARBOROUGH AVENUE EXT,REHOBOTH BEACH,DE,19971,
1106.0,FIRST AVE,BEAR,DE,19701,
905.0,LINFIELD RD,NEWARK,DE,19713,
407.0,KING RAIL CT,MIDDLETOWN,DE,19709,
1000.0,N   WALNUT ST,WILMINGTON,DE,19801,
609.0,MCCRACKEN DR,MIDDLETOWN,DE,19709,
2422.0,HARVEY STRAUGHN RD,CLAYTON,DE,19938,
30605.0,S  COUNTRYSIDE DR,DELMAR,DE,19940,
5.0,DEMARIE DR,OCEAN VIEW,DE,19970,
1081.0,DEXTER CORNER RD,TOWNSEND,DE,19734,
510.0,A ST,WILMINGTON,DE,19801,
14.0,SCHUYLER CT,NEWARK,DE,19702,
51.0,FANTAIL CT,NEW CASTLE,DE,19720,
2529.0,BERWYN RD,WILMINGTON,DE,19810,
2300.0,W   14TH ST,WILMINGTON,DE,19806,
21566.0,VAUGHN RD,GEORGETOWN,DE,19947,
3.0,ROXETER RD,NEW CASTLE,DE,19720,
8610.0,SOCIETY DR,CLAYMONT,DE,19703,
2103.0,WESTMINSTER DR,WILMINGTON,DE,19810,
2010.0,CHRISTIANA MDWS,BEAR,DE,19701,
414.0,LARK DRIVE,NEWARK,DE,19713,
403.0,ROBINSON ST,WILMINGTON,DE,19801,
28.0,DANBURY DR,NEWARK,DE,19702,
899.0,WOODCREST DR,Dover,DE,19904,
2206.0,NAAMANS RD,WILMINGTON,DE,19810,
100.0,HAWK DR,NEWARK,DE,19702,
26.0,MONTPELIER BLVD,NEW CASTLE,DE,19720,
1980.0,SUPERFINE LN,WILMINGTON,DE,19802,
139.0,COLUMBIA AV,REHOBOTH BEACH,DE,19971,
136.0,KARLYN DR,NEW CASTLE,DE,19720,
20657.0,ANNONDELL DR,LEWES,DE,19958,
101.0,PHEASANT DR,LEWES,DE,19958,
34724.0,MARITIME WAY,LEWES,DE,19958,
239.0,COALE LN,TOWNSEND,DE,19734,
419.0,S   RODNEY ST,WILMINGTON,DE,19805,
117.0,MARATHON DR,MIDDLETOWN,DE,19709,
1469.0,FLINTSHIRE DR,MIDDLETOWN,DE,19709,
600.0,CENTERVILLE RD,WILMINGTON,DE,19808,
27330.0,INDIAN MEADOWS DR,MILLSBORO,DE,19966,
151.0,E  BUCKINGHAM DR,REHOBOTH BEACH,DE,19971,
144.0,CHURCH HILL RD,Milford,DE,19963,
14143.0,RUSSELL RD,BRIDGEVILLE,DE,19933,
5477.0,PEARSONS CORNER RD,Dover,DE,19904,
1202.0,GREYSTONE LN,NEWARK,DE,19711,
8033.0,IONA WAY,MILFORD,DE,19963,
223.0,SPENCER DR,Clayton,DE,19938,
356.0,PAPER MILL ROAD,NEWARK,DE,19711,
12.0,CALVARESE DR,BEAR,DE,19701,
16701.0,SAND HILL RD,MILTON,DE,19968,
7.0,WOODDUCK POINT,REHOBOTH BEACH,DE,19971,
264.0,DOVE RUN CENTRE DR,MIDDLETOWN,DE,19709,
22405.0,SEA PINE CT,FRANKFORD,DE,19945,
11644.0,HONEY BEE LN,LAUREL,DE,19956,
814.0,W   CREEK LN,MIDDLETOWN,DE,19709,
778.0,7TH ST,Dover,DE,19902,
313.0,PADDINGTON DR,BEAR,DE,19701,
59.0,DASHER AVE,BEAR,DE,19701,
32.0,CHESWOLD BLVD,NEWARK,DE,19713,
56.0,ST JOHN DR,WILMINGTON,DE,19808,
39.0,PERTH ST,BEAR,DE,19701,
33518.0,CLEEK WAY,MILLSBORO,DE,19966,
3016.0,N   HEALD ST,WILMINGTON,DE,19802,
12817.0,BAKER MILL RD,SEAFORD,DE,19973,
4025.0,WRANGLE HILL RD,BEAR,DE,19701,
18518.0,BIG BURN LN,REHOBOTH BEACH,DE,19971,
35150.0,LYNCHS LN,FRANKFORD,DE,19945,
26602.0,JERSEY RD,MILLSBORO,DE,19966,
37.0,SCARBOROUGH LN,OCEAN VIEW,DE,19970,
3902.0,CHRISTIANA MDWS,BEAR,DE,19701,
112.0,BRIAR LN,NEWARK,DE,19711,
56.0,BLUE BEAD DR,Harrington,DE,19952,
35065.0,LOWELL AV,MILLSBORO,DE,19966,
125.0,BEACHFIELD DR,REHOBOTH BEACH,DE,19971,
21.0,ELKS TRL,NEW CASTLE,DE,19720,
2.0,UPLAND CT,NEWARK,DE,19713,
27.0,PEPPERWOOD LN,BEAR,DE,19701,
2618.0,BELAIRE DR,WILMINGTON,DE,19808,
2114.0,WILLOW WAY,WILMINGTON,DE,19810,
127.0,RIDGELAND RD,WILMINGTON,DE,19803,
705.0,LORA LN,HOCKESSIN,DE,19707,
22747.0,HOLLY WAY W,LEWES,DE,19958,
4.0,ASHDALE CIR,NEWARK,DE,19702,
1021.0,ALLEY CORNER RD,Smyrna,DE,19977,
4518.0,SHADY DR,WILMINGTON,DE,19808,
74.0,COLONIAL LN,Milford,DE,19963,
107.0,FOXFIRE DR,NEWARK,DE,19711,
12610.0,TUCKERS RD,GREENWOOD,DE,19950,
2833.0,S  BAY SHORE DR,MILTON,DE,19968,
6010.0,LARCH CT,Dover,DE,19901,
20.0,WRANGLER RD,NEWARK,DE,19711,
34908.0,NORTH DR,LEWES,DE,19958,
3614.0,SOCIETY DR,CLAYMONT,DE,19703,
228.0,LYNDHURST AVE,WILMINGTON,DE,19803,
10.0,DELAWARE CITY TRAILER PARK,DELAWARE CITY,DE,19706,
516.0,HARLAN BLVD,WILMINGTON,DE,19801,
637.0,CORBIT DR,MIDDLETOWN,DE,19709,
2435.0,W   18TH ST,WILMINGTON,DE,19806,
115.0,ALSTON CT,NEW CASTLE,DE,19720,
45.0,BOGGS RUN,Cheswold,DE,19904,
13.0,GRISTMILL LN,NEWARK,DE,19711,
90.0,SUSSEX ST,REHOBOTH BEACH,DE,19971,
11042.0,TUCKERS RD,GREENWOOD,DE,19950,
530.0,HARLAN BLVD,WILMINGTON,DE,19801,
1210.0,CRESTOVER RD,WILMINGTON,DE,19803,
21.0,ARGYLE RD,NEWARK,DE,19713,
101.0,HONORA DR,BEAR,DE,19701,
17258.0,PINE WATER DR,LEWES,DE,19958,
2510.0,EMERSON DR,WILMINGTON,DE,19808,
5.0,SANDALWOOD DR,NEWARK,DE,19713,
5.0,MURRAY CT,MIDDLETOWN,DE,19709,
224.0,TRALEE DR,MIDDLETOWN,DE,19709,
811.0,PRESIDENTS ROW,BEAR,DE,19701,
2212.0,GILPIN AVE,WILMINGTON,DE,19806,
122.0,CHESTNUT CROSSING DR,NEWARK,DE,19713,
11.0,MEGHAN LN,BEAR,DE,19701,
110.0,SUNSHINE LN,MIDDLETOWN,DE,19709,
863.0,HUBBEL AVE,BEAR,DE,19701,
530.0,HALO DR,BEAR,DE,19701,
409.0,QUEEN ANN ST,DAGSBORO,DE,19939,
213.0,MORGAN CREEK WAY,NEWARK,DE,19702,
29.0,AUCKLAND DR,NEWARK,DE,19702,
308.0,WILKINSON DR,NEWARK,DE,19702,
4.0,MERIT DR,NEW CASTLE,DE,19720,
5.0,DOVE PL,Camden Wyoming,DE,19934,
510.0,THORNDALE DR,HOCKESSIN,DE,19707,
331.0,JUSTISON ST,WILMINGTON,DE,19801,
714.0,NORTH ST,Milford,DE,19963,
406.0,HUDSON STREET EXT,MILTON,DE,19968,
15.0,COLT LN,OCEAN VIEW,DE,19970,
49.0,LAKEWOOD DR,LEWES,DE,19958,
368.0,STONE RIDGE DR,Dover,DE,19901,
331.0,CHESTNUT ST,LEWES,DE,19958,
22895.0,S DUPONT HWY,Greenwood,DE,19950,
226.0,LIBORIO DR,MIDDLETOWN,DE,19709,
111.0,CENTRAL AVE,NEW CASTLE,DE,19720,
6421.0,TABARD DR,MILFORD,DE,19963,
20558.0,COURTNEY WAY,REHOBOTH/DEWEY,DE,19971,
231.0,MERCURY RD,NEWARK,DE,19711,
11011.0,SALT BARN RD,LAUREL,DE,19956,
166.0,AMELIA DR,LINCOLN,DE,19960,
2138.0,GRAFTON DR,WILMINGTON,DE,19808,
60.0,STEELES RIDGE RD,Camden Wyoming,DE,19934,
54.0,BELL MINER CT,Dover,DE,19904,
20120.0,JOHN J WILLIAMS HWY,LEWES,DE,19958,
471.0,TOFTREES DR,MIDDLETOWN,DE,19709,
14499.0,OYSTER ROCKS RD,MILTON,DE,19968,
331.0,JUSTISON ST,WILMINGTON,DE,19801,
5.0,VIVIAN CT,NEWARK,DE,19702,
1004.0,TIMBERWYCK RD,WILMINGTON,DE,19810,
31006.0,OMAR RD,FRANKFORD,DE,19945,
44.0,E   MAIN ST,NEWARK,DE,19711,
5701.0,VICKY DR,NEWARK,DE,19702,
1378.0,PORTER RD,BEAR,DE,19701,
36.0,OKLAHOMA STATE DR,NEWARK,DE,19713,
201.0,PHILADELPHIA PIKE,WILMINGTON,DE,19809,
16062.0,ROLLING HILL LN,LINCOLN,DE,19960,
10200.0,CLENDANIEL POND RD,LINCOLN,DE,19960,
30381.0,DISCOUNT LAND RD,LAUREL,DE,19956,
311.0,S   JACKSON ST,WILMINGTON,DE,19805,
219.0,2ND ST,BETHANY BEACH,DE,19930,
8753.0,APPELS RD,LINCOLN,DE,19960,
18913.0,MYRICK CT,REHOBOTH BEACH,DE,19971,
210.0,LAMBSON LN,NEW CASTLE,DE,19720,
120.0,EBENEZER CHURCH RD,TOWNSEND,DE,19734,
35576.0,E  ATLANTIC CIR,REHOBOTH BEACH,DE,19971,
10.0,W   HAZELDELL AVE,NEW CASTLE,DE,19720,
108.0,CHESAPEAKE DR,REHOBOTH BEACH,DE,19971,
14457.0,MEGAN WAY,LAUREL,DE,19956,
105.0,E   23RD ST,WILMINGTON,DE,19802,
965.0,REPRESENTATIVE ROW,BEAR,DE,19701,
22888.0,DEEP CREEK DR,LINCOLN,DE,19960,
503.0,S  WALNUT ST,MILFORD,DE,19963,
13.0,OAKMONT DR,NEW CASTLE,DE,19720,
5.0,RADCLIFF CT,WILMINGTON,DE,19804,
1600.0,W   14TH ST,WILMINGTON,DE,19806,
7.0,E   GREEN ST,MIDDLETOWN,DE,19709,
29376.0,PEMBROKE LNDG,MILLSBORO,DE,19966,
2651.0,GOLF LN,WILMINGTON,DE,19810,
274.0,MINGO WAY,TOWNSEND,DE,19734,
2306.0,STONEBRIDGE BLVD,NEW CASTLE,DE,19720,
25433.0,WILLIAMS FARM RD,MILTON,DE,19968,
702.0,PARTRIDGE CT,HOCKESSIN,DE,19707,
134.0,FOX POINTE DR,Cheswold,DE,19904,
3509.0,SOCIETY DR,CLAYMONT,DE,19703,
607.0,W   28TH ST,WILMINGTON,DE,19802,
90.0,LAUREL DR,Dover,DE,19901,
411.0,HUDSON STREET EXT,MILTON,DE,19968,
775.0,OBSERVATORY DR,BEAR,DE,19701,
5.0,IRWIN AVE,NEW CASTLE,DE,19720,
123.0,LUCKY BEN DR,Harrington,DE,19952,
31504.0,BUNTING FARM LN,DAGSBORO,DE,19939,
29964.0,CROCODILE COVE,LEWES,DE,19958,
34029.0,LAYTON ST,MILLSBORO,DE,19966,
27.0,FRANKENBERRY DR,GEORGETOWN,DE,19947,
640.0,CAROL ST,Dover,DE,19904,
234.0,PAYNTER DR,WILMINGTON,DE,19804,
343.0,BARLEY DR,NEWARK,DE,19702,
1300.0,CLAYTON GREENSPRING RD,CLAYTON,DE,19938,
2742.0,HAZLETTVILLE RD,Dover,DE,19904,
9.0,ANITA DR,NEWARK,DE,19713,
300.0,PASTURE LN,LAUREL,DE,19956,
8627.0,FLORENCE ST,SEAFORD,DE,19973,
100.0,HICKMAN RD,CLAYMONT,DE,19703,
24346.0,SHADY LN,MILLSBORO,DE,19966,
36011.0,CONDO DR,REHOBOTH BEACH,DE,19971,
1.0,ADDY RD,BETHANY BEACH,DE,19930,
93.0,SCHOOL LN,Cheswold,DE,19904,
6.0,S  8TH ST,BETHANY BEACH,DE,19930,
20926.0,WIL KING RD,LEWES,DE,19958,
614.0,LOVEVILLE RD,HOCKESSIN,DE,19707,
18953.0,E  REDDEN RD,GEORGETOWN,DE,19947,
87.0,MESSINA HILL RD,Dover,DE,19904,
206.0,PINEHURST RD,WILMINGTON,DE,19803,
38188.0,BEACHWOOD CT,FRANKFORD,DE,19945,
31.0,YEATES DR,NEW CASTLE,DE,19720,
1105.0,STONEWOOD CT,WILMINGTON,DE,19810,
11.0,FOREST GATE LN,WILMINGTON,DE,19810,
801.0,E   8TH ST,WILMINGTON,DE,19801,
113.0,WINDER RD,NEW CASTLE,DE,19720,
5.0,MAIN ST,FRANKFORD,DE,19945,
481.0,GRANGER DR,BEAR,DE,19701,
866.0,BLACK DIAMOND RD,SMYRNA,DE,19977,
10.0,OLDE DUTCH DR,TOWNSEND,DE,19734,
2905.0,CROSSFORK DR,WILMINGTON,DE,19808,
1430.0,PULASKI HWY,NEWARK,DE,19702,
90.0,NEW CASTLE AVE,Felton,DE,19943,
1730.0,CHOPTANK RD,MIDDLETOWN,DE,19709,
731.0,W   TWELFTH ST,NEW CASTLE,DE,19720,
5.0,SAVOY RD,NEWARK,DE,19702,
410.0,EDEN CIR,BEAR,DE,19701,
87.0,KELLS AVE,NEWARK,DE,19711,
33.0,S   LUNENBURG DR,NEW CASTLE,DE,19720,
32.0,MORIARTY ST,Dover,DE,19901,
722.0,BLACKBIRD FOREST RD,SMYRNA,DE,19977,
4464.0,PARADISE ALLEY RD,Felton,DE,19943,
3.0,RIDGEWOOD CIR,WILMINGTON,DE,19809,
630.0,CAPITOL TRL,NEWARK,DE,19711,
0.0,Capitol Dr,Dover,DE,19901,
1113.0,MONTGOMERY RD,WILMINGTON,DE,19805,
32980.0,LONG NECK RD,MILLSBORO,DE,19966,
26405.0,RUDDER RD,MILLSBORO,DE,19966,
613.0,DARLEY RD,CLAYMONT,DE,19703,
5.0,E   23RD ST,WILMINGTON,DE,19802,
38627.0,BENRO DR,DELMAR,DE,19940,
31347.0,POINT CIR,LEWES,DE,19958,
33829.0,SHAWNEE DR,DAGSBORO,DE,19939,
5865.0,SUMMIT BRIDGE RD,TOWNSEND,DE,19734,
32.0,LANDERS LN,NEW CASTLE,DE,19720,
202.0,CULLEN WAY,NEWARK,DE,19711,
3630.0,BAYARD DR,CLAYMONT,DE,19703,
15272.0,CRAPE MYRTLE RD,MILTON,DE,19968,
110.0,W   19TH ST,WILMINGTON,DE,19802,
2414.0,DUPONT PKY,MIDDLETOWN,DE,19709,
7029.0,WILLOW GROVE RD,Camden Wyoming,DE,19934,
14564.0,BARRONS DR,LAUREL,DE,19956,
6.0,DAISEY ST,FRANKFORD,DE,19945,
677.0,OLD PORTER RD,BEAR,DE,19701,
2909.0,WASHINGTON ST,WILMINGTON,DE,19802,
721.0,W   BIRCHTREE LN,CLAYMONT,DE,19703,
2401.0,PENNSYLVANIA AVE,WILMINGTON,DE,19806,
103.0,SYPHERD DR,NEWARK,DE,19711,
405.0,PENCADER DR,NEWARK,DE,19702,
807.0,N  BOARDWALK,REHOBOTH BEACH,DE,19971,
