NUMBER,STREET,CITY,STATE,POSTCODE,UNIT
95092.0,BUCKEYE CT,FERNANDINA BEACH,FL,32034,
1249.0,SE INDUSTRIAL BLVD,Port Saint Lucie,FL,34953,
15645.0,GIFFORD LN,SPRING HILL,FL,34610,
2400.0,55TH SQ,VERO BEACH,FL,32966,
897.0,GLADIOLA AVE,SEBASTIAN,FL,32958,
1091.0,SPENCER LN,SAINT JOHNS,FL,32259,
6639.0,LESLIE OAKS LN,JACKSONVILLE,FL,32222,
775.0,GATEWAY DR,ALTAMONTE SPRINGS,FL,32714,
317.0,SUNSHINE DR,LAKE WALES,FL,33859,
716.0,MCCRANIE RD,LAKELAND,FL,33809,
1308.0,15TH ST SW,WINTER HAVEN,FL,33880,
6602.0,N DAVIS HWY,PENSACOLA,FL,32504,
24641.0,IVORY CANE DR 102,BONITA SPRINGS,FL,34134,102.0
1785.0,CR 119,BRYCEVILLE,FL,32009,
978.0,SHAW CIR,MELBOURNE,FL,32940,
4706.0,LEE BLVD,LEHIGH ACRES,FL,33971,
106.0,SHORT ST,FT WALTON BEACH,FL,32547,
206.0,S 21ST AVE,JACKSONVILLE BEACH,FL,32250,
1457.0,SE MARISOL LN,Port Saint Lucie,FL,34953,
19681.0,SUMMERLIN RD 288,FORT MYERS,FL,33908,288.0
1128.0,CEPHIA ST,LAKE WALES,FL,33859,
4522.0,SE 28TH ST,OKEECHOBEE,FL,34974,
8536.0,Cobblestone DR,Saint Lucie County,FL,34945,
3005.0,SW 40TH LN,CAPE CORAL,FL,33914,
1105.0,PISA ST E,LEHIGH ACRES,FL,33974,
20.0,SEA WINDS LN W,PONTE VEDRA BEACH,FL,32082,
102.0,CAMDEN RD,ALTAMONTE SPRINGS,FL,32714,
8112.0,SE SKYLARK AVE,HOBE SOUND,FL,33455,
7254.0,CR 710,CENTER HILL,FL,33514,
4619.0,ASHLEY LAKE CIR,VERO BEACH,FL,32967,
885.0,SCHUMANN DR,SEBASTIAN,FL,32958,
35.0,SAILFISH DR,PONTE VEDRA BEACH,FL,32082,
8356.0,96TH AVE,VERO BEACH,FL,32967,
430.0,BAR CT,POINCIANA,FL,34759,
27.0,ASPEN DR,HAINES CITY,FL,33844,
4650.0,FAY BLVD,COCOA,FL,32927,
1058.0,SW 28TH ST,PALM CITY,FL,34990,
148.0,BUCKSKIN WAY,WINTER SPRINGS,FL,32708,
9109.0,HOLLOW PINE DR,BONITA SPRINGS,FL,34135,
3320.0,YOUNGS RIDGE RD,LAKELAND,FL,33810,
11739.0,ROLLING PINE LN,PORT RICHEY,FL,34668,
230.0,ELDREDGE RD,FT WALTON BEACH,FL,32547,
710.0,LEGION DR N1,DESTIN,FL,32541,
168.0,TALL PINES PASS,POINCIANA,FL,34759,
1700.0,ORCHID CT NW,PALM BAY,FL,32907,
4932.0,ROCK ROSE LP,SANFORD,FL,32771,
8326.0,N BORDEAU AVE,JACKSONVILLE,FL,32211,
155.0,N PEARL LAKE #102 CSWY,ALTAMONTE SPRINGS,FL,32714,
,5538/5540 SIXTH AVE,FORT MYERS,FL,33907,
12643.0,SE 178TH PL,SUMMERFIELD,FL,34491,
23.0,EAGLE HARBOR TRL,PALM COAST,FL,32164,
4906.0,VICTORIA DR 213,CAPE CORAL,FL,33904,213.0
5647.0,19TH ST,ZEPHYRHILLS,FL,33542,
831.0,SUNSET COVE DR,WINTER HAVEN,FL,33880,
2845.0,ST BARTS SQ,VERO BEACH,FL,32967,
319.0,TRIANA AVE SW,PALM BAY,FL,32908,
2109.0,WINDWARD PASS,LAKELAND,FL,33813,
8249.0,CHANNEL DR,PORT RICHEY,FL,34668,
206.0,River Walk 16,Saint Lucie County,FL,34949,
542.0,SE 41ST AVE,OCALA,FL,34471,
1622.0,WOODARD ST S,Perry,FL,32348,
,4912/4914 24TH ST SW,LEHIGH ACRES,FL,33973,
1240.0,HARDAWAY HWY,CHATTAHOOCHEE,FL,32324,
9018.0,SHADOW GLEN WAY,FORT MYERS,FL,33913,
15940.0,NE 233RD ST,FORT MCCOY,FL,32134,
17752.0,SE 115TH CT,SUMMERFIELD,FL,34491,
2550.0,DELROSE DR W,LAKELAND,FL,33805,
904.0,MAIN ST W,WAUCHULA,FL,33873,
1320.0,ARAPAHO TRL,GENEVA,FL,32732,
2925.0,COLLEEN CIR,KISSIMMEE,FL,34744,
371.0,SW 24TH PL,CAPE CORAL,FL,33991,
378.0,PORT CHARLOTTE DR,PONTE VEDRA,FL,32081,
413.0,MARION OAKS CRSE,OCALA,FL,34473,
6150.0,REGINA PL,LAND O LAKES,FL,34639,
579.0,NE PLANTATION RD,HUTCHINSON ISLAND,FL,34996,
14632.0,STATE ST,DADE CITY,FL,33523,
4704.0,SUNSET DR,VERO BEACH,FL,32963,
6587.0,TREEHAVEN DR,SPRING HILL,FL,34606,
610.0,JULIUS THORNEY DR,LAKELAND,FL,33802,
7441.0,BEACH RD,ELKTON,FL,32033,
6683.0,BRIARHILL DR NE,WINTER HAVEN,FL,33881,
554.0,CHARLIE HARRIS LOOP,QUINCY,FL,32351,
78.0,BARRINGTON DR,PALM COAST,FL,32137,
1493.0,SOUTH BLVD,CHIPLEY,FL,32428,
1140.0,YAGER RD SE,PALM BAY,FL,32909,
3529.0,FOXWOOD BLVD,WESLEY CHAPEL,FL,33543,
113.0,WILD FORREST DR,DAVENPORT,FL,33837,
91.0,N ST AUGUSTINE BLVD,SAINT AUGUSTINE,FL,32080,
6411.0,RIVER CLUB CT,NORTH FORT MYERS,FL,33917,
416.0,S 1ST ST,PENSACOLA,FL,32507,
3843.0,SERENITY LN,MIMS,FL,32754,
5640.0,SCENIC HWY,PENSACOLA,FL,32504,
4790.0,S CLEVELAND AVE 602,FORT MYERS,FL,33907,602.0
3069.0,PATTERSON GROVES DR,HAINES CITY,FL,33844,
1209.0,SE 21ST TER,CAPE CORAL,FL,33990,
11194.0,SUNGLOW LN,FORT MYERS,FL,33908,
12221.0,SNOWY EGRET AVE,WEEKI WACHEE,FL,34614,
4561.0,DEWEY DR,NEW PORT RICHEY,FL,34652,
2044.0,ORCA CT,FERNANDINA BEACH,FL,32034,
425.0,HWY 441 SE,OKEECHOBEE,FL,34974,
750.0,DRESDEN ST NW,PALM BAY,FL,32907,
906.0,SEQUOIA ST,BAREFOOT BAY,FL,32976,
5240.0,NW 54TH PL,OCALA,FL,34482,
1117.0,ABBOTT AVE,LEHIGH ACRES,FL,33972,
36702.0,BETH AVE,ZEPHYRHILLS,FL,33542,
6553.0,NE 1ST PL,OCALA,FL,34470,
1011.0,NANCY CIR,WINTER SPRINGS,FL,32708,
1492.0,KINGS RD,JACKSONVILLE,FL,32209,
627.0,LARK AVE S,LEHIGH ACRES,FL,33974,
9976.0,CHELSEA LAKE RD,JACKSONVILLE,FL,32256,
430.0,DUNDAS CT,Fort Pierce,FL,34950,
61.0,PRESIDENT LN,PALM COAST,FL,32164,
1102.0,MAIN ST,ATLANTIC BEACH,FL,32233,
1916.0,SE 33RD TER,CAPE CORAL,FL,33904,
322.0,BADEN POWELL RD,HAWTHORNE,FL,32640,
13380.0,MAUREEN AVE,SPRING HILL,FL,34609,
4700.0,OCEAN BEACH BLVD,COCOA BEACH,FL,32931,408.0
119.0,WESTWIND DR,DAVENPORT,FL,33896,
713.0,E OCRACOKE SQ SW,VERO BEACH,FL,32968,
1528.0,W 7TH ST,JACKSONVILLE,FL,32209,
8442.0,SIAMANG CT,NEW PORT RICHEY,FL,34653,
16302.0,NE 153RD LN,SALT SPRINGS,FL,32134,
8817.0,CYPRESS PRESERVE PL,FORT MYERS,FL,33912,
703.0,MAPLE WOODS CIR,PENSACOLA,FL,32534,
1417.0,CHALLEN AVE,JACKSONVILLE,FL,32205,
18937.0,NW 254TH ST,OKEECHOBEE,FL,34972,
4921.0,MANGO AVE,COCOA,FL,32926,
703.0,JARRELL AVE,WILDWOOD,FL,34785,
1202.0,S RALEIGH RIDGE DR,JACKSONVILLE,FL,32225,
1423.0,LEXINGTON SQ SW,VERO BEACH,FL,32962,
2503.0,BROWARD RD,JACKSONVILLE,FL,32218,
536.0,BETHANY VILLAGE CIR,LEHIGH ACRES,FL,33936,
6583.0,SE 11TH LOOP,OCALA,FL,34472,
9312.0,Wentworth LN,Saint Lucie County,FL,34986,
311.0,W ASHLEY ST,JACKSONVILLE,FL,32202,1704.0
2642.0,RIVER LANDING DR,SANFORD,FL,32771,
3396.0,SW 92ND PL,OCALA,FL,34476,
471.0,E TANGERINE SQ SW,VERO BEACH,FL,32968,
110.0,FOX VALLEY CT,LONGWOOD,FL,32779,
16527.0,NW 294TH ST,OKEECHOBEE,FL,34972,
1312.0,COLLINS LN,LAKELAND,FL,33803,
3927.0,SE 26TH ST,OKEECHOBEE,FL,34974,
108.0,SYCAMORE CT,SANFORD,FL,32773,
1904.0,WINGFORD DR,LEHIGH ACRES,FL,33972,
107.0,CONCHA DR,SEBASTIAN,FL,32958,
11.0,GARNETT AVE,SAINT AUGUSTINE,FL,32084,
408.0,EMERALD CT,MARY ESTHER,FL,32569,
600.0,BLK HIGHWAY 97,MOLINO,FL,32577,
366.0,ILLINOIS AVE,VALPARAISO,FL,32580,
9531.0,WHITTINGTON DR,JACKSONVILLE,FL,32257,
2250.0,NW HIGHWAY 27 ALT,CHIEFLAND,FL,32626,
3953.0,TURTLE MOUND RD,MELBOURNE,FL,32934,
1312.0,SUMNER ST,AUBURNDALE,FL,33823,
8147.0,JOFFRE DR,JACKSONVILLE,FL,32210,
1984.0,BADJONG AVE SW,PALM BAY,FL,32908,
745.0,35TH AVE SW,VERO BEACH,FL,32968,
3210.0,CONCOURS,MELBOURNE,FL,32934,
16658.0,US HIGHWAY 41,SPRING HILL,FL,34610,
3125.0,W 1ST ST,JACKSONVILLE,FL,32254,
1042.0,POPOLEE EXT RD,SAINT JOHNS,FL,32259,
8067.0,SETTLERS CREEK CIR,LAKELAND,FL,33810,
104.0,SAND LAKE DR,POMONA PARK,FL,32181,
7930.0,BAHAMA AVE,PORT RICHEY,FL,34668,
2845.0,SATURN RD,BROOKSVILLE,FL,34604,
10915.0,SW 47TH AVE,OCALA,FL,34476,
11715.0,LORETTO WOODS CT,JACKSONVILLE,FL,32223,
120.0,SPRING ST,ALTAMONTE SPRINGS,FL,32701,
163.0,SUNNYTOWN RD,CASSELBERRY,FL,32707,
17076.0,NE 148TH TERRACE RD,FORT MCCOY,FL,32134,
11670.0,SW 72ND CIR,OCALA,FL,34476,
372.0,VILLA SORRENTO CIR,HAINES CITY,FL,33845,
610.0,SE 26TH TER,CAPE CORAL,FL,33904,
4752.0,BRENTON DR,HOLIDAY,FL,34690,
1338.0,10TH ST,LAKELAND,FL,33805,
1747.0,TINKER DR,LUTZ,FL,33559,
511.0,FLAMINGO AVE,LEHIGH ACRES,FL,33974,
357.0,PLACID LAKE DR,SANFORD,FL,32773,
3771.0,SW 137TH PL,OCALA,FL,34473,
9707.0,QUAIL HOLLOW BLVD,PENSACOLA,FL,32514,
2013.0,S CENTRAL AVE,FLAGLER BEACH,FL,32136,
5710.0,WILLOW RD,MACCLENNY,FL,32063,
215.0,LEE AVE,SATELLITE BEACH,FL,32937,
616.0,SAN MARIA ST,THE VILLAGES,FL,32159,
1390.0,FT PICKENS RD 253,PENSACOLA BEACH,FL,32561,
13491.0,GEMFIRE CT,JACKSONVILLE,FL,32258,
3229.0,SANFORD DR,HOLIDAY,FL,34691,
805.0,TARTAN LOOP,LAKE WALES,FL,33853,
1209.0,APOPKA LN,POINCIANA,FL,34759,
367.0,HICKORY NUT TR,SATSUMA,FL,32189,
4825.0,SE 130TH PL,BELLEVIEW,FL,34420,
4522.0,OAKBROOK CT,KISSIMMEE,FL,34746,
7811.0,LAUREL OAK LN,KISSIMMEE,FL,34747,
20431.0,CHAPEL TRACE,ESTERO,FL,33928,
3506.0,BUCKINGHAM CT,OVIEDO,FL,32765,
,2025/2027 ELOISE CIR,NORTH FORT MYERS,FL,33917,
3146.0,W 5TH ST,JACKSONVILLE,FL,32254,
15317.0,LAUGHING GULL LN,BONITA SPRINGS,FL,34135,
680.0,NE WAX MYRTLE WAY,JENSEN BEACH,FL,34957,
7766.0,BOGART DR,NORTH FORT MYERS,FL,33917,
383.0,WINTER RIDGE BLVD,WINTER HAVEN,FL,33881,
9550.0,S OCEAN DR 207,Saint Lucie County,FL,34950,
2732.0,SE GARFIELD AVE,Port Saint Lucie,FL,34953,
1400.0,WAR EAGLE BLVD,TITUSVILLE,FL,32796,
5005.0,SE MANATEE COVE RD,STUART,FL,34997,
14.0,PICKCANE LN,PALM COAST,FL,32164,
17.0,ALABAMA LN,AUBURNDALE,FL,33823,
9829.0,TOWER RIDGE RD,PENSACOLA,FL,32526,
2142.0,MALLEN AVE SW,PALM BAY,FL,32908,
117.0,S ALCANIZ ST,PENSACOLA,FL,32502,
36.0,OCEAN CLUB DR,FERNANDINA BEACH,FL,32034,
739.0,ETHAN GLEN WAY,MELBOURNE,FL,32940,
4417.0,SPANKER CT 2D,FORT MYERS,FL,33919,
1577.0,SW BUCKSKIN TRL,STUART,FL,34997,
5282.0,BRACKENWOOD DR,SPRING HILL,FL,34609,
301.0,GREENFIELD RD,WINTER HAVEN,FL,33884,
13461.0,SOUTHAMPTON DR,BONITA SPRINGS,FL,34135,
103.0,FOREST EDGE DR,Saint Johns,FL,32259,
2006.0,COLUMBUS AVE,ALVA,FL,33920,
1014.0,TROPICANA DR,INDIAN LAKE ESTATES,FL,33855,
293.0,E MARVIN AVE,LONGWOOD,FL,32750,
1006.0,S STATE RD 19,PALATKA,FL,32177,
955.0,HANCOCK CREEK SOUTH BLVD,CAPE CORAL,FL,33909,
1049.0,SW Benchor AVE,Port Saint Lucie,FL,34953,
1022.0,MOCKINGBIRD CIR,WINTER HAVEN,FL,33884,
3652.0,NW 2ND ST,OKEECHOBEE,FL,34972,
3301.0,49TH ST W,LEHIGH ACRES,FL,33971,
90.0,OAK GROVE LN,QUINCY,FL,32351,
9360.0,W MAIDEN CT,VERO BEACH,FL,32963,
2616.0,WINDSOR LN N,FT WALTON BEACH,FL,32547,
2121.0,ODESSA CIR,THE VILLAGES,FL,32162,
15828.0,BRENDA ST,HUDSON,FL,34667,
6080.0,WAVERLY RD,WEEKI WACHEE,FL,34607,
503.0,W HANCOCK ST,LAKELAND,FL,33803,
30210.0,SWINFORD LN,WESLEY CHAPEL,FL,33543,
305.0,N 8TH ST,PALATKA,FL,32177,
6540.0,BURNHAM CIR,PONTE VEDRA BEACH,FL,32082,
564.0,LEGACY PARK DR,CASSELBERRY,FL,32707,
4010.0,SAN GALLO DR,KISSIMMEE,FL,34741,106.0
2903.0,CADIZ AVE,JACKSONVILLE,FL,32217,
3650.0,RITA LN,SAINT JAMES CITY,FL,33956,
12630.0,GRANDEZZA CIR,ESTERO,FL,33928,
4108.0,SW 9TH AVE,CAPE CORAL,FL,33914,
13.0,N FISKE BLVD,COCOA,FL,32922,
228.0,MIMOSA DR,PALATKA,FL,32177,
3384.0,RABBIT RUN PATH,THE VILLAGES,FL,32163,
1748.0,MAYFAIR RD,JACKSONVILLE,FL,32207,
18.0,VIA DELUNA 1903,PENSACOLA BEACH,FL,32561,
430.0,GULFVIEW LN,PENSACOLA,FL,32507,
8183.0,SE CUMBERLAND CIR,HOBE SOUND,FL,33455,
5558.0,PALM BEACH BLVD 258,FORT MYERS,FL,33905,258.0
213.0,PARK LANE DR,NORTH FORT MYERS,FL,33917,
32209.0,JUNIPER PARKE DR,FERNANDINA BEACH,FL,32034,
1095.0,LAURISTON DR,Saint Johns,FL,32259,
1220.0,PRESTIGE PT,OVIEDO,FL,32765,
2391.0,NOTTINGHAM FOREST PL,SAINT JOHNS,FL,32259,
4102.0,LAS VEGAS DR,NEW PORT RICHEY,FL,34653,
748.0,NAPLES AVE S,LEHIGH ACRES,FL,33974,
100.0,LOVERS LN 109,FORT MYERS BEACH,FL,33931,109.0
104.0,6TH AVE NW,JASPER,FL,32052,
,5325/5327 29TH ST SW,LEHIGH ACRES,FL,33973,
,553/555 SE 5TH AVE,CAPE CORAL,FL,33990,
12420.0,LEEWOOD WAY,SPRING HILL,FL,34610,
2940.0,NE 146TH TER,SILVER SPRINGS,FL,34488,
3435.0,BURDOCK AVE,WEST MELBOURNE,FL,32904,
6313.0,ABERDEEN AVE,NEW PORT RICHEY,FL,34653,
2892.0,LAWRENCEVILLE RD,Cottondale,FL,32431,
95049.0,WILD CHERRY DR,FERNANDINA BEACH,FL,32034,
200.0,HORSE CLUB AVE,MONTURA RANCHES,FL,33440,
1269.0,PLUM ST NW,JENNINGS,FL,32052,
9557.0,SE 124TH LOOP,SUMMERFIELD,FL,34491,
1860.0,SW Jamesport DR,Port Saint Lucie,FL,34953,
5341.0,30TH ST SW,LEHIGH ACRES,FL,33973,
3830.0,NE 23RD AVE,CAPE CORAL,FL,33909,
1994.0,KENTUCKY DR SW,PALM BAY,FL,32908,
577.0,SERENITY PL,LAKE MARY,FL,32746,
1893.0,SE High Springs DR,Port Saint Lucie,FL,34952,
1815.0,SUZANNE LN,LAKELAND,FL,33813,
110.0,PINE FOREST CIR,CRESCENT CITY,FL,32112,
950.0,S KANNER HWY,STUART,FL,34994,508.0
868.0,ORIOLE DR,WINTER HAVEN,FL,33884,
1029.0,CASEY LN,OKEECHOBEE,FL,34974,
2311.0,W PEERLESS LN,JACKSONVILLE,FL,32246,
6.0,OLIVE WAY,OCALA,FL,34472,
734.0,LEGION DR 31,DESTIN,FL,32541,
3063.0,RIVIERA BAY CT,OVIEDO,FL,32765,
1402.0,ELAINE AVE N,LEHIGH ACRES,FL,33971,
195.0,IRISH ROSE RD,SAINT AUGUSTINE,FL,32092,
10011.0,NE 10TH LN,SILVER SPRINGS,FL,34488,
622.0,MARLA CREEK CT,JACKSONVILLE,FL,32220,
8627.0,SE OLEANDER ST,HOBE SOUND,FL,33455,
525.0,SW HARBOR ST,STUART,FL,34997,
12532.0,JASMINE DR,FORT MYERS,FL,33908,
1830.0,LONG IRON DR,ROCKLEDGE,FL,32955,726.0
107.0,ALLEN RANCH LN,HAVANA,FL,32333,
10210.0,25TH DR NW,JASPER,FL,32052,
5698.0,NESBITT LN,JACKSONVILLE,FL,32277,
7832.0,KNOX LP,NEW PORT RICHEY,FL,34655,
465.0,SAN BRUNO ST,SAINT AUGUSTINE,FL,32086,
6025.0,DONALD GUY RD,CRESTVIEW,FL,32539,
3137.0,WELLINGTON DR,HOLIDAY,FL,34691,
584.0,SW Columbus DR,Port Saint Lucie,FL,34953,
4210.0,34TH ST SW,LEHIGH ACRES,FL,33976,
555.0,WEST RIVER RD,PALATKA,FL,32177,
10240.0,BAYLOR AVE,HASTINGS,FL,32145,
11447.0,W LUMBERJACK CIR,JACKSONVILLE,FL,32223,
10459.0,E GAILWOOD CIR,JACKSONVILLE,FL,32218,
19303.0,OTTERS WICK WAY,LAND O LAKES,FL,34638,
341.0,PATIO ST,LEHIGH ACRES,FL,33974,
14733.0,MAHOE CT,FORT MYERS,FL,33908,
265.0,ATLANTIS CIR,SAINT AUGUSTINE,FL,32080,104.0
209.0,8TH AVE E,HORSESHOE BEACH,FL,32648,
7975.0,102ND AVE,VERO BEACH,FL,32967,
598.0,CANDLEBARK DR,JACKSONVILLE,FL,32225,
2690.0,GULL CT,SAINT JAMES CITY,FL,33956,
719.0,COLUMBUS AVE,LEHIGH ACRES,FL,33972,
1775.0,SW 157TH PLACE RD,OCALA,FL,34473,
1216.0,COGHILL CIR,SAINT AUGUSTINE,FL,32092,
1475.0,EL PRADO AVE,FORT MYERS,FL,33901,
5211.0,LAKE HINDEN CV,SAINT CLOUD,FL,34771,
1741.0,TYLER ST,JACKSONVILLE,FL,32209,
12942.0,RIVERMIST WAY,JACKSONVILLE,FL,32224,
5525.0,SE 24TH ST,OCALA,FL,34480,
1838.0,RISING SUN DR,HOLIDAY,FL,34690,
7430.0,S OCEAN DR 319,Saint Lucie County,FL,34950,
7805.0,E MIRUELO CIR,JACKSONVILLE,FL,32217,
720.0,RAINEY BLVD,WAUCHULA,FL,33873,
8213.0,MIER HENRY RD,PENSACOLA,FL,32506,
120.0,BENARR AVE NW,FT WALTON BEACH,FL,32548,
4347.0,EMERALD PALMS BLVD,WINTER HAVEN,FL,33884,
504.0,SAPPHIRE LN,OCALA,FL,34472,
988.0,GRANDMA'S PL.,BAKER,FL,32531,
5904.0,ROYAL HILLS CIR,WINTER HAVEN,FL,33881,
116.0,ISLANDER LN,SATSUMA,FL,32189,
2600.0,SE OCEAN BLVD,STUART,FL,34996,
8387.0,SILVER BIRCH WAY,LEHIGH ACRES,FL,33971,
107.0,SEVENTH ST NE,Perry,FL,32348,
1540.0,S ALEXANDRIA PL,JACKSONVILLE,FL,32207,
545.0,WYNNEHURST ST,PENSACOLA,FL,32503,
4911.0,BIRCH ST,PENSACOLA,FL,32506,
9.0,BIRD HAVEN PL,PALM COAST,FL,32137,
7159.0,TROPICAL LN,BOKEELIA,FL,33922,
3729.0,PEACHTREE ST,JACKSONVILLE,FL,32206,
3005.0,NICHOLSON DR,WINTER PARK,FL,32792,
5425.0,NW Pine Trail CIR,Port Saint Lucie,FL,34983,
19023.0,SE FEARNLEY DR,TEQUESTA,FL,33469,
720.0,W PEARL ST,BARTOW,FL,33830,
3655.0,RED OAK CT,LAKE WALES,FL,33898,
33272.0,AZALEA RIDGE DR,WESLEY CHAPEL,FL,33545,
496.0,CITATION DR,CANTONMENT,FL,32533,
200.0,N 5TH ST,LAKE MARY,FL,32746,
444.0,BANANA RIVER BLVD,COCOA BEACH,FL,32931,
3705.0,66TH AVE,VERO BEACH,FL,32966,
1951.0,W BAREFOOT PL,VERO BEACH,FL,32963,
3170.0,S SWEETWATER OAKS DR,JACKSONVILLE,FL,32223,
13846.0,ATLANTIC BLVD,JACKSONVILLE,FL,32225,1001.0
605.0,JONATHAN CT,HAVANA,FL,32333,
2300.0,SW STARLING DR,PALM CITY,FL,34990,
1023.0,CALLIANDRA DR,INDIAN LAKE ESTATES,FL,33855,
2650.0,PARK WINDSOR DR 111,FORT MYERS,FL,33901,111.0
7835.0,BIRCHWOOD DR,PORT RICHEY,FL,34668,
8198.0,NIGHTINGALE RD,WEEKI WACHEE,FL,34613,
4009.0,GARDEN OAK CT,WINTER SPRINGS,FL,32708,
16008.0,SW 15TH CT,OCALA,FL,34473,
401.0,HORIZON DR,WINTER SPRINGS,FL,32708,
1110.0,HERNANDO ST,Fort Pierce,FL,34950,
121.0,PABLO CT,DAVENPORT,FL,33896,
169.0,WATERWAY AV,SATSUMA,FL,32189,
6503.0,GREEN ACRES BLVD,NEW PORT RICHEY,FL,34655,
640.0,CORDOBA DR,DAVENPORT,FL,33837,
1001.0,NE 1ST ST,MULBERRY,FL,33860,
3823.0,BLACKBERRY CIR,SAINT CLOUD,FL,34769,
2674.0,LANCASTER CT,APOPKA,FL,32703,
13470.0,LITTLE GEM CIR,FORT MYERS,FL,33913,
2766.0,CANDLEWOOD CT,APOPKA,FL,32703,
328.0,NE 1ST AVE UNIT 600,OCALA,FL,34475,
6408.0,ADELPHI CIR,FORT MYERS,FL,33919,
9209.0,JEFFERSON AVE,JACKSONVILLE,FL,32208,
1310.0,NW LAKESIDE TRL,STUART,FL,34994,
1109.0,SW PARK ST,OKEECHOBEE,FL,34974,
25903.0,GOLDTREE CT,WESLEY CHAPEL,FL,33544,
3501.0,W LINA LN,APOPKA,FL,32703,
4567.0,BLANDING BLVD,JACKSONVILLE,FL,32210,
2001.0,NE 33RD LN,CAPE CORAL,FL,33909,
2724.0,NE 7TH AVE,CAPE CORAL,FL,33909,
6095.0,SE 132ND STREET RD,BELLEVIEW,FL,34420,
1607.0,SW TAURUS LN,Port Saint Lucie,FL,34953,
4261.0,IRON GATE CT,SANFORD,FL,32773,
1015.0,LARKSPUR LOOP,SAINT JOHNS,FL,32259,
1301.0,VALENCIA AVE,Saint Lucie County,FL,34950,
17165.0,SE 61ST PL,OCKLAWAHA,FL,32179,
325.0,SARGO RD,ATLANTIC BEACH,FL,32233,
439.0,EMERALD COVE LOOP,LAKELAND,FL,33813,
382.0,JASMINE CT NW,PALM BAY,FL,32907,
125.0,S BOUGAINVILLEA AVE,POLK CITY,FL,33868,
120.0,DOUGLAS AVE,CHULUOTA,FL,32766,
2809.0,DEERFIELD ST,SAINT CLOUD,FL,34771,
4415.0,JIGGERMAST AVE,JACKSONVILLE,FL,32277,
280.0,N HIDDEN TREE DR,SAINT AUGUSTINE,FL,32086,
2652.0,TRAFALGAR BLVD,KISSIMMEE,FL,34758,
1205.0,E 14TH ST,LEHIGH ACRES,FL,33972,
2716.0,ALOMA OAKS DR,OVIEDO,FL,32765,
3309.0,SE SANDPIPER CIR,Port Saint Lucie,FL,34952,
300.0,WIXIE DR,COCOA,FL,32927,
7088.0,E GREENLAND RIDGE LN,JACKSONVILLE,FL,32256,
681.0,TWINKLE CIR,THE VILLAGES,FL,32163,
2254.0,HIGHWAY A1A,SATELLITE BEACH,FL,32937,
1420.0,SW 51ST LN,CAPE CORAL,FL,33914,
808.0,LAKE SHORE TER,INTERLACHEN,FL,32148,
8023.0,SW 115TH LOOP,OCALA,FL,34481,
1523.0,NAPANEE ST NW,PALM BAY,FL,32907,
11751.0,ARBORWOOD PRESERVE BLVD,FORT MYERS,FL,33913,
3736.0,RIVER OAKS CT,NEW PORT RICHEY,FL,34655,
1219.0,ROCKLEDGE DR,ROCKLEDGE,FL,32955,
19014.0,SW 93RD LOOP,DUNNELLON,FL,34432,
2366.0,E MALL DR 411,FORT MYERS,FL,33901,411.0
3482.0,NE CAUSEWAY BLVD,JENSEN BEACH,FL,34957,
1800.0,LAKE ST,OVIEDO,FL,32765,
13922.0,80TH PL,LIVE OAK,FL,32060,
2680.0,BAMBOO ST,SAINT JAMES CITY,FL,33956,
6636.0,N EPPING FOREST WAY,JACKSONVILLE,FL,32217,
904.0,CANNES DR,KISSIMMEE,FL,34759,
6295.0,HARMONY DR,DADE CITY,FL,33523,
902.0,SE 15TH ST,CAPE CORAL,FL,33990,
1698.0,SE GAINSWOOD CT,Port Saint Lucie,FL,34953,
9965.0,N DOVETAIL CT,JACKSONVILLE,FL,32257,
5055.0,S DOSTIE DR,JACKSONVILLE,FL,32209,
818.0,E AIRPORT BLVD,SANFORD,FL,32773,
2635.0,ROBERT OLIVER CT,FERNANDINA BEACH,FL,32034,
411.0,AVALON DR,CAPE CORAL,FL,33904,
10966.0,S PLEASANT OAKS RD,JACKSONVILLE,FL,32226,
,11421/423 KIMBLE DR,FORT MYERS,FL,33908,
260.0,INTERSTATE CT SE,PALM BAY,FL,32909,
209.0,LOCHBERRY PL,LONGWOOD,FL,32779,
512.0,MOUNTAIN DR,BABSON PARK,FL,33827,
48.0,SPANISH ST,SAINT AUGUSTINE,FL,32084,
737.0,FLETCHER AVE N AB&C,FERNANDINA BEACH,FL,32034,
14282.0,CR 23A N,MACCLENNY,FL,32063,
3315.0,BURDOCK AVE,WEST MELBOURNE,FL,32904,
158.0,16TH ST,ATLANTIC BEACH,FL,32233,
3607.0,WEATHERFIELD DR,KISSIMMEE,FL,34746,
750.0,N GOODMAN RD,KISSIMMEE,FL,34747,
1940.0,E LYMINGTON WAY,SAINT AUGUSTINE,FL,32084,
492.0,DOLPHIN CIR,BAREFOOT BAY,FL,32976,
1501.0,SE DECKER AVE,STUART,FL,34994,
5927.0,CARDIFF AVE,COCOA,FL,32927,
2208.0,ANTIGUA PL,KISSIMMEE,FL,34741,922.0
623.0,FRONT ST,KISSIMMEE,FL,34747,5107.0
4759.0,WALNUT CIR N,LAKELAND,FL,33801,
2173.0,SE WILD MEADOW CIR,Port Saint Lucie,FL,34952,
208.0,SE 1ST ST,GEORGETOWN,FL,32139,
18.0,INDIAN LAKE DR,INDIAN LAKE ESTATES,FL,33855,
2247.0,S CHAFFEE RD,JACKSONVILLE,FL,32221,
103.0,WEXHAM CT,DAVENPORT,FL,33897,
188.0,WRIGHT CIR,NICEVILLE,FL,32578,
220.0,SE 29TH TER,CAPE CORAL,FL,33904,
1710.0,STARFISH LN,SEBASTIAN,FL,32958,
20100.0,NW 65TH AVE,MICANOPY,FL,32667,
725.0,WHIDBEY ST,WEST MELBOURNE,FL,32904,
755.0,BELLEROSE TRL,THE VILLAGES,FL,32162,
200.0,ST LUCIE LN,COCOA BEACH,FL,32931,304.0
7650.0,ESTERO BLVD 405,FORT MYERS BEACH,FL,33931,405.0
377.0,EDGEWOOD BLVD,LAKE WALES,FL,33898,
4117.0,N HIDDEN BRANCH DR,JACKSONVILLE,FL,32257,
900.0,SILVER SPRING CT,SAINT AUGUSTINE,FL,32092,
3921.0,OAKWOOD DR,WESLEY CHAPEL,FL,33543,
1225.0,EIGHTH AVE,LEHIGH ACRES,FL,33972,
7840.0,PRINCETON MANOR CIR,LAKELAND,FL,33809,
3125.0,AVENUE J NW,WINTER HAVEN,FL,33881,
6630.0,MISSILE AVE,COCOA,FL,32926,
10275.0,STALLION RUN CT,JACKSONVILLE,FL,32257,
264.0,W HIGHLAND ST,ALTAMONTE SPRINGS,FL,32714,
5505.0,N ATLANTIC AVE,COCOA BEACH,FL,32931,104.0
5216.0,MONTSERRAT DR,LAKELAND,FL,33813,
773.0,SEA OATS BAY,PONTE VEDRA BEACH,FL,32082,
920.0,ATZ RD,MALABAR,FL,32950,
108.0,LEMON ST,POMONA PARK,FL,32181,
12347.0,WOODROSE CT 3,FORT MYERS,FL,33907,3.0
5258.0,SW ANHINGA AVE,PALM CITY,FL,34990,
206.0,DOGWOOD AVE,MELBOURNE BEACH,FL,32951,
11389.0,COWPEN RD,SANDERSON,FL,32087,
1301.0,E 10TH ST,LEHIGH ACRES,FL,33972,
70.0,SHORELAND DR,FORT MYERS,FL,33905,
5654.0,E HWY 316,CITRA,FL,32113,
8042.0,SE 62ND LOOP,OCALA,FL,34472,
1002.0,SW KANT AVE,Port Saint Lucie,FL,34953,
109.0,SAGO PALM WAY,PONTE VEDRA BEACH,FL,32082,
113.0,WILLOWBAY RIDGE ST,SANFORD,FL,32771,
19.0,WILLOW RUN CRSE,OCALA,FL,34472,
104.0,OASIS CT,LEHIGH ACRES,FL,33974,
139.0,HAINES RD SW,PALM BAY,FL,32908,
801.0,DEEN RD,BUNNELL,FL,32110,
144.0,SANDALWOOD DR,KISSIMMEE,FL,34743,
4202.0,VILLAGE CT,LAKE WALES,FL,33898,
120.0,CANDLEWICK RD,ALTAMONTE SPRINGS,FL,32714,
12614.0,PARKWOOD ST,HUDSON,FL,34669,
3582.0,STAR SHOWER CT,KISSIMMEE,FL,34744,
123.0,DEERSKIN AV,SATSUMA,FL,32189,
4621.0,W CATBRIER CT,SAINT JOHNS,FL,32259,
614.0,SW 3RD CT,CAPE CORAL,FL,33991,
6208.0,SIESTA LN,PORT RICHEY,FL,34668,
116.0,NETTLES RD,FLORAHOME,FL,32140,
3702.0,SW MASILUNAS ST,Port Saint Lucie,FL,34953,
2222.0,HAVENDALE BLVD,WINTER HAVEN,FL,33881,
5331.0,WHITECASTLE CT,JACKSONVILLE,FL,32244,
4380.0,HARBOR BEND DR,CAPTIVA,FL,33924,
121.0,PALMER ST,INTERLACHEN,FL,32148,
30.0,NAVARRA CT,SAINT AUGUSTINE,FL,32086,
3065.0,HAMMOCK WAY,VERO BEACH,FL,32963,
10942.0,W PLAYER RD,JACKSONVILLE,FL,32218,
11380.0,SW Patterson ST,Port Saint Lucie,FL,34987,
1957.0,NATURE LN,PENSACOLA,FL,32526,
16351.0,KELLY WOODS DR 172,FORT MYERS,FL,33908,172.0
1143.0,GREENVIEW CT NE,PALM BAY,FL,32907,
78.0,LONGVIEW WAY N,PALM COAST,FL,32137,
4307.0,WOOD TRAIL BLVD,NEW PORT RICHEY,FL,34653,
1035.0,CRYSTAL BOWL CIR,CASSELBERRY,FL,32707,
307.0,PINE ST,CRESCENT CITY,FL,32112,
124.0,SW MILLER ST,MADISON,FL,32340,
6.0,NW Boundary DR,Port Saint Lucie,FL,34986,
4097.0,MEANDER PL,ROCKLEDGE,FL,32955,207.0
43.0,ELDER DR,PALM COAST,FL,32164,
6545.0,HIGHWAY 1,GRANT VALKARIA,FL,32949,
3900.0,NW 23 CIR,BELL,FL,32619,
6530.0,SUTHERLAND AVE,NEW PORT RICHEY,FL,34653,
3206.0,SAMANTHA DR,CANTONMENT,FL,32533,
702.0,BAYWOOD CIR,SANFORD,FL,32773,
2412.0,BIG CYPRESS BLVD,LAKELAND,FL,33810,
29272.0,HECKLEMAN ST,BROOKSVILLE,FL,34602,
3850.0,ZION RD,JACKSONVILLE,FL,32207,
5325.0,BAYSIDE CT,CAPE CORAL,FL,33904,
15184.0,EDGEWATER AVE,NOBLETON,FL,34661,
3358.0,RAYFORD ST,JACKSONVILLE,FL,32205,
411.0,SW 33RD ST,CAPE CORAL,FL,33914,
529.0,DORADO WAY,INDIAN HARBOUR BEACH,FL,32937,
7313.0,WESTWIND DR,PORT RICHEY,FL,34668,
5738.0,SADDLEBAG LAKE RD,LAKE WALES,FL,33853,
8340.0,PERCH LAKE RD,ALTURAS,FL,33820,
1922.0,JENKINS CT,THE VILLAGES,FL,32162,
735.0,30TH ST NW,WINTER HAVEN,FL,33881,
1900.0,VICEROY LN,HOLIDAY,FL,34690,
208.0,N BRIDGE CREEK DR,SAINT JOHNS,FL,32259,
3670.0,BRUNOT CIR,MELBOURNE,FL,32940,
1126.0,E BROOKWOOD BLUFF RD,JACKSONVILLE,FL,32225,
77.0,S LIME ST,FELLSMERE,FL,32948,
1091.0,SLOCUM ST NW,PALM BAY,FL,32907,
496.0,GREEN SPRING CIR,WINTER SPRINGS,FL,32708,
20.0,BELLMORE PL,PALM COAST,FL,32137,
107.0,NEWPORT SQ,SANFORD,FL,32771,
2546.0,MEETING ST,CANTONMENT,FL,32533,
1708.0,ANTLER HILL CT,SAINT AUGUSTINE,FL,32092,
5.0,LAUREL LN,PALM COAST,FL,32137,
3801.0,HICKORY AVE,SANFORD,FL,32773,
11759.0,SE 91ST CIR,SUMMERFIELD,FL,34491,
13364.0,BEACH BLVD,JACKSONVILLE,FL,32224,718.0
5035.0,CONNER DR,LAND O LAKES,FL,34639,
9842.0,SE LITTLE CLUB WAY,TEQUESTA,FL,33469,
2532.0,ST LUCIA CIR,VERO BEACH,FL,32967,
124.0,PIQUE RD,CRESCENT CITY,FL,32112,
208.0,CECILIA CT,SAINT AUGUSTINE,FL,32086,
12368.0,SONDRA COVE CT,JACKSONVILLE,FL,32225,
18.0,WOODFAIR LN,PALM COAST,FL,32164,
1310.0,KILLEARN DR,TITUSVILLE,FL,32780,
5161.0,CAMBRY LN,LAKELAND,FL,33805,
900.0,BLK HOPE DR,PENSACOLA,FL,32534,
4119.0,TOPSAIL TRL,NEW PORT RICHEY,FL,34652,
230.0,MELBOURNE AVE,MERRITT ISLAND,FL,32953,
4833.0,WESTERLY DR,NEW PORT RICHEY,FL,34653,
7628.0,SUE ELLEN DR,PORT RICHEY,FL,34668,
1747.0,YANKEE CLIPPER RUN,THE VILLAGES,FL,32162,
28380.0,OLD 41 RD 6,BONITA SPRINGS,FL,34135,6.0
5661.0,SE 8TH ST,OCALA,FL,34480,
14032.0,ENGLISH SPARROW RD,WEEKI WACHEE,FL,34614,
4651.0,ROBERTS RD,LAND O LAKES,FL,34639,
500.0,FAIRWAYS CIR UNIT B,OCALA,FL,34472,
14726.0,NW 298TH ST,OKEECHOBEE,FL,34972,
1074.0,SW Barbarosa AVE,Port Saint Lucie,FL,34953,
5379.0,SONIC DR,Marianna,FL,32448,
5098.0,WHISTLING WIND AVE,KISSIMMEE,FL,34758,
2946.0,SUMMER WINDS CIR,SAINT CLOUD,FL,34769,
2024.0,SAN LEONARDO WAY,THE VILLAGES,FL,32159,
602.0,SHERIDAN WOODS DR,WEST MELBOURNE,FL,32904,
130.0,N SUMMERLIN AVE,SANFORD,FL,32771,
730.0,AZURE AVE,LEHIGH ACRES,FL,33974,
909.0,WATERSIDE LN,KISSIMMEE,FL,34747,307.0
15373.0,NW 270TH ST,OKEECHOBEE,FL,34972,
53.0,MASTERS DR,SAINT AUGUSTINE,FL,32084,
25295.0,CELMAR ST,BROOKSVILLE,FL,34601,
12369.0,TIGER CREEK LN,JACKSONVILLE,FL,32225,
7656.0,TALLOWTREE DR,WESLEY CHAPEL,FL,33544,
2648.0,REAGAN TRL,LAKE MARY,FL,32746,
5781.0,CAPE HARBOUR DR 909,CAPE CORAL,FL,33914,909.0
17460.0,SE 93RD VINE AVE,THE VILLAGES,FL,32162,
955.0,CHICKASAW AVE,LABELLE,FL,33935,
46.0,SHALIMAR DR,SHALIMAR,FL,32579,
3212.0,TALLSHIP LN,PENSACOLA,FL,32526,
355.0,SANTA BARBARA ST,NORTH FORT MYERS,FL,33903,
1731.0,COLMAR DR,HOLIDAY,FL,34690,
6044.0,REDPOLL AVE,JACKSONVILLE,FL,32219,
1731.0,SE Fallon DR,Port Saint Lucie,FL,34953,
6472.0,SILVER GLEN DR,JACKSONVILLE,FL,32258,
926.0,SOLEDAD WAY,THE VILLAGES,FL,32159,
2841.0,THORNHILL RD,WINTER HAVEN,FL,33880,
3192.0,NE 103RD AVE,SILVER SPRINGS,FL,34488,
3218.0,COLLEGE ST,JACKSONVILLE,FL,32205,
6222.0,SE 113TH ST,BELLEVIEW,FL,34420,
97059.0,COOPERS WAY,YULEE,FL,32097,
8140.0,NW 125TH ST,REDDICK,FL,32686,
575.0,WEST TROPICANA CT,KISSIMMEE,FL,34741,
13700.0,N RICHMOND PARK DR,JACKSONVILLE,FL,32224,203.0
2936.0,TWIN OAKS DR,KISSIMMEE,FL,34744,
10601.0,WILD AZALEA CT,JACKSONVILLE,FL,32221,
1108.0,SENTINELA BLVD,LEHIGH ACRES,FL,33974,
1755.0,PINEWOOD RD,MELBOURNE,FL,32934,
847.0,COVENTRY RD,DAVENPORT,FL,33897,
446.0,HOMER AVE,LONGWOOD,FL,32750,
9802.0,WILDGINGER DR,FORT MYERS,FL,33919,
11661.0,LAZY WILLOW LN,JACKSONVILLE,FL,32223,
101.0,PUTTER LN,CRESCENT CITY,FL,32112,
10646.0,SPRING VIEW RD,JACKSONVILLE,FL,32221,
5.0,W MAIN ST,PENSACOLA,FL,32502,
526.0,SANFORD AVE,SANFORD,FL,32771,
822.0,CLOW ST E,LEHIGH ACRES,FL,33974,
1724.0,DUNSFORD RD,JACKSONVILLE,FL,32207,
1220.0,SW Abacus AVE,Port Saint Lucie,FL,34953,
4427.0,STONES RIVER CT,NEW PORT RICHEY,FL,34653,
14663.0,NW 290TH ST,OKEECHOBEE,FL,34972,
122.0,TANNER TER,PALATKA,FL,32177,
121.0,SE WHITMORE DR,Port Saint Lucie,FL,34953,
617.0,SE BAUBLITS DR,PENSACOLA,FL,32507,
1448.0,SW 1ST ST,CAPE CORAL,FL,33991,
13751.0,SE 127TH TERR,OKEECHOBEE,FL,34974,
886.0,HUDSON VALLEY DR,POINCIANA,FL,34759,
4506.0,BRISTOL CT S,NICEVILLE,FL,32578,
4892.0,BELLE VUE BREEZE LOOP,AUBURNDALE,FL,33823,
439.0,JOURFERIE RD,LEHIGH ACRES,FL,33974,
200.0,ESTERO BLVD CU106,FORT MYERS BEACH,FL,33931,
6459.0,CR 154A,WILDWOOD,FL,34785,
301.0,BLYTH CT,LONGWOOD,FL,32779,
560.0,TRUMAN ST SW,PALM BAY,FL,32908,
3683.0,GARRETT DR,ROCKLEDGE,FL,32955,
1600.0,W 15TH ST,LEHIGH ACRES,FL,33972,
105.0,TOM LEWIS RD,PALATKA,FL,32177,
2517.0,SUNNILAND BLVD,LEHIGH ACRES,FL,33971,
533.0,MONICA DR,SAINT AUGUSTINE,FL,32086,
5485.0,E 1ST SQ SW,VERO BEACH,FL,32968,
257.0,PALMER BLVD,NORTH FORT MYERS,FL,33903,
4977.0,SW LAKE GROVE CIR,PALM CITY,FL,34990,
1368.0,SE ELYTON CT,Port Saint Lucie,FL,34953,
29.0,S DEVILLIERS ST,PENSACOLA,FL,32502,
1078.0,MCKINNON AVE,OVIEDO,FL,32765,
1701.0,THE GREENS WAY,JACKSONVILLE BEACH,FL,32250,511.0
138.0,STARGRASS DR,AUBURNDALE,FL,33823,
4350.0,MILLICENT CIR,MELBOURNE,FL,32901,
6141.0,WEATHERWOOD CIR,WESLEY CHAPEL,FL,33545,
6867.0,CRANE AVE,JACKSONVILLE,FL,32216,
11794.0,ROYAL TEE CT,CAPE CORAL,FL,33991,
730.0,BERING AVE S,LEHIGH ACRES,FL,33974,
2355.0,GLADE SPRINGS DR,JACKSONVILLE,FL,32246,
445.0,OCEAN VISTA AVE,SAINT AUGUSTINE,FL,32080,
6111.0,HUTTON CT,FORT MYERS,FL,33905,
23610.0,WISTERIA POINTE DR 1003,BONITA SPRINGS,FL,34135,1003.0
1303.0,MICHAEL AVE,LEHIGH ACRES,FL,33972,
1205.0,SW 32ND TER,CAPE CORAL,FL,33914,
810.0,WESTWOOD DR,ORMOND BEACH,FL,32174,
1435.0,E SEMINOLE TRL,BARTOW,FL,33830,
338.0,LAKEBREEZE CIR,LAKE MARY,FL,32746,
12993.0,FIVE CHURCHES RD,SANDERSON,FL,32087,
6065.0,WAYCROSS DR,SPRING HILL,FL,34606,
5309.0,COLONIAL AVE,JACKSONVILLE,FL,32210,
4465.0,SE 106TH ST,BELLEVIEW,FL,34420,
4401.0,LAKESIDE DR,JACKSONVILLE,FL,32210,901.0
7145.0,HWY 90,Grand Ridge,FL,32442,
831.0,CORVINA DR,DAVENPORT,FL,33837,
169.0,LAKE ARIETTA CT,AUBURNDALE,FL,33823,
15371.0,NW 284TH ST,OKEECHOBEE,FL,34972,
1597.0,RIVERSIDE DR,MELBOURNE,FL,32935,
983.0,BIGHORN ST,OVIEDO,FL,32765,
9.0,EIGHT IRON PL,PALM COAST,FL,32164,
5560.0,FAN PALM AVE,COCOA,FL,32927,
231.0,CALLAWAY AVE,SPRING HILL,FL,34606,
3200.0,DANIELS ST,Saint Lucie County,FL,34950,
5584.0,FOREST RIDGE RD,WINTER HAVEN,FL,33881,
725.0,N NAVY BLVD,PENSACOLA,FL,32507,
384.0,SE CIRCLE DR,MAYO,FL,32066,
27329.0,WESLEY CHAPEL BLVD,WESLEY CHAPEL,FL,33544,
23501.0,SANDYCREEK TER 1206,BONITA SPRINGS,FL,34135,1206.0
5021.0,MATEO CIR,PORT LABELLE,FL,33935,
3431.0,E ALDRIDGE RD,JACKSONVILLE,FL,32250,
495.0,TARRASA DR,JACKSONVILLE,FL,32225,
1500.0,BRAEWICK ST,WINTER SPRINGS,FL,32708,
215.0,9TH ST W,LAKELAND,FL,33805,
16.0,DEER PARK DR,BUNNELL,FL,32110,
83.0,POINSETTIA DR,FORT MYERS,FL,33905,
28261.0,PINE HAVEN WAY 184,BONITA SPRINGS,FL,34135,184.0
713.0,CALENDULA DR,INDIAN LAKE ESTATES,FL,33855,
242.0,PEGGY LANE,CARRABELLE BEACH,FL,32322,
224.0,CREEKVIEW DR,PENSACOLA,FL,32503,
140.0,E MAY ST,BALDWIN,FL,32204,
955.0,PECAN CIR,BAREFOOT BAY,FL,32976,
6614.0,AIRES RD,JACKSONVILLE,FL,32244,
94.0,KNOLL WOOD DR,POINCIANA,FL,34759,
305.0,DOLPHIN WAY,POINCIANA,FL,34759,
9321.0,Briarcliff Trace,Saint Lucie County,FL,34986,
1318.0,NORTH AVE,LEHIGH ACRES,FL,33972,
12077.0,BROAD ST,BROOKSVILLE,FL,34601,
3722.0,PINO VISTA WAY 3,ESTERO,FL,33928,3.0
307.0,NW 26TH ST,CAPE CORAL,FL,33993,
38837.0,RIVER RD,DADE CITY,FL,33525,
5805.0,SWAMP FOX RD,JACKSONVILLE,FL,32210,
7.0,E LAKE HOWARD DR,WINTER HAVEN,FL,33881,
1354.0,LAUREL GLEN DR,BARTOW,FL,33830,
10782.0,BRANDON CHASE DR,JACKSONVILLE,FL,32219,
6523.0,S DIAMOND LEAF CT,JACKSONVILLE,FL,32244,
3214.0,HEIRLOOM ROSE PL,OVIEDO,FL,32766,
2418.0,ALDRIDGE AVE,FORT MYERS,FL,33907,
2100.0,BRIGHT HOUR GRADE SE,ARCADIA,FL,34266,
5606.0,FIAT LN,JACKSONVILLE,FL,32244,
1045.0,PARK ST,JACKSONVILLE,FL,32204,
7138.0,PEARSON RD,PENSACOLA,FL,32526,
1019.0,MAGNOLIA AVE,LEHIGH ACRES,FL,33972,
3028.0,LOCKE LN,CRESTVIEW,FL,32536,
36009.0,LYNAN FARMS DR,DADE CITY,FL,33525,
3650.0,OLD CANOE CREEK RD,SAINT CLOUD,FL,34772,
226.0,PEBBLE HILL WAY,ROCKLEDGE,FL,32955,
11767.0,TULIO WAY 4805,FORT MYERS,FL,33912,4805.0
1255.0,PONCE ISLAND DR,SAINT AUGUSTINE,FL,32084,764.0
3002.0,VENICE WAY,LAKELAND,FL,33803,
12708.0,ASTOR PL,FORT MYERS,FL,33913,
6975.0,BLUESTEM RD,HARMONY,FL,34773,
1815.0,FLORA LN,VERO BEACH,FL,32966,
3670.0,HEDRICK ST,JACKSONVILLE,FL,32205,
1713.0,BELL AVE,SANFORD,FL,32771,
10060.0,MIMOSA SILK DR,FORT MYERS,FL,33913,
1181.0,LA MESA AVE,WINTER SPRINGS,FL,32708,
1504.0,PARKER RD,CANTONMENT,FL,32533,
16284.0,PERDIDO KEY DR 512,PENSACOLA,FL,32507,
896.0,SE FLEMING WAY,STUART,FL,34997,
45244.0,KERI BLVD,CALLAHAN,FL,32011,
2065.0,CURRY CIR,PENSACOLA,FL,32504,
3006.0,38TH ST W,LEHIGH ACRES,FL,33971,
3296.0,DAIRY RD,MELBOURNE,FL,32904,
701.0,S 2ND ST,JACKSONVILLE BEACH,FL,32250,
4020.0,COTTON DR,FORT MYERS,FL,33905,
1813.0,W 5TH ST,JACKSONVILLE,FL,32209,
114.0,SLIPPER WAY,HAWTHORNE,FL,32640,
16645.0,SE 63RD LN,OCKLAWAHA,FL,32179,
75.0,VILLAGE DEL PRADO CIR,SAINT AUGUSTINE,FL,32080,
10961.0,BURNT MILL RD,JACKSONVILLE,FL,32256,226.0
611.0,CAMBORNE AVE,FT WALTON BEACH,FL,32547,
4108.0,CR 130,WILDWOOD,FL,34785,
1554.0,ROYAL FOREST LOOP,LAKELAND,FL,33811,
110.0,SE 23RD PL,CAPE CORAL,FL,33990,
3135.0,ORCHARD WAY,NORTH FORT MYERS,FL,33903,
10980.0,S OCEAN DR 612,Saint Lucie County,FL,34950,
423.0,NANSEMOND AVE,LAKELAND,FL,33801,
8376.0,101ST AVE,VERO BEACH,FL,32967,
1688.0,RUTLEDGE RD,LONGWOOD,FL,32779,
1370.0,CENTRE COURT RIDGE DR,KISSIMMEE,FL,34747,102.0
704.0,SHARON CT,SAINT JOHNS,FL,32259,
1227.0,NW 20TH TER,CAPE CORAL,FL,33993,
702.0,MEDIA TER,SEBASTIAN,FL,32958,
396.0,SMITH ST,JACKSONVILLE,FL,32204,
909.0,MAIDEN ST,KISSIMMEE,FL,34747,
6289.0,MARINER BLVD,SPRING HILL,FL,34609,
18750.0,GLADES CUT-OFF RD,Saint Lucie County,FL,34987,
2025.0,BRENDA AVE,PENSACOLA,FL,32506,
1435.0,MARA CT,SANFORD,FL,32771,
461.0,HOWARD AVE,LONGWOOD,FL,32750,
913.0,SUMAC AVE,LEHIGH ACRES,FL,33974,
1048.0,30TH ST NW,WINTER HAVEN,FL,33881,
5103.0,NE 121ST AVE,OXFORD,FL,34484,
585.0,SW WHITMORE DR,Port Saint Lucie,FL,34953,
99.0,CITRUS RIDGE DR,DAVENPORT,FL,33837,
458524.0,OLD DIXIE HWY,HILLIARD,FL,32046,
1346.0,45TH AVE,VERO BEACH,FL,32966,
9164.0,PROSPERITY LAKE DR,JACKSONVILLE,FL,32244,
1715.0,MAPLE AVE N,LEHIGH ACRES,FL,33972,
6865.0,SE 108TH ST,BELLEVIEW,FL,34420,
13650.0,INTREPID LN,FORT MYERS,FL,33913,
1941.0,THORNWOOD DR SE,PALM BAY,FL,32909,
14237.0,DULCE REAL,Saint Lucie County,FL,34950,
11745.0,SW 227TH AVE,DUNNELLON,FL,34431,
4512.0,DAKOTA POINT CT,KISSIMMEE,FL,34746,
1021.0,ORCHID DR,INDIAN LAKE ESTATES,FL,33855,
9.0,JERICO RD,AUBURNDALE,FL,33823,
124.0,PALM AVE,AUBURNDALE,FL,33823,
1450.0,DOWD CT SE,PALM BAY,FL,32909,
12.0,W COUNTRY COVE WAY,KISSIMMEE,FL,34743,
1824.0,SW SPRINGFIELD CT,PALM CITY,FL,34990,
1501.0,MIDDLE GULF DR 308F,SANIBEL,FL,33957,
1920.0,PALM ST,DAVENPORT,FL,33837,
6336.0,BANDURA AVE,NEW PORT RICHEY,FL,34653,
13476.0,FLEMINGTON RD,WEEKI WACHEE,FL,34614,
3644.0,OPAL DR,MULBERRY,FL,33860,
361.0,CAPTIVA DR,DAVENPORT,FL,33896,
5213.0,NORFOLK CT,NEW PORT RICHEY,FL,34653,
5505.0,TAVISTOCK DR,MELBOURNE,FL,32940,
5218.0,BUCHANAN DR,Saint Lucie County,FL,34982,
1531.0,NW 28TH AVE,CAPE CORAL,FL,33993,
934.0,NIMITZ BLVD,LEHIGH ACRES,FL,33974,
3822.0,HONEY CT,FORT MYERS,FL,33905,
8970.0,PALMAS GRANDES BLVD 102,BONITA SPRINGS,FL,34135,102.0
415.0,FULTON GREEN RD,LAKELAND,FL,33809,
3322.0,KINARD LN,HOLIDAY,FL,34691,
10645.0,SPRING VIEW RD,JACKSONVILLE,FL,32221,
9619.0,MIDIRON CT,NEW PORT RICHEY,FL,34655,
4225.0,HAVANA DR,COCOA,FL,32927,
2204.0,INDIANA AVE,Grand Ridge,FL,32442,
2694.0,WYNDSOR OAKS PL,WINTER HAVEN,FL,33884,
5244.0,CROTON ST,ZEPHYRHILLS,FL,33541,
2717.0,46TH ST W,LEHIGH ACRES,FL,33971,
153.0,SEA HAMMOCK WAY,PONTE VEDRA BEACH,FL,32082,
4310.0,KRISTEN ST,HASTINGS,FL,32145,
14551.0,DOLCE VISTA RD 201,FORT MYERS,FL,33908,201.0
1225.0,NW 21ST ST,STUART,FL,34994,
2016.0,DEERFIELD DR,LAKELAND,FL,33813,
6034.0,FOREST LAKE DR,ZEPHYRHILLS,FL,33540,
2108.0,BELVEDERE AVE,FERNANDINA BEACH,FL,32034,
12716.0,POPPY ST,NEW PORT RICHEY,FL,34654,
2600.0,BARKER RD,SAINT CLOUD,FL,34771,
11571.0,DWARF GINSENG DR,FORT MYERS,FL,33908,
530.0,N TROPIC LN,VERO BEACH,FL,32960,
2370.0,OLD RAVEN LN SW,VERO BEACH,FL,32962,
161.0,SW Palm DR 107,Port Saint Lucie,FL,34986,
54412.0,FOURACRE CIR,CALLAHAN,FL,32011,
285.0,OLD COUNTY ROAD 78,LABELLE,FL,33935,
9575.0,HIGHWAY A1A,VERO BEACH,FL,32963,
340.0,INGLENOOK CIR,WINTER SPRINGS,FL,32708,
29306.0,KAPALUA WAY,SAN ANTONIO,FL,33576,
403.0,STAHLMAN AVE,DESTIN,FL,32541,
161.0,WHITE CLIFF BLVD,AUBURNDALE,FL,33823,
9926.0,VIA SAN MARCO LOOP,FORT MYERS,FL,33905,
2837.0,SW Ann Arbor RD,Port Saint Lucie,FL,34953,
10567.0,JACKSON SQUARE DR,ESTERO,FL,33928,
7304.0,HIGHLAND LP,ZEPHYRHILLS,FL,33541,
37807.0,VALENCIA AVE,ZEPHYRHILLS,FL,33541,
2394.0,E BRIAN LAKES DR,JACKSONVILLE,FL,32221,
7816.0,WILDWOOD RD,JACKSONVILLE,FL,32211,
12512.0,LONGSTONE CT,NEW PORT RICHEY,FL,34655,
1797.0,ALAQUA DR,LONGWOOD,FL,32779,
720.0,N PALOMINO ST,MONTURA RANCHES,FL,33440,
9288.0,SE 59TH DR,OKEECHOBEE,FL,34974,
6027.0,RIVER RD,NEW PORT RICHEY,FL,34652,
1967.0,SPRING DRIVE RD,JACKSONVILLE,FL,32209,
608.0,JACARANDA LN,KISSIMMEE,FL,34744,
685.0,LA SALLE DR,ALTAMONTE SPRINGS,FL,32714,
318.0,DENTON AVE,AUBURNDALE,FL,33823,
1004.0,MCCULLY CT,OVIEDO,FL,32765,
11372.0,RIDDLE DR,SPRING HILL,FL,34609,
5530.0,PARK RD,FORT MYERS,FL,33908,
80.0,MOREE #2 LOOP,WINTER SPRINGS,FL,32708,
865.0,W 27TH ST,JACKSONVILLE,FL,32209,
24020.0,PRODUCTION CIR 186,BONITA SPRINGS,FL,34135,186.0
495.0,NE MAYLAND CT,Port Saint Lucie,FL,34953,
200.0,BLK WASHBURN ST,PENSACOLA,FL,32514,
4380.0,SUGARBERRY LN,TITUSVILLE,FL,32796,
5356.0,INDIGO CROSSING DR,ROCKLEDGE,FL,32955,
1424.0,SUMTER LN,WEST MELBOURNE,FL,32904,
1024.0,Windward DR 3206,Fort Pierce,FL,34949,
34.0,VISTA GARDENS TRL,VERO BEACH,FL,32962,203.0
2692.0,NW 35TH AVE,OKEECHOBEE,FL,34972,
243.0,JALAPA DR,KISSIMMEE,FL,34743,
12356.0,LAKE BLVD,NEW PORT RICHEY,FL,34655,
3072.0,ASHLAND LN N,KISSIMMEE,FL,34741,
617.0,PARKER ST,JACKSONVILLE,FL,32202,
12451.0,SW SHILOH RD,CEDAR KEY,FL,32625,
7095.0,SW 106TH PL,OCALA,FL,34476,
4414.0,LIMEWOOD,WINTER HAVEN,FL,33880,
15.0,PRINCETON LN,PALM COAST,FL,32164,
222.0,BROADWAY,KISSIMMEE,FL,34741,
1753.0,VISCAYA CV,LONGWOOD,FL,32779,
2140.0,W HIGHWAY 4,CENTURY,FL,32535,
616.0,KENWICK #105 CIR,CASSELBERRY,FL,32707,
3512.0,NOBLES ST,PENSACOLA,FL,32514,
255.0,SPRING LAKE HILLS DR,ALTAMONTE SPRINGS,FL,32714,
233.0,CHALMER DR,NORTH FORT MYERS,FL,33917,
2581.0,NE PALM DR,WINTER HAVEN,FL,33881,
403.0,AVENUE A E,WINTER HAVEN,FL,33880,
3990.0,N US HWY 441,OCALA,FL,34475,
39421.0,SUMNER LAKE RD,DADE CITY,FL,33525,
1794.0,ENDSLEY CT,THE VILLAGES,FL,32162,
934.0,SUNSHINE WAY SW,WINTER HAVEN,FL,33880,
5463.0,OAKFORD DR,LAKELAND,FL,33813,
11810.0,SANDERS LN,DADE CITY,FL,33525,
359.0,SHADOW LAKES DR,LEHIGH ACRES,FL,33974,
7098.0,CROOKED CREEK LN,ZOLFO SPRINGS,FL,33890,
3945.0,COVERLY CT,LONGWOOD,FL,32779,
255.0,SE LEWEY TRL,LEE,FL,32059,
1624.0,GRAY RD,EAGLE LAKE,FL,33839,
207.0,CHESSER MONROE RD,HAWTHORNE,FL,32640,
5611.0,EL RIO GRANDE DR,LABELLE,FL,33935,
4445.0,US HIGHWAY 98 N,LAKELAND,FL,33805,
,2439/2443 FIRST ST,FORT MYERS,FL,33901,
2725.0,FOREST BLVD,JACKSONVILLE,FL,32246,
421.0,BAY AVE,SANFORD,FL,32771,
6187.0,HOLLOWAY RD,BAKER,FL,32531,
2519.0,SW Deckard ST,Port Saint Lucie,FL,34953,
2781.0,WOODSMILL DR,MELBOURNE,FL,32934,
26974.0,MONTEGO POINTE CT 0202,BONITA SPRINGS,FL,34134,202.0
2701.0,NE 10TH ST UNIT 705,OCALA,FL,34470,
3801.0,CROWN POINT RD,JACKSONVILLE,FL,32257,3014.0
131.0,HUDSON HILL RD,CENTURY,FL,32535,
5.0,KANSAS PATH,PALM COAST,FL,32164,
247.0,SHADY HOLW,CASSELBERRY,FL,32707,
1004.0,BUSHWOOD DR,CANTONMENT,FL,32533,
208.0,COLOGNE ST,INTERLACHEN,FL,32148,
3806.0,22ND ST SW,LEHIGH ACRES,FL,33976,
977.0,PONDELLA RD,NORTH FORT MYERS,FL,33903,
1511.0,BARDIN RD,PALATKA,FL,32177,
5322.0,CONGO CT,CAPE CORAL,FL,33904,
9941.0,E TIMBERLAKE DR,JACKSONVILLE,FL,32257,
226.0,PHOENETIA DR,SAINT AUGUSTINE,FL,32086,
15530.0,NE HWY 315,FORT MCCOY,FL,32134,
4700.0,OCEAN BEACH BLVD,COCOA BEACH,FL,32931,524.0
2090.0,FLORAWOOD CT,OVIEDO,FL,32765,
2128.0,MINDANAO DR,JACKSONVILLE,FL,32246,
1010.0,SW PAYNE AVE,Port Saint Lucie,FL,34953,
3257.0,BECKY LN,BONITA SPRINGS,FL,34134,
111.0,WEBB ST,CANTONMENT,FL,32533,
2820.0,SCENIC LN,KISSIMMEE,FL,34744,
1654.0,DESTINY BLVD,KISSIMMEE,FL,34741,201.0
2919.0,SE AMHERST ST,STUART,FL,34994,
1601.0,HWY 441 SE 46,OKEECHOBEE,FL,34974,
11612.0,W GREENLAND HIDEAWAY DR,JACKSONVILLE,FL,32258,
771.0,A1A BEACH BLVD,SAINT AUGUSTINE,FL,32080,
8904.0,CASTLE BLVD,JACKSONVILLE,FL,32208,
1800.0,S CHAFFEE RD,JACKSONVILLE,FL,32221,
715.0,S RANDOLPH AVE,KISSIMMEE,FL,34741,
34919.0,FRASER ST,DADE CITY,FL,33523,
1313.0,BRYN MAWR AVE,LAKE WALES,FL,33853,
25.0,VINEYARD ST,LEHIGH ACRES,FL,33936,
322.0,SNAPPER DR,DESTIN,FL,32541,
5252.0,DRIFT TIDE DR,NEW PORT RICHEY,FL,34652,
1105.0,SUMNER ST,KISSIMMEE,FL,34741,
1516.0,CEDAR ST NE,Steinhatchee,FL,32359,
5104.0,EAGLE WAY,CRESTVIEW,FL,32539,
12019.0,MARLDON LN,JACKSONVILLE,FL,32258,
3731.0,MCGREGOR BLVD,FORT MYERS,FL,33901,
7238.0,RYMAN LP,ZEPHYRHILLS,FL,33540,
71.0,TALLY HILLS DR,MONTICELLO,FL,32344,
1825.0,SABAL PALM DR,MELBOURNE,FL,32934,
3554.0,BREEZE WAY,LAKE WALES,FL,33898,
209.0,HORSESHOE BND,LAKE WALES,FL,33898,
3239.0,ATLANTIS RD,Cottondale,FL,32431,
1420.0,STICKLEY AVE,CELEBRATION,FL,34747,
8460.0,SE 80 ST,NEWBERRY,FL,32669,
6640.0,PENSACOLA BLVD,PENSACOLA,FL,32503,
6524.0,FORESTWOOD DR W,LAKELAND,FL,33811,
6818.0,FIELDS LN,PENSACOLA,FL,32505,
2361.0,ALEXANDER DR,TITUSVILLE,FL,32796,
2265.0,TRUMPETER SWAN AVE,BARTOW,FL,33830,
5720.0,PELICAN POINTE DR,SEBASTIAN,FL,32958,3.0
2818.0,MELHOLLIN DR,JACKSONVILLE,FL,32216,
4428.0,CORONADO PKWY,CAPE CORAL,FL,33904,
10981.0,SE 92ND CT,BELLEVIEW,FL,34420,
1727.0,NE 97TH STREET RD,ANTHONY,FL,32617,
45077.0,LOURANAH LN,CALLAHAN,FL,32011,
1120.0,N BLACK ACRE CT,WINTER SPRINGS,FL,32708,
4517.0,DALMAHOY CT 102,FORT MYERS,FL,33916,102.0
36.0,CLIPPER CT,SAINT AUGUSTINE,FL,32080,
1002.0,NW 13TH TER,CAPE CORAL,FL,33993,
4927.0,ROLLINGLEN LOOP W,LAKELAND,FL,33810,
975.0,CHADWICK ST,LEHIGH ACRES,FL,33974,
5611.0,BEACH ELDER WAY,MELBOURNE BEACH,FL,32951,
34366.0,RIDGE MANOR BLVD,DADE CITY,FL,33523,
3021.0,OLENDA DR,THE VILLAGES,FL,32163,
3712.0,SW 17TH AVE,CAPE CORAL,FL,33914,
4999.0,SEARS ST,Saint Lucie County,FL,34950,
1130.0,ANGELA RIDGE CT,KISSIMMEE,FL,34747,
706.0,DENISE DR,CRESTVIEW,FL,32536,
15568.0,CRYSTAL LAKE DR,NORTH FORT MYERS,FL,33917,
2699.0,QUEBEC AVE SW,PALM BAY,FL,32908,
4124.0,NE 8TH PL,CAPE CORAL,FL,33909,
3519.0,N SAVANNAH PL,VERO BEACH,FL,32963,
2744.0,TAYLOR RD,WINTER HAVEN,FL,33880,
920.0,SE 13TH ST,STUART,FL,34994,
1548.0,SW MONARCH CLUB DR,PALM CITY,FL,34990,
3401.0,NW 45TH ST,CAPE CORAL,FL,33993,
302.0,N SWEETWATER COVE BLVD,LONGWOOD,FL,32779,
715.0,SUGAR BAY #101 WAY,LAKE MARY,FL,32746,
19.0,SEA HORSE LN,VERO BEACH,FL,32960,
920.0,SW 44TH BLVD,OKEECHOBEE,FL,34974,
10234.0,STATE ROAD 60,LAKE WALES,FL,33853,
1312.0,NE 39TH BLVD,OKEECHOBEE,FL,34972,
3230.0,MARBLE CREST DR,LAND O LAKES,FL,34638,
1421.0,PULLEN RD,JACKSONVILLE,FL,32216,
1054.0,THREE FORKS CT,SAINT AUGUSTINE,FL,32092,
8980.0,44TH AVE,SEBASTIAN,FL,32958,
325.0,STONEHURST PKWY,SAINT AUGUSTINE,FL,32092,
20.0,CINNAMON GROVE LN,PALM COAST,FL,32137,
750.0,NE HIGHWAY 41,WILLISTON,FL,32696,
7227.0,SANDALWOOD DR,PORT RICHEY,FL,34668,
19995.0,PETRUCKA CIR C,LEHIGH ACRES,FL,33936,
2345.0,JASON ST,MERRITT ISLAND,FL,32952,
2482.0,SALUDA ST,THE VILLAGES,FL,32162,
1010.0,PARK RIDGE CIR,KISSIMMEE,FL,34746,
2106.0,MUSKINGUM AVE,COCOA,FL,32926,
145.0,POLK DR,WINTER HAVEN,FL,33884,
13206.0,WHALER DR,HUDSON,FL,34667,
541.0,ESTES AVE SW,PALM BAY,FL,32908,
