NUMBER,STREET,CITY,STATE,POSTCODE,UNIT
,KENEKE ST,Kaneohe,HI,96744,
,NO ADDRESS,Maui,HI,0,
,KULAAUPUNI ST,WAIANAE,HI,96792,
,MEAHALE PL,Waipahu,HI,96797,
250.0,AINA MAHIAI ST,LAHAINA,HI,96761,
531.0,PEPEEKEO PL,Honolulu / Hawaii Kai,HI,96825,
925.0,HOG BACK RD,HAIKU,HI,96708,
,OLOHU RD,Kaaawa,HI,96730,
2502.0,HENRY ST,Honolulu / Kapalama,HI,96817,
2017.0,FERN ST,Honolulu / Makiki,HI,96826,
803.0,KOKEA ST,Honolulu / Kapalama,HI,96817,
1412.0,KALEILANI ST,Pearl City,HI,96782,
741.0,LUKEPANE AVE,Honolulu / Waialae Kahala,HI,96816,
,WAIAHOLE HMSTD RD,Kaneohe,HI,96744,
1356.0,KOKOMO RD,HAIKU,HI,96708,
28.0,MAMALAHOA PL,Honolulu / Kapalama,HI,96817,
820.0,KAILUA RD,Kailua,HI,96734,
,HUI ULILI ST,Kaneohe,HI,96744,
,KUNIA RD,Kunia,HI,96759,
467.0,OPIHIKAO PL,Honolulu / Hawaii Kai,HI,96825,
,MANUKU ST,Waianae,HI,96792,
7222.0,NUULOLO ST,Honolulu / Hawaii Kai,HI,96825,
,OHALA ST,Kaneohe,HI,96744,
41.0,POINCIANA RD,LAHAINA,HI,96761,
,MOLAKEA ST,Mililani,HI,96789,
,HUI AEKO PL,Kaneohe,HI,96744,
1525.0,ADELAIDE ST,Honolulu / Tripler,HI,96819,
738.0,HALIIMAILE RD,Maui,HI,96768,
3306.0,MANOA RD,Honolulu / Makiki,HI,96822,
,KIILANI ST,Mililani,HI,96789,
108.0,MALUNIU AVE,Kailua,HI,96734,
1607.0,ALEWA DR,Honolulu / Kapalama,HI,96817,
2215.0,AULII ST,Honolulu / Kapalama,HI,96817,
431.0,HOLUA DR,KAHULUI,HI,96732,
343.0,ILIMANO PL,Kailua,HI,96734,
4350.0,HAKUPAPA ST,Honolulu / Halsey Ter,HI,96818,
,PUANANE PL,Mililani,HI,96789,
20.0,PAPAHI LP,KAHULUI,HI,96732,
459.0,ILIWAI DR,Wahiawa,HI,96786,
115.0,MAKAWEO AVE,Wahiawa,HI,96786,
25.0,HAKALANI PL,WAILUKU,HI,96793,
531.0,KEOLU DR,Kailua,HI,96734,
,KAUPEA ST,Kapolei,HI,96707,
76.0,NOOLU ST,KIHEI,HI,96753,
,HOOHIKI ST,Pearl City,HI,96782,
,WILLIAM HENRY RD,Kaneohe,HI,96744,
423.0,KEKUPUA ST,Honolulu / Hawaii Kai,HI,96825,
1590.0,AHIHI ST,Honolulu / Tripler,HI,96819,
,IHI PL,Kapolei,HI,96707,
,PALAULAU PL,Kapolei,HI,96707,
6560.0,HAWAII KAI DR,Honolulu / Hawaii Kai,HI,96825,
,NANAKULI AVE,Waianae,HI,96792,
,KALIMALOA ST,Kaneohe,HI,96744,
,WAIOLINA ST,Waipahu,HI,96797,
1994.0,HOOHAI ST,Pearl City,HI,96782,
,PUNAKEA LOOP,LAHAINA,HI,96761,
,KOLILIKO ST,Mililani,HI,96789,
1552.0,AULENA PL,Honolulu / Waialae Kahala,HI,96821,
2411.0,APOEPOE ST,Pearl City,HI,96782,
348.0,KAIWAHINE ST,KIHEI,HI,96753,
645.0,POHUKAINA ST,Honolulu / Downtown,HI,96813,
,KAUOPUA ST,Mililani,HI,96789,
1168.0,HOOLI CIR,Pearl City,HI,96782,
,PAALAA RD,Haleiwa,HI,96712,
486.0,KRAUSS ST,Honolulu / Downtown,HI,96813,
,KALAUA PL,Kaneohe,HI,96744,
2839.0,KILIHAU ST,Honolulu / Tripler,HI,96819,
1125.0,BISHOP ST,Honolulu / Downtown,HI,96813,
6729.0,HAWAII KAI DR,Honolulu / Hawaii Kai,HI,96825,
886.0,MAKAALA DR,WAILUKU,HI,96793,
630.0,WAILEPO ST,Kailua,HI,96734,
3419.0,PAALEA ST,Honolulu / Waialae Kahala,HI,96816,
,NOHOLIKE PL,Ewa Beach,HI,96706,
,WAILANA PL,Aiea,HI,96701,
1569.0,ALA AOLOA LP,Honolulu / Tripler,HI,96819,
6331.0,HAWAII KAI DR,Honolulu / Hawaii Kai,HI,96825,
1511.0,ALA AOLANI,Honolulu / Tripler,HI,96819,
3482.0,ALA ILIMA,Honolulu / Halsey Ter,HI,96818,
713.0,HALAULA PL,Honolulu / Hawaii Kai,HI,96825,
,KAIKO ST,Ewa Beach,HI,96706,
2914.0,KALEI RD,Honolulu / Makiki,HI,96826,
2332.0,AKEPA ST,Pearl City,HI,96782,
,NANAHU ST,Kapolei,HI,96707,
807.0,KAALOA ST,Honolulu / Makiki,HI,96826,
,KELAKELA  ST,Mililani,HI,96789,
1712.0,POKI ST,Honolulu / Makiki,HI,96822,
2637.0,PUUNUI AVE,Honolulu / Kapalama,HI,96817,
427.0,ANOLANI ST,Honolulu / Waialae Kahala,HI,96821,
1103.0,KAHAUIKI PL,Honolulu / Tripler,HI,96819,
100.0,MAUNA PL,KULA,HI,96790,
,KUKINI PL,Mililani,HI,96789,
126.0,HAMAU PL,LAHAINA,HI,96761,
3330.0,PAWAINA ST,Honolulu / Makiki,HI,96822,
,WAIAHU ST,Waipahu,HI,96797,
3459.0,KILAUEA AVE,Honolulu / Waialae Kahala,HI,96816,
241.0,KIHAPAI ST,Kailua,HI,96734,
290.0,KAIPII PL,KIHEI,HI,96753,
1110.0,PUU PONI ST,Pearl City,HI,96782,
,ALA KOA,Waimanalo,HI,96795,
,KIHALE PL,Aiea,HI,96701,
,OHA PL,Kaneohe,HI,96744,
724.0,MAKIKI ST,WAILUKU,HI,96793,
349.0,KAILUA RD,Kailua,HI,96734,
126.0,OPIHIKAO WAY,Honolulu / Hawaii Kai,HI,96825,
1901.0,KAPIOLANI BLVD,Honolulu / Makiki,HI,96826,
2130.0,MOTT SMITH DR,Honolulu / Makiki,HI,96822,
68.0,KULI PUU ST,KIHEI,HI,96753,
,MAHINAAI ST,Waialua,HI,96791,
,APALA LP,Aiea,HI,96701,
1891.0,ALA MAHAMOE,Honolulu / Tripler,HI,96819,
,HAUKOI PL,Hauula,HI,96717,
2450.0,NAAI ST,Honolulu / Tripler,HI,96819,
,FARRINGTON HWY,Waianae,HI,96792,
,HALOLANI ST,Ewa Beach,HI,96706,
,APAPANE ST,Kaneohe,HI,96744,
,PAEKO ST,Ewa Beach,HI,96706,
1309.0,PALAMEA LN,Honolulu / Kapalama,HI,96817,
1109.0,LUNAANELA ST,Kailua,HI,96734,
651.0,APUWAI PL,Honolulu / Waialae Kahala,HI,96816,
,LIANU PL,Waipahu,HI,96797,
618.0,AKOLEA ST,WAILUKU,HI,96793,
207.0,PUUMAKANI ST,KAHULUI,HI,96732,
1932.0,LILIHA ST,Honolulu / Kapalama,HI,96817,
1914.0,KAHAI ST,Honolulu / Tripler,HI,96819,
,KANIHAALILO ST,Kapolei,HI,96707,
500.0,UNIVERSITY AVE,Honolulu / Makiki,HI,96826,
,AOLOKO ST,Kapolei,HI,96707,
,HONOMU ST,Hauula,HI,96717,
1048.0,5TH AVE,Honolulu / Waialae Kahala,HI,96816,
360.0,HUALANI ST,Kailua,HI,96734,
3208.0,FRANCIS ST,Honolulu / Waikiki,HI,96815,
,KAIKOHOLA ST,Ewa Beach,HI,96706,
,HALONA RD,Waianae,HI,96792,
808.0,POAI PL,KAHULUI,HI,96732,
2636.0,LILIHA ST,Honolulu / Kapalama,HI,96817,
,KAAKINA ST,Ewa Beach,HI,96706,
,PALAIKI ST,Waipahu,HI,96797,
,ALAPINE ST,Waipahu,HI,96797,
2742.0,TERRACE DR,Honolulu / Makiki,HI,96822,
4554.0,UKALI ST,Honolulu / Halsey Ter,HI,96818,
16.0,AHINA PL,Maui,HI,96768,
217.0,KOLEKOLE DR,Wahiawa,HI,96786,
35.0,S BERETANIA ST,Honolulu / Downtown,HI,96813,
516.0,DILLINGHAM BLVD,Honolulu / Kapalama,HI,96817,
,PAIWA ST,Waipahu,HI,96797,
2020.0,HILLCREST ST,Honolulu / Kapalama,HI,96817,
1168.0,SMITH ST,Honolulu / Kapalama,HI,96817,
,APUU ST,Ewa Beach,HI,96706,
929.0,N KING ST,Honolulu / Kapalama,HI,96817,
,HOKUILI ST,Mililani,HI,96789,
,AWAMOI ST,Waipahu,HI,96797,
2707.0,NAKOOKOO ST,Honolulu / Makiki,HI,96826,
3262.0,PINAO ST,Honolulu / Makiki,HI,96822,
2326.0,AKEPA ST,Pearl City,HI,96782,
,LIMAHANA ST,Waipahu,HI,96797,
,KAI WANA ST,Ewa Beach,HI,96706,
265.0,CALIFORNIA AVE,Wahiawa,HI,96786,
,MAHAPILI ST,Mililani,HI,96789,
,WAIKAPOO ST,Ewa Beach,HI,96706,
534.0,HOOULU ST,Kailua,HI,96734,
1923.0,BACHELOT ST,Honolulu / Kapalama,HI,96817,
,HAKALA ST,Mililani,HI,96789,
,PUUHULU PL,Waianae,HI,96792,
,KAIEA PL,Waialua,HI,96791,
,KANELA ST,Ewa Beach,HI,96706,
,PALAILAI ST,Kapolei,HI,96707,
,KAIOPUA ST,Ewa Beach,HI,96706,
3313.0,MONSARRAT AVE,Honolulu / Waikiki,HI,96815,
,PUPUKEA RD,Haleiwa,HI,96712,
,PAAHIHI ST,Waialua,HI,96791,
,KEPUE PL,Waianae,HI,96792,
,OHENANA LP,Aiea,HI,96701,
959.0,ALEWA DR,Honolulu / Kapalama,HI,96817,
702.0,MALUNIU AVE,Kailua,HI,96734,
186.0,LAKEVIEW CIR,Wahiawa,HI,96786,
2015.0,ALGAROBA ST,Honolulu / Makiki,HI,96826,
2534.0,N SCHOOL ST,Honolulu / Tripler,HI,96819,
,KULAAUPUNI ST,Waianae,HI,96792,
7137.0,HAWAII KAI DR,Honolulu / Hawaii Kai,HI,96825,
904.0,UWAO ST,Honolulu / Hawaii Kai,HI,96825,
3749.0,DIAMOND HEAD RD,Honolulu / Waialae Kahala,HI,96816,
893.0,NININI WAY,Honolulu / Hawaii Kai,HI,96825,
106.0,MIE PL,Wahiawa,HI,96786,
209.0,OE ST,KIHEI,HI,96753,
1738.0,YOUNG ST,Honolulu / Makiki,HI,96826,
,UALO ST,Aiea,HI,96701,
,AKIMALA ST,Kaneohe,HI,96744,
,ANANIA DR,Mililani,HI,96789,
629.0,AKOAKOA ST,Kailua,HI,96734,
3678.0,MANOA RD,Honolulu / Makiki,HI,96822,
,PAEPUU ST,Kaneohe,HI,96744,
2113.0,KOMO MAI DR,Pearl City,HI,96782,
3590.0,MANOA RD,Honolulu / Makiki,HI,96822,
1806.0,KALANI ST,Honolulu / Tripler,HI,96819,
2903.0,LAOLA PL,Honolulu / Downtown,HI,96813,
2669.0,PETER ST,Honolulu / Waialae Kahala,HI,96816,
824.0,WAHINANI ST,Pearl City,HI,96782,
196.0,LUAKAHA CIR,KIHEI,HI,96753,
2220.0,HOOHAI ST,Pearl City,HI,96782,
,MANUAIHUE ST,Waianae,HI,96792,
525.0,KEA ST,KAHULUI,HI,96732,
,KAM HWY,Hauula,HI,96717,
,OLUA PL,Waipahu,HI,96797,
1580.0,HANAI LP,Honolulu / Kapalama,HI,96817,
2008.0,KEALOHA ST,Honolulu / Tripler,HI,96819,
,AUNA ST,Kaneohe,HI,96744,
,ALAPOAI ST,Mililani,HI,96789,
2646.0,PAMOA RD,Honolulu / Makiki,HI,96822,
1047.0,AINA MANU PL,MAKAWAO,HI,96768,
,NAUPAKA ST,Laie,HI,96762,
282.0,PUUMAKANI ST,KAHULUI,HI,96732,
,PAAPAANA ST,Ewa Beach,HI,96706,
,LUMIAUAU ST,Waipahu,HI,96797,
17.0,HOAKA PL,LAHAINA,HI,96761,
750.0,20TH AVE,Honolulu / Waialae Kahala,HI,96816,
3351.0,KILAUEA AVE,Honolulu / Waialae Kahala,HI,96816,
,KAIPU ST,Ewa Beach,HI,96706,
445.0,NAALAE RD,KULA,HI,96790,
1516.0,EMERSON ST,Honolulu / Downtown,HI,96813,
1768.0,AKAAKAAWA ST,Kailua,HI,96734,
3618.0,ANELA PL,Honolulu / Makiki,HI,96822,
,ALAPINE ST,Waipahu,HI,96797,
,KAAEI PL,Mililani,HI,96789,
2568.0,DATE ST,Honolulu / Makiki,HI,96826,
3218.0,HERBERT ST,Honolulu / Waikiki,HI,96815,
,BALDWIN AVE,MAKAWAO,HI,96768,
,NO ADDRESS,KULA,HI,96790,
903.0,18TH AVE,Honolulu / Waialae Kahala,HI,96816,
1432.0,NANIMAULOA PL,Honolulu / Tripler,HI,96819,
1450.0,AINAKOA AVE,Honolulu / Waialae Kahala,HI,96821,
118.0,KUPALAIKI LP,KIHEI,HI,96753,
803.0,WAIMANU ST,Honolulu / Downtown,HI,96813,
,IUIU ST,Kaneohe,HI,96744,
1232.0,MANU MELE ST,Kailua,HI,96734,
,HUI AKEPA PL,Kaneohe,HI,96744,
1788.0,CALIFORNIA AVE,Wahiawa,HI,96786,
,OANIANI ST,Kapolei,HI,96707,
,LAHAINA ST,Waianae,HI,96792,
258.0,HANAMAULU ST,Honolulu / Hawaii Kai,HI,96825,
,KIILANI ST,Mililani,HI,96789,
222.0,KEOAWA ST,LAHAINA,HI,96761,
,ILIEE PL,Aiea,HI,96701,
682.0,KULIA ST,Wahiawa,HI,96786,
,LAUAWA ST,Mililani,HI,96789,
180.0,KULI PUU ST,KIHEI,HI,96753,
,HAAHAA ST,Kaaawa,HI,96730,
424.0,N KUAKINI ST,Honolulu / Kapalama,HI,96817,
,HAPAIKO ST,Ewa Beach,HI,96706,
,WAIANAE VALLEY RD,Waianae,HI,96792,
4815.0,KAINAPAU PL,Honolulu / Waialae Kahala,HI,96816,
3453.0,PAHOA AVE,Honolulu / Waialae Kahala,HI,96816,
,KAOPUA LP,Mililani,HI,96789,
,ALOKAHI ST,Kaneohe,HI,96744,
1500.0,SING LOY RD,Honolulu / Kapalama,HI,96817,
,MAKAPIPIPI ST,Mililani,HI,96789,
,KAPOLEI PKWY,Ewa Beach,HI,96706,
1014.0,6TH AVE,Honolulu / Waialae Kahala,HI,96816,
,KUHINA ST,Ewa Beach,HI,96706,
55.0,PIIMAUNA ST,PUKALANI,HI,96768,
50.0,KAHUAKAI WAY,LAHAINA,HI,96761,
29.0,KAHOEA PL,KULA,HI,96790,
,NAHOLOHOLO ST,Mililani,HI,96789,
815.0,KINAU ST,Honolulu / Downtown,HI,96813,
1299.0,LUNALILO HOME RD,Honolulu / Hawaii Kai,HI,96825,
74.0,LONO AV,KAHULUI,HI,96732,
,MELOKIA ST,Mililani,HI,96789,
69.0,LAWAI ST,Honolulu / Hawaii Kai,HI,96825,
486.0,LIHOLIHO ST,WAILUKU,HI,96793,
,ILIEE ST,Aiea,HI,96701,
1807.0,AUPUNI ST,Honolulu / Kapalama,HI,96817,
,HINAKEA ST,Ewa Beach,HI,96706,
31.0,MEHEU CIR,KAHULUI,HI,96732,
,KEOKOLO ST,Kapolei,HI,96707,
,MAHINAHINA ST,Waipahu,HI,96797,
5864.0,KALANIANAOLE HWY,Honolulu / Waialae Kahala,HI,96821,
1309.0,AKAMAI ST,Kailua,HI,96734,
16.0,KOANI LOOP,WAILUKU,HI,96793,
,KULAAUPUNI ST,Waianae,HI,96792,
,NAUPAKA ST,Laie,HI,96762,
444.0,IANA PL,Kailua,HI,96734,
1909.0,10TH AVE,Honolulu / Waialae Kahala,HI,96816,
,WAIAAMA ST,Ewa Beach,HI,96706,
116.0,HANUPAOA PL,Honolulu / Makiki,HI,96822,
,KAIHI ST,Ewa Beach,HI,96706,
1893.0,HOOLEHUA ST,Pearl City,HI,96782,
3257.0,BROKAW ST,Honolulu / Waikiki,HI,96815,
5050.0,POOLA ST,Honolulu / Waialae Kahala,HI,96821,
95.0,LUNALILO ST,WAILUKU,HI,96793,
1223.0,FORT ST,Honolulu / Downtown,HI,96813,
,FRICKE ST,Waianae,HI,96792,
,HAALILO ST,Mililani,HI,96789,
2264.0,KAPAHU ST,Honolulu / Downtown,HI,96813,
,AUMAKIKI LP,Aiea,HI,96701,
907.0,PILIALO ST,Honolulu / Waialae Kahala,HI,96816,
534.0,KALOLINA ST,Kailua,HI,96734,
760.0,KAPULENA LP,Honolulu / Hawaii Kai,HI,96825,
11.0,PALEKAIKO PL,WAILUKU,HI,96793,
1505.0,KEWALO ST,Honolulu / Makiki,HI,96822,
,ALA WALUA ST,Waianae,HI,96792,
,KEAOLANI ST,Mililani,HI,96789,
800.0,KAINOA PL,Honolulu / Waialae Kahala,HI,96821,
,MEALELE ST,Kaneohe,HI,96744,
,WEKIU ST,Mililani,HI,96789,
,PUANOHU PL,Kapolei,HI,96707,
1453.0,KOKEA ST,Honolulu / Kapalama,HI,96817,
,LEWANUU ST,Mililani,HI,96789,
31.0,MAHALO NUI PL,KIHEI,HI,96753,
,LALAWAI DR,Aiea,HI,96701,
1088.0,PUOLO DR,Honolulu / Halsey Ter,HI,96818,
1905.0,HOUGHTAILING ST,Honolulu / Kapalama,HI,96817,
,KIANA PL,Waianae,HI,96792,
,KAULUAKOKO ST,Kapolei,HI,96707,
,ALA AKAU ST,Waianae,HI,96792,
,MAKOHILANI ST,Mililani,HI,96789,
,HOOPIO ST,Ewa Beach,HI,96706,
,MAKALU LP,Mililani,HI,96789,
3905.0,LANIPOKO PL,Honolulu / Waialae Kahala,HI,96816,
,KAALO ST,Aiea,HI,96701,
,KUMUIKI ST,Kapolei,HI,96707,
,POUHANUU WAY,Kaneohe,HI,96744,
155.0,PALAPU ST,Kailua,HI,96734,
1515.0,LAUKAHI ST,Honolulu / Waialae Kahala,HI,96821,
671.0,PAOPUA LP,Kailua,HI,96734,
1423.0,HOOHULU ST,Pearl City,HI,96782,
,KUMUHAU ST,Waimanalo,HI,96795,
180.0,ALANUI KE ALII,KIHEI,HI,96753,
201.0,ALOHILANI ST,Maui,HI,96768,
,HAUKOI PL,Hauula,HI,96717,
721.0,MOKAPU RD,Kailua,HI,96734,
361.0,KAIMAKE LP,Kailua,HI,96734,
457.0,ILIAINA ST,Kailua,HI,96734,
,KAWOA WAY,Haleiwa,HI,96712,
7514.0,MOKUNOIO PL,Honolulu / Hawaii Kai,HI,96825,
,KAILIKE ST,Ewa Beach,HI,96706,
2001.0,IHOLENA ST,Honolulu / Kapalama,HI,96817,
,MAKOHILANI ST,Mililani,HI,96789,
1368.0,MALAIHI RD,WAILUKU,HI,96793,
40.0,WAIKAI ST,KIHEI,HI,96753,
,AHUIMANU RD,Kaneohe,HI,96744,
,POHAKUNUI AVE,Waianae,HI,96792,
2218.0,ALA MAHAMOE,Honolulu / Tripler,HI,96819,
164.0,OPUKEA ST,KAHULUI,HI,96732,
1703.0,S BERETANIA ST,Honolulu / Makiki,HI,96826,
,HINAKEA ST,Ewa Beach,HI,96706,
,GARTON ST,Ewa Beach,HI,96706,
1080.0,LUNAANELA PL,Kailua,HI,96734,
1209.0,PIIKOI ST,Honolulu,HI,96814,
1589.0,MAHIOLE ST,Honolulu / Tripler,HI,96819,
,NOHOPONO ST,Kapolei,HI,96707,
3233.0,ALLAN PL,Honolulu / Kapalama,HI,96817,
1519.0,KAUMUALII ST,Honolulu / Kapalama,HI,96817,
4953.0,KOLOHALA ST,Honolulu / Waialae Kahala,HI,96816,
3358.0,GEORGE ST,Honolulu / Waikiki,HI,96815,
1866.0,HOOPULOA PL,Pearl City,HI,96782,
3827.0,LEAHI AVE,Honolulu / Waikiki,HI,96815,
2159.0,ST LOUIS DR,Honolulu / Waialae Kahala,HI,96816,
,MOAKA ST,Kapolei,HI,96707,
,KAHUAMO ST,Waipahu,HI,96797,
2958.0,PAPALI ST,Honolulu / Tripler,HI,96819,
2517.0,10TH AVE,Honolulu / Waialae Kahala,HI,96816,
268.0,KULI PUU PL,KIHEI,HI,96753,
,KEAALII WAY,Ewa Beach,HI,96706,
,KAHUAHALE ST,Waipahu,HI,96797,
,LAULELE ST,Waianae,HI,96792,
594.0,HAHAIONE ST,Honolulu / Hawaii Kai,HI,96825,
,WAIKAPOKI RD,Kaneohe,HI,96744,
,AHEKAI ST,Waianae,HI,96792,
2320.0,AMOOMOO ST,Pearl City,HI,96782,
1121.0,WILDER AVE,Honolulu / Makiki,HI,96822,
3238.0,GEORGE ST,Honolulu / Waikiki,HI,96815,
56.0,WILI OKAI WAY,LAHAINA,HI,96761,
,MOOIKI ST,Waimanalo,HI,96795,
,LELEULI ST,Kahuku,HI,96731,
,NOHOPONO ST,Kapolei,HI,96707,
476.0,MAALO ST,KAHULUI,HI,96732,
1095.0,KINAU ST,Honolulu / Downtown,HI,96814,
,HILINAI ST,Kaneohe,HI,96744,
,KAMAHAO PL,Pearl City,HI,96782,
1527.0,LAUKAHI ST,Honolulu / Waialae Kahala,HI,96821,
,KULAWAE PL,Waianae,HI,96792,
537.0,AHINA ST,Honolulu / Waialae Kahala,HI,96816,
3342.0,EAST MANOA RD,Honolulu / Makiki,HI,96822,
84.0,MAHA RD,MAKAWAO,HI,96768,
,KAIMALIE ST,Ewa Beach,HI,96706,
,WAIANAE VALLEY RD,Waianae,HI,96792,
5385.0,MALU PL,Honolulu / Waialae Kahala,HI,96816,
942.0,7TH AVE,Honolulu / Waialae Kahala,HI,96816,
,KUAHELANI AVE,Mililani,HI,96789,
,KOHI ST,Kapolei,HI,96707,
,HOOMAHANA ST,Ewa Beach,HI,96706,
330.0,COOKE ST,Honolulu / Downtown,HI,96813,
464.0,HAO ST,Honolulu / Waialae Kahala,HI,96821,
412.0,KEKAULUOHI ST,Honolulu / Hawaii Kai,HI,96825,
126.0,PALAPU ST,Kailua,HI,96734,
1430.0,KALAEPOHAKU ST,Honolulu / Waialae Kahala,HI,96816,
555.0,UKALI ST,WAILUKU,HI,96793,
1641.0,KALAUIPO ST,Pearl City,HI,96782,
,MOHIHI ST,Waianae,HI,96792,
,AHIU PL,Mililani,HI,96789,
,AKOLO ST,Kapolei,HI,96707,
,OKANA RD,Kaneohe,HI,96744,
,AWAWA ST,Kapolei,HI,96707,
,KAM HWY,Haleiwa,HI,96712,
,KAM HWY,Kaneohe,HI,96744,
,KIANI ST,Kaneohe,HI,96744,
1059.0,NOELANI ST,Pearl City,HI,96782,
,MAEHA PL,Kaneohe,HI,96744,
211.0,AUWAIOLIMU ST,Honolulu / Downtown,HI,96813,
3069.0,UALENA ST,Honolulu / Tripler,HI,96819,
107.0,KANAPUU PL,Kailua,HI,96734,
,LIULIU PL,Ewa Beach,HI,96706,
,OHAPALI ST,Waipahu,HI,96797,
377.0,KEAHOLE ST,Honolulu / Hawaii Kai,HI,96825,
,KULAKUMU PL,Waianae,HI,96792,
589.0,KUKUIULA PL,Honolulu / Hawaii Kai,HI,96825,
,PAEWALANI PL,Kaneohe,HI,96744,
179.0,KAHAKO ST,Kailua,HI,96734,
1505.0,KILINOE PL,WAILUKU,HI,96793,
2129.0,AAMANU ST,Pearl City,HI,96782,
84.0,KAMILA PL,KULA,HI,96790,
,MAKAHA VALLEY RD,Waianae,HI,96792,
362.0,NAHOLO CI,KAHULUI,HI,96732,
641.0,WAIAKAMILO RD,Honolulu / Kapalama,HI,96817,
,KAWAIHUNA ST,Kapolei,HI,96707,
33.0,NOHOKAI ST,KIHEI,HI,96753,
,PONOHALE ST,Aiea,HI,96701,
1206.0,KILOU LP,WAILUKU,HI,96793,
1120.0,HUNAKAI ST,Honolulu / Waialae Kahala,HI,96816,
,KAM HWY,Kaneohe,HI,96744,
,NAKULUAI ST,Kaneohe,HI,96744,
,OLIWA ST,Aiea,HI,96701,
2264.0,KOMO MAI DR,Pearl City,HI,96782,
19.0,HOOLAI ST,Kailua,HI,96734,
3502.0,KAHAWALU DR,Honolulu / Kapalama,HI,96817,
101.0,WYLLIE ST,Honolulu / Kapalama,HI,96817,
1624.0,MURPHY ST,Honolulu / Tripler,HI,96819,
,WAIAWI ST,Kaneohe,HI,96744,
7046.0,KALANIANAOLE HWY,Honolulu / Hawaii Kai,HI,96825,
1809.0,HAU ST,Honolulu / Tripler,HI,96819,
3347.0,FRANCIS ST,Honolulu / Waikiki,HI,96815,
145.0,HOLOMAKANI PL,KULA,HI,96790,
,POHU PL,Waipahu,HI,96797,
,KAAHUMANU ST,Aiea,HI,96701,
,FORT WEAVER RD,Ewa Beach,HI,96706,
,UALO ST,Aiea,HI,96701,
,POLINAHE PL,Waipahu,HI,96797,
179.0,AUHANA RD,KIHEI,HI,96753,
4735.0,FARMERS RD,Honolulu / Waialae Kahala,HI,96816,
1784.0,HOONA PL,Pearl City,HI,96782,
97.0,KANIAU RD,LAHAINA,HI,96761,
3111.0,NIHI ST,Honolulu / Tripler,HI,96819,
1942.0,ALAELOA ST,Honolulu / Waialae Kahala,HI,96821,
3064.0,IOLANI ST,PUKALANI,HI,96768,
150.0,ROSE ST,Wahiawa,HI,96786,
,PAILANI ST,Ewa Beach,HI,96706,
2114.0,BOOTH RD,Honolulu / Downtown,HI,96813,
1740.0,MALANAI ST,Honolulu / Makiki,HI,96826,
738.0,KEKAULIKE AV,KULA,HI,96790,
2146.0,HOOHAI ST,Pearl City,HI,96782,
,ALA WALUA ST,Waianae,HI,96792,
,OLD KALANIANAOLE RD,Kailua,HI,96734,
,WAILOA LP,Mililani,HI,96789,
3632.0,SIERRA DR,Honolulu / Waialae Kahala,HI,96816,
134.0,AKIOHALA PL,Kailua,HI,96734,
,KIHENE ST,Mililani,HI,96789,
1515.0,KALEILANI ST,Pearl City,HI,96782,
,POHAKUPALENA ST,Waianae,HI,96792,
4055.0,PAPU CIR,Honolulu / Waialae Kahala,HI,96816,
,ILAUHOLE ST,Waimanalo,HI,96795,
,LUMIKULA ST,Waipahu,HI,96797,
1546.0,PUKELE AVE,Honolulu / Waialae Kahala,HI,96816,
26.0,IKEA PL,PUKALANI,HI,96768,
3841.0,KAIMUKI AVE,Honolulu / Waialae Kahala,HI,96816,
,LOHEA PL,Aiea,HI,96701,
1819.0,HART ST,Honolulu / Tripler,HI,96819,
1218.0,KAMEHAME DR,Honolulu / Hawaii Kai,HI,96825,
335.0,HULALI ST,Maui,HI,96768,
321.0,KALUA RD,WAILUKU,HI,96793,
4563.0,UKALI ST,Honolulu / Halsey Ter,HI,96818,
1469.0,HUMUWILI PL,Kailua,HI,96734,
1480.0,HONOKAHUA ST,Honolulu / Hawaii Kai,HI,96825,
31.0,NOKEKULA LP,WAILUKU,HI,96793,
2645.0,KILIHAU ST,Honolulu / Tripler,HI,96819,
,MAKAO RD,Hauula,HI,96717,
,AKOWAI RD,Waianae,HI,96792,
,PUANA ST,Waipahu,HI,96797,
,HAMAU ST,Waipahu,HI,96797,
2464.0,N SCHOOL ST,Honolulu / Tripler,HI,96819,
,KAMALO ST,Waipahu,HI,96797,
1957.0,WILHELMINA RISE,Honolulu / Waialae Kahala,HI,96816,
2256.0,ALA MAHAMOE,Honolulu / Tripler,HI,96819,
,WIDEMANN ST,Waianae,HI,96792,
,LUPO ST,Kaneohe,HI,96744,
552.0,OMAOPIO RD,KULA,HI,96790,
,PAPIPI DR,Ewa Beach,HI,96706,
,AHUIMANU RD,Kaneohe,HI,96744,
25.0,OHIA LEO PL,WAILUKU,HI,96793,
62.0,WAWAEIOLE PL,WAILUKU,HI,96793,
636.0,HAO ST,Honolulu / Waialae Kahala,HI,96821,
,KAI OIO ST,Ewa Beach,HI,96706,
2080.0,MAUNA PL,Honolulu / Makiki,HI,96822,
190.0,MEHANI CI,KIHEI,HI,96753,
341.0,LILIUOKALANI ST,Maui,HI,96768,
,KUAHUI ST,Waipahu,HI,96797,
,KAMALO ST,Waipahu,HI,96797,
304.0,DUNE CIR,Kailua,HI,96734,
1129.0,MANUWA DR,Honolulu / Halsey Ter,HI,96818,
738.0,KALANIPUU ST,Honolulu / Hawaii Kai,HI,96825,
551.0,KAUMAKANI ST,Honolulu / Hawaii Kai,HI,96825,
25.0,MAKAIO PL,HAIKU,HI,96708,
355.0,QUEEN ST,Honolulu / Downtown,HI,96813,
815.0,QUEEN ST,Honolulu / Downtown,HI,96813,
1369.0,MOOHELE ST,WAILUKU,HI,96793,
2002.0,WILDER AVE,Honolulu / Makiki,HI,96822,
,OANIANI ST,Kapolei,HI,96707,
,MAPUMAPU RD,Kaneohe,HI,96744,
3539.0,PUUKU MAUKA DR,Honolulu / Halsey Ter,HI,96818,
2609.0,MYRTLE ST,Honolulu / Waialae Kahala,HI,96816,
,WAAKEA PL,Kapolei,HI,96707,
751.0,AUKAI ST,WAILUKU,HI,96793,
3718.0,KILAUEA AVE,Honolulu / Waialae Kahala,HI,96816,
2325.0,ROUND TOP DR,Honolulu / Makiki,HI,96822,
1250.0,NEHOA ST,Honolulu / Makiki,HI,96822,
,MOKILA ST,Waianae,HI,96792,
,MAHALANI ST,Kaneohe,HI,96744,
,HOANO PL,Ewa Beach,HI,96706,
1703.0,NAIO ST,Honolulu / Kapalama,HI,96817,
,HAUULA HMSTD RD,Hauula,HI,96717,
629.0,HIND IUKA DR,Honolulu / Waialae Kahala,HI,96821,
,KAM HWY,Hauula,HI,96717,
18.0,KAWAI OLA PL,HANA,HI,96713,
,KAMAKAHALA ST,Waialua,HI,96791,
,LUALUALEI HMSTD RD,Waianae,HI,96792,
325.0,IOLANI AVE,Honolulu / Downtown,HI,96813,
1038.0,HANOHANO WAY,Honolulu / Hawaii Kai,HI,96825,
,KUHONU PL,Kaneohe,HI,96744,
,MAIO ST,Mililani,HI,96789,
,OAWA ST,MAKAKILO/KAPOLEI/HONOKAI HALE,HI,96707,
1081.0,KOOHOO PL,Kailua,HI,96734,
,PAEKO ST,Ewa Beach,HI,96706,
,NOLA ST,Pearl City,HI,96782,
2150.0,AULII ST,Honolulu / Kapalama,HI,96817,
,WIKAO ST,Mililani,HI,96789,
,HOOKUPU ST,Mililani,HI,96789,
234.0,CRESTVIEW RD,LAHAINA,HI,96761,
322.0,PAKAUWILI DR,Wahiawa,HI,96786,
,KAIIKUWA ST,Ewa Beach,HI,96706,
,ALAPOAI ST,Mililani,HI,96789,
27.0,KOLOPUA PL,WAILUKU,HI,96793,
229.0,TURNER ST,Wahiawa,HI,96786,
,KAILIULA LP,Mililani,HI,96789,
17.0,KUULA ST,KAHULUI,HI,96732,
,HOOLAUAE ST,Aiea,HI,96701,
,KEEHAU ST,Mililani,HI,96789,
234.0,AIKANE ST,Kailua,HI,96734,
,KAM HWY,Hauula,HI,96717,
1224.0,NANIALII ST,Kailua,HI,96734,
1504.0,WILHELMINA RISE,Honolulu / Waialae Kahala,HI,96816,
,KAM HWY,Mililani,HI,96789,
270.0,KUULEI RD,Kailua,HI,96734,
,LIOLIO PL,Kapolei,HI,96707,
632.0,MAALAHI ST,WAILUKU,HI,96793,
,HOOLAUAE ST,Aiea,HI,96701,
,MAKAU ST,Waianae,HI,96792,
,MILL ST,Waianae,HI,96792,
3310.0,PINAO ST,Honolulu / Makiki,HI,96822,
2120.0,WAIOLA ST,Honolulu / Makiki,HI,96826,
939.0,KAIPII ST,Kailua,HI,96734,
,IWAIWA ST,Aiea,HI,96701,
1165.0,NAMAHEALANI PL,Honolulu / Hawaii Kai,HI,96825,
,KEONEKAPU ST,Ewa Beach,HI,96706,
2041.0,HOOLEHUA ST,Pearl City,HI,96782,
1111.0,KAPIOLANI BLVD,Honolulu / Downtown,HI,96814,
,KANOULU ST,Waialua,HI,96791,
881.0,4TH ST,Pearl City,HI,96782,
,HOLOPU PL,Kaneohe,HI,96744,
7236.0,AIPO PL,Honolulu / Hawaii Kai,HI,96825,
220.0,IMI KALA ST,WAILUKU,HI,96793,
3890.0,OLD PALI RD,Honolulu / Kapalama,HI,96817,
1153.0,20TH AVE,Honolulu / Waialae Kahala,HI,96816,
7481.0,MAKAA ST,Honolulu / Hawaii Kai,HI,96825,
2163.0,MOTT SMITH DR,Honolulu / Makiki,HI,96822,
617.0,N KING ST,Honolulu / Kapalama,HI,96817,
62.0,POLALE ST,KIHEI,HI,96753,
1080.0,KUALA ST,Pearl City,HI,96782,
,LIANU PL,Waipahu,HI,96797,
1903.0,BERTRAM ST,Honolulu / Waialae Kahala,HI,96816,
911.0,LEKEONA LP,WAILUKU,HI,96793,
346.0,HUALANI ST,Kailua,HI,96734,
,KUMUNIU ST,Waimanalo,HI,96795,
,NAALII ST,Aiea,HI,96701,
,KUHEA ST,Mililani,HI,96789,
,NO ADDRESS,WAILUKU,HI,96793,
3662.0,KAWELOLANI PL,Honolulu / Waialae Kahala,HI,96816,
1652.0,PUANANALA ST,Pearl City,HI,96782,
,MAKALEA ST,Ewa Beach,HI,96706,
,KUANALIO WAY,Mililani,HI,96789,
870.0,PUU KULA DR,Pearl City,HI,96782,
,KAM HWY,Haleiwa,HI,96712,
10.0,HOOUI PL,KAHULUI,HI,96732,
5279.0,LIKINI ST,Honolulu / Halsey Ter,HI,96818,
418.0,S PAPA AV,KAHULUI,HI,96732,
,HEEIA ST,Kaneohe,HI,96744,
,KALEMAKAPII ST,Kapolei,HI,96707,
978.0,KOAE ST,Honolulu / Waialae Kahala,HI,96816,
,KAI KUKUMA ST,Ewa Beach,HI,96706,
,IOSEPA ST,Laie,HI,96762,
3358.0,KEANU ST,Honolulu / Waialae Kahala,HI,96816,
394.0,AUWAIOLIMU ST,Honolulu / Downtown,HI,96813,
,PUUKAA ST,Mililani,HI,96789,
,WAIPONO PL,Mililani,HI,96789,
2319.0,APOEPOE ST,Pearl City,HI,96782,
567.0,WAIKALA ST,KAHULUI,HI,96732,
,KAAMILO ST,Aiea,HI,96701,
,KELEWAA ST,Mililani,HI,96789,
131.0,KELEAWE ST,Maui,HI,96768,
780.0,ONEHEE ST,KAHULUI,HI,96732,
,HOLANIKU ST,Mililani,HI,96789,
273.0,ULUA ST,Honolulu / Waialae Kahala,HI,96821,
,HUI KELU ST,Kaneohe,HI,96744,
,ALENA LP,Waialua,HI,96791,
850.0,KANAKEA LP,LAHAINA,HI,96761,
1216.0,NANIALII ST,Kailua,HI,96734,
1572.0,MONTE ST,Honolulu / Tripler,HI,96819,
981.0,HOOMAHANA PL,MAKAWAO,HI,96768,
1034.0,KAPUKAULUA PL,Maui,HI,0,
,KIKIULA PL,Mililani,HI,96789,
,MAKAIAU PL,Kahuku,HI,96731,
606.0,ULULANI ST,Kailua,HI,96734,
,HALEMANU ST,Kaneohe,HI,96744,
,KINOIKI ST,Kapolei,HI,96707,
,KAM HWY,Haleiwa,HI,96712,
1017.0,ELSIE LN,Honolulu / Makiki,HI,96826,
,LAHAINA ST,Waianae,HI,96792,
444.0,OLINDA RD,MAKAWAO,HI,96768,
932.0,8TH AVE,Honolulu,HI,96816,
2324.0,HOALU PL,Honolulu / Makiki,HI,96822,
1194.0,KUOKOA ST,Pearl City,HI,96782,
,MOKIAWE ST,Waianae,HI,96792,
,PUEONANI ST,Kapolei,HI,96707,
1424.0,N HIAHIA PL,WAILUKU,HI,96793,
7007.0,HAWAII KAI DR,Honolulu / Hawaii Kai,HI,96825,
560.0,ULUKANU ST,Kailua,HI,96734,
,KAILEOLEA DR,Ewa Beach,HI,96706,
,KAM HWY,Hauula,HI,96717,
,WAIANAE VALLEY RD,Waianae,HI,96792,
,OLI LP,Waipahu,HI,96797,
413.0,KUUPAU ST,Kapolei,HI,96707,
734.0,18TH AVE,Honolulu / Waialae Kahala,HI,96816,
,MIKANA ST,Waianae,HI,96792,
386.0,MOKUAHI ST,Maui,HI,96768,
1256.0,ALOHA OE DR,Kailua,HI,96734,
17.0,KEAWA PL,HANA,HI,96713,
2023.0,FERN ST,Honolulu / Makiki,HI,96826,
2218.0,AUMAKUA ST,Pearl City,HI,96782,
,ILIULA PL,Mililani,HI,96789,
3334.0,PAWAINA ST,Honolulu / Makiki,HI,96822,
,PUALEILANI ST,Waianae,HI,96792,
1024.0,SMITH ST,Honolulu / Kapalama,HI,96817,
39.0,KAIHOLU PL,Kailua,HI,96734,
3836.0,KILAUEA AVE,Honolulu / Waialae Kahala,HI,96816,
1005.0,LUNAAI ST,Kailua,HI,96734,
6942.0,KALANIANAOLE HWY,Honolulu / Hawaii Kai,HI,96825,
,LELEAKA ST,Mililani,HI,96789,
,KANIAU PL,Waipahu,HI,96797,
1173.0,21ST AVE,Honolulu / Waialae Kahala,HI,96816,
1398.0,OHINA PL,Honolulu / Hawaii Kai,HI,96825,
236.0,KAPILI ST,Honolulu / Waikiki,HI,96815,
,PUA INIA ST,Kaneohe,HI,96744,
341.0,W LANAI AV,KAHULUI,HI,96732,
,WATER ST,Waianae,HI,96792,
5011.0,LOWER KULA RD,KULA,HI,96790,
821.0,MAKALII ST,KAHULUI,HI,96732,
,KILI DR,Waianae,HI,96792,
,PAEKO ST,Ewa Beach,HI,96706,
,NORTH RD,Ewa Beach,HI,96706,
3132.0,CHARLES ST,Honolulu / Waialae Kahala,HI,96816,
595.0,KUMUKAHI PL,Honolulu / Hawaii Kai,HI,96825,
,KAM HWY,Haleiwa,HI,96712,
322.0,KEOLU DR,Kailua,HI,96734,
255.0,UWALA RD,HANA,HI,96713,
930.0,KAHEKA ST,Honolulu / Downtown,HI,96814,
1684.0,HOOHALIA ST,Pearl City,HI,96782,
1615.0,KAUMOLI ST,Pearl City,HI,96782,
403.0,MOLOKAI HEMA ST,KAHULUI,HI,96732,
2745.0,MANOA RD,Honolulu / Makiki,HI,96822,
38.0,PIINA PL,LAHAINA,HI,96761,
2612.0,PETER ST,Honolulu / Waialae Kahala,HI,96816,
971.0,QUEEN ST,Honolulu / Downtown,HI,96814,
546.0,KAWAIHAE ST,Honolulu / Hawaii Kai,HI,96825,
,KAIWAWALO ST,Ewa Beach,HI,96706,
708.0,MOKULEIA PL,LAHAINA,HI,96761,
1364.0,MAHIOLE ST,Honolulu / Tripler,HI,96819,
1468.0,KEALIA DR,Honolulu / Kapalama,HI,96817,
370.0,HIND DR,Honolulu / Waialae Kahala,HI,96821,
,IUIU ST,Kaneohe,HI,96744,
1509.0,S KING ST,Honolulu / Makiki,HI,96826,
,HELELUA ST,Waianae,HI,96792,
,HALOKU ST,Mililani,HI,96789,
3169.0,BEAUMONT WOODS PL,Honolulu / Makiki,HI,96822,
1005.0,KAILUA RD,Kailua,HI,96734,
2727.0,MANOA RD,Honolulu / Makiki,HI,96822,
2244.0,AAMANU ST,Pearl City,HI,96782,
1032.0,LUNAAI PL,Kailua,HI,96734,
311.0,W HAWAII ST,KAHULUI,HI,96732,
,NUKUWAI PL,Kaneohe,HI,96744,
,KAM HWY,Hauula,HI,96717,
230.0,AIKAPA ST,Kailua,HI,96734,
1055.0,KAUPAKU PL,Honolulu / Hawaii Kai,HI,96825,
,HALEIWA RD,Haleiwa,HI,96712,
,KAM HWY,Kaneohe,HI,96744,
,AWELE PL,Kaneohe,HI,96744,
,MEHE PL,Waipahu,HI,96797,
,KAHOLO ST,Mililani,HI,96789,
,KAPEHU ST,Waipahu,HI,96797,
,APOALEWA PL,Kaneohe,HI,96744,
19.0,LOIHI PL,KAHULUI,HI,96732,
2801.0,COCONUT AVE,Honolulu / Waikiki,HI,96815,
41.0,POLALE ST,KIHEI,HI,96753,
,KOOLAU HALE PL,Kaneohe,HI,96744,
1579.0,PAUKIKI ST,Kailua,HI,96734,
1551.0,AKAAKOA PL,Kailua,HI,96734,
,MIKIOLA DR,Kaneohe,HI,96744,
128.0,KEONELOA ST,WAILUKU,HI,96793,
,MALAE PL,Aiea,HI,96701,
1141.0,1ST AVE,Honolulu / Waialae Kahala,HI,96816,
,KAHILINAI PL,Aiea,HI,96701,
,KEPAUALA PL,Waianae,HI,96792,
36.0,MANUAHI PL,HAIKU,HI,96708,
812.0,18TH AVE,Honolulu,HI,96816,
3342.0,KAUHANA PL,Honolulu / Waialae Kahala,HI,96816,
,MAKAALOA ST,Ewa Beach,HI,96706,
5000.0,KULA HY,KULA,HI,96790,
1805.0,PAULA DR,Honolulu / Waialae Kahala,HI,96816,
1729.0,OLONA LN,Honolulu / Kapalama,HI,96817,
672.0,KEOLU DR,Kailua,HI,96734,
182.0,MAKAWEO AVE,Wahiawa,HI,96786,
3223.0,LUAHINE PL,HAIKU,HI,96708,
3415.0,MAUNALOA AVE,Honolulu / Waialae Kahala,HI,96816,
1011.0,MAUNAKEA ST,Honolulu / Kapalama,HI,96817,
,ALA AKAU ST,Waianae,HI,96792,
6604.0,KALOPA ST,Honolulu / Hawaii Kai,HI,96825,
1441.0,HIIKALA PL,Honolulu / Waialae Kahala,HI,96821,
,MAHINUI PL,Kaneohe,HI,96744,
815.0,LOPEZ LN,Honolulu / Kapalama,HI,96817,
,HOIKAIKA PL,Waipahu,HI,96797,
,PAIKAUHALE ST,Mililani,HI,96789,
131.0,PONANA ST,KIHEI,HI,96753,
21.0,KUI PL,LAHAINA,HI,96761,
,KAPEHU ST,Waipahu,HI,96797,
25.0,HOKU PL,PAIA,HI,96779,
,HALAWA HTS RD,Aiea,HI,96701,
1248.0,KINA ST,Kailua,HI,96734,
5609.0,PIA ST,Honolulu / Waialae Kahala,HI,96821,
,AHOLE PL,Ewa Beach,HI,96706,
,KAM HWY,Haleiwa,HI,96712,
,ALINA PL,Kaneohe,HI,96744,
1011.0,ALA MOANA,Honolulu,HI,96813,
329.0,KAILUA RD,Kailua,HI,96734,
645.0,ELUENE PL,WAILUKU,HI,96793,
956.0,PAAAINA ST,Pearl City,HI,96782,
1015.0,ALA NAPUNANI,Honolulu / Halsey Ter,HI,96818,
,KAHUAINA ST,Waipahu,HI,96797,
4339.0,KEAKA DR,Honolulu / Halsey Ter,HI,96818,
1633.0,KAHAI ST,Honolulu / Tripler,HI,96819,
,FORT WEAVER RD,Ewa Beach,HI,96706,
,KAHAKEA ST,Waipahu,HI,96797,
,NOHOLOA LP,Mililani,HI,96789,
5085.0,KEIKILANI CIR,Honolulu / Waialae Kahala,HI,96821,
,APOKE PL,Ewa Beach,HI,96706,
,PUHIKANI PL,Ewa Beach,HI,96706,
,LANIKUHANA AVE,Mililani,HI,96789,
,HOOLAUAE ST,Aiea,HI,96701,
1618.0,S KING ST,Honolulu / Makiki,HI,96826,
,KAHAPILI ST,Aiea,HI,96701,
1351.0,HOOHULU ST,Pearl City,HI,96782,
3425.0,KAAU ST,Honolulu / Waialae Kahala,HI,96816,
,HINALII ST,Mililani,HI,96789,
,POHAKUPUNA RD,Ewa Beach,HI,96706,
1719.0,10TH AVE,Honolulu / Waialae Kahala,HI,96816,
,PIKI ST,Aiea,HI,96701,
,KAM HWY,Hauula,HI,96717,
247.0,KARSTEN DR,Wahiawa,HI,96786,
,APUKI ST,Mililani,HI,96789,
627.0,6TH AVE,Honolulu / Waialae Kahala,HI,96816,
,LAULAUNUI ST,Ewa Beach,HI,96706,
,NUKUMOMI PL,Kaneohe,HI,96744,
5290.0,KALANIANAOLE HWY,Honolulu / Waialae Kahala,HI,96821,
942.0,LEMIWAI ST,Wahiawa,HI,96786,
3640.0,SALT LAKE BLVD,Honolulu / Halsey Ter,HI,96818,
,KILINOE ST,Aiea,HI,96701,
1556.0,HOOLANA ST,Pearl City,HI,96782,
132.0,ONEAWA ST,Kailua,HI,96734,
,MEAPA ST,Mililani,HI,96789,
,KAILEONUI ST,Ewa Beach,HI,96706,
,CROZIER DR,Waialua,HI,96791,
959.0,KOLOKOLO PL,Honolulu / Hawaii Kai,HI,96825,
,HUMUNIKI ST,Waimanalo,HI,96795,
1416.0,AUAUKI ST,Kailua,HI,96734,
162.0,N KAINALU DR,Kailua,HI,96734,
,HANALOA ST,Ewa Beach,HI,96706,
,HOOMAILANI ST,Pearl City,HI,96782,
,KAM HWY,Hauula,HI,96717,
,LOAA ST,Waipahu,HI,96797,
1749.0,PAULA DR,Honolulu / Waialae Kahala,HI,96816,
3530.0,PAHOA AVE,Honolulu / Waialae Kahala,HI,96816,
895.0,AIPO ST,Honolulu / Hawaii Kai,HI,96825,
966.0,PUULOA ST,WAILUKU,HI,96793,
2635.0,NIHI ST,Honolulu / Tripler,HI,96819,
3792.0,PUKALANI PL,Honolulu / Waialae Kahala,HI,96816,
76.0,KUMULAAU OHIA LP,WAILUKU,HI,96793,
660.0,KUNU PL,KAHULUI,HI,96732,
,HANAMU RD,Maui,HI,0,
,MIKIHILINA ST,Kaneohe,HI,96744,
,WEKIU PL,Mililani,HI,96789,
1242.0,KELEWINA ST,Kailua,HI,96734,
,KAIAMEKALA  ST,Waianae,HI,96792,
2442.0,CLEGHORN ST,Honolulu / Waikiki,HI,96815,
,MAKAALOA ST,Ewa Beach,HI,96706,
,LUAHOANA ST,Ewa Beach,HI,96706,
166.0,AUMOE RD,Kailua,HI,96734,
1359.0,9TH AVE,Honolulu / Waialae Kahala,HI,96816,
1293.0,AKAMAI ST,Kailua,HI,96734,
,KUALAPA ST,Mililani,HI,96789,
181.0,LUMAHAI ST,Honolulu / Hawaii Kai,HI,96825,
,HOOMAALILI ST,Ewa Beach,HI,96706,
879.0,UPALU ST,WAILUKU,HI,96793,
,OHENANA LP,Aiea,HI,96701,
,OHIO ST,MAKAKILO/KAPOLEI/HONOKAI HALE,HI,96707,
200.0,OE ST,KIHEI,HI,96753,
,KAILOA ST,Ewa Beach,HI,96706,
1449.0,AKANAHE PL,Kailua,HI,96734,
1069.0,SPENCER ST,Honolulu / Makiki,HI,96822,
,ALIINUI DR,Kapolei,HI,96707,
,PALAI ST,Waipahu,HI,96797,
,PUONI PL,Kaneohe,HI,96744,
,HONOHONO ST,Aiea,HI,96701,
,KAILEOLEA DR,Ewa Beach,HI,96706,
6133.0,SUMMER ST,Honolulu / Waialae Kahala,HI,96821,
,KUNIA RD,Kunia,HI,96759,
1706.0,MOALA PL,Wahiawa,HI,96786,
1705.0,EMA PL,Honolulu / Tripler,HI,96819,
292.0,ALAMAHA ST,KAHULUI,HI,96732,
,OPUAKII PL,Kapolei,HI,96707,
1526.0,ALEXANDER ST,Honolulu / Makiki,HI,96822,
793.0,KII ST,Honolulu / Hawaii Kai,HI,96825,
2150.0,KALAKAUA AVE,Honolulu / Waikiki,HI,96815,
4237.0,LIKINI ST,Honolulu / Halsey Ter,HI,96818,
,LOLOPUA PL,Kaneohe,HI,96744,
243.0,PALANEHE PL,KIHEI,HI,96753,
3826.0,ROUND TOP DR,Honolulu / Makiki,HI,96822,
,MAKAPIPIPI ST,Mililani,HI,96789,
447.0,LIHOLIHO ST,WAILUKU,HI,96793,
119.0,POLOKE PL,Honolulu / Makiki,HI,96822,
129.0,WAIALEALE ST,Honolulu / Hawaii Kai,HI,96825,
128.0,UPPER KIMO DR,KULA,HI,96790,
115.0,KUHUOI ST,KAHULUI,HI,96732,
2955.0,KAILIILI RD,HAIKU,HI,96708,
1108.0,KAHULUI ST,Honolulu / Hawaii Kai,HI,96825,
7269.0,NUULOLO ST,Honolulu / Hawaii Kai,HI,96825,
,KAMAHAO ST,Pearl City,HI,96782,
,KALANIANAOLE HWY,Waimanalo,HI,96795,
35.0,LAIMI RD,Honolulu / Kapalama,HI,96817,
760.0,AHUWALE ST,Honolulu / Waialae Kahala,HI,96821,
,KILINAHE ST,Ewa Beach,HI,96706,
,OHAPALI ST,Waipahu,HI,96797,
2871.0,POELUA ST,Honolulu / Makiki,HI,96822,
272.0,ILIKAI ST,KIHEI,HI,96753,
1607.0,MAKIKI ST,Honolulu / Makiki,HI,96822,
,MAUELE  ST,Waipahu,HI,96797,
1323.0,AULEPE ST,Kailua,HI,96734,
221.0,S ALU RD,WAILUKU,HI,96793,
4315.0,OLALOA ST,Honolulu / Halsey Ter,HI,96818,
,ULUNE ST,Aiea,HI,96701,
166.0,PALAPU ST,Kailua,HI,96734,
,UNAHE PL,Kaneohe,HI,96744,
1905.0,HALAKAU PL,Honolulu / Waialae Kahala,HI,96821,
,AKIHILOA ST,Waipahu,HI,96797,
,PEKAU ST,Ewa Beach,HI,96706,
4308.0,KAHALA AVE,Honolulu / Waialae Kahala,HI,96816,
6260.0,KAWAIHAE PL,Honolulu / Hawaii Kai,HI,96825,
,ULELE PL,Kapolei,HI,96707,
1320.0,PIIKOI ST,Honolulu / Downtown,HI,96814,
,APUU WAY,Ewa Beach,HI,96706,
3731.0,KANAINA AVE,Honolulu / Waikiki,HI,96815,
2731.0,AINA LANI DR,PUKALANI,HI,96768,
1120.0,MAUNAWILI RD,Kailua,HI,96734,
,KAM HWY,Haleiwa,HI,96712,
,PUA AVE,Waianae,HI,96792,
471.0,KAPAHULU AVE,Honolulu / Waikiki,HI,96815,
3456.0,HARDESTY ST,Honolulu / Waialae Kahala,HI,96816,
912.0,KANA PL,Honolulu / Waialae Kahala,HI,96816,
643.0,TWIN VIEW DR,Honolulu / Kapalama,HI,96817,
,KAILEOLEA DR,Ewa Beach,HI,96706,
2827.0,BOOTH RD,Honolulu / Downtown,HI,96813,
709.0,15TH AVE,Honolulu / Waialae Kahala,HI,96816,
,AKAULA ST,Kapolei,HI,96707,
1326.0,HALONA ST,Honolulu / Kapalama,HI,96817,
992.0,KALUANUI RD,Honolulu / Hawaii Kai,HI,96825,
152.0,CIRCLE DR,Wahiawa,HI,96786,
953.0,KOLOKOLO PL,Honolulu / Hawaii Kai,HI,96825,
,KAAPUWAI ST,Kapolei,HI,96707,
,APOHELE PL,Mililani,HI,96789,
1537.0,KEALIA DR,Honolulu / Kapalama,HI,96817,
,KAPOLEI PKWY,Kapolei,HI,96707,
45.0,LOIO PL,PAIA,HI,96779,
,HAMAU ST,Waipahu,HI,96797,
478.0,KAHUA PL,PAIA,HI,96779,
1518.0,DEMENT ST,Honolulu / Tripler,HI,96819,
,LILIPUNA RD,Kaneohe,HI,96744,
1721.0,PALI HWY,Honolulu / Downtown,HI,96813,
,KOIO DR,Kapolei,HI,96707,
,KAPAEKAHI ST,Waianae,HI,96792,
614.0,SHERIDAN ST,Honolulu / Downtown,HI,96814,
,WAIKELE RD,Waipahu,HI,96797,
767.0,HAO ST,Honolulu / Waialae Kahala,HI,96821,
186.0,W IKEA MOKU PL,KIHEI,HI,96753,
,MAIAU ST,Waipahu,HI,96797,
2056.0,MANOA RD,Honolulu / Makiki,HI,96822,
1746.0,HOOKUPA ST,Pearl City,HI,96782,
,WAIA LP,Mililani,HI,96789,
,NO ADDRESS,WAILUKU,HI,96793,
1076.0,KAHILI PL,Kailua,HI,96734,
930.0,KAINUI DR,Kailua,HI,96734,
,MANUULAULA ST,Waianae,HI,96792,
,LOKALIA ST,Mililani,HI,96789,
7.0,PAPAHI LP,KAHULUI,HI,96732,
,KAM HWY,Laie,HI,96762,
5944.0,KALANIANAOLE HWY,Honolulu / Waialae Kahala,HI,96821,
404.0,KALAMA ST,Kailua,HI,96734,
157.0,ALALA RD,Kailua,HI,96734,
913.0,8TH AVE,Honolulu,HI,96816,
,FORT WEAVER RD,Ewa Beach,HI,96706,
1278.0,AUWAIKU ST,Kailua,HI,96734,
,KAM HWY,Haleiwa,HI,96712,
,HOOMAKA ST,Ewa Beach,HI,96706,
1144.0,FORT ST MALL,Honolulu / Downtown,HI,96813,
,PUHIKANI PL,Ewa Beach,HI,96706,
3075.0,OLD HALEAKALA HY,PUKALANI,HI,96768,
,COBB ADAMS RD,Kaneohe,HI,96744,
2433.0,NAAI ST,Honolulu / Tripler,HI,96819,
3164.0,KILANI PL,PUKALANI,HI,96768,
,KANAKA ST,Kaneohe,HI,96744,
659.0,MAKAWAO AV,MAKAWAO,HI,96768,
2419.0,HIHIO PL,Honolulu / Tripler,HI,96819,
54.0,ILIAHI WAY,LAHAINA,HI,96761,
,WAIKALUA RD,Kaneohe,HI,96744,
,NO ADDRESS,KIHEI,HI,96753,
99.0,MOLEHULEHU LP,KAHULUI,HI,96732,
,OLI PL,Waipahu,HI,96797,
7.0,MALUAINA PL,HAIKU,HI,96708,
3612.0,SIERRA DR,Honolulu / Waialae Kahala,HI,96816,
75.0,LAUKAHI ST,KIHEI,HI,96753,
91.0,AKULE PL,WAILUKU,HI,96793,
5525.0,KALANIANAOLE HWY,Honolulu / Waialae Kahala,HI,96821,
,LIHIKAI DR,Kaneohe,HI,96744,
804.0,HOOMAU ST,WAILUKU,HI,96793,
363.0,KIKOO PL,Honolulu / Hawaii Kai,HI,96825,
,WAIPAHU ST,Waipahu,HI,96797,
299.0,S MOKAPU ST,KAHULUI,HI,96732,
549.0,PINE ST,Wahiawa,HI,96786,
1920.0,BERTRAM ST,Honolulu / Waialae Kahala,HI,96816,
2337.0,HOALU PL,Honolulu / Makiki,HI,96822,
,MEHEULA PKWY,Mililani,HI,96789,
1638.0,HAUIKI ST,Honolulu / Tripler,HI,96819,
,WAIPAHU DEPOT ST,Waipahu,HI,96797,
,KANAE ST,Mililani,HI,96789,
33.0,ELEU PL,KIHEI,HI,96753,
,MALAIHI RD,WAILUKU,HI,96793,
2426.0,AUHUHU ST,Pearl City,HI,96782,
32.0,W KAPUEONE PL,WAILUKU,HI,96793,
651.0,KAULU PL,KAHULUI,HI,96732,
,KIKEPA ST,Waipahu,HI,96797,
,KAM HWY,Kaneohe,HI,96744,
3223.0,CASTLE ST,Honolulu / Waikiki,HI,96815,
1241.0,LUNALILO HOME RD,Honolulu / Hawaii Kai,HI,96825,
214.0,KAWAIKUI PL,Honolulu,HI,96821,
2143.0,HAENA DR,Honolulu / Makiki,HI,96822,
1751.0,PUOWAINA DR,Honolulu / Downtown,HI,96813,
,PAHELEHALA LP,Kahuku,HI,96731,
,ULU ST,Aiea,HI,96701,
,NANAMOANA ST,Kaneohe,HI,96744,
,NUKEA ST,Waianae,HI,96792,
1213.0,14TH AVE,Honolulu / Waialae Kahala,HI,96816,
3027.0,KAINA ST,Honolulu / Waikiki,HI,96815,
52.0,WILIPOHAKU RD,WAILUKU,HI,96793,
1479.0,KALAEPOHAKU ST,Honolulu / Waialae Kahala,HI,96816,
,MOANA ST,Laie,HI,96762,
2306.0,BOOTH RD,Honolulu / Downtown,HI,96813,
,ALAIHI ST,Waimanalo,HI,96795,
,KAAMILO ST,Aiea,HI,96701,
4621.0,FARMERS RD,Honolulu / Waialae Kahala,HI,96816,
,PUWALU ST,Ewa Beach,HI,96706,
,KUPUNA LP,Waipahu,HI,96797,
403.0,KAIOLU ST,Honolulu / Waikiki,HI,96815,
156.0,PIIMAUNA ST,PUKALANI,HI,96768,
602.0,KUNAWAI LN,Honolulu / Kapalama,HI,96817,
1203.0,KAIAMA PL,Honolulu / Hawaii Kai,HI,96825,
3765.0,LOWER HONOAPIILANI RD,LAHAINA,HI,96761,
,MIKIOLA DR,Kaneohe,HI,96744,
