NUMBER,STREET,CITY,STATE,POSTCODE,UNIT
805.0,Kearney Ave,Riverton,IA,51650-2042,
246.0,GOLFVIEW CT,NORTH LIBERTY,IA,52317,
1619.0,Main St,Rock Valley,IA,51247-1042,
2209.0,Knapp Ave,Marshalltown,IA,50158-9854,
3911.0,HENSLEIGH DR NE,IOWA CITY,IA,52240,
208.0,Sellars St,Quimby,IA,51049-7702,
408.0,2nd Ave,Vail,IA,51465-7720,
3420.0,McGowan Blvd,Marion,IA,52302,
445.0,Main St,Stanhope,IA,50246-7710,
1110.0,31st St,Perry,IA,50220-2342,
3656.0,460th St,Orange City,IA,51041-7561,
112.0,Main,Rippey,IA,50235,
1170.0,MT LORETTA AVE,DUBUQUE,IA,52003,
4062.0,Alburnett Rd,Marion,IA,52302,
1321.0,10th Ave,Manson,IA,50563-7721,
450.0,PENN CT,NORTH LIBERTY,IA,52317,4.0
1206.0,14TH ST,DES MOINES,IA,50314,
337.0,E TITUS AVE,DES MOINES,IA,50315,
8420.0,NW COUNTRY CLUB DR,URBANDALE,IA,50322,
3212.0,Sherwood Pl,Marion,IA,52302,
4109.0,6TH AVE,DES MOINES,IA,50313,
610.0,Old School Rd,Ely,IA,52227,
208.0,Oak Ave,Charter Oak,IA,51439-7452,
625.0,EMERALD ST,IOWA CITY,IA,52246,30.0
203.0,S Us Highway 71,Carroll,IA,51401-9127,
2154.0,CHAD DR,CORALVILLE,IA,52241,
15381.0,LAKEVIEW DR,CLEAR LAKE,IA,50428,
806.0,Wellington St SE,Cedar Rapids,IA,52403,
2886.0,Hart Ave,Melbourne,IA,50162-9549,
16413.0,150th St,Whiting,IA,51063-8759,
100.0,1st Ave NE,Cedar Rapids,IA,52401,
2576.0,BLUFFWOOD LN,IOWA CITY,IA,52245,
1615.0,140th St,Manchester,IA,52057-8845,
3901.0,MATTERN AVE,DES MOINES,IA,50317,
2524.0,E TIFFIN AVE,DES MOINES,IA,50317,
4330.0,WINTER EAGLE TRL SE,IOWA CITY,IA,52240,
9901.0,QUAIL RDG,URBANDALE,IA,50322,
120.0,Main St,Lehigh,IA,50557-7596,
2002.0,ROCHESTER AVE,IOWA CITY,IA,52245,
516.0,N 15th St,Marshalltown,IA,50158-5426,
2129.0,Avenue C,Council Bluffs,IA,51501-2314,
1514.0,W 11th St,Clay,IA,51301-2912,
6226.0,Panorama Dr,Panora,IA,50216-8727,
1634.0,6th Ave,Council Bluffs,IA,51501-6115,
2625.0,Joplin Ave,Denver,IA,50622-1037,
512.0,2nd St,Ida Grove,IA,51445-1305,
1315.0,27th Ave N,Fort Dodge,IA,50501-7238,
510.0,NE 24TH CT,ANKENY,IA,50021,
713.0,E 23rd St N,Newton,IA,50208-2661,
305.0,S 11th St,Sac City,IA,50583-2037,
1640.0,9th St NW,Cedar Rapids,IA,52405,
108.0,Main St,Massena,IA,50853-1048,
441.0,WESTWINDS DR,IOWA CITY,IA,52246,
1319.0,8TH ST,DES MOINES,IA,50314,
220.0,AUTUMN CT,NORTH LIBERTY,IA,52317,
640.0,7th St,Waukee,IA,50263,
114.0,Parkside Dr,Algona,IA,50511-7244,
606.0,PONDS CT,TIFFIN,IA,52340,
1608.0,Willow St,Harlan,IA,51537-1558,
305.0,Oak St,Waverly,IA,50677-4502,
3339.0,LOWER WEST BRANCH RD,IOWA CITY,IA,52245,
704.0,Maywood Dr,Storm Lake,IA,50588-1979,
1311.0,Lincoln Ave,Harlan,IA,51537-2041,
111.0,N PENNSYLVANIA AVE,MASON CITY,IA,50401,
7016.0,TWANA DR,URBANDALE,IA,50322,
836.0,Churchill Dr,Larchwood,IA,51241-7751,
29583.0,185th St,Honey Creek,IA,51542-4089,
711.0,7th Ave E,Cresco,IA,52136-1110,
1968.0,MACKINAW DR,IOWA CITY,IA,52245,
2010.0,1st Ave N,Fort Dodge,IA,50501-6744,
2537.0,MAPLE ST,DES MOINES,IA,50317,
1530.0,E PARK AVE,DES MOINES,IA,50320,
1061.0,650th Ave,Albia,IA,52531-8874,
6343.0,Cope Dr,Marion,IA,52302,
3010.0,153rd St,Urbandale,IA,50323-2423,
2015.0,Crestwood Ln,Marion,IA,52302,
417.0,S GILBERT ST,IOWA CITY,IA,52240,2334.0
304.0,Parsons St,Prairieburg,IA,52219,
1813.0,2nd Ave N,Fort Dodge,IA,50501-4138,
3143.0,W Broadway,Council Bluffs,IA,51501-3359,
3300.0,W 32ND ST,DUBUQUE,IA,52001,
109.0,NE 70TH AVE,ANKENY,IA,50023,
4249.0,NE 26TH ST,DES MOINES,IA,50317,
122.0,1st Ave Se,Sioux Center,IA,51250-1521,
810.0,Weare St,Woodbine,IA,51579-1043,
1978.0,Sandy Beach Rd,Clarion,IA,50525-7608,
23511.0,283rd Ave,Leon,IA,50144-2854,
2011.0,Linmar Dr NE,Cedar Rapids,IA,52402,
102.0,Elizabeth St W,Grand Junction,IA,50107-9636,
5047.0,3RD ST SW,KALONA,IA,52247,
905.0,W Washington St,Knoxville,IA,50138-3028,
107.0,S 1st St,Panama,IA,51562-5032,
108.0,S 4th Ave,Templeton,IA,51463-2311,
3512.0,KEYES DR,DES MOINES,IA,50315,
118.0,Pike Ave,Carroll,IA,51401-1623,
400.0,9TH ST,WEST DES MOINES,IA,50265,
1905.0,Argyle St,Hamburg,IA,51640-1503,
4438.0,WISTFUL VISTA DR,WEST DES MOINES,IA,50265,
3830.0,PARK AVE,DES MOINES,IA,50321,
1300.0,5TH AVE,DES MOINES,IA,50314,
1118.0,188th Rd,Boone,IA,50036-7236,
31593.0,Puckerbrush Rd,Adel,IA,50003-8588,
1416.0,N Carroll St,Carroll,IA,51401-1540,
1676.0,NW 99TH CT,CLIVE,IA,50325,
2456.0,MAPLEWOOD DR,DUBUQUE,IA,52002,
33111.0,Cheri Ln,Waukee,IA,50263-7025,
7806.0,SW 11TH ST,DES MOINES,IA,50315,
1107.0,23RD ST,DES MOINES,IA,50311,
818.0,SE OAK DR,ANKENY,IA,50021,
2607.0,BEAVER AVE,DES MOINES,IA,50310,
2350.0,LANDON RD,NORTH LIBERTY,IA,52317,
30608.0,PIN OAK,DYERSVILLE,IA,52040,
36594.0,River Oaks Cir,Cumming,IA,50061,
24280.0,Coyote Ridge Dr,Van Meter,IA,50261-6025,
16531.0,255th Ave,Spirit Lake,IA,51360-7006,
33682.0,240th St,Scranton,IA,51462-8006,
7515.0,Summerset  Ave NE,Cedar Rapids,IA,52402,
106.0,E Butler St,Manchester,IA,52057-1607,
1707.0,105th St,Earlham,IA,50072-8637,
1802.0,Probst Dr SW,Cedar Rapids,IA,52404,
302.0,S 16th Ave W,Newton,IA,50208-5309,
914.0,BOYD ST,DES MOINES,IA,50316,
5918.0,Oakwood Ave NE,Cedar Rapids,IA,52402,
516.0,7th St,Jesup,IA,50648-2000,
1000.0,Clifton St NE,Cedar Rapids,IA,52402,
205.0,Washington Ave,Story,IA,50010-7009,
1237.0,Pontoppidan Rd,Decorah,IA,52101-7349,
2135.0,1st Ave SE,Cedar Rapids,IA,52403,
421.0,S Sample St,Algona,IA,50511-2933,
15215.0,Greenbelt Dr,Urbandale,IA,50323,
2502.0,NW 9TH ST,ANKENY,IA,50023,
410.0,N Main St,Madrid,IA,50156-1043,
12078.0,COTTINGHAM RD,PEOSTA,IA,52068,
408.0,Maxwell St,Story,IA,50161-2015,
1919.0,E LACONA AVE,DES MOINES,IA,50320,
1717.0,14th Ave SE,Cedar Rapids,IA,52401,
1301.0,S GILBERT ST,IOWA CITY,IA,52240,39.0
12382.0,LINCOLN AVE,CLIVE,IA,50325,
6915.0,Underwood Ave SW,Cedar Rapids,IA,52404,
5190.0,NE 5TH ST,DES MOINES,IA,50313,
206.0,Jessie St,Ossian,IA,52161-8104,
610.0,8th Ave,Story,IA,50244-9739,
534.0,N 3rd St,Marshalltown,IA,50158-5504,
4343.0,OAKRIDGE TRL NE,IOWA CITY,IA,52240,
100.0,W Arvilla St,Garden Grove,IA,50103-7706,
5007.0,LYNDALE DR,DES MOINES,IA,50310,
19453.0,HICKORY VALLEY RD,NEW VIENNA,IA,52065,
2206.0,S 8th Ave E,Newton,IA,50208-5125,
227.0,S Cedar St,Boone,IA,50036-4336,
46627.0,120th Ave,Scarville,IA,50473-7556,
4000.0,Sherman St NE,Cedar Rapids,IA,52402,
350.0,NW 74TH AVE,ANKENY,IA,50023,
235.0,S  21st Street Ct,Marion,IA,52302,
15281.0,Woodcrest Dr,Clive,IA,50325,
1119.0,4th Ave N,Fort Dodge,IA,50501-4016,
1527.0,Nebraska St,Boone,IA,50036-1139,
403.0,E 7th St,Carroll,IA,51401-2521,
4417.0,SW CAMDEN RIDGE CT,ANKENY,IA,50023,
10503.0,STONEBRIDGE DR,JOHNSTON,IA,50131,
413.0,SE 4TH ST,ANKENY,IA,50021,
1831.0,Mallory St SW,Cedar Rapids,IA,52404,
6190.0,Mills Civic Pkwy,West Des Moines,IA,50266-8283,
602.0,SE 5TH ST,ANKENY,IA,50021,
1415.0,3rd St,Boone,IA,50036-3703,
2975.0,Silver Oak Trl,Marion,IA,52302,
3129.0,5TH AVE,DES MOINES,IA,50313,
3810.0,DOUGLAS AVE,DES MOINES,IA,50310,
317.0,Blazingstar Ct,Fairfax,IA,52228,
3309.0,E 53RD CT,DES MOINES,IA,50317,
1723.0,3rd St,Perry,IA,50220-1326,
510.0,King St,Jewell,IA,50130-7740,
16992.0,Winston Cir,Clive,IA,50325,
200.0,10th St,Glenwood,IA,51534-1149,
2520.0,DES MOINES ST,DES MOINES,IA,50317,
1101.0,IOWA ST,DUBUQUE,IA,52001,
14525.0,120th St,Alden,IA,50006-9236,
650.0,S 13th St,Story,IA,50201-2442,
311.0,CHEROKEE TRL,IOWA CITY,IA,52240,
1530.0,Sunset Dr,Belle Plaine,IA,52208-1320,
4703.0,WISTFUL VISTA DR,WEST DES MOINES,IA,50265,
2604.0,MARQUETTE PL,DUBUQUE,IA,52001,
504.0,Nicholas Dr,Marshalltown,IA,50158-4446,
3.0,GALLUP PL,IOWA CITY,IA,52246,
106.0,ASPEN DR   NE,BONDURANT,IA,50035,
225.0,12th St,Marion,IA,52302,
607.0,E Butler St,Manchester,IA,52057-1615,
303.0,S Roche St,Knoxville,IA,50138-2333,
15.0,NAVAJO TRL,IOWA CITY,IA,52240,
2724.0,Avenue E,Council Bluffs,IA,51501-2132,
120.0,26th Street Dr SE,Cedar Rapids,IA,52403,
77666.0,Lansing Rd,Anita,IA,50020-8829,
2295.0,QUINCY RD NE,SOLON,IA,52333,
11.0,Wenwood Cir,Council Bluffs,IA,51503-5120,
819.0,W 1st St,Sumner,IA,50674-1201,
512.0,470th St,Marcus,IA,51035-7109,
19.0,Cynthia St SW,Cedar Rapids,IA,52404,
210.0,S CLINTON ST,IOWA CITY,IA,52240,308.0
401.0,Lakeshore Dr,Lakeside,IA,50588-7663,
1208.0,Grant St,Redfield,IA,50233-2001,
71017.0,Us Highway 30,Story,IA,50056-8677,
216.0,3rd St Se,Clarion,IA,50525-1513,
211.0,Hale St,Hastings,IA,51540-8002,
2416.0,Taft St,Perry,IA,50220,
1201.0,SCOTT AVE,DES MOINES,IA,50309,
914.0,S 31st St,Fort Dodge,IA,50501-5546,
3116.0,Avenue D,Council Bluffs,IA,51501-1917,
313.0,N 16th St,Marshalltown,IA,50158-5431,
1735.0,Street F32,Kirkman,IA,51447-7532,
575.0,NW AURORA AVE,DES MOINES,IA,50313,
1005.0,Hobert St,Knoxville,IA,50138-1226,
2947.0,Highway 71,Odebolt,IA,51458-7434,
1641.0,WILLIAMS ST,DES MOINES,IA,50317,
1018.0,2nd St,Perry,IA,50220-1719,
909.0,West St,Sidney,IA,51652-8076,
23624.0,PFEILER RD,HOLY CROSS,IA,52053,
6932.0,NORTHGLENN WAY,JOHNSTON,IA,50131,
2350.0,INDUSTRIAL PKWY SW,DYERSVILLE,IA,52040,
10.0,N MCKENZIE LN,NORTH LIBERTY,IA,52317,
317.0,KENYON AVE,DES MOINES,IA,50315,
160.0,CROYDON CREST,DUBUQUE,IA,52001,
105.0,N DUBUQUE ST,NORTH LIBERTY,IA,52317,
2400.0,E 25TH ST,DES MOINES,IA,50317,
15139.0,Hawthorn Dr,Clive,IA,50325-7871,
1424.0,Garst Ave,Boone,IA,50036-4923,
1365.0,370th St,Clay,IA,51338-7546,
,HUBBELL AVE,DES MOINES,IA,50317,
304.0,NW REINHART DR,ANKENY,IA,50023,
2528.0,M Ave NW,Cedar Rapids,IA,52405,
3400.0,King Dr SW,Cedar Rapids,IA,52404,
1675.0,FALCON AVE NW,SWISHER,IA,52338,
93.0,Carter Lake Clb,Carter Lake,IA,51510-1033,
1859.0,Henley Ave,Independence,IA,50644-9255,
6074.0,32nd Ave,Shellsburg,IA,52332-9575,
240.0,9TH ST SE,MASON CITY,IA,50401,
3111.0,JACKSON ST,DUBUQUE,IA,52001,
8800.0,Rolling Rd,Toddville,IA,52341,
645.0,BRIARSTONE DR,MASON CITY,IA,50401,
207.0,14th St,Dallas Center,IA,50063-2003,
13041.0,SUNSET TER,CLIVE,IA,50325,
412.0,Taft St N,Humboldt,IA,50548-1434,
604.0,Cameo St,Onawa,IA,51040-1214,
810.0,360th St,Bancroft,IA,50517-7057,
1601.0,2nd St Sw,Independence,IA,50644-2331,
3641.0,110th St,Randolph,IA,51649-6002,
309.0,N 4th Ave,Marshalltown,IA,50158-1842,
3444.0,470th St,Orange City,IA,51041-7504,
912.0,10th St,Milford,IA,51351-1530,
1.0,OAKNOLL CT,IOWA CITY,IA,52246,614.0
2727.0,L Wall Lake Dr,Jewell,IA,50130,
305.0,N 5th St,Cherokee,IA,51012-1370,
216.0,College Dr,Melbourne,IA,50162-1008,
901.0,E PENN ST,NORTH LIBERTY,IA,52317,
1080.0,Cress Pkwy,Hiawatha,IA,52233,
1600.0,HIGHLAND DR,CLEAR LAKE,IA,50428,
9381.0,W 112th St N,Collins,IA,50055-8541,
19048.0,Grand Ave,Council Bluffs,IA,51503-0293,
800.0,Main St,Stanhope,IA,50246-7707,
4611.0,BEAVER CREST DR,DES MOINES,IA,50310,
4122.0,BELAIR DR,URBANDALE,IA,50323,
1215.0,E MADISON AVE,DES MOINES,IA,50313,
3123.0,BOWDOIN ST,DES MOINES,IA,50313,
833.0,Crystal St,Story,IA,50010-8406,
606.0,Olive Dr NW,Cedar Rapids,IA,52405,
1252.0,21st Ave SW,Cedar Rapids,IA,52404,
1817.0,Aaron Dr NW,Cedar Rapids,IA,52405,
309.0,1st Ave S,Fort Dodge,IA,50501-4540,
1854.0,BENNETT ST,DUBUQUE,IA,52001,
6440.0,Ep True Pky,West Des Moines,IA,50266,
7143.0,Dakota Dr,West Des Moines,IA,50266,
306.0,2nd St Nw,Clarion,IA,50525-1007,
503.0,N 2nd Ave,Rock Rapids,IA,51246-1105,
26198.0,Cary Ave,Glenwood,IA,51534-5085,
7309.0,SW 15TH ST,DES MOINES,IA,50315,
1005.0,S 7th Ave,Marshalltown,IA,50158-3416,
509.0,NE LIBERTY CT,ANKENY,IA,50021,
7216.0,Summerland Ridge Rd NE,Cedar Rapids,IA,52402,
208.0,W Madison St,Lake City,IA,51449-1047,
43094.0,110th St,Mapleton,IA,51034-7131,
235.0,6th Ave,Marion,IA,52302,
121.0,E View Dr,Council Bluffs,IA,51503-0469,
507.0,3rd Ave Sw,West Bend,IA,50597-5016,
1725.0,17th St Sw,Fort Dodge,IA,50501-5843,
1930.0,Parkland Dr,Ely,IA,52227,
4840.0,PLUMWOOD DR,WEST DES MOINES,IA,50265,
20014.0,KLUESNER RD,HOLY CROSS,IA,52053,
731.0,39TH ST,DES MOINES,IA,50312,
1023.0,Deer Run Dr NE,Cedar Rapids,IA,52402,
3122.0,SHAWNEE AVE,DES MOINES,IA,50310,
804.0,Se 5th St,Leon,IA,50144-2124,
1140.0,57TH ST,DES MOINES,IA,50311,
4114.0,Citrine Ct,Marion,IA,52302,
2675.0,HULL AVE,DES MOINES,IA,50317,
905.0,Park Cir,Story,IA,50124-9319,
515.0,3rd St,Jesup,IA,50648-1138,
1917.0,George Allen Ave,Story,IA,50010-5523,
2037.0,CREEK WOOD DR,DUBUQUE,IA,52003,
1009.0,W 12th St,Clay,IA,51301-3152,
2741.0,Racine Ave,Lehigh,IA,50557-7577,
520.0,Main St,Story,IA,50161-2027,
2402.0,S 3rd Ave,Marshalltown,IA,50158-4513,
3315.0,ROHRET RD,IOWA CITY,IA,52246,
612.0,Westwood Blvd,Boone,IA,50036-7010,
2514.0,W 13th St,Clay,IA,51301-2610,
102.0,W PINE RIDGE DR,POLK CITY,IA,50226,
400.0,1st St SE,Cedar Rapids,IA,52401,
135.0,Skyview Ave,Fairfax,IA,52228,
8974.0,CARPENTER CIRCLE DR,CLIVE,IA,50325,
2714.0,NW 5TH ST,ANKENY,IA,50023,
210.0,BOOTH ST,POLK CITY,IA,50226,
717.0,Pleasant St,Rockwell City,IA,50579-1319,
307.0,4TH AVE,IOWA CITY,IA,52245,
1635.0,32ND ST,DES MOINES,IA,50311,
622.0,SE EWING ST,GRIMES,IA,50111,
4943.0,PRESTON LN,IOWA CITY,IA,52246,
309.0,Clinton St,Boone,IA,50036-3725,
4909.0,SW 17TH ST,DES MOINES,IA,50315,
100.0,1st Ave NE,Cedar Rapids,IA,52401,
604.0,3rd Ave,Vail,IA,51465-7745,
3318.0,Prairie Creek Rd SW,Cedar Rapids,IA,52404,
802.0,50th Ave,Pleasantville,IA,50225-7546,
839.0,10TH ST NE,MASON CITY,IA,50401,
50769.0,317th Trl,Russell,IA,50238-7565,
1609.0,Cottrell Ave,Iowa Falls,IA,50126-1807,
3837.0,Vine Ave SE,Cedar Rapids,IA,52403,
1821.0,Dewitt St,Ellsworth,IA,50075-7708,
3251.0,280th St,Saint Charles,IA,50240-8582,
3036.0,Highway 9,Spirit Lake,IA,51360-7254,
553.0,Johnson St,Pleasantville,IA,50225-7638,
1005.0,S Western St,Lake Mills,IA,50450-1861,
2828.0,Goldfinch Ave,Hull,IA,51239-7482,
207.0,S 6th St,Dunlap,IA,51529-1301,
75.0,East St,Shelby,IA,51570-3310,
3475.0,DANIELS ST,DUBUQUE,IA,52002,
716.0,SPRUCE ST NW,BONDURANT,IA,50035,
809.0,1st Ave,Council Bluffs,IA,51501-4112,
604.0,Walters Cir,Marshalltown,IA,50158-5270,
6302.0,Quail Ridge Dr SW,Cedar Rapids,IA,52404,
511.0,Linn St,Atlantic,IA,50022-1308,
300.0,POLK ST SE,CASCADE,IA,52033,
402.0,2nd St,Blairsburg,IA,50034-7732,
402.0,E Clark St,Jefferson,IA,50129-1563,
1095.0,Longview Loop,Council Bluffs,IA,51503-2432,
112.0,Deann Dr,Manchester,IA,52057-1022,
3109.0,Stoney Point Rd SW,Cedar Rapids,IA,52404,
100.0,S Harrison St,Clay,IA,51338-7725,
3320.0,320th St,Manilla,IA,51454-7534,
906.0,Hyland Dr,Larchwood,IA,51241-7743,
1236.0,65TH ST,WINDSOR HEIGHTS,IA,50324,
327.0,N Whitney St,Carroll,IA,51401-2241,
2353.0,Norton Ave,Logan,IA,51546-6072,
1811.0,Hamer Dr NW,Cedar Rapids,IA,52405,
1012.0,1ST ST NW,MASON CITY,IA,50401,
4420.0,E Ave NW,Cedar Rapids,IA,52405,
509.0,South W,Knoxville,IA,50138,
403.0,N 2nd Ave,Winterset,IA,50273-1109,
66757.0,Lansing Rd,Wiota,IA,50274-8722,
508.0,7th St Nw,Sioux Center,IA,51250-1908,
214.0,N Main St,Carroll,IA,51401-2833,
6520.0,FULLERTON CT,JOHNSTON,IA,50131,
906.0,Walnut St,Atlantic,IA,50022-2143,
1515.0,18th St,Perry,IA,50220-2377,
836.0,Blaine St,Larchwood,IA,51241-7732,
1245.0,Reed Ave,Belmond,IA,50421-7635,
1329.0,Benton Ave E,Albia,IA,52531-2229,
960.0,ARLINGTON DR,IOWA CITY,IA,52245,
1127.0,44TH ST,DES MOINES,IA,50311,
7186.0,W 108th St S,Prairie City,IA,50228-8739,
710.0,Linden Ave,Chariton,IA,50049-1834,
2950.0,300th St,Clay,IA,51333-7540,
8714.0,RTE 52 S,DUBUQUE,IA,52003,
2733.0,Lindale Ave NE,Cedar Rapids,IA,52402,
906.0,Main St,Griswold,IA,51535-4287,
1542.0,E VIRGINIA AVE,DES MOINES,IA,50320,
2868.0,Royal Oak Ridge Rd,Marion,IA,52302,
1065.0,BRADFORD PL,WEST DES MOINES,IA,50266,
1003.0,N JACKSON AVE,MASON CITY,IA,50401,
1610.0,COPPER CREEK CT,PLEASANT HILL,IA,50327,
505.0,W Mulberry St,Ogden,IA,50212-7364,
36554.0,180th Ave,Forest City,IA,50436-7597,
49568.0,120th Ave,Laurens,IA,50554-8530,
301.0,4th Ave,Portsmouth,IA,51565-2009,
115.0,15th St,Boone,IA,50036-1155,
1927.0,Linn St,Boone,IA,50036-1316,
620.0,Ne 5th St,Earlham,IA,50072-1064,
120.0,Westgate Dr,Forest City,IA,50436-2220,
901.0,8th St,Dallas Center,IA,50063,
7707.0,Ashworth Rd,West Des Moines,IA,50266,
1301.0,Grand Ave,Marion,IA,52302,
112.0,Maple Ave,Schleswig,IA,51461,
601.0,N Walnut St,Glenwood,IA,51534-1137,
713.0,Criss St,Sac City,IA,50583-2227,
23853.0,235th Ave,Fort Dodge,IA,50501-8744,
3808.0,SW 30TH ST,DES MOINES,IA,50321,
690.0,STRATHMOOR DR,NORTH LIBERTY,IA,52317,
107.0,S 5th Ave,Marshalltown,IA,50158-2935,
3116.0,36TH ST,DES MOINES,IA,50310,
4110.0,Savage St,Council Bluffs,IA,51501-8520,
1042.0,27th St,Spirit Lake,IA,51360-1138,
5301.0,E UNIVERSITY AVE,PLEASANT HILL,IA,50327,
1001.0,Birch St,Council Bluffs,IA,51501-5825,
501.0,South St,Fairbank,IA,50629-8553,
207.0,S Eyberg Ave,Treynor,IA,51575-5002,
510.0,SW NOTTINGHAM RD,ANKENY,IA,50023,
925.0,29TH ST,DES MOINES,IA,50312,
408.0,2nd St,Pisgah,IA,51564-2059,
8103.0,315TH ST,CLEAR LAKE,IA,50428,
128.0,9th St Se,Sioux Center,IA,51250-1337,
1509.0,Salinger Ave,Carroll,IA,51401-1350,
1021.0,N 10th St,Estherville,IA,51334-1322,
6322.0,19th Ave,Garrison,IA,52229-9634,
1641.0,Buchanan Ave,Larchwood,IA,51241-7633,
2328.0,TERRACE RD,DES MOINES,IA,50312,
705.0,Chestnut St,Minburn,IA,50167,
3619.0,1st Ave SE,Cedar Rapids,IA,52403,
600.0,ENGLISH LN,DUBUQUE,IA,52003,
211.0,Traer St,Mount Auburn,IA,52313-9661,
916.0,LELAND AVE,DES MOINES,IA,50315,
1209.0,Linden Rd,Harlan,IA,51537-4209,
303.0,E 8th St N,Newton,IA,50208-3347,
1422.0,Harrison St,Boone,IA,50036-1162,
10979.0,LINCOLN AVE,CLIVE,IA,50325,
1612.0,W 4th St,Pella,IA,50219-8111,
200.0,W Bremer Ave,Waverly,IA,50677-3201,
717.0,Center St,Stanton,IA,51573-8012,
304.0,E Grimes St,Red Oak,IA,51566-2307,
2087.0,JEFFREY DR,DUBUQUE,IA,52001,
355.0,Se Cardinal Ln,Waukee,IA,50263-9680,
24.0,S 16th St,Denison,IA,51442-2011,
405.0,Lease St,Wesley,IA,50483-7748,
213.0,E Sycamore St,Saint Charles,IA,50240-9587,
735.0,25TH ST,DES MOINES,IA,50312,
432.0,E Willow St,Cherokee,IA,51012-1952,
6440.0,Ep True Pky,West Des Moines,IA,50266,
4315.0,Walker St NE,Cedar Rapids,IA,52402,
203.0,WATROUS AVE,DES MOINES,IA,50315,
29385.0,120th St,Glidden,IA,51443-8618,
5525.0,360th St,Cylinder,IA,50528-8024,
705.0,N HARRISON AVE,MASON CITY,IA,50401,
1028.0,33rd St NE,Cedar Rapids,IA,52402,
4718.0,100th Ave,Rembrandt,IA,50576-7545,
312.0,SAMOA CT,IOWA CITY,IA,52246,
4494.0,TAFT AVE SE,IOWA CITY,IA,52240,
580.0,HIGHWAY 1 W,IOWA CITY,IA,52246,
924.0,9TH AVE NW,ALTOONA,IA,50009,
23158.0,450th St,Chariton,IA,50049-7781,
3240.0,Linn Buchanan Rd,Coggon,IA,52218,
1548.0,7th Ave SE,Cedar Rapids,IA,52403,
1890.0,Se Hickory Cir,Waukee,IA,50263-8289,
1911.0,6th St,Harlan,IA,51537-2219,
3860.0,E COURT ST,IOWA CITY,IA,52245,
216.0,W Maple St,Hubbard,IA,50122-7723,
8825.0,NORTHPARK DR,JOHNSTON,IA,50131,
202.0,Washington St,Kirkman,IA,51447-7554,
1207.0,Oakwood Ct,Alton,IA,51003-8566,
2190.0,TUSCANY RIDGE DR,DUBUQUE,IA,52002,
1019.0,Roosevelt Ave,Story,IA,50010-5871,
4832.0,N Ave,Meriden,IA,51037-7020,
2.0,Deer Run Dr,Pella,IA,50219-1356,
4324.0,74TH ST,URBANDALE,IA,50322,
3521.0,Avenue E,Council Bluffs,IA,51501-1868,
70.0,QUAIL VALLEY CT,IOWA CITY,IA,52246,
5489.0,Highway F17 W,Baxter,IA,50028-8631,
3847.0,X Ave,Manning,IA,51455,
1510.0,NW 23RD LN,ANKENY,IA,50023,
4816.0,PALM AVE,DES MOINES,IA,50310,
1221.0,E 17TH CT,DES MOINES,IA,50316,
732.0,S MARKET ST,SOLON,IA,52333,7.0
2232.0,GEORGE FLAGG PKWY,DES MOINES,IA,50321,
6500.0,Vista Dr,West Des Moines,IA,50266,
100.0,MAIN ST SE,BONDURANT,IA,50035,
3020.0,McGowan Blvd,Marion,IA,52302,
120.0,SW 42ND ST,DES MOINES,IA,50312,
902.0,6th Ave Ne,Independence,IA,50644-1454,
415.0,18TH ST SE,MASON CITY,IA,50401,
1149.0,N 4th St,Manchester,IA,52057-1117,
3028.0,MAHASKA AVE,DES MOINES,IA,50317,
2727.0,60TH ST,DES MOINES,IA,50322,
723.0,10TH ST NE,MASON CITY,IA,50401,
15323.0,Airline Ave,Urbandale,IA,50323-2209,
1112.0,8TH ST,WEST DES MOINES,IA,50265,
7327.0,150th St,Elma,IA,50628-8328,
727.0,35th St NE,Cedar Rapids,IA,52402,
2429.0,E WALNUT ST,DES MOINES,IA,50317,
420.0,N 9th St,Adel,IA,50003,
102.0,S Blossom St,Lake View,IA,51450-7330,
560.0,LINCOLNSHIRE PL,CORALVILLE,IA,52241,
103.0,E 2ND ST,DES MOINES,IA,50309,
2824.0,Hunt Trl,Cedar Rapids,IA,52411,
2104.0,Cyclone Ave,Harlan,IA,51537-1253,
1334.0,Heather Ave,Latimer,IA,50452-7550,
3224.0,Garner Ave,Story,IA,50010-4226,
1438.0,Quail Ave,Sumner,IA,50674-9144,
2502.0,Melrose Ave,Story,IA,50010-4629,
1515.0,Aspen Dr,Adel,IA,50003,
3155.0,WAPSI AVE NE,IOWA CITY,IA,52240,
510.0,NW 9TH ST,ANKENY,IA,50023,
925.0,W Main St,Manchester,IA,52057-1522,
95.0,Woodstone Ln SW,Cedar Rapids,IA,52404,
303.0,Amanda St,Radcliffe,IA,50230-1041,
1301.0,E Robinson St,Knoxville,IA,50138-1845,
1889.0,Hidden Valley Ln,Fort Dodge,IA,50501-8413,
900.0,67th St,West Des Moines,IA,50266,
131.0,W MAIN ST,OXFORD,IA,52322,
104.0,Nw 1st St,Gilmore City,IA,50541-8101,
221.0,S Garfield Ave,Eagle Grove,IA,50533-2014,
309.0,Grant St,Van Meter,IA,50261,
2104.0,11th St,Emmetsburg,IA,50536-2416,
410.0,W MAIN ST,SHELDAHL,IA,50243,
1002.0,S 8th Ave,Vinton,IA,52349-2144,
6525.0,NE RISING SUN DR,PLEASANT HILL,IA,50327,
501.0,Jefferson St,Scranton,IA,51462-8412,
1004.0,Se Q St,Leon,IA,50144-1540,
1915.0,Country Club Dr,Marion,IA,52302,
20.0,VIXEN CIR,NORTH LIBERTY,IA,52317,
1217.0,ROCHESTER AVE,IOWA CITY,IA,52245,
18.0,CHARLESTOWN SQ,MASON CITY,IA,50401,
33109.0,190th St,Granger,IA,50109-5521,
205.0,2nd St N,Dakota City,IA,50529-5091,
3705.0,170TH ST NE,SOLON,IA,52333,
218.0,28TH ST SW,MASON CITY,IA,50401,
103.0,Ne 5th St,Leon,IA,50144-1417,
75.0,Metcalf St,Story,IA,50161-7724,
423.0,N 4th St,Missouri Valley,IA,51555-1615,
2197.0,260th St,Denver,IA,50622-9706,
9213.0,Fir Ave,Riceville,IA,50466-7043,
301.0,E 18th St N,Newton,IA,50208-2504,
14631.0,S Lakeview Dr,Clive,IA,50325,
3461.0,200th St,Rock Rapids,IA,51246-7775,
5081.0,175th St,Armstrong,IA,50514-7543,
109.0,Briggs Ave,Readlyn,IA,50668-7717,
485.0,S 46TH ST,WEST DES MOINES,IA,50265,
45370.0,Us Highway 65,Derby,IA,50068-8530,
116.0,N 2nd St,Cherokee,IA,51012-1832,
203.0,S Main St,Quimby,IA,51049-5002,
1517.0,Washington Ave SE,Cedar Rapids,IA,52403,
600.0,School St,Stanhope,IA,50246-7773,
261.0,New St,Colesburg,IA,52035,
713.0,Bos Landen Weg,Pella,IA,50219-7810,
25202.0,360th St,Van Meter,IA,50261-6003,
707.0,3rd St,Bussey,IA,50044-8110,
5320.0,Clemens Blvd,Story,IA,50014-6923,
1929.0,9th St SW,Cedar Rapids,IA,52404,
48.0,Carter Lake Clb,Carter Lake,IA,51510-1032,
129.0,N 4th Ave,Villisca,IA,50864-1020,
126.0,BERNARD RD,BERNARD,IA,52032,
526.0,LINCOLN AVE,DUBUQUE,IA,52001,
1001.0,E 40TH CT,DES MOINES,IA,50317,
1443.0,EASTVIEW DR,CORALVILLE,IA,52241,
1222.0,LEWIS AVE,DES MOINES,IA,50315,
2801.0,6th St SW,Cedar Rapids,IA,52404,
1635.0,WATERS EDGE DR,PLEASANT HILL,IA,50327,
3135.0,SE 8TH ST,DES MOINES,IA,50315,
715.0,1st St Se,Clarion,IA,50525-1903,
19639.0,160th St,Iowa Falls,IA,50126-8523,
3860.0,37th Ave SW,Cedar Rapids,IA,52404,
204.0,Main St,Bayard,IA,50029-1020,
5660.0,SUNBURST DR,PLEASANT HILL,IA,50327,
933.0,G Ave E,Albia,IA,52531-1423,
1821.0,Millstream Ct,Winterset,IA,50273-8198,
26627.0,370th St,Hancock,IA,51536,
4210.0,NW LINWOOD DR,ANKENY,IA,50023,
12455.0,DOUGLAS PKWY,URBANDALE,IA,50323,
424.0,Maple St,Whiting,IA,51063-1064,
4600.0,Westchester Dr NE,Cedar Rapids,IA,52402,
1203.0,6th St,Onawa,IA,51040-1801,
829.0,W 11TH ST,DUBUQUE,IA,52001,
1737.0,Salinger Ave,Carroll,IA,51401-1354,
308.0,Queen St,Fonda,IA,50540-1048,
309.0,Elm St,Iowa Falls,IA,50126-1368,
1393.0,WOOLRIDGE DR,CORALVILLE,IA,52241,
1118.0,NW MORNINGSIDE CT,GRIMES,IA,50111,
7789.0,Pommel Pl,West Des Moines,IA,50266,
407.0,Battle Creek Dr,Marion,IA,52302,
509.0,Hilltop Dr,Earling,IA,51530-5323,
704.0,N 6th St,Red Oak,IA,51566-1962,
132.0,1st St,Janesville,IA,50647-7706,
5219.0,Bean Bnd,Panora,IA,50216-8613,
502.0,Diamond St,Onawa,IA,51040-1650,
300.0,5TH ST S,SWALEDALE,IA,50477,
1597.0,HIGHWAY 1 NE,SOLON,IA,52333,
521.0,RHOMBERG AVE,DUBUQUE,IA,52001,
4085.0,MOUNT VAIL RDG,DUBUQUE,IA,52001,
4130.0,MT ALPINE,DUBUQUE,IA,52001,
5719.0,Golden Ct NE,Cedar Rapids,IA,52402,
416.0,E IOWA AVE,IOWA CITY,IA,52245,522.0
49353.0,180th Ave,Scarville,IA,50473-7512,
99.0,Wood Smoke Rd,Denver,IA,50622-9705,
515.0,S Main St,Madrid,IA,50156-1529,
417.0,W Maple St,Story,IA,50236-1008,
122.0,E WASHINGTON ST,IOWA CITY,IA,52240,
662.0,1st Ave,Springville,IA,52336,
4216.0,SOUTHSHORE DR,CLEAR LAKE,IA,50428,
2616.0,MORTON AVE,DES MOINES,IA,50317,
1238.0,Robinwood Ln NE,Cedar Rapids,IA,52402,
1710.0,SE 1ST ST,DES MOINES,IA,50315,
4309.0,Harrison Cir,Story,IA,50010-4383,
1755.0,5TH ST,CORALVILLE,IA,52241,3.0
523.0,E 5th St,Newell,IA,50568-5013,
4205.0,Grant Ave,Sioux Center,IA,51250-7519,
8.0,ARBOR CIR,IOWA CITY,IA,52245,
400.0,Church St,Palo,IA,52324,
618.0,DEARBORN ST,IOWA CITY,IA,52240,
39730.0,Sumac Rd,Avoca,IA,51521,
710.0,Pleasant St,Van Meter,IA,50261,
201.0,1st St,Lewis,IA,51544-5601,
3229.0,59th St,Shellsburg,IA,52332-9572,
1433.0,Dogwood Ave,Larchwood,IA,51241-7518,
2624.0,NW 157th St,Clive,IA,50325,
219.0,E Bluff St,Cherokee,IA,51012-1461,
3510.0,McGowan Blvd,Marion,IA,52302,
1012.0,Avenue K,Hawarden,IA,51023-1924,
1980.0,Nicole Rd,Fort Dodge,IA,50501-8727,
309.0,W 2nd St,Iowa Falls,IA,50126-2626,
5659.0,VISTA DR,WEST DES MOINES,IA,50266,
6305.0,NW 95TH ST,JOHNSTON,IA,50131,
14152.0,LAKE SHORE DR,CLIVE,IA,50325,
2811.0,SW SUNNYBROOKE DR,ANKENY,IA,50023,
3788.0,SUNAURA DR NE,IOWA CITY,IA,52240,
401.0,Fuller Ave,Council Bluffs,IA,51503-1462,
8302.0,Westown Pkwy Unit 6104,West Des Moines,IA,50266-1613,
13475.0,280th St,Radcliffe,IA,50230-8016,
1267.0,HILLVIEW CT NE,SWISHER,IA,52338,
3408.0,WRIGHT ST,DES MOINES,IA,50316,
2107.0,Hamilton St SW,Cedar Rapids,IA,52404,
3902.0,Brookside Dr,Marion,IA,52302,
720.0,34th St NE,Cedar Rapids,IA,52402,
405.0,S 9th St,Dunlap,IA,51529-1415,
145.0,HOLIDAY LODGE RD,NORTH LIBERTY,IA,52317,
1726.0,Woodside Ct NW,Cedar Rapids,IA,52405,
1451.0,HIGH COUNTRY RD,CORALVILLE,IA,52241,
907.0,Alice Ave,Riverton,IA,51650-2002,
2920.0,MERLE HAY RD,DES MOINES,IA,50310,
1320.0,8th St NW,Cedar Rapids,IA,52405,
524.0,N 2nd Ave E,Newton,IA,50208-3373,
1703.0,1st Ave SE,Cedar Rapids,IA,52403,
121.0,Pleasant Vw,Gilman,IA,50106-7727,
5455.0,660TH ST SE,LONE TREE,IA,52755,
2340.0,LONG GROVE CT,DUBUQUE,IA,52002,
812.0,N ADAMS AVE,MASON CITY,IA,50401,
2343.0,MORMON TREK BLVD,IOWA CITY,IA,52246,
28541.0,Leighton Ln,Lamoni,IA,50140-4541,
1400.0,Meadows Townhomes Ln,Harlan,IA,51537-2419,
310.0,N 9TH ST,CLEAR LAKE,IA,50428,
2280.0,EVERGREEN DR,DUBUQUE,IA,52001,
1312.0,NE WILLIAMSBURG DR,ANKENY,IA,50021,
1300.0,IRIS AVE,TIFFIN,IA,52340,
13080.0,W CLAY DR,DUBUQUE,IA,52002,
2800.0,E 39TH ST,DES MOINES,IA,50317,
95.0,N Emerald Dr,Storm Lake,IA,50588,
801.0,9th Ave,Belle Plaine,IA,52208-2224,
2588.0,PUTNAM ST NE,IOWA CITY,IA,52240,
420.0,5TH ST,CORALVILLE,IA,52241,3.0
514.0,Railway St,Lytton,IA,50561-7603,
314.0,NE MANDY AVE,Elkhart,IA,50073,
2201.0,Lakeshore Dr,Milford,IA,51351,
4017.0,CLINTON AVE,DES MOINES,IA,50310,
5455.0,Saturn Ave,Marion,IA,52302,
120.0,27th St,Marion,IA,52302,
513.0,SE PETERSON DR,ANKENY,IA,50021,
372.0,Lincoln Ave,Council Bluffs,IA,51503-4554,
3923.0,NW 6TH PL,ANKENY,IA,50023,
263.0,Ralston St,Laurens,IA,50554-1221,
1530.0,43RD ST,DES MOINES,IA,50311,
1234.0,170th St,Fonda,IA,50540-7513,
2700.0,NORTH SHORE DR,CLEAR LAKE,IA,50428,
1814.0,Main St,Granger,IA,50109,
3373.0,SE 116TH ST,RUNNELLS,IA,50237,
50.0,66th Ave SW,Cedar Rapids,IA,52404,
905.0,Main St,Anita,IA,50020-1063,
6712.0,SW 14TH ST,DES MOINES,IA,50315,
4132.0,E 23RD ST,DES MOINES,IA,50317,
821.0,Bluff St,Iowa Falls,IA,50126-2404,
2231.0,Benton Buchanan Rd,Walker,IA,52352-9639,
2547.0,Knox Ln,Missouri Valley,IA,51555-8023,
421.0,S POLK PL,MASON CITY,IA,50401,
5925.0,EP TRUE PKWY,WEST DES MOINES,IA,50266,
6443.0,A Ave,Pierson,IA,51048-7527,
218.0,HOLIDAY LODGE RD,NORTH LIBERTY,IA,52317,
218.0,1st St,Keystone,IA,52249-9709,
2231.0,HELLE DR,DUBUQUE,IA,52002,
11200.0,16th Ave SW,Cedar Rapids,IA,52404,
11400.0,430th St,Laurens,IA,50554-8680,
3037.0,Henderson Ave SE,Cedar Rapids,IA,52403,
717.0,N 3rd Ave,Marshalltown,IA,50158-1828,
2716.0,GRAND AVE,DES MOINES,IA,50312,
1671.0,CENTRAL AVE,DUBUQUE,IA,52001,
2905.0,SE KEYSTONE DR,GRIMES,IA,50111,
1855.0,NW 84TH AVE,ANKENY,IA,50023,
112.0,Ingham St Nw,Titonka,IA,50480-7702,
250.0,CROSS ST,DUBUQUE,IA,52003,
4211.0,FLEUR DR,DES MOINES,IA,50321,
26937.0,Palo Pl,Dallas Center,IA,50063,
206.0,J Ave,Story,IA,50201-1836,
4455.0,Quail Trail Dr,Marion,IA,52302,
1512.0,Laurel Dr,Decorah,IA,52101-9671,
2620.0,NW 43RD ST,ANKENY,IA,50023,
113.0,W Vine St,Ogden,IA,50212-7470,
823.0,LONGFELLOW CT,IOWA CITY,IA,52240,
204.0,Nw 4th St,Leon,IA,50144-1311,
1841.0,Cornelia Dr,Clarion,IA,50525-7562,
2758.0,NW 86TH PL,ANKENY,IA,50023,
703.0,S PIERCE AVE,MASON CITY,IA,50401,
2007.0,Bryngelson Dr,Marshalltown,IA,50158-5121,
2001.0,E 27TH ST,DES MOINES,IA,50317,
602.0,E Cronkhite St,Knoxville,IA,50138-2129,
14185.0,Overland Trl,Council Bluffs,IA,51503-5775,
1159.0,19TH ST,DES MOINES,IA,50314,
1421.0,Cherokee Dr,Marion,IA,52302,
68122.0,580th St,Griswold,IA,51535-6679,
621.0,Troy Dr,Carroll,IA,51401-1723,
1620.0,ABER AVE,IOWA CITY,IA,52246,
723.0,15th St,Story,IA,50201-2409,
2238.0,SW 35TH ST,ANKENY,IA,50023,
6255.0,Beechtree Dr,West Des Moines,IA,50266,
146.0,E B St,Forest City,IA,50436-2013,
518.0,7th Ave Se,Independence,IA,50644-3039,
2905.0,Se Belfry Dr,Waukee,IA,50263-8226,
2406.0,King Ave,Independence,IA,50644-9892,
2713.0,SHOREVIEW CIR,DES MOINES,IA,50320,
862.0,6th St,Manilla,IA,51454-7721,
107.0,S 7th Ave,Marshalltown,IA,50158-3032,
501.0,W Train St,Dows,IA,50071-2038,
7301.0,NW 62ND AVE,JOHNSTON,IA,50131,
945.0,SE Bobwhite Ln,Waukee,IA,50263,
3105.0,Meadow Glen St,Marion,IA,52302,
2501.0,Adams Ave,Spirit Lake,IA,51360-1811,
1505.0,3rd Ave E,Clay,IA,51301-4452,
14243.0,RIDGEMONT DR,URBANDALE,IA,50323,
2208.0,MEADOW LN,WEST DES MOINES,IA,50265,
3470.0,Raven Ln NE,Cedar Rapids,IA,52402,
1310.0,Laurel Dr # 1,Decorah,IA,52101-9678,
8203.0,PLUM DR,URBANDALE,IA,50322,
3012.0,MANN AVE,DES MOINES,IA,50310,
308.0,3rd St W,Weldon,IA,50264-9567,
708.0,E 9th St S,Newton,IA,50208-4958,
1912.0,1st Ave S,Fort Dodge,IA,50501-5126,
809.0,E  Main St,Central City,IA,52214,
440.0,N MADISON AVE,NORTH LIBERTY,IA,52317,12.0
302.0,Quimby St,Ida Grove,IA,51445-1042,
634.0,21st Ave SW,Cedar Rapids,IA,52404,
2444.0,N Broadway St,Council Bluffs,IA,51503-0434,
107.0,W Wood St,Urbana,IA,52345,
722.0,3rd Ave E,Cresco,IA,52136-1418,
2711.0,Navajo Ave SW,Cedar Rapids,IA,52404,
4205.0,SW 10TH ST,DES MOINES,IA,50315,
1416.0,5th Ave S,Fort Dodge,IA,50501-4905,
1305.0,Dalton Dr,Waverly,IA,50677-9629,
1328.0,Ellis Blvd NW,Cedar Rapids,IA,52405,
1467.0,325th Ave,Fort Atkinson,IA,52144-7484,
1205.0,SE JUDY DR,ANKENY,IA,50021,
1308.0,Boone St,Pella,IA,50219-1128,
318.0,SE 12TH ST,ANKENY,IA,50021,
704.0,10th Ave,Vinton,IA,52349-2363,
1433.0,280th Ave,Fort Atkinson,IA,52144-7105,
16335.0,NEW WINE PARK LN,DYERSVILLE,IA,52040,
615.0,2nd Ave Ne,Independence,IA,50644-1825,
1021.0,63rd St,West Des Moines,IA,50266-2323,
415.0,S Main St,Baxter,IA,50028-7753,
800.0,SE DESTINATION DR,GRIMES,IA,50111,
30355.0,260th St,Eldora,IA,50627-8201,
1934.0,LINCOLN AVE,DES MOINES,IA,50314,
400.0,3rd Ave,Red Oak,IA,51566-2631,
55.0,SE Melrose Dr,Waukee,IA,50263,
506.0,N 2nd St,Knoxville,IA,50138-1635,
1801.0,110th St,Ionia,IA,50645-9228,
1213.0,A Ave,Vinton,IA,52349-1443,
51.0,AMBER LN,IOWA CITY,IA,52240,
2445.0,SIMPSON ST,DUBUQUE,IA,52003,
1241.0,E 12TH ST,DES MOINES,IA,50316,
104.0,N Oak Park Ave,Colfax,IA,50054-1141,
2806.0,SE PEACHTREE DR,ANKENY,IA,50021,
6514.0,Minden Ln NE,Cedar Rapids,IA,52402,
4970.0,ANDREWS PL,PLEASANT HILL,IA,50327,
122.0,35th St NE,Cedar Rapids,IA,52402,
305.0,3rd St S,Swea City,IA,50590-1079,
116.0,Guetzko Ct,Manchester,IA,52057-1325,
17554.0,195th St,Alden,IA,50006,
303.0,N 2nd St,Missouri Valley,IA,51555-1528,
1835.0,380th St,Clay,IA,51301-7482,
2842.0,KATRINA CIR,DUBUQUE,IA,52001,
1538.0,Viking Ave,Sumner,IA,50674-9084,
24.0,S CLINTON ST,IOWA CITY,IA,52240,
364.0,C Ave,Ogden,IA,50212-7319,
9665.0,E 132nd St N,Kellogg,IA,50135-8650,
240.0,LOCKVIEW AVE,NORTH LIBERTY,IA,52317,
519.0,Boise St,Duncombe,IA,50532,
701.0,E MAIN ST,HILLS,IA,52235,
2178.0,COMANCHE DR,DUBUQUE,IA,52002,
2701.0,State Highway 92,Winterset,IA,50273-8154,
1042.0,N 26th St,Council Bluffs,IA,51501-0824,
5405.0,NW 78TH CT,JOHNSTON,IA,50131,
5028.0,ASHWORTH RD,WEST DES MOINES,IA,50266,
2786.0,Madison Ave,Clarion,IA,50525-7663,
595.0,Harrison St,Thompson,IA,50478-5009,
433.0,N 10th St,Adel,IA,50003,
1306.0,Maple St,Sidney,IA,51652-3004,
1324.0,X Ave,Grand Junction,IA,50107-8531,
3610.0,NW BEECHWOOD ST,ANKENY,IA,50023,
808.0,CLEVELAND AVE,DES MOINES,IA,50316,
3852.0,Highway F62 W,Monroe,IA,50170-8507,
4110.0,BELAIR DR,URBANDALE,IA,50323,
1152.0,630th St,Storm Lake,IA,50588-7539,
1120.0,N 3rd St,Manchester,IA,52057-1106,
811.0,E Mahogany Dr,Atlantic,IA,50022-1636,
2229.0,Walton Ave,Council Bluffs,IA,51503-0485,
110.0,Birch St,Lakeside,IA,50588-7720,
6277.0,200th St,Galva,IA,51020-8532,
604.0,E St,Fort Dodge,IA,50501-4583,
301.0,12TH AVE NW,ALTOONA,IA,50009,
5463.0,FELDVEG STRASZE  SW,KALONA,IA,52247,
2988.0,Valleyview Ave,Truro,IA,50257-8000,
341.0,9th St Sw,Sioux Center,IA,51250-1367,
5801.0,Linn Aire Ave,Marion,IA,52302,
1504.0,Laurel Dr,Marshalltown,IA,50158-3146,
1762.0,A Ave,Knoxville,IA,50138-8928,
706.0,Summit St,Center Point,IA,52213,
3313.0,38TH ST,DES MOINES,IA,50310,
102.0,S Lake St,Lake Mills,IA,50450-1506,
2883.0,200th St,Winthrop,IA,50682-9401,
1239.0,E 25TH CT,DES MOINES,IA,50317,
3916.0,PLEASANT ST,DES MOINES,IA,50312,
1274.0,E 33RD CT,DES MOINES,IA,50317,
2116.0,Waubonsie Ave,Thurman,IA,51654-5042,
9360.0,Kingman Dr,West Des Moines,IA,50266,
2.0,COLLEGE CIR,MASON CITY,IA,50401,
620.0,PEBBLE CT,NORTH LIBERTY,IA,52317,
6445.0,NE 5TH AVE,PLEASANT HILL,IA,50327,
1027.0,W 18th St S,Newton,IA,50208-3546,
1549.0,N Broadway St,Council Bluffs,IA,51503-1553,
4187.0,OLIVIA CT,IOWA CITY,IA,52245,
101.0,N Evans St,Linden,IA,50146-7732,
1308.0,BUCHANAN ST,DES MOINES,IA,50316,
2487.0,210th St,Tripoli,IA,50676-9673,
103.0,11TH AVE NW,FARLEY,IA,52046,
1507.0,315th St,Eagle Grove,IA,50533-8014,
503.0,E Washington Ave,Red Oak,IA,51566-2316,
4826.0,NE GROVE LN,ANKENY,IA,50021,
310.0,Ne Meadowlark Ln,Waukee,IA,50263-9636,
1707.0,Hawkeye Dr,Hiawatha,IA,52233,
1306.0,Dorene Blvd,Carter Lake,IA,51510-1416,
909.0,16TH ST,WEST DES MOINES,IA,50265,
1680.0,Centennial Rd,Ossian,IA,52161-8020,
322.0,6th St Sw,Clay,IA,51301-6240,
407.0,NW 3rd St,Ogden,IA,50212-2067,
403.0,N 16th Pl,Estherville,IA,51334-1770,
4716.0,SE 3RD ST,DES MOINES,IA,50315,
2105.0,Freiberg Ct,Marshalltown,IA,50158-4376,
403.0,NE 28TH ST,ANKENY,IA,50021,
101.0,1st St NW,Mount Vernon,IA,52314,
503.0,Brentwood Rd,Marshalltown,IA,50158-3727,
213.0,NW 23RD CT,GRIMES,IA,50111,
5702.0,Honey Grove Rd,Ely,IA,52227,
1101.0,6th St Se,Orange City,IA,51041-1849,
1011.0,10th St,Onawa,IA,51040-1614,
1528.0,Road M36,Kirkman,IA,51447-7521,
1306.0,7th Ave N,Fort Dodge,IA,50501-3304,
1322.0,CARROLL ST,IOWA CITY,IA,52240,
3118.0,SE 8TH ST,DES MOINES,IA,50315,
1407.0,11th Ave W,Clay,IA,51301-2843,
202.0,4th St Sw,Dayton,IA,50530-7635,
3133.0,Avenue B,Council Bluffs,IA,51501-1955,
305.0,Henderson St,Plover,IA,50573,
26599.0,Us Highway 69,Leon,IA,50144-2815,
19501.0,340th St,Oakland,IA,51560-4343,
12395.0,253rd Ave,Spirit Lake,IA,51360-7142,
63718.0,Pease Rd,Glenwood,IA,51534-5168,
3000.0,J St SW,Cedar Rapids,IA,52404,
1759.0,190th St,Pomeroy,IA,50575-7531,
119.0,N 5th St,Adel,IA,50003-1504,
619.0,W State St,Marshalltown,IA,50158-5772,
520.0,W Short St,Winterset,IA,50273-2257,
719.0,6th St,Jesup,IA,50648-1074,
3602.0,John St,Council Bluffs,IA,51501-8146,
2425.0,Williams Blvd SW,Cedar Rapids,IA,52404,
905.0,Sw 7th St,Atlantic,IA,50022-1620,
3195.0,ARBORETUM CT,DUBUQUE,IA,52001,
1050.0,E Washington Ave,Council Bluffs,IA,51503-1563,
2525.0,Tracey Ave,Van Meter,IA,50261,
718.0,Palmyra Dr NE,Cedar Rapids,IA,52402,
15063.0,County Highway D25,Alden,IA,50006-9170,
19393.0,120TH ST,DOUGHERTY,IA,50433,
1105.0,WILDCAT LN,IOWA CITY,IA,52246,
13103.0,GREENBELT DR,URBANDALE,IA,50323,
235.0,11th St NW,Cedar Rapids,IA,52405,
3016.0,Manhattan Blvd,Spirit Lake,IA,51360-7549,
710.0,WALKER CIR,IOWA CITY,IA,52245,
1306.0,OAKWOOD DR,POLK CITY,IA,50226,
690.0,Williams Dr,Marion,IA,52302,
2446.0,LAKESIDE DR,IOWA CITY,IA,52240,
2041.0,WINDOVER DR,ANKENY,IA,50021,
412.0,Memorial Dr SE,Cedar Rapids,IA,52403,
1206.0,Cherry St,Dallas Center,IA,50063,
16443.0,330th Ave,Garden Grove,IA,50103-1090,
1675.0,George Dr,Marion,IA,52302,
2323.0,GLENBROOK DR,DES MOINES,IA,50316,
2007.0,E 29TH ST,DES MOINES,IA,50317,
2819.0,Avenue A,Council Bluffs,IA,51501-2168,
6290.0,32nd Ave,Shellsburg,IA,52332-9561,
2464.0,L Ave,Bagley,IA,50026-8004,
896.0,490th St,Rembrandt,IA,50576-7560,
505.0,E 27th St S,Newton,IA,50208-4234,
2422.0,Haven Ct SW,Cedar Rapids,IA,52404,
3400.0,Alburnett Rd,Marion,IA,52302,
1321.0,Mamie Eisenhower Ave,Boone,IA,50036-3709,
4307.0,Lake Shore Dr,Okoboji,IA,51355-2589,
4910.0,Indian Summer Ln SW,Ely,IA,52227,
301.0,S Maple St,Odebolt,IA,51458-7714,
905.0,N Scenic Dr,Oakland,IA,51560-4056,
228.0,40th Street Dr SE,Cedar Rapids,IA,52403,
904.0,W 10th St,Atlantic,IA,50022-2046,
9649.0,VALLEY PKWY,JOHNSTON,IA,50131,
3940.0,120TH ST NE,SOLON,IA,52333,
634.0,170th St,Latimer,IA,50452-7510,
6076.0,330th St,Ida Grove,IA,51445-8140,
932.0,S VAN BUREN ST,IOWA CITY,IA,52240,
2427.0,Elm Dr,Fort Dodge,IA,50501-8757,
3747.0,SE 12TH ST,DES MOINES,IA,50315,
316.0,S MADISON ST,IOWA CITY,IA,52240,207.0
1536.0,W 3rd St,Pella,IA,50219-1064,
4530.0,LOWER BEAVER RD,DES MOINES,IA,50310,
16.0,SOUTH SHORE DR,CLEAR LAKE,IA,50428,
701.0,63RD ST,DES MOINES,IA,50312,
6731.0,Dakota Dr,West Des Moines,IA,50266-2428,
345.0,CLARK DR,CORALVILLE,IA,52241,401.0
306.0,LINCOLN ST NW,CASCADE,IA,52033,
5390.0,11th Ave,Dysart,IA,52224-9469,
1823.0,Williams Blvd SW,Cedar Rapids,IA,52404,
2840.0,E DOUGLAS AVE,DES MOINES,IA,50317,
120.0,Airport Rd,Story,IA,50010-8203,
2700.0,DES MOINES ST,DES MOINES,IA,50317,
1195.0,Grand Ave,Marion,IA,52302,
6911.0,HICKORY LN,URBANDALE,IA,50322,
3504.0,STONEBRIDGE RD,WEST DES MOINES,IA,50265,
587.0,Pratt St,Melcher-Dallas,IA,50062,
3610.0,Prince Ct SW,Cedar Rapids,IA,52404,
1310.0,1st St W,Independence,IA,50644-2316,
661.0,34TH ST,DES MOINES,IA,50312,
636.0,N 9th St,Forest City,IA,50436-1115,
1418.0,W South St,Winterset,IA,50273-1751,
2730.0,Bullis Dr,Marion,IA,52302,
1300.0,Skylark Dr,Cedar Rapids,IA,52403,
402.0,1st Ave Se,Sioux Center,IA,51250-1414,
608.0,N 3rd St,Guthrie Center,IA,50115-1006,
2718.0,Breezy Heights Dr,Milford,IA,51351-7352,
108.0,LAKEVIEW DR,MASON CITY,IA,50401,
1407.0,Tower Ln NE,Cedar Rapids,IA,52402,
1571.0,330th St,Vail,IA,51465-7506,
24885.0,270th St,Carroll,IA,51401-8558,
1203.0,N 10th St,Estherville,IA,51334-1135,
4760.0,FOREST VIEW CIR NE,IOWA CITY,IA,52240,
7103.0,OLIVER SMITH DR,URBANDALE,IA,50322,
5341.0,PARK PL,DUBUQUE,IA,52002,
2305.0,GUTHRIE AVE,DES MOINES,IA,50317,
3398.0,Edgebrooke  Dr,Marion,IA,52302,
3539.0,250th St,George,IA,51237-7690,
5405.0,NW 96TH ST,JOHNSTON,IA,50131,
14695.0,Robin Ave,Cresco,IA,52136-8314,
3707.0,HILLCREST RD,DUBUQUE,IA,52002,
217.0,S Main St,Baxter,IA,50028-7748,
1065.0,21ST ST,DES MOINES,IA,50311,
605.0,Main St,Story,IA,50244-7780,
6117.0,SEVEN SPRINGS DR,DUBUQUE,IA,52002,
204.0,WILLIAMS ST,DES MOINES,IA,50317,
1814.0,Arthur Cir,Story,IA,50010-5114,
11.0,11th St & Auburn Ave,Chariton,IA,50049,
1070.0,50TH ST,WEST DES MOINES,IA,50266,
3676.0,305th St,Persia,IA,51563-4076,
11687.0,192nd St,Council Bluffs,IA,51503-6909,
22549.0,MUD LAKE RD,DUBUQUE,IA,52001,
5.0,Cardinal Ct,Newton,IA,50208-3308,
311.0,11th St Ne,Clarion,IA,50525-1733,
655.0,S 6th St,Waukee,IA,50263,
2014.0,25th St SW,Cedar Rapids,IA,52404,
6153.0,MEACHAM DR,PLEASANT HILL,IA,50327,
3618.0,E 42ND ST,DES MOINES,IA,50317,
0.0,66th St,West Des Moines,IA,50266,
11856.0,S 100th Ave E,Sully,IA,50251-8576,
15134.0,N Ave,Iowa Falls,IA,50126-8450,
2108.0,S 5th Ave E,Newton,IA,50208-5116,
314.0,S 6th St,Knoxville,IA,50138-2015,
1405.0,SE 1ST ST,DES MOINES,IA,50315,
509.0,S 3rd St,Albia,IA,52531-2546,
437.0,32nd St SE,Cedar Rapids,IA,52403,
807.0,Mills Ave,Pacific Junction,IA,51561-4318,
2801.0,45TH ST,DES MOINES,IA,50310,
703.0,WOOD LILY RD,SOLON,IA,52333,
4116.0,SE 11TH ST,DES MOINES,IA,50315,
1611.0,Morris Ave NW,Cedar Rapids,IA,52405,
520.0,River Ave N,Belmond,IA,50421-1041,
1506.0,WAYNE ST,DES MOINES,IA,50316,
1007.0,TIPPERARY RD,IOWA CITY,IA,52246,
521.0,Palisades Rd SW,Mount Vernon,IA,52314,
613.0,Main St,Massena,IA,50853,
12700.0,TANGLEWOOD DR,URBANDALE,IA,50323,
27888.0,Keys Ave,Glenwood,IA,51534-6264,
3505.0,Fitzroy Rd,Hiawatha,IA,52233,
3090.0,190th St,Williams,IA,50271-7504,
3685.0,QUARRY HEIGHTS LN NE,NORTH LIBERTY,IA,52317,
942.0,N DELAWARE AVE,MASON CITY,IA,50401,
900.0,SE Brentwood Cir,Waukee,IA,50263,
