NUMBER,STREET,CITY,STATE,POSTCODE,UNIT
3012,N DELAWARE AVE,PEORIA,IL,61603,
1896,MANOR LANE,Park Ridge,IL,60068,
24623,W   MATTHEW CT,CHANNAHON,IL,60410,
18810,S   RUTH DR,MOKENA,IL,60448,
910,Oak Hill Rd,Lake Barrington,IL,60010,
1811,PHEASANT LANE,Mount Prospect,IL,60056,
4223,CARRINGTON LN,PLAINFIELD,IL,60586,
2403,SOUTH GOEBBERT ROAD,Arlington Heights,IL,60005,
1057,CO RD 900  E,CARMI,IL,62821,
125,E GLEN 122B AVE,PEORIA,IL,61614,
7333,WEST 60TH PLACE,Summit,IL,60501,
1522,Carmel Blvd,Zion,IL,60099,
22043,SCOTT DRIVE,Richton Park,IL,60471,
3815,MUNSON CT,PLANO,IL,60545,
348,EAST PALATINE ROAD,Palatine,IL,60067,
401,TAMERTON PKWY,BURR RIDGE        ,IL,60527,
1224,CENTURY OAKS DR,ELGIN,IL,60123,
309,CHANNAHON ST,SHOREWOOD,IL,60404,
1048,Mackenzie Dr,Antioch,IL,60002,
10212,W LAKE CAMELOT DR,MAPLETON,IL,61547,
4622,NORTH KARLOV AVENUE,Chicago,IL,60630,
158,ASPEN CT,NORTH AURORA,IL,60542,
928,SOMERSET ST,NEW LENOX,IL,60451,
79,SOUTH 51ST AVENUE,Bellwood,IL,60104,
1520,N IDAHO ST,WEST PEORIA,IL,61604,
2449,CRAWFORD AVE,EVANSTON,IL,60201,
7421,161ST PLACE,Tinley Park,IL,60477,
329,S WASHINGTON ST,MEREDOSIA,IL,62665,
23654,W  SPRINGS CT,PLAINFIELD,IL,60585,
5237,NORTH MOBILE AVENUE,Chicago,IL,60630,
4014,OVERHILL AVENUE,Norridge,IL,60706,
9944,SOUTH PARNELL AVENUE,Chicago,IL,60628,
6034,SOUTH RICHMOND STREET,Chicago,IL,60629,
308,JUSTINA STREET,Hinsdale,IL,60521,
6901,MAGNOLIA STREET,Hanover Park,IL,60133,
2630,CLARENCE AVENUE,Berwyn,IL,60402,
1823,E LIBERTY DR,WHEATON           ,IL,60187,
2412,MICHAEL ST,WONDER LAKE,IL,60097,
1934,SUN DROP COURT,Bartlett,IL,60120,
2358,N GRACELAND AVE,DECATUR,IL,62526,
7722,GREENWAY BLVD,TINLEY PARK,IL,60487,
4617,SOUTH HONORE STREET,Chicago,IL,60609,
16829,MERRILL AVENUE,South Holland,IL,60473,
426,SEMINARY AV,AURORA,IL,60505,
5410,COUNTRY CLUB DRIVE,La Grange,IL,60525,
720,W PERRY ST,BELVIDERE                       ,IL,61008,
1151,N Arlington Heights Rd,Buffalo Grove,IL,60089,
125,E PRAIRIE AVE,LOMBARD           ,IL,60148,
213,MATTHEW PKWY,WASHINGTON,IL,61571,
10761,W Edgewood Rd,Beach Park,IL,60087,
3370,Evergreen Ln,Park City,IL,60085,
644,ROCHELLE TERR,LOMBARD           ,IL,60148,
959,FERN AVE,ELMHURST          ,IL,60126,
1650,PREMIUM OUTLETS BL #551,AURORA,IL,60502,
1214,EAST 171ST COURT,South Holland,IL,60473,
10825,PRAIRIE LN,MOKENA,IL,60448,
618,EAST 51ST STREET,Chicago,IL,60615,
383,COUNTY LINE ROAD,Barrington Hills,IL,60010,
1112,HARVEY DR,STERLING,IL,61081,
2585,N 2200TH AVE,CLAYTON,IL,62324,
306,WING PARK BLVD,ELGIN,IL,60123,
3158,N Southern Hills Dr,Wadsworth,IL,60083,
,EVERGREEN AVE,GLEN ELLYN        ,IL,60137,
3150,NORTH SPRINGFIELD AVENUE,Chicago,IL,60618,
1212,GOLF LN,WHEATON           ,IL,60189,
,73RD ST,DARIEN            ,IL,60561,
810,MAJESTIC DR,ALGONQUIN,IL,60102,
2820,VILLAGE GREEN DR #A3,AURORA,IL,60504,
3309,MEADOW LANE,NORTHFIELD TWP,IL,60025,
1505,NORTH TALMAN AVENUE,Chicago,IL,60622,
3317,NORTH SOUTHPORT AVENUE,Chicago,IL,60657,
,LINDEN AVE,MEDINAH           ,IL,60157,
230,Northgate St,Lake Forest,IL,60045,
14408,LONG AVENUE,Midlothian,IL,60445,
4415,LISA LANE,Oak Forest,IL,60452,
900,Glencoe Ter,Lake Zurich,IL,60047,
610,NORTH PROSPECT MANOR AVENUE,Mount Prospect,IL,60056,
212,TOMAHAWK CT,BOLINGBROOK,IL,60440,
3729,NORTH KEELER AVENUE,Chicago,IL,60641,
2750,E 600 NORTH RD,STRASBURG,IL,62465,
1513,NORTH RAND ROAD,PALATINE TWP,IL,60074,
1001,S MAIN ST,BELVIDERE                       ,IL,61008,
2608,CANNONBALL RD,QUINCY,IL,62305,
2615,N CALIFORNIA AVE,PEORIA,IL,61603,
1506,WALNUT CREEK DR,ELGIN,IL,60123,
670,CRESCENT BLVD,GLEN ELLYN        ,IL,60137,
4142,WEST GEORGE STREET,Chicago,IL,60641,
,S  GENEVA AVE,LOCKPORT,IL,60441,
,SOUTH PARNELL AVENUE,Chicago,IL,60609,
7020,E  CHURCH LN,DECATUR,IL,62521,
1429,CUYLER AVENUE,Berwyn,IL,60402,
9217,NORTH GREENWOOD AVENUE,Niles,IL,60714,
2060,SUTHERLAND PLACE,Hoffman Estates,IL,60169,
804,EAGLE CREEK RD,ELWOOD,IL,60421,
426,E ADAMS ST,ELMHURST          ,IL,60126,
10138,NEVADA AVENUE,Franklin Park,IL,60131,
821,N Edinburgh Ct,Round Lake,IL,60073,
1223,DUNAMON DR,BARTLETT          ,IL,60103,
12540,SOUTH WALLACE STREET,Chicago,IL,60628,
22067,BROOK AVENUE,Richton Park,IL,60471,
6459,WEST 63RD PLACE,Chicago,IL,60638,
1158,ROBIN DR,CAROL STREAM      ,IL,60188,
2951,WATERS EDGE CIR,AURORA            ,IL,60504,
1215,Sheridan Rd,Winthrop Harbor,IL,60096,
3204,NORTH MILWAUKEE AVENUE,Chicago,IL,60618,
1914,KELLY AVE,CREST HILL,IL,60403,
,KNOTTY PINE DR,ELGIN,IL,60123,
309,Laurel Ave,Libertyville,IL,60048,
7634,SOUTH BISHOP STREET,Chicago,IL,60620,
11347,SOUTH LOTHAIR AVENUE,Chicago,IL,60643,
3307,RIDGE ROAD,Lansing,IL,60438,
36,TANAGER DR,DECATUR,IL,62526,
402,E Tomaras Ave,Champaign,IL,61874,
10013,W LAKE CAMELOT DR,MAPLETON,IL,61547,
8024,SOUTH ADA STREET,Chicago,IL,60620,
2471,WILTON LN,AURORA            ,IL,60502,
11,E 13TH PL,LOMBARD           ,IL,60148,
603,ROSE CT,LISLE             ,IL,60532,
213,FLORA PKWY,ADDISON           ,IL,60101,
691,N KENILWORTH AVE,ELMHURST          ,IL,60126,
7826,WEST SUMMERDALE AVENUE,Chicago,IL,60656,
23901,N RIVER RD,CARY,IL,60013,
1006,ELM AVE,STERLING,IL,61081,
,MANCHESTER RD,WINFIELD          ,IL,60190,
423,EAST 87TH STREET,Chicago,IL,60619,
4441,NORTH CLIFTON AVENUE,Chicago,IL,60640,
2115,Leahs Ln,Champaign,IL,61822,
100,WINDSOR DR,OAK BROOK         ,IL,60523,
3923,Harper Ave,Gurnee,IL,60031,
3030,NORTH RUTHERFORD AVENUE,Chicago,IL,60634,
1406,NORTH LAVERGNE AVENUE,Chicago,IL,60651,
3420,HIGH TR,WOODRIDGE         ,IL,60517,
1470,INDIAN HILL COURT,Hanover Park,IL,60133,
3138,ST MICHEL LN,SAINT CHARLES,IL,60174,
1113,N DOUGLAS ST,PEORIA,IL,61606,
2919,WEST 40TH STREET,Chicago,IL,60632,
2846,N CREEK DR,WOODRIDGE         ,IL,60517,
537,BARRY TN,MANTENO,IL,60950,
3808,N WASHINGTON ST,WESTMONT          ,IL,60559,
216,Wilton Ln,Mundelein,IL,60060,
7624,W PFEIFFER RD,MAPLETON,IL,61547,
1003,N 4TH ST,MCHENRY,IL,60050,
1301,N Western Ave,Lake Forest,IL,60045,
18334,HOLLAND ROAD,Lansing,IL,60438,
502,Spring Lake Rd,Champaign,IL,61853,
5956,SOUTH FRANCISCO AVENUE,Chicago,IL,60629,
1867,STRATFORD AVENUE,Westchester,IL,60154,
11825,SOUTH PARNELL AVENUE,Chicago,IL,60628,
9325,W   CORSAIR RD,FRANKFORT,IL,60423,
379,Mallard Pt,Lake Barrington,IL,60010,
8530,CRESSMOOR COURT,Orland Park,IL,60462,
1749,NORTH HARDING AVENUE,Chicago,IL,60647,
1012,MANDALAY CT,NAPERVILLE        ,IL,60563,
2089,WILLIAM DR,MONTGOMERY,IL,60538,
2087,GREEN VALLEY RD,DARIEN            ,IL,60561,
3221,SW JEFFERSON AVE,PEORIA,IL,61605,
3825,LOMBARD AVENUE,Cicero,IL,60804,
3621,RIDGE ROAD,Lansing,IL,60438,
,COUNTY FARM RD,WINFIELD          ,IL,60190,
713,ASHTON AVE,ROMEOVILLE,IL,60446,
209,Maple Ct,Lake Forest,IL,60045,
26311,N Us Highway 45,Mundelein,IL,60060,
3009,WEST 54TH PLACE,Chicago,IL,60632,
102,CIRCLE DR,EAST PEORIA,IL,61611,
511,Colville Pl,Waukegan,IL,60087,
8132,SOUTH SPAULDING AVENUE,Chicago,IL,60652,
7812,SOUTH INGLESIDE AVENUE,Chicago,IL,60619,
3131,W AUGUSTANA AVE,PEORIA,IL,61605,
2191,Chadwick Way,Mundelein,IL,60060,
2855,SOUTH HILLOCK AVENUE,Chicago,IL,60608,
418,RAFFEL RD,WOODSTOCK,IL,60098,
7288,OGDEN AVENUE,Riverside,IL,60546,
1130,WEST PRATT BOULEVARD,Chicago,IL,60626,
1004,E WILLCOX AVE,PEORIA,IL,61603,
835,CO RD 750  E,CARMI,IL,62821,
3306,Emmaus Ave,Zion,IL,60099,
,E Byron St,Champaign,IL,61877,
2717,W GARDEN ST,PEORIA,IL,61602,
517,W KIMBALL AV,WOODSTOCK,IL,60098,
1700,WEST FOSTER AVENUE,Chicago,IL,60640,
2030,ASPEN DR,ALGONQUIN,IL,60102,
104,N DEVONSHIRE DR,BLOOMINGTON,IL,61704,
241,LINCOLN LANE,Wheeling,IL,60090,
2119,DOBSON STREET,Evanston,IL,60202,
814,N WEST ST,WHEATON           ,IL,60187,
1412,W GROVE ST,BLOOMINGTON,IL,61701,
1527,SUPERIOR ST,AURORA,IL,60505,
8215,N 1900 EAST RD,BLOOMINGTON,IL,61705,
16333,UNIVERSITY AVENUE,South Holland,IL,60473,
610,W Florida Ave,Champaign,IL,61801,
712,E MCCLURE AVE,PEORIA,IL,61603,
3106,YORKSHIRE CT,BLOOMINGTON,IL,61704,
921,TIMES SQUARE DR,AURORA,IL,60504,
1506,NORTH DRYDEN AVENUE,Arlington Heights,IL,60004,
1446,Park Ave,North Chicago,IL,60064,
255,PINE LANE,LYONS TWP,IL,60458,
4724,SOUTH DREXEL BOULEVARD,Chicago,IL,60615,
,UNION CHAPEL RD; SUMNER IL; 62466,Lawrence,IL,62466,
7016,WEST NEWPORT AVENUE,Chicago,IL,60634,
4405,WEST KINZIE STREET,Chicago,IL,60624,
423,S LASALLE ST,AURORA,IL,60505,
,HILLCREST TERR,MEDINAH           ,IL,60157,
4928,WEST BERENICE AVENUE,Chicago,IL,60641,
175,RIDGEWOOD ROAD,Riverside,IL,60546,
303,CAPITOL DR,SUGAR GROVE,IL,60554,
14538,S   STIRRUP CT,HOMER GLEN,IL,60491,
2175,POINT BLVD,ELGIN,IL,60123,
1991,Westview Ln,Round Lake Beach,IL,60073,
1605,N Berwick Blvd,Waukegan,IL,60085,
9619,SOUTH KEDVALE AVENUE,Oak Lawn,IL,60453,
4904,BROCKHAM CT,WOODSTOCK,IL,60098,
912,N ELMWOOD AVE,PEORIA,IL,61606,
15220,HILLTOP DRIVE,Orland Park,IL,60462,
3475,N WEST PROGRESS AVE,DECATUR,IL,62521,
9737,SOUTH BRANDT AVENUE,Oak Lawn,IL,60453,
1321,YORKSHIRE DRIVE,Hanover Park,IL,60133,
1531,AUTUMNCREST CT,CRYSTAL LAKE,IL,60014,
901,RIDGEWOOD DR,WEST CHICAGO      ,IL,60185,
2527,Waukegan Rd,Bannockburn,IL,60015,
14449,PARK AVENUE,Dolton,IL,60419,
2501,NORTH COUNTY LINE RD,ALGONQUIN,IL,60102,
213,SOUTH EUCLID AVENUE,Oak Park,IL,60302,
953,WEDGEWOOD DR,CRYSTAL LAKE,IL,60014,
100,GOLDEN DR,GLENDALE HTS      ,IL,60139,
4225,WEST 107TH STREET,Oak Lawn,IL,60453,
10037,LINDA LANE,MAINE TWP,IL,60016,
628,Sheridan Rd,Highwood,IL,60040,
2421,E Cumberland Cir,Long Grove,IL,60047,
2263,SHILOH DR,AURORA,IL,60503,
1325,RAYMOND DR,MONTGOMERY,IL,60538,
15145,VANS RD,FULTON,IL,61252,
6532,SOUTH HERMITAGE AVENUE,Chicago,IL,60636,
4030,WHITE EAGLE DR,NAPERVILLE,IL,60564,
305,EAST PALATINE ROAD,Prospect Heights,IL,60070,
9259,MAPLEWOOD COURT,Orland Hills,IL,60477,
1307,N Lincoln Ave,Champaign,IL,61801,
1211,Carroll Ave,Champaign,IL,61802,
6442,CERMAK ROAD,Berwyn,IL,60402,
2574,ROSEGLEN WAY,AURORA,IL,60506,
6236,SOUTH ARTESIAN AVENUE,Chicago,IL,60629,
00000,00000,00000,IL,00000,
2414,SOUTH AUSTIN BOULEVARD,Cicero,IL,60804,
1281,N Red Oak Cir,Round Lake Beach,IL,60073,
3227,WEST 83RD STREET,Chicago,IL,60652,
1706,HEIDEN AVE,CREST HILL,IL,60403,
5901,SOUTH NEW ENGLAND AVENUE,Chicago,IL,60638,
8814,SOUTH GENOA AVENUE,Chicago,IL,60620,
6528,WEST FIRESIDE DRIVE,Chicago Ridge,IL,60415,
202,Thompson St,Champaign,IL,61801,
1020,ADELIA ST,DOWNERS GROVE     ,IL,60516,
105,CAMELOT DR,BLOOMINGTON,IL,61704,
3566,University Ave,Highland Park,IL,60035,
1419,W LOTUS LN,KANKAKEE,IL,60901,
10940,SOUTH SPRINGFIELD AVENUE,Chicago,IL,60655,
,N   FAIRVIEW AVE,LOCKPORT,IL,60441,
606,S BUSSELL CT,GLASFORD,IL,61533,
3506,RUBY STREET,Franklin Park,IL,60131,
25800,W Highpoint Rd,Ingleside,IL,60041,
,RIVER BEND RD,MONTGOMERY,IL,60538,
16517,SPAULDING AVENUE,Markham,IL,60428,
5415,SOUTH KENNETH AVENUE,Chicago,IL,60632,
1940,N Municipal Way,Round Lake,IL,60073,
16,HOLE-IN-THE-WALL RD,WILMINGTON,IL,60481,
955,MESA DR,LAKE IN THE HILLS,IL,60156,
26265,N Il Route 83,Mundelein,IL,60060,
3838,STANLEY AVENUE,RIVERSIDE TWP,IL,60546,
2012,CROOKED TREE CT,MCHENRY,IL,60050,
913,ASHFORD LN,WESTMONT          ,IL,60559,
25750,W   CATON FARM RD,PLAINFIELD,IL,60586,
2392,WILSON CREEK CIR,AURORA,IL,60503,
913,YORKTOWN ST,MCHENRY,IL,60050,
346,W   JOLIET HWY,NEW LENOX,IL,60451,
333,Cobbler Ln,Buffalo Grove,IL,60089,
7059,NORTH GREENVIEW AVENUE,Chicago,IL,60626,
3416,N KNOXVILLE AVE,PEORIA,IL,61603,
907,OBRIEN ST,HARVARD,IL,60033,
3311,NORTH MONTICELLO AVENUE,Chicago,IL,60618,
4804,TURNBERRY DRIVE,Hoffman Estates,IL,60010,
935,B STATE ST,PEORIA,IL,61605,
,HINCKLEY RD,BIG ROCK,IL,60511,
1008,W STATE ST,JACKSONVILLE,IL,62650,
1560,SIR LANCELOT DR,BOURBONNAIS,IL,60914,
5757,WEST 59TH STREET,Chicago,IL,60638,
890,Audubon Way,Lincolnshire,IL,60069,
7746,OCONTO AVENUE,Niles,IL,60714,
1452,WEST 95TH STREET,Chicago,IL,60620,
935,NORTH ASHLAND AVENUE,Chicago,IL,60642,
219,WILDFLOWER STREET,Des Plaines,IL,60016,
2291,N 2750W RD,KANKAKEE,IL,60901,
16519,PAW PAW AVENUE,ORLAND TWP,IL,60467,
72,FOREST GATE CIR,OAK BROOK         ,IL,60523,
2220,N Jackson St,Waukegan,IL,60087,
260,BARTRAM ROAD,Riverside,IL,60546,
307,W University Ave,Champaign,IL,61820,
1627,ROSE LN,ROMEOVILLE,IL,60446,
,W  JOSEPHINE DR,MOKENA,IL,60448,
14142,MANOR AVENUE,Dolton,IL,60419,
107,N FARNSWORTH AV,AURORA,IL,60505,
11789,HUNTERSTON DR,CALEDONIA                       ,IL,61011,
8859,SOUTH MOODY AVENUE,Oak Lawn,IL,60453,
2705,Southwood Dr,Champaign,IL,61821,
567,MERRILL AVENUE,Calumet City,IL,60409,
1107,WEST MARQUETTE ROAD,Chicago,IL,60621,
2301,BEAU MONDE LN,LISLE             ,IL,60532,201
11211,N BROOKLYN PL,DUNLAP,IL,61525,
1501,SOUTH AUSTIN BOULEVARD,Cicero,IL,60804,
,W   PAULING RD,MONEE,IL,60449,
7201,JACKSON BOULEVARD,Forest Park,IL,60130,
11440,BELL ROAD,LEMONT TWP,IL,60439,
10868,SOUTH PROSPECT AVENUE,Chicago,IL,60643,
37103,N Bonnie Brae Rd,Lake Villa,IL,60046,
2922,COMMERCE DR,MCHENRY,IL,60050,
11223,SOUTH COTTAGE GROVE AVENUE,Chicago,IL,60628,
1277,ESTLING CT,AURORA,IL,60502,
1887,LILAC LN,AURORA,IL,60506,
,S   INDIAN TRAIL RD,WILMINGTON,IL,60481,
716,E 1900TH ST,LIBERTY,IL,62347,
14240,W Braemore Close,Libertyville,IL,60048,
102,RAINTREE CT,AURORA,IL,60504,
1938,UNIVERSITY LN,LISLE             ,IL,60532,
1054,NORTH KNOLLWOOD DRIVE,Schaumburg,IL,60194,
3020,PAULSON RD,HARVARD,IL,60033,
9930,190TH ST,MOKENA,IL,60448,
,PEPPER CT,WEST CHICAGO      ,IL,60185,
3,Prairie View Ct,North Chicago,IL,60064,
250,GEORGE ST,BENSENVILLE       ,IL,60106,
845,NORTH MONTICELLO AVENUE,Chicago,IL,60651,
3001,W SEIBOLD ST,PEORIA,IL,61605,
,MAIN ST,ELBURN,IL,60119,
,N WEBSTER ST,PEORIA,IL,61605,
2730,Kelly Ln,Highland Park,IL,60035,
1221,Johnson Dr,Buffalo Grove,IL,60089,
1905,E OAKLAND AVE,BLOOMINGTON,IL,61701,
7968,SOUTH RIDGELAND AVENUE,Chicago,IL,60617,
18841,W Arbor Blvd,Grayslake,IL,60030,
2722,NORTH CENTRAL AVENUE,Chicago,IL,60639,
1527,N CUTRIGHT ST,CHILLICOTHE,IL,61523,
927,N WEST ST,WHEATON           ,IL,60187,
320,UNIVERSITY LANE,Elk Grove Village,IL,60007,
79,EAST 101ST STREET,Chicago,IL,60628,
1146,NORTH WASHTENAW AVENUE,Chicago,IL,60622,
,HILLSIDE LN,BURR RIDGE        ,IL,60527,
810,E   EAGLE LAKE RD,BEECHER,IL,60401,
2629,122ND PLACE,Blue Island,IL,60406,
7649,165TH PLACE,Tinley Park,IL,60477,
10,HARVEY RD,DOWNS,IL,61736,
2543,OAK AVENUE,Northbrook,IL,60062,
1855,DELROSE ST,JOLIET,IL,60435,
2828,LIND ST,QUINCY,IL,62301,
1355,WINSLOW CIR,WOODSTOCK,IL,60098,
2229,SOUTH CENTRAL PARK AVENUE,Chicago,IL,60623,
203,Rainier Way,Fox Lake,IL,60020,
790,WOODRIDGE LANE,Glencoe,IL,60022,
2111,WEST ERIE STREET,Chicago,IL,60612,
2313,WEST 95TH STREET,Chicago,IL,60643,
618,EAST 101ST STREET,Chicago,IL,60628,
11,WASHTENAW LN,ALGONQUIN,IL,60102,
204,NORTH MAPLE STREET,Mount Prospect,IL,60056,
,FAIRENO DR,ELBURN,IL,60119,
700,RADNOR DR,ROSELLE           ,IL,60172,
3152,NORTH LARAMIE AVENUE,Chicago,IL,60641,
6925,SOUTH DORCHESTER AVENUE,Chicago,IL,60637,
2004,Moreland Blvd,Champaign,IL,61822,
8727,WEST NORMAL AVENUE,Niles,IL,60714,
340,Eiler Dr,Champaign,IL,61847,
,HEMSTEAD RD,LOMBARD           ,IL,60148,
95,Sequoia Ln,Deerfield,IL,60015,
440,STONE HOLLOW DR,POPLAR GROVE                    ,IL,61065,
7201,STATE ST,QUINCY,IL,62305,
5423,NORTH SAWYER AVENUE,Chicago,IL,60625,
104,S  HIGHPOINT DR,ROMEOVILLE,IL,60446,
12732,LOOMIS STREET,Calumet Park,IL,60827,
10356,SOUTH DRAKE AVENUE,Chicago,IL,60655,
4505,WEST 47TH STREET,Chicago,IL,60632,
2523,7TH AVENUE,North Riverside,IL,60546,
56,E Healey St,Champaign,IL,61820,
10123,SOUTH WESTERN AVENUE,Chicago,IL,60643,
5329,WEST 102ND STREET,Oak Lawn,IL,60453,
916,S Martin Luther King Jr Ave,Waukegan,IL,60085,
1755,NORTH KEDVALE AVENUE,Chicago,IL,60639,
315,N LOCUST ST,AURORA,IL,60506,
5,WOODLAND DR,WHITE HEATH,IL,61884,
7820,COUNTY LINE RD,BURR RIDGE        ,IL,60521,
2217,WEST TOUHY AVENUE,Chicago,IL,60645,
1520,Artaius Pkwy,Libertyville,IL,60048,
248,MADISON STREET,Oak Park,IL,60302,
4323,BLANCHAN AVENUE,Brookfield,IL,60513,
2332,Lewis Ave,Zion,IL,60099,
172,S 4000W RD,KANKAKEE,IL,60901,
14847,MINERVA AVENUE,Dolton,IL,60419,
361,North Dr,Champaign,IL,61866,
632,N ROOT ST,AURORA,IL,60505,
6111,KNOLL WOOD RD,WILLOWBROOK       ,IL,60527,101
4608,SHERWOOD AVE,DOWNERS GROVE     ,IL,60515,
17106,EVERETT AVENUE,South Holland,IL,60473,
5649,SOUTH KEDZIE AVENUE,Chicago,IL,60629,
10226,WHITEWILLOW RD,MORRIS,IL,60450,
18142,TORRENCE AVENUE,Lansing,IL,60438,
5314,VICTOR ST,DOWNERS GROVE     ,IL,60515,
1450,GRAYSTONE DR,AURORA,IL,60502,
4206,Tiger Lily Ln,Gurnee,IL,60031,
2035,NORTH LAVERGNE AVENUE,Chicago,IL,60639,
6639,NORTH SAINT LOUIS AVENUE,Lincolnwood,IL,60712,
1514,Sheridan Rd,North Chicago,IL,60064,
313,HOBBS AVE,JOLIET,IL,60433,
,S   FLANNIGAN ST,MANHATTAN,IL,60442,
,N FARNSWORTH AVE,AURORA,IL,60505,
4408,N ROSEMEAD DR,PEORIA,IL,61614,
802,S PRAIRIE AVE,BARTLETT          ,IL,60103,
2649,W Autumn Dr,Round Lake,IL,60073,
25,HERMAN CT,CRETE,IL,60417,
5357,NORTH MONTCLARE AVENUE,Chicago,IL,60656,
11155,180TH STREET,Orland Park,IL,60467,
311,N Elmwood Ave,Waukegan,IL,60085,
407,N GRANT ST,WESTMONT          ,IL,60559,
,HORNED OWL CT,ELGIN,IL,60123,
11742,SUNDERLIN DR,HUNTLEY,IL,60142,
1467,CHIPPEWA TRAIL,Wheeling,IL,60090,
22521,W Adams Ct,Antioch,IL,60002,
7219,WEST LAWRENCE AVENUE,Harwood Heights,IL,60706,
430,MAPLE DRIVE,Glenwood,IL,60425,
208,COLES COUNTY DR,O'FALLON,IL,62269,
1325,W   CORNING RD,BEECHER,IL,60401,
7015,NE SKYLINE DR,PEORIA,IL,61614,
1206,Green Knolls Dr,Buffalo Grove,IL,60089,
95,W Golf View Rd,Lake Zurich,IL,60047,
7234,PUEBLO LANE,Palos Heights,IL,60463,
,BRADFORD CT,CARPENTERSVILLE,IL,60110,
2208,Dale Dr,Champaign,IL,61821,
4557,Hogan Ln,Wadsworth,IL,60083,
359,JEFFERSON ST,AURORA,IL,60505,
1865,EVERETT AVENUE,Des Plaines,IL,60018,
5135,TAMARACK COURT,Hoffman Estates,IL,60010,
,BOOK RD,NAPERVILLE,IL,60564,
2465,COURT RIDGE RD,BELVIDERE                       ,IL,61008,
7716,GREENWAY BLVD,TINLEY PARK,IL,60487,
3205,SOUTH EMERALD AVENUE,Chicago,IL,60616,
4451,WEST DIVISION STREET,Chicago,IL,60651,
5915,35TH STREET,Cicero,IL,60804,
21767,N Cambridge Dr,Kildeer,IL,60047,
322,FREEHAUF STREET,Lemont,IL,60439,
901,ANDERMANN LN,DARIEN            ,IL,60561,
983,APPLE TREE LN,WEST CHICAGO      ,IL,60185,
21642,CLYDE AVENUE,Sauk Village,IL,60411,
1054,EAST 73RD STREET,Chicago,IL,60619,
910,GENEVA ST,SHOREWOOD,IL,60404,
27719,W Rowe Ave,Spring Grove,IL,60081,
3811,NORTH HARLEM AVENUE,Chicago,IL,60634,
2505,MEADOW DRIVE,Rolling Meadows,IL,60008,
231,W BACON ST,LA PRAIRIE,IL,62346,
4139,ROYAL MEWS CIR,NAPERVILLE,IL,60564,
728,THORNAPPLE DR,NAPERVILLE        ,IL,60540,
5927,SOUTH PARKSIDE AVENUE,Chicago,IL,60638,
7421,WEST PALATINE AVENUE,Chicago,IL,60631,
1810,JAMESTOWN CIRCLE,Hoffman Estates,IL,60169,
10005,SOUTH 53RD AVENUE,Oak Lawn,IL,60453,
4209,WEST CORTEZ STREET,Chicago,IL,60651,
,N JACKSON ST,ELGIN,IL,60123,
5647,NORTH NAGLE AVENUE,Chicago,IL,60646,
5121,SOUTH WHIPPLE STREET,Chicago,IL,60632,
1110,GROVE ST,DOWNERS GROVE     ,IL,60515,
6654,SOUTH NORMAL BOULEVARD,Chicago,IL,60621,
3903,Balmoral Dr,Champaign,IL,61822,
3436,Woodlawn Ave,Gurnee,IL,60031,
104,BUSHTHORN DR,ELWOOD,IL,60421,
111,W 3RD ST,O'FALLON,IL,62269,
3124,WEST JACKSON BOULEVARD,Chicago,IL,60612,
,20G-4,LOVES PARK                      ,IL,61111,
741,EAST 40TH STREET,Chicago,IL,60653,
707,Osterman Ave,Deerfield,IL,60015,
1121,DRIFTWOOD COURT,Flossmoor,IL,60422,
12026,W FARMINGTON RD,HANNA CITY,IL,61536,
4316,N QUEEN ANNE RD,WOODSTOCK,IL,60098,
5227,NORTH KENMORE AVENUE,Chicago,IL,60640,
3115,SOUTH MICHIGAN AVENUE,Chicago,IL,60616,
7731,VIRGINIA CT,WILLOWBROOK       ,IL,60527,
3133,NORTH OKETO AVENUE,Chicago,IL,60707,
4108,Greenleaf Ct,Park City,IL,60085,
17790,PHEASANT LANE,Country Club Hills,IL,60478,
,RUSSELL RD,PLATO CENTER,IL,60124,
2080,MAIN ST,BATAVIA,IL,60510,
1026,SOUTH HIGHLAND AVENUE,Arlington Heights,IL,60005,
3432,SOUTH 61ST AVENUE,Cicero,IL,60804,
25820,W Brooks Farm Rd,Round Lake,IL,60073,
11254,SOUTH LANGLEY AVENUE,Chicago,IL,60628,
7859,W   CARRIE CT,FRANKFORT,IL,60423,
1507,N SHERIDAN RD,PEORIA,IL,61606,
2720,NORTHCREST DR,DOWNERS GROVE     ,IL,60516,
3727,HIGHLAND AVENUE,Berwyn,IL,60402,
1441,SCHOENHERR AVE,BOLINGBROOK,IL,60490,
5285,S 10000W RD,HERSCHER,IL,60941,
4814,WEST BLOOMINGDALE AVENUE,Chicago,IL,60639,
300,SOUTH 45TH AVENUE,Northlake,IL,60164,
260,CENTER ST,ELGIN,IL,60120,
633,Indian Trail Rd,Antioch,IL,60002,
126,BROADWAY STREET,Chicago Heights,IL,60411,
10830,SOUTH AVENUE N,Chicago,IL,60617,
212,BELLE VUE CT,SUGAR GROVE,IL,60554,
114,N Lincoln Ave,Round Lake,IL,60073,
1379,E 2500 NORTH RD,FINDLAY,IL,62534,
370,Carriage Way,Deerfield,IL,60015,
1749,NORTH MOZART STREET,Chicago,IL,60647,
11030,JODAN DRIVE,Oak Lawn,IL,60453,
210,E CRAIG ST,PRINCEVILLE,IL,61559,
2104,W ARROW HEAD LN,PEORIA,IL,61604,
5750,NORTH MAPLEWOOD AVENUE,Chicago,IL,60659,
3102,W Daniel St,Champaign,IL,61821,
,N BLUE RIDGE RD,CHILLICOTHE,IL,61523,
1247,Hackberry Rd,Deerfield,IL,60015,
2756,WEST 83RD STREET,Chicago,IL,60652,
17,B AVE,BLOOMINGTON,IL,61704,
1035,W KIRKLAND DR,DECATUR,IL,62522,
1843,N   STONINGTON AVE,BEECHER,IL,60401,
716,OAK MANOR DR,MARENGO,IL,60152,
911,WEST WILLOW STREET,Palatine,IL,60067,
626,CIRCLE CT,BRADLEY,IL,60915,
836,HOAGLAND RD,JACKSONVILLE,IL,62650,
1108,CARMEL CT,NAPERVILLE        ,IL,60540,
,S   STEGER-MONEE RD,UNIVERSITY PARK,IL,60484,
35,KING ARTHUR COURT,Northlake,IL,60164,
1209,W 19TH ST,STERLING,IL,61081,
3252,WEST 55TH STREET,Chicago,IL,60632,
482,JAMES CT,GLENDALE HTS      ,IL,60139,
4058,E ILLINOIS PROGRESS ST,DECATUR,IL,62521,
3239,WEST 112TH PLACE,Chicago,IL,60655,
1623,TERRI CIR,NAPERVILLE        ,IL,60563,
2163,CLOVER ROAD,Northbrook,IL,60062,
1301,CORTLAND DR,NAPERVILLE        ,IL,60565,
1320,Prescott Dr,Fox Lake,IL,60020,
601,WATFORD DR,BLOOMINGTON,IL,61704,
3,WILLIAMSBURG CIRCLE,Skokie,IL,60203,
412,MC DANIELS CIR,CLARENDON HILLS   ,IL,60514,
13722,S   MEADOW LN,PLAINFIELD,IL,60544,
461,Beech St,Highland Park,IL,60035,
1055,BOTHWELL CIR,BOLINGBROOK,IL,60440,
6537,W CHICKALOON DR,MCHENRY,IL,60050,
9216,SOUTH BRANDON AVENUE,Chicago,IL,60617,
12216,SOUTH NORMAL AVENUE,Chicago,IL,60628,
112,S ORR DR,NORMAL,IL,61761,
4901,WEST DIVISION STREET,Chicago,IL,60651,
7909,SOUTH ARTESIAN AVENUE,Chicago,IL,60652,
675,Lakeview Pkwy,Vernon Hills,IL,60061,
1500,RUTLAND LANE,Schaumburg,IL,60173,
1843,73RD COURT,Elmwood Park,IL,60707,
408,E CALHOUN ST,WOODSTOCK,IL,60098,
4349,TIMBER RIDGE CT,JOLIET,IL,60431,
18052,TORRENCE AVENUE,Lansing,IL,60438,
3408,DONOVAN DR,CRETE,IL,60417,
3450,NORTH PANAMA AVENUE,Chicago,IL,60634,
5536,WEST NEWPORT AVENUE,Chicago,IL,60641,
61,ELM AVE,CARPENTERSVILLE,IL,60110,
407,W FORREST HILL AVE,PEORIA,IL,61604,
16422,76TH AVENUE,Tinley Park,IL,60477,
19801,S   LA GRANGE RD,MOKENA,IL,60448,
14401,LAMON AVENUE,Midlothian,IL,60445,
,PLAINFIELD RD,JOLIET,IL,60435,
4828,GREENLEAF STREET,Skokie,IL,60077,
5708,W HEUERMANN RD,PEORIA,IL,61607,
2014,W BRISTOL HOLLOW RD,DUNLAP,IL,61525,
480,S HARRISON AV,KANKAKEE,IL,60901,
28483,W Arch Dr,Barrington,IL,60010,
720,Bluff St,Waukegan,IL,60085,
4934,WEST GLADYS AVENUE,Chicago,IL,60644,
394,POPLAR DRIVE,Wheeling,IL,60090,
5249,NORTH SAWYER AVENUE,Chicago,IL,60625,
406,Greentree Pkwy,Libertyville,IL,60048,
1829,NORTH 21ST AVENUE,Melrose Park,IL,60160,
22963,S   MICHAEL DR,CHANNAHON,IL,60410,
,STATE ST,CRETE,IL,60417,
3111,HERITAGE DR,JOLIET,IL,60435,
4005,CLINTON AVENUE,Stickney,IL,60402,
5105,SOUTH KEATING AVENUE,Chicago,IL,60632,
2430,SOUTH EMBERS LANE,Arlington Heights,IL,60005,
,CENTURY PT LN,GLENDALE HTS      ,IL,60139,
12322,KEELER AVENUE,Alsip,IL,60803,
1630,EAST 92ND STREET,Chicago,IL,60617,
327,HILLSIDE PL,NORTH AURORA,IL,60542,
436,NORTH STEPHEN DRIVE,Palatine,IL,60067,
600,IVY LN,BRADLEY,IL,60915,
1781,INDIAN HILL LN,AURORA,IL,60503,
1103,N 3250 EAST RD,FARMER CITY,IL,61842,
9533,SOUTH JEFFERY AVENUE,Chicago,IL,60617,
650,PRIMROSE LANE,Matteson,IL,60443,
21525,CORMORANT ST,CREST HILL,IL,60403,
1108,W 12TH ST,BELVIDERE                       ,IL,61008,
112,NORTH EMERSON STREET,Mount Prospect,IL,60056,
1301,Fairlawn Dr,Champaign,IL,61801,
2050,Western Ave,Waukegan,IL,60087,
1544,WESTCHESTER BOULEVARD,Westchester,IL,60154,
7216,N CHARLES WAY,PEORIA,IL,61614,
33,OLD FARM NORTH CT,BRADLEY,IL,60915,
3831,NANNYBERRY CT,NAPERVILLE,IL,60564,
,W   RT 113,CUSTER PARK,IL,60481,
401,Center St,Grayslake,IL,60030,
102,POPLAR LANE,LYONS TWP,IL,60458,
115,CRESTVIEW RD,EAST PEORIA,IL,61611,
1216,WEST FLETCHER STREET,Chicago,IL,60657,
2170,INDIANA AVENUE,THORNTON TWP,IL,60438,
13338,SOUTH BURLEY AVENUE,Chicago,IL,60633,
8511,HEMLOCK LN,DARIEN            ,IL,60561,
516,JUNIPER LN,BRADLEY,IL,60915,
4525,W Roundstone Way,Waukegan,IL,60085,
2203,REBECCA CIR,MONTGOMERY,IL,60538,
803,MARQUETTE DR SW,POPLAR GROVE                    ,IL,61065,
632,Geneva Ct,Indian Creek,IL,60061,
642,Diamond Pointe Dr,Mundelein,IL,60060,
9424,SOUTH DAMEN AVENUE,Chicago,IL,60620,
17749,MARLEY CREEK BOULEVARD,Orland Park,IL,60467,
204,N EVANSLAWN AV,AURORA,IL,60506,
1032,S JOHANSON RD,PEORIA,IL,61607,
,CLAREMONT DR,DARIEN            ,IL,60561,
2215,CARPENTER AVE,PLAINFIELD,IL,60586,
1009,NORWOOD AVE,NORMAL,IL,61761,
600,W Washington Ave,Lake Bluff,IL,60044,
843,BROWN AVE,EVANSTON,IL,60202,
50,S Windsor Pl,Mundelein,IL,60060,
1550,CONSTITUTION DRIVE,Glenview,IL,60026,
633,WEST 25TH PLACE,Chicago,IL,60616,
213,N WALNUT ST,MOMENCE,IL,60954,
209,MAPLE ST,JOLIET,IL,60432,
28,Willow Pkwy,Buffalo Grove,IL,60089,
2723,76TH AVENUE,Elmwood Park,IL,60707,
2715,DEERING BAY DR,NAPERVILLE,IL,60564,
1307,BANCROFT DR,BLOOMINGTON,IL,61704,
201,E CENTER ST,LEROY,IL,61752,
1313,ANTUNA BL,WOODSTOCK,IL,60098,
506,E TOLEDO AVE,PEORIA HEIGHTS,IL,61616,
,ORCHARD AVE,BENSENVILLE       ,IL,60106,
,W   DIVISION ST,CREST HILL,IL,60403,
2909,75TH AVENUE,Elmwood Park,IL,60707,
1108,BOULDER CREEK DR,O'FALLON,IL,62269,201
354,NORTH ROHLWING ROAD,Palatine,IL,60074,
1540,E COLLEGE AVE,NORMAL,IL,61761,
9,SUNSET LN,JOLIET,IL,60433,
,REDBUD CT,SAINT CHARLES,IL,60175,
7709,STICKNEY AVENUE,Bridgeview,IL,60455,
6445,WEST FOREST PRESERVE DRIVE,Harwood Heights,IL,60706,
408,MILES LN,NORMAL,IL,61761,
504,WALNUT AVE,MAPLE PARK,IL,60151,
7,THOMPSON AVENUE,Des Plaines,IL,60016,
8900,HARLEM AVENUE,Bridgeview,IL,60455,
315,W LAKE AVE,PEORIA,IL,61614,
6605,WEST ARCHER AVENUE,Chicago,IL,60638,
824,WEST WAVELAND AVENUE,Chicago,IL,60613,
2060,NORTH 19TH AVENUE,Melrose Park,IL,60160,
8827,MANGO AVENUE,Morton Grove,IL,60053,
7921,OAKVIEW LN,WOODRIDGE         ,IL,60517,
2704,Cherry Hills Dr,Champaign,IL,61822,
,ARMY TRAIL RD,BARTLETT          ,IL,60103,
8304,REGENCY COURT,Willow Springs,IL,60480,
,S   JOLIET RD,PEOTONE,IL,60468,
,KNOLLWOOD DR,WHEATON           ,IL,60187,
8410,W SUNSET DR,WONDER LAKE,IL,60097,
,EARL CT,DARIEN            ,IL,60561,
6952,CAMBRIA COVE,HUNTLEY,IL,60142,
2045,NORTH WOLCOTT AVENUE,Chicago,IL,60614,
11613,SOUTH JUSTINE STREET,Chicago,IL,60643,
2490,HEDGE ROW DR,AURORA,IL,60502,
15905,N BROUGHAM DR,CHILLICOTHE,IL,61523,
780,CR 100 E,Champaign,IL,61851,
522,HENDEE ST,ELGIN,IL,60123,
17929,W Chippewa Rd,Grayslake,IL,60030,
21240,KILDARE AVENUE,Matteson,IL,60443,
658,ARLINGTON AVENUE,Des Plaines,IL,60016,
,SULLEY DR,GENEVA,IL,60134,
1051,Twisted Oak Ln,Buffalo Grove,IL,60089,
19,N LINDEN AVE,WESTMONT          ,IL,60559,
190,MICHIGAN AVE,ELMHURST          ,IL,60126,
25512,W   PRAIRIEWOOD LN,SHOREWOOD,IL,60404,
308,WEST ADAMS STREET,Chicago,IL,60606,
450,BANGS ST,AURORA,IL,60505,
602,COLUMBIA DR,NEW LENOX,IL,60451,
482,N 34TH ST,DECATUR,IL,62521,
6914,SOUTH WOOD STREET,Chicago,IL,60636,
4740,SOUTH LANGLEY AVENUE,Chicago,IL,60615,
200,EAST 144TH STREET,Dolton,IL,60419,
8108,WEST MEMORY LANE,Chicago,IL,60656,
320,Old Country Way,Wauconda,IL,60084,
493,EDENS LANE,Northfield,IL,60093,
1510,SOUTH SAWYER AVENUE,Chicago,IL,60623,
330,GRANDVIEW AVE,GLEN ELLYN        ,IL,60137,
1592,SOUTH LUMBER STREET,Chicago,IL,60616,
316,AUSTIN AVENUE,Park Ridge,IL,60068,
2672,WATERFORD CT,AURORA,IL,60502,
1255,BEECHER RD E,BRISTOL,IL,60512,
287,W Norwell Ln,Round Lake,IL,60073,
1817,S Neil St,Champaign,IL,61820,
1303,MOUNDVIEW LN,DECATUR,IL,62526,
534,White Birch Rd,Lindenhurst,IL,60046,
1058,E WILSON AVE,LOMBARD           ,IL,60148,
6256,WEST HYACINTH STREET,Chicago,IL,60646,
5525,E LAKE DR,LISLE             ,IL,60532,
1813,Country Dr,Grayslake,IL,60030,
1940,N Municipal Way,Round Lake,IL,60073,
1001,CR 2200 E,Champaign,IL,61877,
5621,WEST DAKIN STREET,Chicago,IL,60634,
,ROBERT DR,NAPERVILLE,IL,60564,
1255,North Ave,Highland Park,IL,60035,
1506,NORTH AVERS AVENUE,Chicago,IL,60651,
6356,SOUTH TALMAN AVENUE,Chicago,IL,60629,
9912,W GUINIVERE DR,MAPLETON,IL,61547,
8077,STANLEY TRL S,FRANKFORT,IL,60423,
406,W MAIN ST,ELMWOOD,IL,61529,
,REDWOOD LN,SAINT CHARLES,IL,60175,
202,Hartle Ave,Champaign,IL,61802,
3439,WEST DIVISION STREET,Chicago,IL,60651,
2615,MALMESBURY CT,AURORA,IL,60502,
1409,SOUTH TRUMBULL AVENUE,Chicago,IL,60623,
24260,S   SCHOOLHOUSE RD,MANHATTAN,IL,60442,
4443,SOUTH TRUMBULL AVENUE,Chicago,IL,60632,
4750,MERRIMAC AVENUE,STICKNEY TWP,IL,60638,
1325,NORTH LA SALLE DRIVE,Chicago,IL,60610,
14613,DIVISION STREET,Posen,IL,60469,
702,MANSFIELD CT,OSWEGO,IL,60543,
4204,BLOOMINGTON AVENUE,Arlington Heights,IL,60004,
1035,PARK AVENUE,River Forest,IL,60305,
315,CRISSEY AVE,GENEVA,IL,60134,
,ELMWOOD AVE,SAINT CHARLES,IL,60174,
9639,IRVING PARK ROAD,Schiller Park,IL,60176,
177,E Laurel Ave,Lake Forest,IL,60045,
4900,NORTH SAYRE AVENUE,Chicago,IL,60656,
4361,Meadowlark Ct,Gurnee,IL,60031,
950,N Rand Rd,Wauconda,IL,60084,
643,VILLA ST,ELGIN,IL,60120,
,FAIRMONT CT,SAINT CHARLES,IL,60175,
806,S CHURCH ST,ALBANY,IL,61230,
259,CARRIAGE HILL DR,AURORA,IL,60506,
1310,BIG HORN TRL,CAROL STREAM      ,IL,60188,
2331,SOUTH MILLARD AVENUE,Chicago,IL,60623,
,BONNIE ST,SAINT CHARLES,IL,60174,
3711,N MOUNDFORD AVE,DECATUR,IL,62526,
5507,E LAKE DR,LISLE             ,IL,60535,
97,PAXTON AVENUE,Calumet City,IL,60409,
6935,NORTH GREENVIEW AVENUE,Chicago,IL,60626,
324,WIGWAM HOLLOW RD,MACOMB,IL,61455,8
135,SOUTH MARILYN AVENUE,Northlake,IL,60164,
7801,165TH PLACE,Tinley Park,IL,60477,
2341,NORTH MONTICELLO AVENUE,Chicago,IL,60647,
729,W HWY 50,O'FALLON,IL,62269,
1324,NORTH SALEM BOULEVARD,Arlington Heights,IL,60004,
924,BEACH AVENUE,La Grange Park,IL,60526,
120,CARRIAGE LANE,Sauk Village,IL,60411,
8532,SOUTH ADA STREET,Chicago,IL,60620,
2907,CAMDEN DR,WEST CHICAGO      ,IL,60185,
6170,KNOLL LANE CT,WILLOWBROOK       ,IL,60527,
549,N SCHUYLER AV,KANKAKEE,IL,60901,
1306,WEST DEVON AVENUE,Chicago,IL,60660,
15,Cedar Ct,Vernon Hills,IL,60061,
232,S DOLE AV,CRYSTAL LAKE,IL,60014,
219,WEBSTER ST,BATAVIA,IL,60510,
10916,SOUTH HARLEM AVENUE,Worth,IL,60482,
2604,HERITAGE LAKE DR,LOCKPORT,IL,60441,
3301,MAPLE AVENUE,Berwyn,IL,60402,
845,HILL AVE,GLEN ELLYN        ,IL,60137,
180,DECKER DR,CARY,IL,60013,
5,Falkirk Rd,Hawthorn Woods,IL,60047,
4703,128TH STREET,Alsip,IL,60803,
5530,WEST 25TH PLACE,Cicero,IL,60804,
2534,MARY ST,BELVIDERE                       ,IL,61008,
1219,WATLING STREET,Arlington Heights,IL,60004,
407,S Poplar St,Champaign,IL,61802,
1005,ASH ST,Lawrence,IL,62439,
1547,W IRVING PARK RD,ITASCA            ,IL,60143,
7729,173RD STREET,Tinley Park,IL,60477,
2318,Washington St,Waukegan,IL,60085,
1746,WEST HARRISON STREET,Chicago,IL,60612,
104,Ridge Rd,Champaign,IL,61853,
12710,SOUTH CENTRAL AVENUE,Crestwood,IL,60445,
263,Beverly Rd,Barrington,IL,60010,
1820,WEST BANBURY ROAD,Inverness,IL,60067,
3510,SUNSET LANE,Franklin Park,IL,60131,
3208,NORTH HARLEM AVENUE,Chicago,IL,60634,
715,GOLFCREST RD S,NORMAL,IL,61761,
2236,RIDGEFIELD DR,BELVIDERE                       ,IL,61008,
928,KNOLLSIDE RD,NEW LENOX,IL,60451,
419,ELMHURST ST,WOOD DALE         ,IL,60191,
6,Carriage Ln,Highwood,IL,60040,
7451,NOTTINGHAM DRIVE,Tinley Park,IL,60477,
122,CEDARFIELD DRIVE,Bartlett,IL,60103,
315,W GROVE ST,CAPRON                          ,IL,61012,
26036,S   DIAGONAL RD,ELWOOD,IL,60421,
414,BRYANT AVE,GLEN ELLYN        ,IL,60137,
6632,SOUTH FRANCISCO AVENUE,Chicago,IL,60629,
267,ISLEVIEW DR,OSWEGO,IL,60543,
31,REGENT DR,GILBERTS,IL,60136,
1922,RIVERSIDE RD,BELVIDERE                       ,IL,61008,
914,Lenox Ave,Waukegan,IL,60085,
11733,SOUTH STEWART AVENUE,Chicago,IL,60628,
2073,FOX LANE,Des Plaines,IL,60018,
3028,W Sherman Ave,Waukegan,IL,60085,
7510,FARMINGDALE DR,DARIEN            ,IL,60561,109
106,E OAKLEY ST,GLASFORD,IL,61533,
17300,ROYAL COURT,South Holland,IL,60473,
409,E ORCHARD ST,NORRIS CITY,IL,62869,
208,Pell Cir,Champaign,IL,61801,
870,WHITE OAK LN,UNIVERSITY PARK,IL,60484,
17370,E 1500TH ST,GOOD HOPE,IL,61438,
1404,56TH COURT,Cicero,IL,60804,
422,WOODCROFT LANE,Schaumburg,IL,60173,
2623,NORTH DAYTON STREET,Chicago,IL,60614,
632,COOPER AVE,ELGIN,IL,60120,
32,W 420 FOREST DR,AURORA,IL,60502,
1330,STRATFORD DR W,BOURBONNAIS,IL,60914,
724,W MAIN ST,PRINCEVILLE,IL,61559,
6522,SOUTH LAVERGNE AVENUE,Bedford Park,IL,60638,
38,EAST ROSE STREET,Glenwood,IL,60425,
3607,WEST 59TH PLACE,Chicago,IL,60629,
401,N SHEPHERD HILL LN,MCHENRY,IL,60050,
2023,WEST WILLOW STREET,Chicago,IL,60647,
1334,NORTH WALNUT AVENUE,Arlington Heights,IL,60004,
516,HAMLIN COURT,Park Ridge,IL,60068,
300,CLAYMOOR,HINSDALE          ,IL,60521,
3090,LANDWEHR ROAD,Glenview,IL,60062,
8101,PARKSIDE AVENUE,Morton Grove,IL,60053,
318,SUNRISE AVE,WILLOWBROOK       ,IL,60527,
225,PLEASANT ST,WOODSTOCK,IL,60098,
7873,ASBURY CIRCLE SOUTH,Hanover Park,IL,60133,
,SUNNY LN,PEORIA,IL,61615,
220,LEE ST,MANHATTAN,IL,60442,
2407,EAST SHERWOOD ROAD,Arlington Heights,IL,60004,
843,N GLADSTONE AV,AURORA,IL,60506,
212,PARKTRAIL RD,NORMAL,IL,61761,
12,FLORA WAY,NORMAL,IL,61761,
749,WESLEY AVENUE,Evanston,IL,60202,
7,SILVERADO CT,BOLINGBROOK,IL,60490,
5506,WEST MELROSE STREET,Chicago,IL,60641,
3742,NORTH NORA AVENUE,Chicago,IL,60634,
1635,Sunset Ave,Waukegan,IL,60087,
910,Cherry Valley Rd,Vernon Hills,IL,60061,
1030,MALLARD LN,PEOTONE,IL,60468,
8925,SOUTH NATOMA AVENUE,Oak Lawn,IL,60453,
42,LOUIS DR,BLOOMINGTON,IL,61701,
3240,BUTLER AVENUE,Steger,IL,60475,
9931,SOUTH WENTWORTH AVENUE,Chicago,IL,60628,
6952,WEST WOLFRAM STREET,Chicago,IL,60634,
3119,WESTGATE LN,JOLIET,IL,60435,
2862,WEST 21ST PLACE,Chicago,IL,60623,
815,ARBOR LANE,Glenview,IL,60025,
29308,S   STONEY ISLAND AVE,BEECHER,IL,60401,
5719,NORTH CENTRAL AVENUE,Chicago,IL,60646,
,ENDERS LN,WINFIELD          ,IL,60190,
17610,WESTBROOK DRIVE,Orland Park,IL,60467,
119,NORTH LOCKWOOD AVENUE,Chicago,IL,60644,
1206,NORLEY AVE,JOLIET,IL,60435,
333,DELAWARE CT,CARPENTERSVILLE,IL,60110,
4719,WEST POLK STREET,Chicago,IL,60644,
8610,ELM ST,WONDER LAKE,IL,60097,
140,LAURIE LN,OSWEGO,IL,60543,
1050,N FARNSWORTH AVE,AURORA,IL,60505,
6212,RIDGEVIEW DR,HUNTLEY,IL,60142,
7350,SOUTH ARTESIAN AVENUE,Chicago,IL,60629,
4235,NORTH WHIPPLE STREET,Chicago,IL,60618,
8218,EDGEWOOD DR,DOWNERS GROVE     ,IL,60516,
2003,KENILWORTH AVENUE,Wilmette,IL,60091,
207,S SWEETBRIAR DR,CHILLICOTHE,IL,61523,
1311,N ELMWOOD AVE,PEORIA,IL,61606,
174,N Littleton Trl,Hainesville,IL,60030,
606,FREEDOM WAY,SHOREWOOD,IL,60404,
10008,SOUTH MASSASOIT AVENUE,Oak Lawn,IL,60453,
1078,WIGTOWN CT,WHEATON           ,IL,60189,
640,S WINFIELD AV,KANKAKEE,IL,60901,
1511,N HILLSIDE LN,MCHENRY,IL,60051,
3504,BIRCHWOOD DRIVE,Hazel Crest,IL,60429,
10348,OXFORD DR,HUNTLEY,IL,60142,
840,S YALE AVE,VILLA PARK        ,IL,60181,
2234,INEZ LN,NORMAL,IL,61761,
3689,PEREGRINE WAY,ELGIN,IL,60124,
5720,LAWN DRIVE,Western Springs,IL,60558,
3927,Summer Sage Ct,Champaign,IL,61822,
5903,W FORESTWOOD DR,PEORIA,IL,61615,
2920,Sierra Dr,Champaign,IL,61822,
370,ECHO LN #3,AURORA,IL,60504,
15915,ROODS RD,NEWARK,IL,60541,
5183,CYPRESS CT,LISLE             ,IL,60532,
935,N MILL RD,ADDISON           ,IL,60101,
613,Dunham Rd,Gurnee,IL,60031,
546,S Genesee St,Waukegan,IL,60085,
,W   PINEWOOD RD,LOCKPORT,IL,60441,
1727,A ST,NORMAL,IL,61761,
1140,GERRY ST,WOODSTOCK,IL,60098,
1017,BOSTON CIRCLE,Schaumburg,IL,60193,
5320,W SHORE DR,MCHENRY,IL,60050,
3260,SALEM CT,AURORA            ,IL,60504,
954,EAST 131ST STREET,Chicago,IL,60827,
332,Skokie Valley Rd,Highland Park,IL,60035,
2425,E 2100TH ST,CAMP POINT,IL,62320,
80,WEDGEWOOD DR,SOUTH ELGIN,IL,60177,
207,N AURORA-BATAVIA RD,NORTH AURORA,IL,60542,
12216,SUMNER STREET,Lemont,IL,60439,
1516,SOUTH CUMBERLAND AVENUE,Park Ridge,IL,60068,
1144,Chelsea Dr,Lake Zurich,IL,60047,
313,HARVEST GATE,LAKE IN THE HILLS,IL,60156,
1553,CHICKASAW DR,NAPERVILLE        ,IL,60563,
4224,WEST 21ST PLACE,Chicago,IL,60623,
10004,SOUTH TORRENCE AVENUE,Chicago,IL,60617,
400,W DUNN ST,MACON,IL,62544,
1301,Wood Hill Ln,Lake Forest,IL,60045,
1302,E Grand Ave,Champaign,IL,61873,
2837,NORTH SAWYER AVENUE,Chicago,IL,60618,
215,S RIVER RD,FOX RIVER GROVE,IL,60021,
8506,N GLENBROOKE CT,EDWARDS,IL,61528,
,YORK RD,ELMHURST          ,IL,60126,
1520,AZALEA CIR,ROMEOVILLE,IL,60446,
1197,Mount Vernon Dr,Grayslake,IL,60030,
1,INDIAN HILL COUNTRY CLUB ROAD,NEW TRIER TWP,IL,60093,
277,SHADOW BEND DRIVE,Wheeling,IL,60090,
8951,NILES CENTER ROAD,Skokie,IL,60076,
3370,Brooke Ave,Waukegan,IL,60087,
,N ROUTE 8,PEORIA,IL,61604,
1114,NORWALK ROAD,Lemont,IL,60439,
501,EAST 130TH STREET,Chicago,IL,60827,
1056,MILL ST,NAPERVILLE        ,IL,60563,306
1627,NORTH CICERO AVENUE,Chicago,IL,60639,
5536,LOMOND AVE,DOWNERS GROVE     ,IL,60515,
701,N FELL AVE,NORMAL,IL,61761,
19,COUR SAINT TROPEZ,Palos Hills,IL,60465,
3370,Brooke Ave,Waukegan,IL,60087,
2557,TAHOE CT,AURORA,IL,60503,
3516,MADISON STREET,Bellwood,IL,60104,
10,Echo Ct,Vernon Hills,IL,60061,
511,GRANT ST,NORMAL,IL,61761,
1343,NORTH DUNTON AVENUE,Arlington Heights,IL,60004,
879,HILLSIDE AVE,GLEN ELLYN        ,IL,60137,
202,E Green St,Champaign,IL,61820,
99,E CHERRY ST,NORMAL,IL,61761,
3820,BIRCHWOOD AVENUE,Skokie,IL,60076,
678,LAKERIDGE DR,SOUTH ELGIN,IL,60177,
1120,MAYFIELD LANE,Hoffman Estates,IL,60169,
,S DEER RUN,BARTONVILLE,IL,61607,
349,LEICESTER CT,BOLINGBROOK,IL,60440,
700,W LOCK AND DAM RD,QUINCY,IL,62305,
1026,HERON CIR,JOLIET,IL,60431,
815,Oakwood Rd,Lake Zurich,IL,60047,
660,OVERLAND TRAIL,Roselle,IL,60172,
,S   GOVERNORS HWY,MONEE,IL,60449,
300,E   CORNING AVE,PEOTONE,IL,60468,
8524,WEST CRAIN STREET,Niles,IL,60714,
7,PICNIC CT,BOLINGBROOK,IL,60490,
1020,NORTH LOCKWOOD AVENUE,Chicago,IL,60651,
69,WILCOX AVE,ELGIN,IL,60123,
333,S MAIN ST,DECATUR,IL,62523,
1822,Sawgrass St,Vernon Hills,IL,60061,
5738,HOLLY RD,FULTON,IL,61252,
1113,GILBERT AVE,DOWNERS GROVE     ,IL,60515,11
1055,BYRON LN,ELGIN,IL,60123,
3058,NORTH DRAKE AVENUE,Chicago,IL,60618,
8947,FAIRVIEW AVENUE,Brookfield,IL,60513,
619,KEYSTONE DR,BOLINGBROOK,IL,60440,
2724,SOUTH BONFIELD STREET,Chicago,IL,60608,
2707,PEBBLEBROOK LANE,Rolling Meadows,IL,60008,
1506,Elm Ave,Round Lake Beach,IL,60073,
6918,W ROUTE 90,PRINCEVILLE,IL,61559,
3412,WEST 53RD PLACE,Chicago,IL,60632,
118,OAK ST,ELMHURST          ,IL,60126,
1701,EVERGREEN ST,SAINT CHARLES,IL,60174,
2102,W CALLENDER AVE,WEST PEORIA,IL,61604,
1450,EAST TOUHY AVENUE,Des Plaines,IL,60018,
310,S Greenleaf St,Gurnee,IL,60031,
6030,SOUTH PAULINA STREET,Chicago,IL,60636,
3137,SOUTH NORMAL AVENUE,Chicago,IL,60616,
11211,WOODWIND LN,HUNTLEY,IL,60142,
1116,KELLY AVE,JOLIET,IL,60435,
4236,WEST CERMAK ROAD,Chicago,IL,60623,
503,KILDEER DR,BOLINGBROOK,IL,60440,
2026,W SHERMAN AVE,WEST PEORIA,IL,61604,
2232,Rfd,Long Grove,IL,60047,
2522,W GRINNELL ST,PEORIA,IL,61605,
