NUMBER,STREET,CITY,STATE,POSTCODE,UNIT
732,S COUNTY RD 550 W RD W,BATESVILLE,IN,47240,
,CEMETERY RD RD,CONNERSVILLE,IN,47357,
7206,HAWKSNEST TRL,FW,IN,46835,
12007,BERGAMOT DR,GRANGER,IN,46530,
,S COUNTY LINE RD W,ATTICA,IN,47992,
15001,N 800 E RD,DUNKIRK,IN,47336,
4229,CONCORD RD,AVON,IN,46168,
12597,VALHALLA LN,FISHERS,IN,46037,
3002,EASTBRROK BLVD,JEFFERSONVILLE,IN,47130,
8360,HAGGARD  DR,MARTINSVILLE,IN,46151,
296,WEBBERS LN  31,BROOKVILLE,IN,47012,
1152,N PENNY DR,WARSAW,IN,46580,
518,N CANAL ST,HOWE,IN,46761,
1605,SAINT LOUIS AVE,FW,IN,46819,
5128,WEST SHAFER DR,MONTICELLO,IN,47960,
4012,HARRISON CROSSING,BARGERSVILLE,IN,46142,
8747,N EMERALD BLVD,MCCORDSVILLE,IN,46055,
400,LOIS WAY,CARMEL,IN,46032,
221,S MAIN ST,KENDALLVILLE,IN,46755,
505,E STATE RD 58,EDWARSPORT,IN,47528,
8132,W 174th Ave,LOWELL,IN,46356,
414,FAIRINGTON AVE,BEDFORD,IN,47905,
619,COMMERCE RD RD,LIBERTY,IN,47374,
1924,Carolina St,GARY,IN,46407,
3119,BATH RD,BATH,IN,47003,
,N JOHN ST,CLARKS HILL,IN,46041,
315,KINGS CT,MISHAWAKA,IN,46544,
808,W COLISEUM BLVD,FW,IN,46808,
10865,W 1250 N,MONTICELLO,IN,47960,
1800,FARM BUREAU RD,MOUNT VERNON,IN,47620,
,E 700 S,HUDSON,IN,46795,
,W 625 S,BEDFORD,IN,47909,
9710,FOREST CREEK DR,FW,IN,46835,
107,E KEITH ST,PIERCETON,IN,46562,
4260,E US HWY 136,BROWNSBURG,IN,46167,
1178,S 900 W,KEMPTON,IN,46049,
20777,HAGUE RD,NOBLESVILLE,IN,46062,
12815,E TILLMAN RD,FW,IN,46816,
1912,THORNHILL DR,SOUTH BEND,IN,46614,
13896,SALSBURY CREEK DR,CARMEL,IN,46032,
2218,FERRY ST,BEDFORD,IN,47904,
772,Hayes St,GARY,IN,46404,
660,E STOP 18,BARGERSVILLE,IN,46143,
1129,ANGELA BLVD,SOUTH BEND,IN,46616,
15635,WINDING BROOK DR,MISHAWAKA,IN,46545,
730,N 12TH ST,TERRE HAUTE,IN,47807,
10101,Grand Blvd,WINFIELD,IN,46307,
326,BARKER  RD,MICHIGAN CITY,IN,46360,
7862,N SANDY BEACH DR,MONTICELLO,IN,47960,
3585,E 100  3595,INDIANAPOLIS,IN,46140,
501,STUDEBAKER ST,MISHAWAKA,IN,46544,
1131,TWYCKENHAM DR,SOUTH BEND,IN,46617,
10714,N SR 67 HWY,ALBANY,IN,47320,
755,FREDERICK ST,Huntington,IN,46750,
1113,WINTHROP ST,BEDFORD,IN,47909,
221,S GROVE ST,LOGANSPORT,IN,46947,
51,EMS B40A LN,LEESBURG,IN,46538,
792,E CAMP JERRY RD,ENGLISH,IN,47118,
404,W NOBLE ST,BICKNELL,IN,47512,
404,S WALNUT ST,MENTONE,IN,46539,
511,S Joliet St,HOBART,IN,46342,
4574,S 700 W,WILLIAMSPORT,IN,47993,
1906,MARY ST,FW,IN,46808,
4090,PINEHURST DR,JASPER,IN,47546,
2363,HARVEST MOON,BARGERSVILLE,IN,46143,
1818,CARLISLE ST,SOUTH BEND,IN,46613,
1263,N POINTER ST,TERRE HAUTE,IN,47803,
860,MAPLEWOOD LN,AKRON,IN,46975,
4806,WILLIAMSBURG DR,OTISCO,IN,47163,
6690,ORLAND,ORLAND,IN,46776,
2517,W RIDGE LN,ANDERSON,IN,46013,
206,Willow St,LOWELL,IN,46356,
14612,W 3RD ST,DALEVILLE,IN,47334,
132,CORWIN LN,FW,IN,46816,
301,ELKS COUNTRY CLUB RD RD,LIBERTY,IN,47374,
254,Evergreen Ln,MUNSTER,IN,46321,
212,OAK LN,BATTLE GROUND,IN,47906,
3322,N ARTHUR DR,ALBION,IN,46701,
4586,E STATE ROAD 32,DARLINGTON,IN,47933,
734,CLARK BLVD,CLARKSVILLE,IN,47129,
1695,N 450 E,BLUFFTON,IN,46714,
201,PINE CT,LOGANSPORT,IN,46947,
10734,E 900 S,CRAWFORDSVILLE,IN,47954,
3314,Glenwood St,HIGHLAND,IN,46322,
5145,N 750 E,BUTLERVILLE,IN,47223,
2918,N 5TH ST,TERRE HAUTE,IN,47804,
916,W MARSH ST,MUNCIE,IN,47303,
5186,1000,RENSSELAER,IN,47978,
6492,STATE HWY 67,ELLETTSVILLE,IN,47433,
342,W 350 S,PRINCETON,IN,47670,
1066,N 250,LAPORTE,IN,46350,
,SCHAFER LN,SELLERSBURG,IN,47143,
11121,W SR 32 HWY,YORKTOWN,IN,47396,
4937,Grasselli St,EAST CHICAGO,IN,46312,
1807,EAST SPRING STREET,NEW ALBANY,IN,47150,
3233,WHITE MAPLE CT,SOUTH BEND,IN,46628,
906,N MONROE,HARTFORD CITY,IN,47348,
16211,PUMPHOUSE RD,BROOKVILLE,IN,47012,
611,MEADOWBROOK LN,HOWE,IN,46761,
221,KEWANNA DR,JEFFERSONVILLE,IN,47130,
2550,YEAGER RD,BATTLE GROUND,IN,47906,
1120,POPLAR DR,MONTICELLO,IN,47960,
1652,FRANCIS,BARGERSVILLE,IN,46131,
2532,ROYAL BLVD,CARMEL,IN,46032,
241,E TAYLOR ST,Huntington,IN,46750,
1900,W SR 66,NEWBURGH,IN,47630,
,E 100,HARTFORD CITY,IN,47348,
227,NATASHA DR,NOBLESVILLE,IN,46062,
302,E 37TH ST,ANDERSON,IN,46013,
2221,MONTCLAIR AVE,FW,IN,46808,
4625,N 800 W,BATTLE GROUND,IN,47906,
12402,N STATE RD 62,GENTRYVILLE,IN,47537,
2468,N 550 W,RICHLAND,IN,47634,
,Arizona Ave,HAMMOND,IN,46323,
9809,LYONHURST RD,FW,IN,46804,
2949,TYLER RD,BREMEN,IN,46506,
607,CHIPPEWA DR,JEFFERSONVILLE,IN,47130,
5277,S LINCOLN ST,SOMERVILLE,IN,47683,
9831,SNOWSTAR PL,FW,IN,46835,
1321,Fitzgerald Dr,MUNSTER,IN,46321,
2604,FLINT DR,CONNERSVILLE,IN,47331,
,52 MOBILE HOME ESTATES,BATTLE GROUND,IN,47906,
838,King St,GARY,IN,46406,
1345,W 200  S,BRYANT,IN,47371,
5457,E 650 N,PETERSBURG,IN,47640,
12814,RAIDERS BLVD,FISHERS,IN,46037,
2243,SAGAMORE PKY W,BATTLE GROUND,IN,47906,
4810,White Oak Terr,LOWELL,IN,46356,
707,STATE ST,NORTH LIBERTY,IN,46554,
1273,Bluebell Trl,SCHERERVILLE,IN,46375,
202,SOUTH ST,LAPAZ,IN,46537,
6411,W 900  N,MILLERSBURG,IN,46767,
3105,S PERSHING DR,MUNCIE,IN,47302,
5322,E 415  N,KENDALLVILLE,IN,46755,
1623,Edith Way,CROWN POINT,IN,46307,
,W STATE RD 26,ROSSVILLE,IN,46065,
2806,CRUMS LN,JEFFERSONVILLE,IN,47130,
10712,TRADE WIND CT,FW,IN,46825,
51536,STEEPLECHASE CT,GRANGER,IN,46530,
1369,W 1000  S,PENDLETON,IN,46064,
11800,OTTERBEIN RD SW,LACONIA,IN,47135,
10790,VERMONT ST,AVON,IN,46234,
3700,SR 68,POSEYVILLE,IN,47633,
5606,S 600 W,ATTICA,IN,47992,
9175,N TOBACCO LANDING RD SE,LACONIA,IN,47135,
1407,NORTHRIDGE HILLS,DARLINGTON,IN,47933,
5697,N BRANDYWINE RD,SHELBYVILLE,IN,46176,
3828,Parrish Ave,EAST CHICAGO,IN,46312,
1136,BUSSERON ST,VINCENNES,IN,47591,
6584,W CALLAWAY,MICHIGAN CITY,IN,46360,
1710,E MAIN ST,MUNCIE,IN,47305,
1064,TORINO,BARGERSVILLE,IN,46131,
,E 690 S,HUDSON,IN,46795,
3116,W 1500 N,COVINGTON,IN,47932,
663,Tennessee St,GARY,IN,46402,
36,STARGRASS DR,WESTFIELD,IN,46074,
1315,Tanglewood Ct,CROWN POINT,IN,46307,
441,MILLER RD,NASHVILLE,IN,47448,
86,COR DALE CT,BEDFORD,IN,47904,
210,PAWNEE DR,JEFFERSONVILLE,IN,47130,
409,DOGWOOD DR,MARSHALL,IN,47872,
5321,E STATE RD 124,WABASH,IN,46992,
11531,GREEN HOLLY CV,FW,IN,46845,
1461,RIPPLEWOOD DR,AVON,IN,46122,
15868,YARLETT ST,CULVER,IN,46511,
1900,E HIGHLAND AVE,MUNCIE,IN,47303,
60,ANGOLA,ANGOLA,IN,46703,
55671,CHICKADEE CT,SOUTH BEND,IN,46619,
2100,PITT ST,ANDERSON,IN,46016,
68970,TAMARACK RD,WALKERTON,IN,46574,
7510,Madison St,MERRILLVILLE,IN,46410,
867,MORO LN,AVON,IN,46122,
302,DAVIS ST,WOLCOTT,IN,47995,
3551,W BROWN MOUNTAIN RD,SAINT CROIX,IN,47576,
219,W ST CLAIR ST,VINCENNES,IN,47591,
1133,Pierce St,GARY,IN,46407,
3714,UNION ST,BEDFORD,IN,47905,
,W 625 S,HUDSON,IN,46795,
1823,HALFORD ST,ANDERSON,IN,46016,
505,100,REYNOLDS,IN,47980,
8278,BLUEGILL DR,NINEVEH,IN,46164,
7055,W MCDANIEL DR,NEWBURGH,IN,47630,
6240,ORLAND,ORLAND,IN,46776,
403,W WALNUT ST,WALDRON,IN,46182,
315,E 53RD ST,ANDERSON,IN,46013,
5236,ARROWHEAD PASS,FW,IN,46804,
305,10TH ST,MISHAWAKA,IN,46544,
54270,FAYE DR,OSCEOLA,IN,46561,
11304,W 245th Ave,SCHNEIDER,IN,46376,
2910,163rd Pl,HAMMOND,IN,46323,
2226,WILLOWBROOK DR,BATTLE GROUND,IN,47906,
206,S WALNUT ST,ETNA GREEN,IN,46524,
7670,N 905 W,HOWE,IN,46565,
724,KEMP CT,BROWNSBURG,IN,46123,
5150,COVENTRY LN,FW,IN,46804,
7006,N JAMES RD,ATTICA,IN,47918,
1760,E LOIS LN,NORTH VERNON,IN,47265,
112,N MAIN ST,HUDSON,IN,46795,
1243,E 400  N,ANDERSON,IN,46012,
2995,Union St,HOBART,IN,46342,
3902,E COUNTY RD 150  S,CLARKS HILL,IN,46041,
1421,MAUTE ST,JASPER,IN,47546,
4110,THORTON DR,FW,IN,46815,
3295,18B RD,TIPPECANOE,IN,46570,
11816,TIDEWATER DR,FISHERS,IN,46037,
531,S PARK ST,SHELBURN,IN,47879,
10308,CENTRAL AVE,BROWNSBURG,IN,46280,
816,SYCAMORE DR,NORTH VERNON,IN,47265,
6520,S 650 W,PARIS CROSSIN,IN,47270,
713,SOUTH SIDE DR,WARSAW,IN,46580,
7025,W CRESTWOOD DR,DELPHI,IN,46923,
4403,E STATE ROAD 32,DARLINGTON,IN,47933,
1913,S EATON AVE,MUNCIE,IN,47302,
420,MCKINLEY AVE,MISHAWAKA,IN,46545,
300,E 34TH ST,ANDERSON,IN,46013,
363,LINWOOD LN,WABASH,IN,46992,
718,W WASHINGTON ST,LOGANSPORT,IN,46947,
107,S PORTLAND ST,RIDGEVILLE,IN,47380,
200,S GILBERT ST,CENTERPOINT,IN,47840,
3316,W 21st Pl,GARY,IN,46404,
231,S JACKSON,BARGERSVILLE,IN,46131,
6350,S THOMAS LN,HILLSDALE,IN,47854,
207,N WEBSTER ST,ST PAUL,IN,47272,
1035,PARK,BARGERSVILLE,IN,46131,
7443,S 625 W,BELLMORE,IN,47874,
3003,BLUEGRASS CT,JEFFERSONVILLE,IN,47130,
5,LAKESHORE DR,CLARKSVILLE,IN,47129,
201,S S WASHINGTON ST ST,NEW CASTLE,IN,47346,
13872,S 100 W,CLINTON,IN,47842,
120,N N GAY ST ST,MILTON,IN,47327,
654,E ROLLING HILLS BLVD,SULLIVAN,IN,47882,
415,N Hobart Rd,HOBART,IN,46342,
13835,Huseman St,CEDAR LAKE,IN,46303,
5971,W 300 S,FARMLAND,IN,47340,
807,W CREIGHTON AVE,FW,IN,46807,
,HAWTHORNE AVE,CLARKS HILL,IN,46041,
2806,Stoney LN,MARKLE,IN,46770,
4451,S RIVER RD,BATTLE GROUND,IN,47906,
10,GLORIA,FRANKLIN,IN,46181,
1504,S 10 W,BRINGHURST,IN,46913,
47,BELAIRE,WHITELAND,IN,46184,
4930,PINEBROOK DR,FW,IN,46804,
47,W MAIN  ST,MOORESVILLE,IN,46158,
820,FULTON ST,LOGANSPORT,IN,46947,
9706,DEERFIELD MALL,CARMEL,IN,46032,
2572,E 1025 S,HAUBSTADT,IN,47639,
7638,N SR 9,GREENFIELD,IN,46040,
718,NORTH ST,ROCKPORT,IN,47635,
1006,WEST STREET,NEW ALBANY,IN,47150,
11640,WOODBROOK LN,CARMEL,IN,46033,
5635,W 24th Ave,GARY,IN,46406,
2913,E DAY DR,ANDERSON,IN,46017,
5003,RIDGEDALE DR,FW,IN,46835,
7209,HARROLD,CHURUBUSCO,IN,46723,
118,S CARLISLE,FRANKLIN,IN,46106,
2927,VINTON ST,BEDFORD,IN,47904,
1002,LAWNDALE AVE,SOUTH BEND,IN,46628,
3419,PORTAGE BLVD,FW,IN,46802,
707,W DIVISION ST,UNION CITY,IN,47390,
2129,HENDRICKS ST,TERRE HAUTE,IN,47804,
9501,S 550,WALKERTON,IN,46574,
3909,E WYSOR ST,MUNCIE,IN,47303,
7875,N 450  E,GENEVA,IN,47326,
109,MAPLE,COLUMBIA CITY,IN,46725,
3611,COLORADO CT,FW,IN,46815,
903,N VAN BUREN ST,HUNTINGBURG,IN,47542,
999,E 520 N,JASPER,IN,47546,
10324,OLD LEO RD,FW,IN,46825,
375,LIONS CREEK CIR,NOBLESVILLE,IN,46062,
1511,E STATE ROAD 44,CONNERSVILLE,IN,47331,
224,WESTERN AV  8,SUNMAN,IN,47041,
921,Union Ct,HOBART,IN,46342,
,N BLUE BLUFF  RD,MARTINSVILLE,IN,46151,
49,MT LIBERTY RD,NASHVILLE,IN,47448,
2940,W Scott ST,YODER,IN,46798,
133,W 10th St,FERDINAND,IN,47532,
7007,W 128th Pl,CEDAR LAKE,IN,46303,
,E PIKE ST,LEBANON,IN,46050,
,W 400 S,BEDFORD,IN,47909,
1912,MORROW RD RD,LIBERTY,IN,47374,
3439,S SR 13,PIERCETON,IN,46562,
623,N 3RD ST,VINCENNES,IN,47591,
1899,E LONG LAKE DR,BOONVILLE,IN,47601,
417,E Ridge Rd,GARY,IN,46409,
3240,SHERWOOD DR S,BEDFORD,IN,47909,
1000,S 31,BARGERSVILLE,IN,46143,
1828,N B ST,ELWOOD,IN,46036,
2146,E FOREST CT,CLINTON,IN,47842,
4125,N SHUN PIKE RD,MADISON,IN,47250,
2097,RIDGEMERE,BARGERSVILLE,IN,46143,
115,W WILLIAMS ST,ARGOS,IN,46501,
3710,HASTINGS RD,FW,IN,46805,
15863,CONCERT WAY,NOBLESVILLE,IN,46060,
2396,N OLD HIGHWAY 27,WINCHESTER,IN,47394,
9338,S 200 E,STAR CITY,IN,46985,
2419,WINCH ST,FW,IN,46803,
3627,W WASHINGTON CENTER RD,FW,IN,46818,
9759,N GASBURG  RD,MOORESVILLE,IN,46158,
23128,OLD US 52,LAUREL,IN,47024,
716,BREAKERS LN,GREENFIELD,IN,46040,
1809,WESLEY CT,JEFFERSONVILLE,IN,47130,
910,W 5TH ST,ANDERSON,IN,46016,
51688,SANDELWOOD CT,GRANGER,IN,46530,
464,W SOUTH ST,INDIANAPOLIS,IN,46140,
1657,W 14th Ave,GARY,IN,46404,
3817,VANGUARD CIR,CARMEL,IN,46032,
1080,W 4TH ST,CLINTON,IN,47842,
2805,STREAMSIDE CT,FW,IN,46818,
2304,W 9TH ST,MUNCIE,IN,47302,
1004,S COUNTY RD 700 W RD W,BATESVILLE,IN,47240,
12088,N MANN  RD,MOORESVILLE,IN,46158,
7855,MANATOU,ROANOKE,IN,46783,
7220,BAER RD,FW,IN,46809,
419,Pine Ridge Cir,LOWELL,IN,46356,
8587,E 100,DUNKIRK,IN,47336,
8938,Potomac Dr,MUNSTER,IN,46321,
8996,S TRUEBLOOD PL,TERRE HAUTE,IN,47802,
2023,S MAIN STREET RD,VINCENNES,IN,47591,
1554,W Oak St,GRIFFITH,IN,46319,
930,N EWING ST,SEYMOUR,IN,47274,
1725,BERWICK LN,NH,IN,46774,
1428,ANNANDALE DR,NASHVILLE,IN,47448,
3750,E E NATIONAL RD RD,LIBERTY,IN,47374,
420,FREMONT,FREMONT,IN,46737,
40,ANGOLA,ANGOLA,IN,46703,
,N GENTRY ST,CLARKS HILL,IN,46041,
847,ANGOLA,ANGOLA,IN,46703,
11299,GIBSON LN,LOOGOOTEE,IN,47581,
25133,EDISON RD,SOUTH BEND,IN,46628,
1111,COTTAGE AVE,FW,IN,46807,
8490,MERIDIAN RD,MONON,IN,47959,
13470,BROWNING DR,FISHERS,IN,46037,
5017,W COUNTY FARM RD,JASPER,IN,47546,
103,WINDHORST CT,SEYMOUR,IN,47274,
2329,WINTERSET DR,BEDFORD,IN,47909,
10080,N WINCHESTER RD,DECATUR,IN,46733,
114,W FOURTH ST,JASPER,IN,47546,
4034,LAFAYETTE ST,FW,IN,46806,
16744,THORN RD,CULVER,IN,46511,
,W 100,INDIANAPOLIS,IN,46140,
1515,S 18TH ST,TERRE HAUTE,IN,47802,
2512,FOREST VALLEY DR,FW,IN,46815,
15,TIMBERBROOK CT,JASPER,IN,47546,
11956,S STATE ROAD 47,CRAWFORDSVILLE,IN,47989,
1377,MALLARD XING,BORDEN,IN,47170,
12314,SANTA MARIA DR,SELLERSBURG,IN,47143,
4507,W 300 S,BAINBRIDGE,IN,46122,
413,E WATER ST,MT VERNON,IN,47620,
215,NW NW K ST ST,LIBERTY,IN,47374,
227,E LINDEN AV,LOGANSPORT,IN,46947,
50,PAUL R FOULKE PKWY PKWY,NEW CASTLE,IN,47346,
5185,W 100 N,HOWE,IN,46565,
3914,CANEY RD,CHARLESTOWN,IN,47126,
1410,MAIN ST,MONTICELLO,IN,47960,
6559,S 150 W,ENGLISH,IN,47454,
100,University Village,NOTRE DAME,IN,46637,
96,E SR 14,CLAYPOOL,IN,46510,
2430,GAY ST,FW,IN,46803,
1118,SYLVIA AVE,FW,IN,46816,
206,BEEM ST,NEW LOTHROP,IN,47460,
1218,W 47th Ave,GARY,IN,46408,
523,COLE  CT,MICHIGAN CITY,IN,46360,
7024,W 650 N,ETNA GREEN,IN,46524,
321,RIVERSIDE DR,Huntington,IN,46750,
1353,Harrison Blvd,GARY,IN,46407,
1131,Dearborn Cir,GARY,IN,46403,
10270,N 1200 E,WEST LAFAYETTE,IN,47970,
1224,12TH ST,MISHAWAKA,IN,46544,
2364,Taney St,GARY,IN,46404,
1505,LIBERTY DR,MISHAWAKA,IN,46545,
35,ANGOLA,ANGOLA,IN,46703,
2319,APACHE DR,BEDFORD,IN,47909,
6885,W 28,ELWOOD,IN,46036,
3736,W 950 N,FAIR OAKS,IN,46349,
2983,S 275 W,SHELBYVILLE,IN,46176,
11899,SPRINGFIELD CT,FISHERS,IN,46038,
604,W HIGH ST,BRYANT,IN,47371,
118,TUXEDO DR,SOUTH BEND,IN,46615,
558,N COLUMBIA ST,CLARKS HILL,IN,46041,
14120,STATE ROAD 23 HWY,GRANGER,IN,46530,
3908,IRONWOOD CT,FW,IN,46815,
1175,S HUFFMAN DR,PRINCETON,IN,47670,
311,N EAST ST,WABASH,IN,46992,
305,THAYER ST,LAPAZ,IN,46537,
2320,Pierce St,GARY,IN,46407,
5888,N 650 W,ROANN,IN,46974,
2345,BENNETT RD,BEDFORD,IN,47909,
315,N Arbogast St,GRIFFITH,IN,46319,
2002,S MILLER ST,SHELBYVILLE,IN,46176,
612,SYCAMORE ST,WESTFIELD,IN,46074,
25,EMS D24B LN,SYRACUSE,IN,46567,
1989,N BLUE BLUFF  RD,MARTINSVILLE,IN,46151,
417,Prairie St,CROWN POINT,IN,46307,
2860,E EMERALD AV,TERRE HAUTE,IN,47805,
21,SW SANTEE DR DR,BATESVILLE,IN,47240,
2105,E SHARON DR,MUNCIE,IN,47302,
4216,HICKORY RIDGE DR,WO,IN,46797,
5529,E 4th Ave,GARY,IN,46403,
3899,E STATE ROAD 236,MELLOTT,IN,47859,
5392,E 500 N,Rochester,IN,46975,
2915,INWOOD DR,FW,IN,46815,
6763,MARKET ST NE,NEW SALISBURY,IN,47161,
1202,MAIN ST,MISHAWAKA,IN,46544,
9218,S 450 W,BELLMORE,IN,47874,
1655,N 525 E,MILAN,IN,47031,
520,S CHAUNCEY,COLUMBIA CITY,IN,46725,
45,S ENDICOTT ST,POSEYVILLE,IN,47633,
10351,N JONES LAKE RD,ROME CITY,IN,46784,
5441,S MERIDIAN,COLUMBIA CITY,IN,46725,
5514,E 725 S,CAMPBELLSBURG,IN,47125,
707,WEBER RD,ALBION,IN,46701,
4520,LAFAYETTE ESPLANADE,FW,IN,46806,
3412,N RYKERS RIDGE RD,MADISON,IN,47250,
8283,N 200,GREENFIELD,IN,46040,
669,W CRAWFORD ST,BLOOMINGDALE,IN,47832,
102,ACKERMAN DR,MONTGOMERY,IN,47553,
2661,PRESCOTT DR,MISHAWAKA,IN,46544,
519,PARK AVE,ANDERSON,IN,46012,
5508,E 500 N,WINDFALL,IN,46076,
2270,Ohio St,GARY,IN,46407,
1448,W 94th Ave,CROWN POINT,IN,46307,
1026,Treadway Rd,MUNSTER,IN,46321,
817,4TH ST,COVINGTON,IN,47932,
13,W DAVIS ST,HAMLET,IN,46532,
5100,Industrial Hwy,GARY,IN,46406,
8965,W 700 S,LAGRANGE,IN,46571,
1645,Main St,FERDINAND,IN,47532,
24,EMS B12 LN,PIERCETON,IN,46562,
3611,S COUNTY FARM RD,WARSAW,IN,46580,
2658,E ST RD 4,LAPORTE,IN,46350,
3772,Kingsway Dr,CROWN POINT,IN,46307,
15416,FLOWER GAP RD,SELLERSBURG,IN,47106,
842,DOLPHIN DR,FW,IN,46816,
17024,EMERALD CT,WESTFIELD,IN,46074,
1409,S Main ST,BLUFFTON,IN,46714,
5232,WENZ DR,MONTICELLO,IN,47960,
9941,PINE DR,Rochester,IN,46975,
1990,N MERIDIAN RD,INDIANAPOLIS,IN,46140,
3788,N XAVIER RD,ATTICA,IN,47918,
600,S 400 E RD,MUNCIE,IN,47302,
461,SHEETS DR,CARMEL,IN,46032,
11296,N COUNTY RD 25 W,FARMERSBURG,IN,47850,
736,W 350 S,WINAMAC,IN,46996,
9501,N KOHER RD E,SYRACUSE,IN,46567,
235,W WILLOW ST,ANDERSON,IN,46012,
20098,PRESCOTT PLACE DR,WESTFIELD,IN,46074,
2039,S LONE PINE,COLUMBIA CITY,IN,46725,
3301,E 50 S,BROWNSTOWN,IN,47220,
10998,ALAMOSA DR,FISHERS,IN,46038,
3100,Coral Dr,HOBART,IN,46342,
729,WILKERSON ST,Huntington,IN,46750,
6880,W 375  N,FRANKLIN,IN,46106,
3108,BACKMEYER RD RD,LIBERTY,IN,47374,
105,PRIMERO TRL,MO,IN,46773,
5292,IVY HILL DR,CARMEL,IN,46033,
7022,PEACOCK LAKE CT,AVON,IN,46168,
11367,S 700 W,CRAWFORDSVILLE,IN,47989,
11033,W 93rd Ave,ST. JOHN,IN,46373,
450,N MERIDIAN RD,INDIANAPOLIS,IN,46140,
7601,W 550 S RD,DALEVILLE,IN,47334,
624,EAST MARKET STREET,NEW ALBANY,IN,47150,
,W 800 S,LAFAYETTE,IN,47981,
2645,S STONYBROOK 2645,BARGERSVILLE,IN,46131,
600,W CROMER AVE,MUNCIE,IN,47303,
2257,LUCIA LN,BATTLE GROUND,IN,47906,
420,GOLFWAY DR,FW,IN,46814,
909,S MERIDIAN ST,BRYANT,IN,47371,
280,MONROE,CHARLESTOWN,IN,47111,
3225,ROSEMONT DR,JEFFERSONVILLE,IN,47130,
3930,WEBSTER ST,FW,IN,46807,
601,PEACEFUL VIEW  DR,MOORESVILLE,IN,46158,
2235,S 825  E,AVILLA,IN,46710,
5981,W BOOTH RD,BROOKVILLE,IN,47353,
9366,E 206TH ST,NOBLESVILLE,IN,46060,
7650,DUTCH BETHEL RD,SPENCER,IN,47431,
8784,SR 10,ARGOS,IN,46501,
2750,W 10th Ave,GARY,IN,46403,
,E 100,HARTFORD CITY,IN,47348,
918,W MILL ST,PRINCETON,IN,47670,
8832,S 1125 W,OWENSVILLE,IN,47665,
5178,S GLENN ST,TERRE HAUTE,IN,47802,
7200,S 168 E,HUDSON,IN,46795,
10592,Maine Dr,CROWN POINT,IN,46307,
1202,N LONGSHORE  DR,WALKERTON,IN,46574,
144,E TENNYSON RD,WC,IN,47601,
5153,FAIRWAY DR,BROWNSBURG,IN,46123,
920,TENNESSEE AVE,FW,IN,46805,
38,E MICHIGAN ST,COATESVILLE,IN,46118,
7551,N BROWN  RD,COLUMBIA CITY,IN,46725,
1818,TWYCKENHAM DR,SOUTH BEND,IN,46613,
8830,MARISA DR,FISHERS,IN,46038,
17119,STROUD LN,WESTFIELD,IN,46074,
6064,W BAYFRONT SHRS,MCCORDSVILLE,IN,46055,
16360,FAIRFIELD LN,GRANGER,IN,46530,
10315,WHITE CEDAR RD,FW,IN,46814,
1298,BLUE HAVEN,BARGERSVILLE,IN,46143,
1010,SPRING ST,FW,IN,46808,
3092,W MEADOWBEND  DR,MONROVIA,IN,46157,
,HERITAGE DR,BEDFORD,IN,47905,
1414,NORTH ST,NOBLESVILLE,IN,46060,
728,MAPLE LN,DANVILLE,IN,46112,
798,S 8TH ST,NOBLESVILLE,IN,46060,
13720,W WILD CHERRY LN,DALEVILLE,IN,47334,
26,MOTIF BLVD,DANVILLE,IN,46112,
971,PLAZA  DR,MARTINSVILLE,IN,46151,
4506,WINTER ST,FW,IN,46806,
201,W 975 N,BATESVILLE,IN,47006,
319,E MAIN ST,WARSAW,IN,46580,
2020,MICHIGAN ST,SOUTH BEND,IN,46613,
2166,N 600  W,DECATUR,IN,46733,
,E 900 S,BEDFORD,IN,47905,
8755,1450,ROYAL CENTER,IN,46978,
12202,COLD STREAM RD,NOBLESVILLE,IN,46060,
6950,Arizona Ave,HAMMOND,IN,46323,
1177,Matthews St,GARY,IN,46406,
821,ROXBURY LN,NOBLESVILLE,IN,46062,
180,ANGOLA,ANGOLA,IN,46703,
1138,TERRACE AV,JASPER,IN,47546,
5414,Walnut Ave,HAMMOND,IN,46320,
308,DUNN AVE,DARLINGTON,IN,47933,
3510,SEDGEMOOR CIR,CARMEL,IN,46032,
1025,N Glenwood St,GRIFFITH,IN,46319,
10835,N STATE ROAD 55,DEMOTTE,IN,46310,
4992,BUCK CREEK ROAD,ELIZABETH,IN,47119,
27977,OMAHA RD,ENGLISH,IN,47118,
3360,MIDDLE PATTON PARK  RD,MARTINSVILLE,IN,46151,
,BARTLETT ST,Huntington,IN,46750,
2235,Red Oak CT,BLUFFTON,IN,46714,
1337,IRONWOOD DR W,CARMEL,IN,46033,
13700,N SPURGEON RD,WARRICK,IN,47619,
107,S MULBERRY ST,MUNCIE,IN,47305,
3920,"N COUNTY RD 25 E  J,K",SULLIVAN,IN,47882,
666,PEAK AV,SEYMOUR,IN,47274,
6140,Virginia St,MERRILLVILLE,IN,46410,
2152,STATE RD 25 W,BEDFORD,IN,47909,
806,S MADISON ST,MUNCIE,IN,47302,
1101,N MICHIGAN ST,PLYMOUTH,IN,46563,
925,Hanley St,GARY,IN,46406,
3933,Cleveland St,GARY,IN,46408,
,W 750 N,BATTLE GROUND,IN,47906,
,BRADY LN,BEDFORD,IN,47905,
10056,OLIO RD,MCCORDSVILLE,IN,46055,
257,POINT WEST II,BATTLE GROUND,IN,47906,
12605,Havenwood Pass,CEDAR LAKE,IN,46303,
422,W MAIN ST,WHEATLAND,IN,47597,
3810,Grover Ave,HAMMOND,IN,46327,
1439,W 38,PENDLETON,IN,46064,
861,N TIMBERLINE CIR E,WARSAW,IN,46582,
218,RAILROAD ST,HAMLET,IN,46532,
428,N DILL ST,MUNCIE,IN,47303,
6160,OWEN CT,FAIR OAKS,IN,46310,
1432,KENWOOD AVE,FW,IN,46805,
1617,RANDFORD PL,FW,IN,46815,
2003,CLOVER DR,DARLINGTON,IN,47933,
3812,NORDWAY  RD,LAPORTE,IN,46350,
4499,BROKEN BOW,BARGERSVILLE,IN,46143,
308,CENTER ST,ARGOS,IN,46501,
11324,BOBERG RD,EVANSVILLE,IN,47712,
13640,Highland St,CEDAR LAKE,IN,46303,
4741,Carey St,EAST CHICAGO,IN,46312,
307,W MARSHALL ST,ARGOS,IN,46501,
5017,S 100 W,DARLINGTON,IN,47933,
6216,OLD BROOK DR,FW,IN,46835,
1710,CHARLESTOWN NEW ALBANY RD,JEFFERSONVILLE,IN,47130,
1125,3RD ST,FW,IN,46808,
16215,HAVENWOOD DR,WO,IN,46797,
4055,N 550 W,FAIRLAND,IN,46126,
,E 300 N,BATTLE GROUND,IN,47905,
445,AUSTIN DR,BROWNSBURG,IN,46123,
,N COUNTY RD 300  E,CLARKS HILL,IN,46041,
313,MISSION HILL DR,FW,IN,46804,
15317,98th Pl,ST. JOHN,IN,46311,
116,ILLINOIS ST,MONTICELLO,IN,47960,
3316,NW NW B ST ST,LIBERTY,IN,47374,
820,TRAIL RIDGE  CT,MOORESVILLE,IN,46158,
12952,19B RD,ARGOS,IN,46501,
9071,TECHNOLOGY DR,FISHERS,IN,46038,
426,LARK CT,CARMEL,IN,46032,
24,CHICKADEE LN,TERRE HAUTE,IN,47803,
4746,S 590 W,DUBOIS,IN,47454,
9810,SAINT JOE RD,FW,IN,46835,
2875,S 6TH PL  27,TERRE HAUTE,IN,47802,
,E 100 N,HOWE,IN,46761,
3377,S COUNTY RD 60 SW RD SW,BATESVILLE,IN,47240,
401,W CAROLYN ST,CAMPBELLSBURG,IN,47452,
1501,E YALE AVE,MUNCIE,IN,47303,
305,S GREEN ST,DARLINGTON,IN,47933,
11401,STUTTGART FAHREN,WADESVILLE,IN,47638,
2,W REEL AVE,VINCENNES,IN,47591,
1337,HOME AVE,FW,IN,46807,
2152,Nondorf St,DYER,IN,46311,
842,CHELTENHAM WAY,BROWNSBURG,IN,46123,
822,S 500  W,BRYANT,IN,47371,
1706,S CENTER ST,TERRE HAUTE,IN,47802,
1126,W 11TH ST,MUNCIE,IN,47302,
211,N DICKS ST,MUNCIE,IN,47303,
317,BROADWAY ST,CLARKSVILLE,IN,47172,
2916,WALTON ST,ANDERSON,IN,46016,
1205,MELROSE DR,ANDERSON,IN,46011,
7729,S 100 W,GOODLAND,IN,47922,
502,ROXBURY LN,NOBLESVILLE,IN,46062,
171,W ESSEX LN,FW,IN,46825,
126,HOLT DR,MADISON,IN,47250,
1445,ANGOLA,ANGOLA,IN,46703,
108,OSBORN,LAPORTE,IN,46350,
18,CANYON CREEK CIR,BEDFORD,IN,47909,
8229,N MURPHY RD,CARBON,IN,47834,
11909,FIREKAT CV,FW,IN,46845,
290,S MIDDLETON,BARGERSVILLE,IN,46131,
10486,LAKESHORE DR E,CARMEL,IN,46033,
2730,E NORTHPORT RD,ROME CITY,IN,46784,
,N 100 E,LAGRANGE,IN,46746,
3030,SHADY BROOK LANE,NEW ALBANY,IN,47150,
915,MOONLIGHT  CT,MOORESVILLE,IN,46158,
6301,DOGWOOD CT,SOUTH BEND,IN,46614,
617,S SEMINARY ST,PRINCETON,IN,47670,
,BARTLETT ST,Huntington,IN,46750,
507,S Marion St,GARY,IN,46403,
4024,OAKLEAF DR,FW,IN,46815,
8200,W SR 66,NEWBURGH,IN,47630,
1809,Redwood Ln,MUNSTER,IN,46321,
3777,S 75,LAPORTE,IN,46350,
207,S WEST ST,KEMPTON,IN,46049,
203,E ANDOVER AVE,MUNCIE,IN,47303,
215,E 55TH ST,ANDERSON,IN,46013,
13739,DEERFIELD STATION,SELLERSBURG,IN,47143,
88,S ELM ST,BELLMORE,IN,47874,
1615,W 195 N,HOWE,IN,46761,
301,SLACK DR,ANDERSON,IN,46013,
6939,Forest Ridge Dr,SCHERERVILLE,IN,46375,
904,E 21ST  ST,LAPORTE,IN,46350,
8434,Parrish Pl,HIGHLAND,IN,46322,
10909,CROOKED STICK LN,CARMEL,IN,46032,
413,W PIKE AVE,PETERSBURG,IN,47567,
9505,E 900 S,COLFAX,IN,47930,
1647,LAKEHURST DR,FW,IN,46815,
3955,W NATIONAL DR,W TERRE HAUTE,IN,47885,
,W MAIN  ST,MOORESVILLE,IN,46158,
5016,BLUM DR,FW,IN,46835,
2245,Maple Dr,FERDINAND,IN,47532,
3622,AVONDALE DR,FW,IN,46806,
1703,GREENTREE BLVD,CLARKSVILLE,IN,47129,
752,DORAN AV,SHELBYVILLE,IN,46176,
5172,MOUNT PLEASANT SOUTH,BARGERSVILLE,IN,46142,
648,E 12TH ST,AKRON,IN,46975,
26005,CHAIN O LAKES AVE,SOUTH BEND,IN,46628,
6110,Massachusetts St,MERRILLVILLE,IN,46410,
102,W VINE ST.,BROOKVILLE,IN,47353,
6312,W TAYLOR RD,MUNCIE,IN,47304,
1242,GAIL DR,JEFFERSONVILLE,IN,47130,
543,AVON ST,BATTLE GROUND,IN,47906,
5912,BETHANY RD,CHARLESTOWN,IN,47111,
6997,N KALORAMA RD,LEESBURG,IN,46538,
,OLD ROMNEY RD,BEDFORD,IN,47909,
6080,OLD CUBA RD,NEW LOTHROP,IN,47460,
7238,N 400,MCCORDSVILLE,IN,46055,
,S OLD S R 67,MARTINSVILLE,IN,46151,
1571,E BAIR,COLUMBIA CITY,IN,46725,
5119,FAIRFIELD AVE,FW,IN,46807,
201,OHIO ST,TERRE HAUTE,IN,47807,
1113,Logan St,HAMMOND,IN,46320,
,W 300 S,HOWE,IN,46761,
12263,BRIDGEWATER RD,BROWNSBURG,IN,46256,
209,SUNSET AVE AVE,CENTERVILLE,IN,47330,
2555,PLUM ST,PATRIOT,IN,47038,
2001,E MARGARET DR,TERRE HAUTE,IN,47802,
1185,W 800 S,CUTLER,IN,46920,
2715,S 700 E,KNOX,IN,46534,
8614,WAVE CIR,FW,IN,46825,
1048,N 1ST ST,CROTHERSVILLE,IN,47102,
124,E WASHINGTON ST,TIPTON,IN,46072,
724,S FORRESTER  RD,LAPORTE,IN,46350,
6905,N PRIVATE RD 620 E,BUTLERVILLE,IN,47223,
404,W HUNTINGTON ST,NORTH WEBSTER,IN,46555,
,N 1000 W,HOWE,IN,46565,
605,F,LAPORTE,IN,46350,
3221,COVINGTON ST,BATTLE GROUND,IN,47906,
3899,S 625 E,KNOX,IN,46534,
3711,W 1025 S,MADISON,IN,47250,
3284,SECRETARIAT CIR,BATTLE GROUND,IN,47906,
5564,W WOODHAVEN DR,MCCORDSVILLE,IN,46055,
716,S Jersey ST,BLUFFTON,IN,46714,
1980,KEPLEY ROAD,CORYDON,IN,47122,
6305,THRUSH LANE,FLOYDS KNOBS,IN,47119,
15421,MISSION HILLS CT,CARMEL,IN,46033,
7008,E 400 N,COLFAX,IN,47940,
1631,FLETCHER ST,ANDERSON,IN,46016,
,OLD SR 60,CLARKSVILLE,IN,47172,
714,S BEESON DR,WINCHESTER,IN,47394,
26,N PERRY ST,MEDORA,IN,47260,
12304,PINEHURST CT,CLARKSVILLE,IN,47172,
914,S 20TH ST,BEDFORD,IN,47905,
8018,Richard St,HIGHLAND,IN,46322,
11124,N ROOKER  RD,MOORESVILLE,IN,46158,
1032,S MAPLE AV,PRINCETON,IN,47670,
8684,CAPTAIN DR,BROWNSBURG,IN,46123,
,E COUNTY RD 300  N,FRANKFORT,IN,46057,
8670,W CAREFREE DR,PENDLETON,IN,46064,
7621,WIGGINS RD,POSEYVILLE,IN,47633,
7513,Nicholas St,SCHERERVILLE,IN,46375,
12572,MELROSE CIR,FISHERS,IN,46038,
3993,Jefferson St,GARY,IN,46408,
425,W 10TH ST,ANDERSON,IN,46016,
4942,IOWA ST,COATESVILLE,IN,46118,
,S 775 E,BEDFORD,IN,47905,
1355,6TH AV,TERRE HAUTE,IN,47807,
16273,HUNNICUT RD RD,MILTON,IN,47327,
5539,Maple St,HOBART,IN,46342,
1511,MILBURN BLVD,MISHAWAKA,IN,46544,
312,COLLIER ST,BREMEN,IN,46506,
516,N MAIN ST,BROWNSTOWN,IN,47220,
,S 28TH ST,BEDFORD,IN,47905,
615,TECUMSEH,LAPORTE,IN,46350,
813,W 53RD ST,ANDERSON,IN,46013,
,W MOHEE RD,HARTFORD CITY,IN,47348,
2490,E MAIN ST,AVON,IN,46168,
3505,MIAMI LN,FW,IN,46809,
4620,WARSAW ST,FW,IN,46806,
532,BAYSPRING DR,FW,IN,46814,
917,CHERRY BLOSSOM LN,FW,IN,46825,
724,E MIDDLE ST,BELLMORE,IN,47874,
12215,Cline Ave,CROWN POINT,IN,46307,
4930,W 92nd Ave,SCHERERVILLE,IN,46307,
9713,LEGARE ST,FISHERS,IN,46038,
8456,Marshall Pl,MERRILLVILLE,IN,46410,
2095,WHITETAIL CT,BROWNSBURG,IN,46123,
6814,CONNIE DR,BROWNSBURG,IN,46123,
602,SAPPHIRE DR,CARMEL,IN,46032,
111,N 2ND ST,VINCENNES,IN,47591,
4106,DUNEDIN CT,WESTFIELD,IN,46062,
5202,STONEHEDGE BLVD,FW,IN,46835,
873,E 300,LAPORTE,IN,46350,
9441,W CONSTELLATION DR,PENDLETON,IN,46064,
3122,BUCKNERS XING,FW,IN,46818,
4059,E COUNTY LINE RD,BREMEN,IN,46506,
147,E COUNTY RD 1350 N,DEMOTTE,IN,46392,
11753,WHISPERWOOD WAY,FISHERS,IN,46037,
1103,WILLOW BRIDGE LN,MISHAWAKA,IN,46545,
109,E 2ND ST,MT VERNON,IN,47620,
732,W PORTER RIDGE RD,NEW LOTHROP,IN,47460,
203,S MAIN  ST,MOORESVILLE,IN,46158,
5900,S SLAVEN RD,MECCA,IN,47862,
12643,50,IDAVILLE,IN,47950,
7630,W 640 N,ETNA GREEN,IN,46524,
310,W RAILROAD ST,ALBION,IN,46701,
520,MULBERRY,CHURUBUSCO,IN,46723,
4341,HICKORY STICK,BARGERSVILLE,IN,46143,
12373,MURRAY LN,DEMOTTE,IN,46392,
,N COUNTY RD 750  E,CLARKS HILL,IN,46057,
315,S S 11TH ST ST,LIBERTY,IN,47374,
686,NOTTINGHAM CT,CARMEL,IN,46032,
2302,W STONERIDGE TRL,INDIANAPOLIS,IN,46140,
741,ANTIOCH CIR NORTH,TERRE HAUTE,IN,47803,
291,E MONROE,BARGERSVILLE,IN,46131,
19751,PIERCE RD,LAKEVILLE,IN,46536,
1810,E Elm St,GARY,IN,46319,
7817,E CREE LAKE  S,KENDALLVILLE,IN,46755,
10525,Park Pl,WINFIELD,IN,46307,
8991,N CR 200 W,CARBON,IN,47834,
509,E SECOND ST,PETERSBURG,IN,47640,
103,W MULBERRY ST,FORT BRANCH,IN,47648,
208,E SWIHART,COLUMBIA CITY,IN,46725,
51740,WESTPORT CT,GRANGER,IN,46530,
166,N 500  W,ANDERSON,IN,46011,
,ROBB HILL  RD,MARTINSVILLE,IN,46151,
1215,E FIRST ST,INDIANAPOLIS,IN,46140,
55790,JEFFERSON KNOLLS DR,OSCEOLA,IN,46561,
4009,Maryland St,GARY,IN,46409,
3021,SPRINGLAND  AV,MICHIGAN CITY,IN,46360,
1220,S JEFFERSON ST,DANVILLE,IN,46112,
3436,WOODGATE TRL,FW,IN,46804,
2607,W 18TH ST,ANDERSON,IN,46011,
6816,N KALORAMA RD,LEESBURG,IN,46538,
202,S BUFFALO ST,NORTH MANCHESTER,IN,46962,
5825,W SR 256,MADISON,IN,47250,
1314,W GENTRY  CT,LAPORTE,IN,46350,
1022,MORSE RESERVOIR,NOBLESVILLE,IN,46062,
2233,W TECUMSEH RD,LYNNVILLE,IN,47619,
17620,BRYAN ST,SOUTH BEND,IN,46635,
,E CLINTON ST,CLARKS HILL,IN,46041,
1146,W COUNTY RD 120 S RD S,BATESVILLE,IN,47240,
10274,S 300  E,MARKLEVILLE,IN,46056,
9824,E SWALLOW DR,CROMWELL,IN,46732,
3774,PHAEDRUS RD,NEW LOTHROP,IN,47868,
822,HARRINGTON DR,BEDFORD,IN,47909,
4549,McKinley St,GARY,IN,46408,
21,ASHWOOD CIR,DANVILLE,IN,46112,
341,N GREEN ST,DANVILLE,IN,46112,
7009,JOHN ST,FW,IN,46816,
715,N WATSON ST,SULLIVAN,IN,47882,
530,S PENDLETON AVE,PENDLETON,IN,46064,
1818,MOOTS CREEK LOOP,BATTLE GROUND,IN,47920,
301,W WASHINGTON AVE,NEWTOWN,IN,47918,
1712,N DR MARTIN LUTHER KING JR BLVD,MUNCIE,IN,47303,
841,N REMINGTON  SQ,LAPORTE,IN,46350,
5,N SECTION ST,SULLIVAN,IN,47882,
4115,N CLINTON ST,FW,IN,46805,
1661,BELL FORD DR W,SEYMOUR,IN,47274,
10896,MCCRACKEN DR,NEW LOTHROP,IN,47868,
5212,BERKSHIRE  S,BARGERSVILLE,IN,46142,
212,S WOOD ST,WARSAW,IN,46580,
11509,Ventura Dr,ST. JOHN,IN,46373,
5884,E 144 S R,MOORESVILLE,IN,46158,
2213,Georgia St,GARY,IN,46407,
25,E OAK ST,POSEYVILLE,IN,47633,
1797,WEDGEWOOD,BARGERSVILLE,IN,46143,
7723,Hendricks St,MERRILLVILLE,IN,46410,
1055,W DEER CREEK DR,CARBON,IN,47834,
704,W MONTGOMERY ST,FRANCESVILLE,IN,47946,
108,E PRAIRE ST,WARSAW,IN,46580,
1843,Illinois St,GARY,IN,46407,
10085,E 800 S,AUSTIN,IN,47102,
7307,LEWIS RD,FW,IN,46818,
1521,E HARVARD AVE,MUNCIE,IN,47303,
2812,FAIROAK DR,FW,IN,46809,
8979,S JANNIE LN,SILVER LAKE,IN,46982,
77,GLENMILL ROAD,NEW ALBANY,IN,47150,
3809,NORDWAY  RD,LAPORTE,IN,46350,
6573,E Prive Road 50 S,WALTON,IN,46994,
10602,PENN DR,BROWNSBURG,IN,46280,
830,RAILROAD ST,COVINGTON,IN,47932,
909,N FOX BERRY DR,YORKTOWN,IN,47396,
2626,163rd Pl,HAMMOND,IN,46323,
1700,WABASH AVE,BEDFORD,IN,47909,
7469,N US HIGHWAY 41,BLOOMINGDALE,IN,47832,
502,Cedar RD,BLUFFTON,IN,46714,
2715,NORTHGATE BLVD,FW,IN,46835,
10912,MARTIN CREEK XING,FW,IN,46845,
515,N POLK ST,FORT BRANCH,IN,47648,
10862,N 1000  W,ELWOOD,IN,46036,
313,N WARPATH DR,MILAN,IN,47031,
4451,E OREGON CHURCH RD,TERRE HAUTE,IN,47802,
831,E RIVER AVE,WARSAW,IN,46582,
509,Stratford Ln,SCHERERVILLE,IN,46375,
3886,MAZE RD,NEW LOTHROP,IN,47460,
8501,EAST GEORGETOWN RD,COLUMBUS,IN,47201,
9250,Mallard Ln,ST. JOHN,IN,46373,
3445,ARBELLA CT,FW,IN,46818,
473,GREENWOOD DR,KENDALLVILLE,IN,46755,
417,N WATER ST,CLINTON,IN,47842,
1723,SAINT MARYS AVE,FW,IN,46808,
21,W 47th Ave,GARY,IN,46408,
4770,HARMONY MEADOW DR,NEW HARMONY,IN,47631,
803,E 925 N,PETERSBURG,IN,47640,
7295,S MARSHALL,TRAFALGAR,IN,46164,
818,E SR 205,CHURUBUSCO,IN,46723,
26159,POCKET RD,BATESVILLE,IN,47006,
1356,Johnson St,GARY,IN,46407,
1593,Bigger St,GARY,IN,46404,
925,Easy St,CROWN POINT,IN,46307,
3187,TECUMSEH,FRANKLIN,IN,46106,
5518,N 450 E,LEESBURG,IN,46538,
418,N MAIN ST,PRINCETON,IN,47670,
1313,N CHICAGO ST,LOGANSPORT,IN,46947,
27201,EARLY RD,SOUTH BEND,IN,46628,
3516,STRAIGHT LINE PIKE PIKE,LIBERTY,IN,47374,
975,WILSON,BARGERSVILLE,IN,46131,
3250,SCOTT ST,YODER,IN,46798,
202,N MAIN ST,MILFORD,IN,46542,
,E 550 S,BEDFORD,IN,47905,
5655,NEW AMSTERDAM RD SW,MAUCKPORT,IN,47142,
11342,S 600 W,SILVER LAKE,IN,46982,
511,Liberty St,EAST CHICAGO,IN,46312,
8770,E WESLEY LN,NORTH WEBSTER,IN,46555,
3559,W 350 N,RICHLAND,IN,47634,
2520,CORTLAND AVE,FW,IN,46808,
3510,INVERNESS BLVD,CARMEL,IN,46032,
501,N MERIDIAN RD,INDIANAPOLIS,IN,46140,
908,GOLFVIEW LN,SOUTH BEND,IN,46614,
2965,S HANNAH CT,WC,IN,47630,
805,S O'BRIEN ST,SEYMOUR,IN,47274,
0489,S 75  E,ALBION,IN,46701,
1518,W MAIN ST,GRANDVIEW,IN,47615,
2362,S WELCH LN,ENGLISH,IN,47118,
1715,LEBANON RD  #39,DARLINGTON,IN,47933,
1201,S SUNSET STRIP,VERSAILLES,IN,47042,
438,ALONZO WATSON DR,SOUTH BEND,IN,46601,
5126,HARTFORD DR,FW,IN,46835,
8807,N 675 E,SEYMOUR,IN,47274,
907,NORTHWESTERN AVE,BATTLE GROUND,IN,47906,
812,E WALNUT ST,BROOK,IN,47978,
1505,E Commercial Ave,LOWELL,IN,46356,
3201,NW NW B ST ST,LIBERTY,IN,47374,
212,Quail Dr,HOBART,IN,46342,
,HAUENSTEIN RD,Huntington,IN,46750,
1517,Brown Ave,HAMMOND,IN,46394,
1355,HILLTOP DR,ROME CITY,IN,46784,
1088,Capitol Dr,HOBART,IN,46342,
924,KELLER DR,NH,IN,46774,
120,E SHERWOOD TER,FW,IN,46806,
6700,E TORRENCE ST,MUNCIE,IN,47303,
12285,E US HWY 50,SEYMOUR,IN,47274,
664,W 1050,GREENFIELD,IN,46040,
2106,E 4TH ST,ANDERSON,IN,46012,
3609,OLIVER ST,FW,IN,46806,
1650,N N J ST ST,LIBERTY,IN,47374,
3232,TROPICAL TRL,FW,IN,46804,
,PAOLI PIKE,NEW ALBANY,IN,47150,
302,N MARKET ST,BROOKVILLE,IN,47353,
1168,NORTHCLIFFE DR,BROWNSBURG,IN,46123,
,W 200 S,SHIPSHEWANA,IN,46565,
6018,HEYWOOD CV,FW,IN,46815,
27,ROSTONE CIR,BEDFORD,IN,47909,
2330,W 400 S,VALLONIA,IN,47281,
133,ALFORD ST,MISHAWAKA,IN,46544,
328,GALT STREET,NEW ALBANY,IN,47150,
2020,W 1000 S,KEYSTONE,IN,46759,
568,CONNER CREEK DR,FISHERS,IN,46038,
47,FREMONT,FREMONT,IN,46737,
1401,FOREST HILLS DR,VINCENNES,IN,47591,
931,BROOKRIDGE CT,BEDFORD,IN,47909,
117,W CROSS ST,ANDERSON,IN,46012,
2228,N CAMMACK ST,MUNCIE,IN,47304,
12502,FOGWELL PKWY,RO,IN,46783,
331,E 13TH ST,CONNERSVILLE,IN,47331,
464,N ALLEN ST,WABASH,IN,46992,
720,W SMITH VALLEY,BARGERSVILLE,IN,46142,
2414,S MADLOCK AVE,MUNCIE,IN,47302,
1000,VETERANS PKWY,CLARKSVILLE,IN,47129,
253,E 750 S,FORT BRANCH,IN,47648,
702,CONNER DR,MISHAWAKA,IN,46544,
55,FREMONT,FREMONT,IN,46737,
2007,Willard St,GARY,IN,46404,
4006,PEBBLE WAY,NH,IN,46774,
8813,N 200 E,DEMOTTE,IN,46349,
3758,E 900 S,CROSS PLAINS,IN,47017,
309,E PLUM ST,ARGOS,IN,46501,
1151,S ROSCOE  LN,PARAGON,IN,46166,
,E 350 S,HOWE,IN,46795,
,N WAYNE ST,Warren,IN,46792,
218,GRANBY DR,INDIANAPOLIS,IN,46229,
6102,N 600 W,ROYAL CENTER,IN,46978,
236,SW SW 3RD ST ST,LIBERTY,IN,47374,
435,HOLLIDAY,MICHIGAN CITY,IN,46360,
2844,1500,ROYAL CENTER,IN,46978,
13963,AVALON BLVD,FISHERS,IN,46037,
407,S BRADLEY DR,HAUBSTADT,IN,47639,
7315,BRADBURY AVE,FW,IN,46809,
,S GRAVEYARD  RD,PARAGON,IN,46166,
316,N PLEASANT ST,BRYANT,IN,47371,
6249,N US 231,JASPER,IN,47546,
24,EMS D1 LN,SYRACUSE,IN,46567,
9919,Southmoor Ave,HIGHLAND,IN,46322,
320,FIFTH ST,VEVAY,IN,47040,
11410,WESTFIELD BLVD,CARMEL,IN,46032,
102,E OAK ST,FORT BRANCH,IN,47648,
8299,N FOLSOMVILLE RD,WC,IN,47601,
6756,S 600 E,FERDINAND,IN,47575,
161,S CR 425 W,TERRE HAUTE,IN,47846,
1350,LAKE CITY HWY,WARSAW,IN,46580,
3001,W CYPRESS DR,MUNCIE,IN,47304,
5765,E 500 N,DANVILLE,IN,46112,
166,N MADISON AV,HANOVER,IN,47243,
6934,S BEAL RD,VINCENNES,IN,47591,
424,N MARTIN ST,MUNCIE,IN,47303,
,W 600 N,BATTLE GROUND,IN,47906,
1151,N MAIN ST,CLARKS HILL,IN,46041,
1018,Kenwood St,HAMMOND,IN,46320,
1114,BRISTOL RD,BROWNSBURG,IN,46280,
9669,AVENEL CT,CARMEL,IN,46032,
526,FOUNTAIN DR,SEYMOUR,IN,47274,
2009,S N ST,ELWOOD,IN,46036,
21518,MARTINSBURG RD,GREENVILLE,IN,47106,
605,WARREN ST,SOUTH BEND,IN,46619,
2215,JOHN ST,FW,IN,46803,
21564,ANCHOR BAY DR,NOBLESVILLE,IN,46062,
102,HARRISON AV NW,DEPAUW,IN,47115,
3550,FREMONT,FREMONT,IN,46737,
2901,SPRINGFIELD RD,WADESVILLE,IN,47638,
9801,W WINYARD PLACE,OWENSVILLE,IN,47665,
7910,W JEFFERSON BLVD,FW,IN,46804,
4310,S 895 E,HUDSON,IN,46795,
916,S 17TH ST,TERRE HAUTE,IN,47803,
200,McKinley Ave,NEW CHICAGO,IN,46342,
3340,S 500 E,DUPONT,IN,47231,
8820,EDWARDSBERG PL,NH,IN,46774,
705,E VALENTINE ST,BICKNELL,IN,47512,
3910,SICKLE CT,BEDFORD,IN,47905,
1011,W JEFFERSON ST,PLYMOUTH,IN,46563,
6366,W ACADIA DR,WC,IN,47630,
2132,W 1300  N,ALEXANDRIA,IN,46001,
603,MORRIS ST,OSGOOD,IN,47037,
915,SEMINARY ST,VINCENNES,IN,47591,
7447,Chase St,MERRILLVILLE,IN,46410,
7237,NELWOOD DR,FW,IN,46835,
48,EMS W14A LN,NORTH WEBSTER,IN,46555,
7,MEADOW LN,CARMEL,IN,46032,
634,E Ash Pl,GRIFFITH,IN,46319,
1905,E KNIGHT ST,CARBON,IN,47834,
50977,PARK RIDGE CT,GRANGER,IN,46530,
4623,S CALHOUN ST,FW,IN,46807,
2934,W Walnut ST,LIBERTY CENTER,IN,46766,
2353,BASCOM CORNER RD,VEVAY,IN,47040,
9412,WHISPERING WOODS DR,FW,IN,46804,
9720,WALKER CT,MOUNT VERNON,IN,47620,
319,CRESTWOOD DR,MADISON,IN,47250,
15214,TROXEL DR E,NOBLESVILLE,IN,46060,
4569,Connecticut St,GARY,IN,46409,
4299,S 200 W,MARSHALL,IN,47872,
875,Flagstone Dr,DYER,IN,46311,
