NUMBER,STREET,CITY,STATE,POSTCODE,UNIT
18.0,LORDSBURG CT,ELIZABETHTOWN,KY,42701,
920.0,N LOGSDON PKWY,RADCLIFF,KY,40160,
7515.0,JUDY AVE,LOUISVILLE,KY,40214,
3516.0,BARBOUR PLACE CIR,SPRING VALLEY,KY,40241,
163.0,PLANTATION DR,RICHMOND,KY,40475,
254.0,S COLLINS ST,RICHMOND,KY,40475,
1190.0,S DIXIE BLVD,RADCLIFF,KY,40160,117.0
4472.0,SOUTHBRIDGE CT,LOUISVILLE,KY,40272,
808.0,SMITH WAY,BOWLING GREEN,KY,42103,
240.0,APPLE VALLEY RD,BOWLING GREEN,KY,42101,
10025.0,BALD KNOB RD,Franklin,KY,40601,
240.0,CREEKWOOD AV,BOWLING GREEN,KY,42104,
113.0,CAMBRIDGE STATION RD,JEFFERSONTOWN,KY,40223,
6609.0,HOLLY LAKE DR,LOUISVILLE,KY,40291,
1522.0,S 30TH ST,LOUISVILLE,KY,40211,
9130.0,41 USHY  S,Henderson,KY,42420-0000,
3815.0,THERINA WAY,LOUISVILLE,KY,40241,
2800.0,TIROL CT,JEFFERSONTOWN,KY,40220,
7535.0,DOE  LN,Henderson,KY,42420-0000,
5960.0,BIG BEND RD,Meade,KY,40104,
9613.0,SEATONVILLE RD,LOUISVILLE,KY,40291,
405.0,CLARE LN,LOUISVILLE,KY,40206,
9503.0,POLARIS DR,LOUISVILLE,KY,40229,
662.0,S 23RD ST,LOUISVILLE,KY,40211,
7123.0,YORKTOWN TER,LOUISVILLE,KY,40214,3.0
10508.0,LILLY GARDEN DR,LOUISVILLE,KY,40291,
7311.0,SUNSET LN,Oldham,KY,40014,
509.0,TUCKER STATION RD,MIDDLETOWN,KY,40243,
4305.0,SEAGRAPE RD,JEFFERSONTOWN,KY,40299,
1200.0,W HILL ST,LOUISVILLE,KY,40210,
333.0,S PRESTON ST,LOUISVILLE,KY,40202,
710.0,M ST,LOUISVILLE,KY,40208,4.0
7901.0,MOSS GREEN WAY,LOUISVILLE,KY,40291,
1861.0,YALE DR,LOUISVILLE,KY,40205,
212.0,CHERRY WAY,BOWLING GREEN,KY,42103,
1258.0,RED HOUSE RD,RICHMOND,KY,40475,
1629.0,ELM RD,RADCLIFF,KY,40160,
8118.0,VIGO RD,Shelby,KY,40003,
9984.0,VIEUX CARRE DR,LOUISVILLE,KY,40223,
2002.0,FROG POND WAY,LOUISVILLE,KY,40245,
3742.0,OAKDALE AVE,LOUISVILLE,KY,40214,
945.0,S 1ST ST,LOUISVILLE,KY,40203,
12602.0,BERNAY PL,MIDDLETOWN,KY,40243,
4609.0,HANEY WAY,LOUISVILLE,KY,40272,
11509.0,WILLOW STREAM CT,LOUISVILLE,KY,40299,302.0
5507.0,FERNFIELD DR,LOUISVILLE,KY,40219,203.0
2004.0,BARTHOLOMEW DR,LOUISVILLE,KY,40218,
1309.0,HUNTINGTON LN,LOUISVILLE,KY,40219,
357.0,SOUTHLAND DR,RADCLIFF,KY,40160,4.0
4304.0,FENCE PL,LOUISVILLE,KY,40241,
108.0,PEMBRIDGE CT,LOUISVILLE,KY,40245,
122.0,OAKLAND AV,RICHMOND,KY,40475,
7410.0,S PARK PL,NORWOOD,KY,40222,201.0
3012.0,MID DALE LN,LOUISVILLE,KY,40220,2.0
2546.0,TREVILIAN WAY,LOUISVILLE,KY,40205,
331.0,SIXTH  ST,Henderson,KY,42406,
211.0,W OAK ST,LOUISVILLE,KY,40203,412.0
315.0,WOODLAND LAKES DR,Oldham,KY,40031,
3010.0,WEDGEWOOD WAY,LOUISVILLE,KY,40220,
417.0,SOUTHWESTERN PKY,LOUISVILLE,KY,40212,
1817.0,ROCK CREEK RD,BIG CLIFTY,KY,42712,
1301.0,CASHWICK AVE,Oldham,KY,40031,
8806.0,BROOK WILLOW DR,LOUISVILLE,KY,40299,
2428.0,DUNDEE RD,LOUISVILLE,KY,40205,
1055.0,RUNELL RD,LOUISVILLE,KY,40214,
326.0,MONOHAN DR,ST MATTHEWS,KY,40207,
108.0,SOUTH PARK CIR,ELIZABETHTOWN,KY,42701,
4127.0,DIENES WAY,LOUISVILLE,KY,40216,
675.0,LINDELL AVE,LOUISVILLE,KY,40211,3.0
5511.0,REFLECTION DR,LOUISVILLE,KY,40218,
10392.0,TSCHARNER  RD,Henderson,KY,42420-0000,
4814.0,RAILROAD AVE,LOUISVILLE,KY,40258,
439.0,BAXTER AVE,LOUISVILLE,KY,40204,1.0
16824.0,MALLET HILL DR,LOUISVILLE,KY,40245,
6048.0,BROWNS PARK CIR,LOUISVILLE,KY,40272,
3004.0,RIVER RD,LOUISVILLE,KY,40207,
203.0,RIDGEWAY DR,RICHMOND,KY,40475,
392.0,LINDSEY AVE,Franklin,KY,40601,
4735.0,COLBY RD,Clark,KY,40391,
6930.0,BARDSTOWN RD,ELIZABETHTOWN,KY,42701,
2911.0,60 USHY  E,Henderson,KY,42420,
2226.0,LIVERPOOL LN,LOUISVILLE,KY,40218,17.0
1321.0,PAINT LICK RD,PAINT LICK,KY,40461,
182.0,IVY LN,Shelby,KY,40065,
6805.0,ARON RD,LOUISVILLE,KY,40258,
36.0,S ALVES  ST,Henderson,KY,42420-0000,
2911.0,SOUTH PARK RD,LOUISVILLE,KY,40219,
4531.0,BISHOP LN,WATTERSON PARK,KY,40218,
5700.0,OLD SLIGO RD,Oldham,KY,40031,
10506.0,FOXBORO DR,LOUISVILLE,KY,40223,
5320.0,MILNER RD,LOUISVILLE,KY,40216,11.0
7713.0,CIRCLE CREST RD,SPRING VALLEY,KY,40241,
321.0,E WASHINGTON ST,GEORGETOWN,KY,40324,
425.0,W ORMSBY AVE,LOUISVILLE,KY,40203,203.0
117.0,WILTSHIRE AVE,LOUISVILLE,KY,40207,
2330.0,CRITTENDEN DR,LOUISVILLE,KY,40217,509.0
101.0,CLOVER DR,VINE GROVE,KY,40175,
2236.0,PARIS DR,LOUISVILLE,KY,40218,
2400.0,WESTWOOD AVE,LOUISVILLE,KY,40220,
108.0,QUACHITA TRL,Franklin,KY,40601,4.0
5630.0,S WILSON RD,ELIZABETHTOWN,KY,42701,
515.0,LANGLEY TRCE,ELIZABETHTOWN,KY,42701,
3818.0,RIVER PARK DR,LOUISVILLE,KY,40211,
5208.0,FIRWOOD LN,LOUISVILLE,KY,40291,
3415.0,CALAIS DR,JEFFERSONTOWN,KY,40299,
800.0,KENWAY ST,BEREA,KY,40403,
12600.0,VALLEY PINE DR,LOUISVILLE,KY,40299,
159.0,DELISSA DR,GEORGETOWN,KY,40324,
247.0,HIGHLAND  DR,Henderson,KY,42420-0000,
7915.0,CANONERO WAY,LOUISVILLE,KY,40291,310.0
128.0,S 8TH ST,LOUISVILLE,KY,40202,
8605.0,ROBERTA CT,LOUISVILLE,KY,40291,
1343.0,S BROOK ST,LOUISVILLE,KY,40208,
2030.0,UNITY PL,LOUISVILLE,KY,40208,
6604.0,GLENBROOK AVE,LOUISVILLE,KY,40216,
129.0,IRVING LN,GEORGETOWN,KY,40324,
3111.0,DOGWOOD DR,LOUISVILLE,KY,40220,
9615.0,COOPER CHURCH DR,LOUISVILLE,KY,40229,303.0
426.0,W LYNN ST,GEORGETOWN,KY,40324,
8705.0,HONEYSUCKLE CT,BRIARWOOD,KY,40242,
11817.0,ROBINDALE RD,MIDDLETOWN,KY,40243,
0.0,TRAMMEL CREEK DR,ALVATON,KY,42122,
3816.0,LEANING OAK RD,SADIEVILLE,KY,40370,
9206.0,LINN STATION RD,HURSTBOURNE,KY,40222,103.0
1225.0,S 6TH ST,LOUISVILLE,KY,40203,1.0
204.0,CHERYL AVE,VINE GROVE,KY,40175,
1346.0,CHESTNUT ST,BOWLING GREEN,KY,42102,
327.0,BROOKFIELD VIEW DR,LOUISVILLE,KY,40245,
1296.0,MORRIS RD,Clark,KY,40391,
4003.0,CARBINE LN,LOUISVILLE,KY,40229,
6606.0,W 22,Oldham,KY,40014,
200.0,VALLEY ST,RICHMOND,KY,40475,
9804.0,STANALOUISE DR,LOUISVILLE,KY,40291,
18009.0,LORRAINE WAY,LOUISVILLE,KY,40023,
104.0,TWIN PINES LN,Franklin,KY,40601,
4018.0,CHEVIOT DR,SHIVELY,KY,40216,
103.0,QUIETSIDE CT,VINE GROVE,KY,40175,
1204.0,HEATHERBOURNE DR,Oldham,KY,40031,
7606.0,SMYRNA RD,LOUISVILLE,KY,40228,
8000.0,JOHN DAVIS DR,Franklin,KY,40601,1911.0
2013.0,PEABODY CT,LOUISVILLE,KY,40218,
1.0,POWELL DR,RICHMOND,KY,40475,
609.0,EDGEWATER DR,ELIZABETHTOWN,KY,42701,
514.0,E BARBEE AVE,LOUISVILLE,KY,40217,4.0
6150.0,LOWER HUNTERS TRCE,LOUISVILLE,KY,40258,
1750.0,WATTERSON TRL,JEFFERSONTOWN,KY,40299,
444.0,HEARTHSTONE  LN,Henderson,KY,42420-0000,
1415.0,HASKIN AVE,LOUISVILLE,KY,40215,
4205.0,BRIDGEWATER CV,ST MATTHEWS,KY,40207,6.0
2364.0,ASHWOOD DR,LOUISVILLE,KY,40205,
2711.0,SOUTH PARK RD,LOUISVILLE,KY,40219,
6415.0,OAK LEA DR,Oldham,KY,40014,
4113.0,SWEENEY LN,LOUISVILLE,KY,40299,
303.0,W CLINTON ST,GEORGETOWN,KY,40324,
11212.0,KENDALTON PL,FINCASTLE,KY,40241,
4202.0,FOREMAN LN,LOUISVILLE,KY,40219,4.0
1437.0,HEPBURN AVE,LOUISVILLE,KY,40204,4.0
3440.0,LARKWOOD AVE,LOUISVILLE,KY,40212,
319.0,W LEE ST,LOUISVILLE,KY,40208,
2508.0,ALLEN LN,Oldham,KY,40031,
1901.0,FOUR MILE RD,RICHMOND,KY,40475,
303.0,APRICOT DR,RICHMOND,KY,40475,
3250.0,RUCKRIEGEL PKY,JEFFERSONTOWN,KY,40299,
7314.0,FOX HOLLOW WAY,LOUISVILLE,KY,40228,
2822.0,LEXINGTON RD,LOUISVILLE,KY,40206,
813.0,POCAHONTAS TRL,GEORGETOWN,KY,40324,
1028.0,PIN OAK DR,Franklin,KY,40601,
3004.0,BERTRAM LN,VINE GROVE,KY,40175,
820.0,SUNRISE LN,ELIZABETHTOWN,KY,42701,
3695.0,WALNUT MEADOW RD,PAINT LICK,KY,40461,
1224.0,E OAK ST,LOUISVILLE,KY,40204,
5520.0,ROCK VALLEY WAY,LOUISVILLE,KY,40241,
2409.0,MAHAN DR,JEFFERSONTOWN,KY,40299,
1314.0,ARLING AVE,LOUISVILLE,KY,40215,
800.0,S 4TH ST,LOUISVILLE,KY,40203,805.0
5302.0,LOWERFIELD DR,LOUISVILLE,KY,40219,102.0
1508.0,EASTLAND ST,BOWLING GREEN,KY,42104,
141.0,WILLIAM ST,LOUISVILLE,KY,40206,3.0
27.0,OAK ST,Franklin,KY,40601,
7609.0,BUFFALO TRACE DR,LOUISVILLE,KY,40214,
1601.0,KNIGHTS WAY,LOUISVILLE,KY,40205,
1512.0,RED HOUSE RD,RICHMOND,KY,40475,
7713.0,SIERRA TRL,LOUISVILLE,KY,40214,
281.0,SUGARHILL CT,BOWLING GREEN,KY,42104,
106.0,STATE ST,LOUISVILLE,KY,40206,
1810.0,CARL CT,LOUISVILLE,KY,40215,
944.0,ELLISON AVE,LOUISVILLE,KY,40204,
503.0,MILLER RD,ELIZABETHTOWN,KY,42701,
1224.0,PRINGLE  ST,Henderson,KY,42420-0000,
10414.0,GRAFTON HALL RD,LOUISVILLE,KY,40272,
358.0,MAHURON LN,Shelby,KY,40067,
17615.0,CURRY BRANCH RD,LOUISVILLE,KY,40245,
502.0,VISTA DR,ELIZABETHTOWN,KY,42701,
2736.0,RING RD,ELIZABETHTOWN,KY,42701,
3725.0,GLEN OAK DR,LOUISVILLE,KY,40218,
3114.0,TEAL AVE,AUDUBON PARK,KY,40213,
120.0,ASH AVE,Oldham,KY,40056,
316.0,WOODLAND LAKES DR,Oldham,KY,40031,
432.0,POWHATAN TRL,Franklin,KY,40601,
8021.0,CHRISTIAN CT,LOUISVILLE,KY,40222,216.0
220.0,S MILL ST,VINE GROVE,KY,40175,30.0
1004.0,BEECH ST,Shelby,KY,40065,
468.0,HUNTERS RUN DR,RICHMOND,KY,40475,
1955.0,W 524,Oldham,KY,40055,
9633.0,LAMBORNE BLVD,LOUISVILLE,KY,40272,3.0
3405.0,W JEFFERSON ST,LOUISVILLE,KY,40212,
3933.0,MASSIE AVE,ST MATTHEWS,KY,40207,
1309.0,REBEL RIDGE RD,Oldham,KY,40031,
6712.0,SHEPHERDSVILLE RD,LOUISVILLE,KY,40228,
1104.0,BROADFIELDS DR,LOUISVILLE,KY,40207,
6110.0,GAILBREATH AVE,LOUISVILLE,KY,40219,
11210.0,HILLVIEW WOODS PKY,LOUISVILLE,KY,40229,2.0
8503.0,STANDING OAK DR,LOUISVILLE,KY,40258,1.0
8205.0,VERMISSA CT,LYNDON,KY,40222,3.0
7510.0,JAMAICA DR,LOUISVILLE,KY,40214,
0.0,HADLEY LOOP RD,BOWLING GREEN,KY,42104,
1723.0,BAIRD ST,LOUISVILLE,KY,40203,
3711.0,STONE LAKES DR,LOUISVILLE,KY,40299,
7086.0,OLD CORYDON  RD,Henderson,KY,42420-0000,
6703.0,STRAWBERRY LN,LOUISVILLE,KY,40214,410.0
1330.0,BARNES MILL RD,RICHMOND,KY,40475,
5888.0,41A USHY HWY,Henderson,KY,42420,
3800.0,STONYRUN CIR,LOUISVILLE,KY,40220,
550.0,SHERWOOD DR,ELIZABETHTOWN,KY,42701,
1032.0,SIOUX TRL,Franklin,KY,40601,
10704.0,PINEDALE DR,JEFFERSONTOWN,KY,40299,4.0
2008.0,TERRIL LN,LOUISVILLE,KY,40218,3.0
902.0,JOHNSON RD,LOUISVILLE,KY,40245,
10211.0,IRONWORKS RD,Clark,KY,40391,
5108.0,CRAFTY DR,LOUISVILLE,KY,40213,4.0
9900.0,HONEY LOCUST LN,LOUISVILLE,KY,40241,103.0
1015.0,S PRESTON ST,LOUISVILLE,KY,40203,
704.0,N ENGLISH STATION RD,MIDDLETOWN,KY,40223,109.0
1447.0,HAWKINS DR,VINE GROVE,KY,40175,
4103.0,TUCKER GROVE CT,JEFFERSONTOWN,KY,40299,
3919.0,WOODGATE LN,LOUISVILLE,KY,40220,
2138.0,BARINGER AVE,LOUISVILLE,KY,40204,101.0
1719.0,WATTERSON TRL,JEFFERSONTOWN,KY,40299,
1820.0,NEVILLE DR,SHIVELY,KY,40216,103.0
440.0,MT RUSHMORE DR,RICHMOND,KY,40475,
2405.0,GARLAND AVE,LOUISVILLE,KY,40211,
5900.0,PAGEANT WAY,LOUISVILLE,KY,40214,
3008.0,FRANK LEE AVE,LOUISVILLE,KY,40216,
277.0,PEACHTREE ST,UPTON,KY,42784,
4017.0,HENDERSON AVE,LOUISVILLE,KY,40213,
4822.0,SWALLOW RD,LYNNVIEW,KY,40213,
8004.0,ASHDOWNE CT,PROSPECT,KY,40059,
657.0,S 39TH ST,LOUISVILLE,KY,40211,
219.0,CROGHAN DR,ELIZABETHTOWN,KY,42701,
7056.0,BRONNER CIR,LOUISVILLE,KY,40218,
10817.0,SPARROW CIR,LOUISVILLE,KY,40118,201.0
2212.0,MEDFORD LN,LOUISVILLE,KY,40218,
9407.0,CIVIC WAY,LOUISVILLE,KY,40059,
3013.0,MITFORD CT,RICHMOND,KY,40475,
388.0,CATHERINE LN,BERRY,KY,41003,
4332.0,S 3RD ST,LOUISVILLE,KY,40214,
5205.0,ARROWSHIRE DR,Oldham,KY,40031,
815.0,W MARKET ST,LOUISVILLE,KY,40202,706.0
4205.0,EVERGREEN RD,Oldham,KY,40031,
450.0,GLEN LILY RD,BOWLING GREEN,KY,42101,
2914.0,AVON RD,LOUISVILLE,KY,40220,
210.0,BONTRESSA DR,LOUISVILLE,KY,40206,9.0
1314.0,SHINGO AVE,LOUISVILLE,KY,40215,
434.0,W SOUTHLAND BLVD,LOUISVILLE,KY,40214,
14206.0,HARKAWAY AVE,LOUISVILLE,KY,40299,
1850.0,KENDALL LN,SHIVELY,KY,40216,
9106.0,MAPLEVIEW DR,LOUISVILLE,KY,40258,
4104.0,OLD HEADY RD,LOUISVILLE,KY,40299,
1700.0,DEER PARK AVE,LOUISVILLE,KY,40205,
6600.0,OUTER LOOP,LOUISVILLE,KY,40228,141.0
4101.0,BARDSTOWN RD,LOUISVILLE,KY,40218,
423.0,LAUREL ST,RICHMOND,KY,40475,
318.0,W BRANDEIS AVE,LOUISVILLE,KY,40208,
1735.0,JENKINS RD,UPTON,KY,42784,
718.0,SHELBY ST,Franklin,KY,40601,2.0
2713.0,CHICKASAW AVE,LOUISVILLE,KY,40206,
6513.0,OAK VALLEY DR,LOUISVILLE,KY,40214,
2709.0,ALANMEDE RD,LOUISVILLE,KY,40205,
2800.0,JOMARIE CT,LOUISVILLE,KY,40220,
265.0,HAITI RD E,BEREA,KY,40403,
7802.0,SUNDANCE DR,LYNDON,KY,40222,
1321.0,S BROOK ST,LOUISVILLE,KY,40208,
403.0,N MILES ST,ELIZABETHTOWN,KY,42701,
960.0,LEAWOOD SQ,Franklin,KY,40601,2.0
6762.0,CARRIBEAN LN,LOUISVILLE,KY,40219,
702.0,SOUTHLAWN DR,Shelby,KY,40065,
5200.0,MANSFIELD LN,LOUISVILLE,KY,40218,
115.0,LANDINGS DR,Franklin,KY,40601,
2208.0,SHERWOOD AVE,LOUISVILLE,KY,40205,
861.0,DENZIL AV,BOWLING GREEN,KY,42103,
7910.0,NIEMANN DR,LOUISVILLE,KY,40291,
904.0,LOCUST POINTE PL,LOUISVILLE,KY,40245,
2004.0,N MULBERRY ST,ELIZABETHTOWN,KY,42701,
3610.0,GEORGIE WAY,Oldham,KY,40031,
680.0,S 42ND ST,LOUISVILLE,KY,40211,
9311.0,TAYLORSVILLE RD,JEFFERSONTOWN,KY,40299,
5849.0,SHEPHERDSVILLE RD,ELIZABETHTOWN,KY,42701,
1281.0,MARTIN NETHERY RD,Shelby,KY,40076,
4.0,WOODLAND DR,Clark,KY,40391,
821.0,E   MAIN ST,Franklin,KY,40601,
845.0,E JEFFERSON ST,LOUISVILLE,KY,40206,
9705.0,WATERBROOK CT,LOUISVILLE,KY,40228,
306.0,FALL HARVEST CT,JEFFERSONTOWN,KY,40223,
9992.0,CROOKED OAK WAY,LOUISVILLE,KY,40291,
602.0,RUGGLES PL,LOUISVILLE,KY,40208,
9105.0,SEATON SPRINGS PKY,HURSTBOURNE,KY,40222,
4417.0,DOHN AVE,LOUISVILLE,KY,40216,
4416.0,BARDSTOWN RD,ELIZABETHTOWN,KY,42701,4.0
1595.0,CYPRESS DR,RADCLIFF,KY,40160,
2113.0,SPEED AVE,LOUISVILLE,KY,40205,7.0
1312.0,E WASHINGTON ST,LOUISVILLE,KY,40206,
744.0,COLORADO AVE,LOUISVILLE,KY,40208,
1034.0,S JACKSON ST,LOUISVILLE,KY,40203,
7249.0,NEW GLENDALE RD,GLENDALE,KY,42740,
6409.0,LABOR LN,LOUISVILLE,KY,40291,
203.0,SCROGGIN PARK DR,GEORGETOWN,KY,40324,
161.0,ST MATTHEWS AVE,ST MATTHEWS,KY,40207,13.0
1903.0,HOLLEN RD,BANCROFT,KY,40222,
1473.0,ST JAMES CT,LOUISVILLE,KY,40208,
154.0,LANDINGS DR,Franklin,KY,40601,3.0
1014.0,W OAK ST,LOUISVILLE,KY,40210,
716.0,S 16TH ST,LOUISVILLE,KY,40210,
216.0,FARLEY LN,ALVATON,KY,42122,
88.0,ROSE ST,Shelby,KY,40065,
631.0,TAYLOR  DR,Henderson,KY,42420,
4121.0,LAKE DREAMLAND RD,LOUISVILLE,KY,40216,
1766.0,BARNES MILL RD,RICHMOND,KY,40475,
2043.0,FOX TRAIL DR,Oldham,KY,40031,
1615.0,BERRY BLVD,LOUISVILLE,KY,40215,
236.0,LANDINGS DR,Franklin,KY,40601,
2900.0,ROCKAWAY DR,LOUISVILLE,KY,40216,
501.0,ECHELON WAY,MIDDLETOWN,KY,40223,102.0
1320.0,WOODLAND DR,ELIZABETHTOWN,KY,42701,
2205.0,SPEED AVE,LOUISVILLE,KY,40205,
113.0,BROWNING DR,GEORGETOWN,KY,40324,
129.0,BUCKNER ST,Clark,KY,40391,
221.0,WALNUT MEADOW RD,RICHMOND,KY,40475,
311.0,LYNDONWOODS CIR,LYNDON,KY,40222,
322.0,CRESCENT SPRING DR,LOUISVILLE,KY,40206,
2040.0,ZARING MILL RD,Shelby,KY,40065,
1026.0,MULBERRY ST,LOUISVILLE,KY,40217,
4600.0,SPRING BRANCH CT,LOUISVILLE,KY,40241,
1004.0,FRANELM RD,LOUISVILLE,KY,40214,
2380.0,CARDWELL LN,Franklin,KY,40601,
10507.0,BACK RUN RD,LOUISVILLE,KY,40299,
648.0,S 3RD ST,LOUISVILLE,KY,40202,
410.0,TURPIN DR,RICHMOND,KY,40475,
3803.0,YARDLEY CT,LOUISVILLE,KY,40299,102.0
309.0,COUNTRY ACRES,LOUISVILLE,KY,40218,2.0
652.0,S 2ND ST,LOUISVILLE,KY,40202,
7307.0,LEISURE CT,LOUISVILLE,KY,40229,
4600.0,GRAND DELL DR,Oldham,KY,40014,
997.0,SCAFFOLD CANE RD,BEREA,KY,40403,
371.0,ROSWELL DR,ELIZABETHTOWN,KY,42701,
1898.0,WHEELER BRANCH RD,RICHMOND,KY,40475,
9315.0,LANTANA DR,LOUISVILLE,KY,40229,
5595.0,BACON CREEK RD,ELIZABETHTOWN,KY,42701,
133.0,BLAKE DR,RINEYVILLE,KY,40162,
325.0,W CARDINAL BLVD,LOUISVILLE,KY,40208,102.0
2691.0,PEAKS MILL RD,Franklin,KY,40601,
925.0,WILLOW SPRINGS DR,LYNDON,KY,40242,
12949.0,SHELBYVILLE RD,MIDDLETOWN,KY,40243,112.0
1013.0,GABBARD TOWN RD,BEREA,KY,40403,
225.0,BEECHWOOD DR,BEREA,KY,40403,
146.0,SEMINOLE TRL,Franklin,KY,40601,
918.0,DENMARK ST,LOUISVILLE,KY,40215,
2108.0,FOX TRAIL DR,Oldham,KY,40031,
1602.0,KING OF ARMS,GRAYMOOR/DEVONDALE,KY,40222,
4615.0,LEXINGTON RD,Clark,KY,40391,
1157.0,RICHLIEV LN,Franklin,KY,40601,
11615.0,EASTPORT DR, ,KY,40014,
1004.0,E ST CATHERINE ST,LOUISVILLE,KY,40204,
3212.0,UTAH AVE,LOUISVILLE,KY,40215,4.0
6600.0,MOORHAVEN DR,LOUISVILLE,KY,40228,
1497.0,HILLCREEK DR,ELIZABETHTOWN,KY,42701,
3528.0,STONE BRIAR ST,BOWLING GREEN,KY,42104,
104.0,PALUMBO PL,GEORGETOWN,KY,40324,
3527.0,W MUHAMMAD ALI BLVD,LOUISVILLE,KY,40212,
12.0,WILSON LN,Clark,KY,40391,
245.0,KELLY RD,BOWLING GREEN,KY,42104,
2425.0,NORTHPARK  DR,Henderson,KY,42420,
1097.0,MALLARD CREEK RD,ST MATTHEWS,KY,40207,
409.0,ROBINSON AVE,GEORGETOWN,KY,40324,
2539.0,ELLSWORTH AVE,LOUISVILLE,KY,40217,
2016.0,KENILWORTH PL,LOUISVILLE,KY,40205,
102.0,EDGEWATER DR,SADIEVILLE,KY,40370,
3223.0,RICHARD AVE,LOUISVILLE,KY,40206,
801.0,BELLE ST,LOUISVILLE,KY,40245,
205.0,PIN OAK CT,ELIZABETHTOWN,KY,42701,
3430.0,HURSTBOURNE RIDGE BLVD,LOUISVILLE,KY,40299,
5129.0,CANE RUN RD,LOUISVILLE,KY,40216,
8021.0,KELLERMAN RD,LOUISVILLE,KY,40219,
508.0,FOREST HILL DR,Franklin,KY,40601,
306.0,BRANDON CT,BEREA,KY,40403,
1980.0,DUKE POWELL RD,BEREA,KY,40403,
854.0,FETTER AVE,LOUISVILLE,KY,40217,
216.0,COLLEGE ST,BOWLING GREEN,KY,42101,
94.0,KNOLLWOOD LN,ELIZABETHTOWN,KY,42701,
400.0,FALLON WAY,LOUISVILLE,KY,40214,5.0
4012.0,WATERFORD CIR,ST MATTHEWS,KY,40207,2.0
1720.0,GLENVIEW PL,SHIVELY,KY,40216,
9316.0,FAIRGROUND RD,LOUISVILLE,KY,40291,
3545.0,FLEETWOOD DR,WATTERSON PARK,KY,40218,
9909.0,COBY WAY,LOUISVILLE,KY,40241,
107.0,CEDARWOOD DR,Franklin,KY,40601,
2131.0,GOTTS HYDRO RD,OKLAHOMA CITY,KY,73108,
1832.0,GRAND AVE,LOUISVILLE,KY,40210,
3107.0,PINE TRACE CT,LOUISVILLE,KY,40272,
2337.0,RUSSELLVILLE RD,BOWLING GREEN,KY,42103,
1350.0,CLAY ST,BOWLING GREEN,KY,42102,
1398.0,VATER RD,BUTLER,KY,41006,
8509.0,SILVER FOX RD,LOUISVILLE,KY,40291,
409.0,PENNSYLVANIA AVE,ELIZABETHTOWN,KY,42701,
818.0,DRESDEN AVE,LOUISVILLE,KY,40215,
8613.0,SOPHIA LN,LOUISVILLE,KY,40291,
5002.0,RED FERN RD,LOUISVILLE,KY,40218,
8914.0,STONY FALLS WAY,JEFFERSONTOWN,KY,40299,
9200.0,AXMINSTER DR,FOREST HILLS,KY,40299,
2429.0,EASTWOOD CIR,Oldham,KY,40014,
4401.0,ANNSHIRE AVE,WATTERSON PARK,KY,40213,
16934.0,416 HWY  E,Henderson,KY,42420-0000,
3015.0,REXFORD WAY,LOUISVILLE,KY,40205,
8225.0,WHIPPS MILL RD,LYNDON,KY,40222,116.0
4404.0,RUDY LN,WINDY HILLS,KY,40207,
78.0,BARREN CHURCH  RD S,Henderson,KY,42420-0000,
11115.0,FINCHLEY RD,DOUGLASS HILLS,KY,40243,
8222.0,FENWICK FARM PL,LOUISVILLE,KY,40220,
266.0,TRINITY DR,RINEYVILLE,KY,40162,
105.0,GORING LN,Franklin,KY,40601,
1399.0,KENTUCKY ST,BOWLING GREEN,KY,42101,
7705.0,SIERRA TRL,LOUISVILLE,KY,40214,
3015.0,HUBERTA DR,LOUISVILLE,KY,40216,
3913.0,HANDLEY AVE,LOUISVILLE,KY,40218,
334.0,HICKORY HEIGHTS CT,BOWLING GREEN,KY,42104,
1533.0,W JEFFERSON ST,LOUISVILLE,KY,40203,
109.0,CLARK STATION RD,LOUISVILLE,KY,40023,
113.0,CHARLIE NORRIS RD,RICHMOND,KY,40475,
2107.0,DOROTHY AVE,LOUISVILLE,KY,40205,
1907.0,S PRESTON ST,LOUISVILLE,KY,40217,
121.0,WALNUT ST,BEREA,KY,40403,
11013.0,LANSFORD DR,LOUISVILLE,KY,40272,
1004.0,HIGHLAND AVE,LOUISVILLE,KY,40204,
1201.0,W MARKET ST,LOUISVILLE,KY,40203,
318.0,W BRANDEIS AVE,LOUISVILLE,KY,40208,
1808.0,THE MEADOW RD,LOUISVILLE,KY,40223,
111.0,HIAWATHA TRL,GEORGETOWN,KY,40324,
7702.0,WESTWOOD FARMS CT,LOUISVILLE,KY,40220,
6308.0,ST BERNADETTE AVE,LOUISVILLE,KY,40059,
8389.0,TWIN BRIDGES RD,ALVATON,KY,42122,
642.0,S 2ND ST,LOUISVILLE,KY,40202,509.0
402.0,WORTHING CT,LOUISVILLE,KY,40245,
1636.0,S MARCH  LN,Henderson,KY,42420-0000,
1118.0,RICHMOND GREEN DR,RICHMOND,KY,40475,
8004.0,ROLLINGTON RD,Oldham,KY,40014,
4157.0,LA SALLE AVE,LOUISVILLE,KY,40215,
2633.0,ELKIN STATION RD,Clark,KY,40391,
340.0,WINFORD DR,WACO,KY,40385,
3202.0,BLUEGRASS DR,Shelby,KY,40065,
1004.0,GOLD BARK CT,Oldham,KY,40031,
1600.0,BAYS FORK RD,BOWLING GREEN,KY,42103,
323.0,COPPERCREEK CIR,LYNDON,KY,40222,
118.0,BUCKINGHAM LN,Clark,KY,40391,
12702.0,CHARLES FARM CIR,LOUISVILLE,KY,40299,202.0
1501.0,CYPRESS DR,RADCLIFF,KY,40160,
1059.0,E ST CATHERINE ST,LOUISVILLE,KY,40204,
1101.0,HICKORY SWITCH RD,Oldham,KY,40031,
1170.0,BOOKER PKE,Shelby,KY,40065,
309.0,E MARKET ST,LOUISVILLE,KY,40202,402.0
3508.0,FERN LEA RD,SHIVELY,KY,40216,5.0
116.0,HOLLY ST,BEREA,KY,40403,
1777.0,GUYNN RD,PAINT LICK,KY,40461,
6206.0,PARIS PIKE,GEORGETOWN,KY,40324,
2257.0,PAINT LICK RD,PAINT LICK,KY,40461,
1823.0,GREENWOOD AVE,LOUISVILLE,KY,40210,
4014.0,WATERFORD CIR,ST MATTHEWS,KY,40207,4.0
10707.0,EAGLE RIDGE PL,LOUISVILLE,KY,40223,
9502.0,MAGNOLIA RIDGE DR,LOUISVILLE,KY,40291,204.0
1000.0,HONEYSUCKLE CT,BEREA,KY,40403,
114.0,MIMOSA DR,Clark,KY,40391,
9408.0,HOLIDAY DR,LOUISVILLE,KY,40272,
2556.0,MCNAY RD,FALMOUTH,KY,41040,
5508.0,DAVALLIA LN,LOUISVILLE,KY,40258,
101.0,DONERAIL DR,GEORGETOWN,KY,40324,
8534.0,GRAND NEPTUNE DR,LOUISVILLE,KY,40228,
133.0,OAKLAWN DR,Franklin,KY,40601,
207.0,BUFORD LN,ELIZABETHTOWN,KY,42701,8.0
2703.0,HEATHER LN,Oldham,KY,40031,
8902.0,HATLERHALL DR,JEFFERSONTOWN,KY,40291,
7508.0,DR HODGE  RD,Henderson,KY,42420-0000,
8601.0,JENNY LIND DR,LOUISVILLE,KY,40219,
202.0,HEADY AVE,RICHLAWN,KY,40207,
107.0,OLD FARM RD,RICHMOND,KY,40475,
911.0,HESS LN,LOUISVILLE,KY,40217,
7604.0,WHITE POST WAY,LOUISVILLE,KY,40220,
405.0,CHARLES CLAIBORNE CT,RICHMOND,KY,40475,
10309.0,GOING CT,LOUISVILLE,KY,40241,
7701.0,BELLA WOODS CT,LOUISVILLE,KY,40214,
4203.0,BLUE TEAL PL,LOUISVILLE,KY,40245,
964.0,LEAYOU RD,ALVATON,KY,42122,
317.0,BERKLEY CT,RADCLIFF,KY,40160,
191.0,WHIG CT,GEORGETOWN,KY,40324,
1102.0,ROYAL GARDENS CT,LOUISVILLE,KY,40214,7.0
13601.0,SUREFIRE LN,LOUISVILLE,KY,40245,
4186.0,MORRIS  DR,Henderson,KY,42420-0000,
2727.0,S 4TH ST,LOUISVILLE,KY,40208,
9929.0,SILO WAY,LOUISVILLE,KY,40291,
1602.0,LYNN WAY,GRAYMOOR/DEVONDALE,KY,40222,
3625.0,FERN VALLEY RD,LOUISVILLE,KY,40219,
1424.0,WOODLAND  DR,Henderson,KY,42420,
850.0,W MUHAMMAD ALI BLVD,LOUISVILLE,KY,40203,604.0
1902.0,BONNYCASTLE AVE,LOUISVILLE,KY,40205,
8302.0,TALLOW CT,LOUISVILLE,KY,40214,
1519.0,CRUMS LN,LOUISVILLE,KY,40216,69.0
3511.0,E INDIAN TRL,LOUISVILLE,KY,40213,
2504.0,CROSS HILL CT,LOUISVILLE,KY,40206,20.0
100.0,RIVER RUN CT,GEORGETOWN,KY,40324,
8013.0,ASPEN GLEN DR,LOUISVILLE,KY,40228,
0.0,MT OLIVET RD,BOWLING GREEN,KY,42104,
1900.0,S FLOYD ST,LOUISVILLE,KY,40208,403.0
1305.0,CARDINAL WAY,BOWLING GREEN,KY,42103,
4039.0,MT STERLING RD,Clark,KY,40391,
3754.0,SHERIDAN RD,LOUISVILLE,KY,40220,
645.0,PHILLIPS LN,LOUISVILLE,KY,40209,
9409.0,DAWSON HILL RD,LOUISVILLE,KY,40299,
5406.0,HEAFER FARM LN,LOUISVILLE,KY,40219,104.0
9325.0,THOMASON  RD,Henderson,KY,42452-0000,
1344.0,MARTIN WAY,BOWLING GREEN,KY,42104,
,LAKEVIEW  DR,Henderson,KY,42420,
16031.0,HARDINSBURG RD,CECILIA,KY,42724,
378.0,ROLLING HEIGHTS BLVD,RINEYVILLE,KY,40162,
1515.0,CYPRESS ST,LOUISVILLE,KY,40210,216.0
8605.0,SHELBYVILLE RD,BELLEMEADE,KY,40222,209.0
650.0,S 29TH ST,LOUISVILLE,KY,40211,416.0
1008.0,DRIFTWOOD LN,ELIZABETHTOWN,KY,42701,
205.0,VAN DYKE RD,Shelby,KY,40022,
730.0,GEORGE MARTIN AVE,GEORGETOWN,KY,40324,
1615.0,HUNNINGTON PL,HURSTBOURNE ACRES,KY,40220,5.0
7018.0,BLACK WALNUT CIR,LOUISVILLE,KY,40229,
2143.0,WINSTON AVE,LOUISVILLE,KY,40205,
38.0,JONATHON CIR,Shelby,KY,40065,
212.0,LINDEN LN,LOUISVILLE,KY,40206,
437.0,JEPTHA KNOB RD,Shelby,KY,40065,
10000.0,HONEY LOCUST LN,LOUISVILLE,KY,40241,202.0
73.0,FITCH AV,Clark,KY,40391,
9681.0,1078 HWY  N,Henderson,KY,42420-0000,
2421.0,N ELM  ST,Henderson,KY,42420-0000,
7369.0,PORTER PKE,BOWLING GREEN,KY,42103,
2500.0,ST CECILIA ST,LOUISVILLE,KY,40212,
6910.0,PENN CREEK CT,LOUISVILLE,KY,40229,
1939.0,GOLDSMITH LN,LOUISVILLE,KY,40218,138.0
4008.0,GUNN CT,LOUISVILLE,KY,40229,
215.0,W VINE ST,RADCLIFF,KY,40160,
1500.0,S 5TH ST,LOUISVILLE,KY,40208,133.0
536.0,SHEARWATER DR,RICHMOND,KY,40475,
1520.0,ELLIS RD,Shelby,KY,40019,
2126.0,BELLE HAVEN BLVD, ,KY,0,
3004.0,RALPH AVE,SHIVELY,KY,40216,
1901.0,CREEK VIEW CT,Oldham,KY,40014,
1235.0,CENTRAL AVE,LOUISVILLE,KY,40208,
1547.0,FRANKFORT AVE,LOUISVILLE,KY,40206,
4522.0,S 3RD ST,LOUISVILLE,KY,40214,
8006.0,MIMOSA DR,LOUISVILLE,KY,40258,
1450.0,HEMLOCK ST,LOUISVILLE,KY,40211,
4411.0,WOODGATE LN,LOUISVILLE,KY,40220,
2214.0,PLANTATION DR,LOUISVILLE,KY,40216,
310.0,WEBBMONT CIR,Shelby,KY,40065,
102.0,PLUM CREEK CT,ELIZABETHTOWN,KY,42701,
216.0,MARKWELL CT,LOUISVILLE,KY,40219,
1549.0,W ORMSBY AVE,LOUISVILLE,KY,40210,
113.0,SHELBY CT,RICHMOND,KY,40475,
2950.0,BRECKENRIDGE LN,LOUISVILLE,KY,40220,
533.0,BELLWOOD DR,ELIZABETHTOWN,KY,42701,1.0
6008.0,GOALBY DR,LOUISVILLE,KY,40258,
903.0,BAXTER AVE,LOUISVILLE,KY,40204,
181.0,BROOKSIDE CT,ELIZABETHTOWN,KY,42701,
0.0,JACKSON BRIDGE RD,BOWLING GREEN,KY,42101,
378.0,COLLEGE HILL RD,WACO,KY,40385,
4413.0,CAMPOBELLO ST,LOUISVILLE,KY,40213,
5317.0,ERIKSSON LN,LOUISVILLE,KY,40272,104.0
1410.0,CLARA AVE,LOUISVILLE,KY,40215,
7801.0,BRYNWOOD LN,LOUISVILLE,KY,40291,
113.0,SCARLET OAK CIR,ELIZABETHTOWN,KY,42701,
1421.0,NIGHTINGALE RD,LOUISVILLE,KY,40213,3.0
761.0,N HITE AVE,LOUISVILLE,KY,40206,4.0
13404.0,CREEKVIEW RD,Oldham,KY,40059,
1610.0,S 28TH ST,LOUISVILLE,KY,40211,
119.0,EASTERN HILLS DR,RICHMOND,KY,40475,
1055.0,WINNERS CIR,OAKDALE,KY,11769,
1435.0,THORNBERRY AVE,LOUISVILLE,KY,40215,
5900.0,LOUISVILLE RD,Franklin,KY,40601,
4202.0,MERCER LN,WEST POINT,KY,40177,
111.0,BACK STRETCH DR,GEORGETOWN,KY,40324,
923.0,WOODLAND RIDGE CIR,Oldham,KY,40031,
7801.0,EDNA M RD,LOUISVILLE,KY,40258,
7388.0,GRAND OAKS DR,Oldham,KY,40014,
2309.0,CARTER  DR,Henderson,KY,42420-0000,
2213.0,FRANKFORT RD,Shelby,KY,40065,
1300.0,S 17TH ST,LOUISVILLE,KY,40210,
232.0,LYONS DR,Franklin,KY,40601,
877.0,COLLEGE HILL RD,WACO,KY,40385,
3218.0,UTAH AVE,LOUISVILLE,KY,40215,3.0
7610.0,CRESTLINE RD,LOUISVILLE,KY,40214,
116.0,RUNNING BROOK TRL,Franklin,KY,40601,
219.0,N 33RD ST,LOUISVILLE,KY,40212,
9207.0,PINE LAKE DR,JEFFERSONTOWN,KY,40220,201.0
4100.0,DIXIE HWY,SHIVELY,KY,40216,
7411.0,NEW GLENDALE RD,GLENDALE,KY,42740,
6502.0,ESTELE AVE,LOUISVILLE,KY,40214,
2013.0,SHAGBARK LN,Shelby,KY,40245,
0.0,BROWNSLOCK RD,LEITCHFIELD,KY,42755,
5902.0,SHEPHERD CROSSING DR,LOUISVILLE,KY,40219,
820.0,CHIPPENDALE DR,BOWLING GREEN,KY,42103,
1757.0,BERNHEIM LN,LOUISVILLE,KY,40210,
7107.0,RAINBOW DR,LOUISVILLE,KY,40272,
8002.0,HARRODWOOD CT,LOUISVILLE,KY,40291,
3712.0,FALCON CREST DR,LOUISVILLE,KY,40219,104.0
2103.0,DEERCROSS DR,HURSTBOURNE ACRES,KY,40220,100.0
209.0,CORRAL CT,Franklin,KY,40601,
277.0,BRYSON WAY,RICHMOND,KY,40475,
523.0,E OAK ST,LOUISVILLE,KY,40203,
306.0,EQUINOX LN,MIDDLETOWN,KY,40243,
4206.0,LANDSIDE DR,LOUISVILLE,KY,40220,
2236.0,OSAGE AVE,LOUISVILLE,KY,40210,
229.0,S GALT AVE,LOUISVILLE,KY,40206,1.0
9420.0,TAMARISK PKY,LOUISVILLE,KY,40223,
330.0,WISTERIA CT,RICHMOND,KY,40475,
3507.0,S 393,Oldham,KY,40031,
6612.0,OLD CORYDON  RD,Henderson,KY,42420-0000,
9510.0,TAYLORSVILLE RD,JEFFERSONTOWN,KY,40299,
215.0,W MAIN ST,GEORGETOWN,KY,40324,
751.0,LORETTO AVE,LOUISVILLE,KY,40211,
105.0,OTTAWA AVE,LOUISVILLE,KY,40214,
651.0,MOULDER LOOP,SMITHS GROVE,KY,42171,
2593.0,IRVINE RD,Clark,KY,40391,
5210.0,MANSFIELD LN,LOUISVILLE,KY,40218,
4014.0,HEATHERVIEW RD,LOUISVILLE,KY,40218,
549.0,MALLARD CREEK RD,ST MATTHEWS,KY,40207,
2400.0,STANNYE CT,NORTHFIELD,KY,40222,
298.0,GREENS CROSSING RD,RICHMOND,KY,40475,1.0
711.0,W ASHLAND AVE,LOUISVILLE,KY,40215,
235.0,STUART AVE,Shelby,KY,40065,
1108.0,BARRET AVE,LOUISVILLE,KY,40204,
6500.0,W ORELL RD,LOUISVILLE,KY,40272,
164.0,CLAIBORNE CT,BOWLING GREEN,KY,42104,
1107.0,CEDAR SPRINGS PKWY,Oldham,KY,40031,
6104.0,JULIE KAYS WAY,LOUISVILLE,KY,40258,
102.0,CLUBHOUSE DR,GEORGETOWN,KY,40324,
8515.0,WOLF PEN BRANCH RD,LOUISVILLE,KY,40059,
706.0,E CHESTNUT ST,LOUISVILLE,KY,40202,
1214.0,LOGAN ST,LOUISVILLE,KY,40204,2.0
6819.0,HILLSIDE DR,Oldham,KY,40056,
4601.0,LEESBURG CT,FINCASTLE,KY,40241,
2002.0,DUKE POWELL RD,BEREA,KY,40403,
1603.0,KAMER DR,Oldham,KY,40031,
5005.0,QUAIL CT,LOUISVILLE,KY,40213,
1115.0,LYDIA ST,LOUISVILLE,KY,40217,
4813.0,S 6TH ST,LOUISVILLE,KY,40214,
9601.0,WILLIAMSBOROUGH LN,LOUISVILLE,KY,40291,
113.0,CEDARWOOD DR,Franklin,KY,40601,
9901.0,GRASSLAND DR,JEFFERSONTOWN,KY,40299,4.0
1501.0,SHEEP PEN RD,Franklin,KY,40601,
167.0,OLDE ENGLISH CT,LOUISVILLE,KY,40272,
914.0,N DIXIE AVE,ELIZABETHTOWN,KY,42701,102.0
6524.0,BROOK VALLEY DR,LOUISVILLE,KY,40228,
8515.0,TAPESTRY CIR,LOUISVILLE,KY,40222,302.0
1029.0,JAMES ELKINS RD,ALVATON,KY,42122,
11115.0,INDIAN LEGENDS DR,LOUISVILLE,KY,40241,302.0
307.0,WOODFORD AV,OAKLAND,KY,42159,
585.0,RUE LA GRANDE AVE,ELIZABETHTOWN,KY,42701,
1710.0,BICKNELL AVE,LOUISVILLE,KY,40215,
131.0,W JEFFERSON ST,GEORGETOWN,KY,40324,
123.0,JEFFERSON ST,Clark,KY,40391,
118.0,AMBERFIELD CT,BOWLING GREEN,KY,42104,
5253.0,FINCHVILLE RD,Shelby,KY,40065,
4012.0,DUPONT CIR,ST MATTHEWS,KY,40207,204.0
9508.0,CHADBOURN CT,LOUISVILLE,KY,40223,
107.0,ALGIERS CT,LOUISVILLE,KY,40218,
9703.0,HEIDELBERG CT,LOUISVILLE,KY,40291,
3110.0,MELODY ACRES LN,LOUISVILLE,KY,40216,3.0
17.0,HEATHER LN,Clark,KY,40391,
10304.0,CARA CT,JEFFERSONTOWN,KY,40299,
116.0,QUIET WOOD CT,LOUISVILLE,KY,40229,
204.0,W TENNY AVE,LOUISVILLE,KY,40214,2.0
932.0,SUGARBERRY AV,BOWLING GREEN,KY,42104,
10803.0,SPARROW CIR,LOUISVILLE,KY,40118,103.0
1930.0,UPPER IRON BRIDGE RD,OAKLAND,KY,42159,
2157.0,KY HWY 151,Franklin,KY,40601,
9204.0,MATILDA CT,LOUISVILLE,KY,40229,
429.0,JAKE DR,RINEYVILLE,KY,40162,
214.0,RONDAL DR,BOWLING GREEN,KY,42104,
3108.0,RADIANCE RD,LOUISVILLE,KY,40220,
113.0,LEGACY CT,ELIZABETHTOWN,KY,42701,
8506.0,ATRIUM DR,JEFFERSONTOWN,KY,40220,202.0
313.0,LAKE FOREST PKY,LOUISVILLE,KY,40245,
9115.0,HUDSON LN,LOUISVILLE,KY,40291,
133.0,ARTHUR JACKSON RD,BEREA,KY,40403,
10507.0,TIMBERWOOD CIR,JEFFERSONTOWN,KY,40223,
530.0,BEECHER ST,LOUISVILLE,KY,40215,
490.0,REED LN,EASTVIEW,KY,42732,
4404.0,POSSIBILITY WAY,LOUISVILLE,KY,40245,
2516.0,HARMONY RD,JEFFERSONTOWN,KY,40299,
1609.0,ALBANY AVE,LOUISVILLE,KY,40216,
8900.0,TALON RIDGE DR,LOUISVILLE,KY,40229,
381.0,FARMINGTON AVE,LOUISVILLE,KY,40209,
449.0,MOUNT HOLLY AVE,LOUISVILLE,KY,40206,5.0
150.0,SUTTON PLACE BLVD,GEORGETOWN,KY,40324,
1002.0,BURNELL DR,BEREA,KY,40403,
130.0,KINGS DAUGHTERS DR,Franklin,KY,40601,100.0
6804.0,JOHN ADAMS WAY,LOUISVILLE,KY,40272,
6700.0,OLD ZARING RD,Oldham,KY,40014,
1200.0,CLAYSVILLE LANDING,ELIZABETHTOWN,KY,42701,
1027.0,MADISON  ST,Henderson,KY,42420-0000,
4022.0,MASSIE AVE,ST MATTHEWS,KY,40207,
6617.0,EL RANCHO RD,LOUISVILLE,KY,40291,
6802.0,TROPIC CT,LOUISVILLE,KY,40219,
6004.0,CATHEEN WAY,LOUISVILLE,KY,40213,
8321.0,CROPPER RD,Shelby,KY,40057,
108.0,CALUMET DR,LOUISVILLE,KY,40214,
5708.0,OLD HEADY RD,LOUISVILLE,KY,40299,
287.0,PARRENT LN,Shelby,KY,40022,
2209.0,MERCER DR,RICHMOND,KY,40475,
4031.0,HENDERSON AVE,LOUISVILLE,KY,40213,
6705.0,BRIARHILL RD,Oldham,KY,40014,
112.0,HANEY CT,GEORGETOWN,KY,40324,
12506.0,SAXONY PARK CIR,LOUISVILLE,KY,40299,303.0
471.0,N 29TH ST,LOUISVILLE,KY,40212,
2429.0,LAMBORNE BLVD,LOUISVILLE,KY,40272,
3213.0,BRITTANY POINTE LN,JEFFERSONTOWN,KY,40220,
142.0,ROSE LN,RICHMOND,KY,40475,
4400.0,KRANET WAY,LOUISVILLE,KY,40218,2.0
5758.0,OLD SCOTTSVILLE RD,ALVATON,KY,42122,
804.0,GRANITE DR,LYNDON,KY,40223,
110.0,DEERCREEK LN,ELIZABETHTOWN,KY,42701,
628.0,WATAGA DR,LOUISVILLE,KY,40206,
1019.0,ESQUIRE ALY,LOUISVILLE,KY,40203,
5506.0,BETH RD,LOUISVILLE,KY,40219,
155.0,MORGAN ST,RADCLIFF,KY,40160,2.0
10601.0,GARDEN CREEK PL,LOUISVILLE,KY,40223,
1001.0,KING ARTHUR LN,ST MATTHEWS,KY,40222,
113.0,SPRING ST,Franklin,KY,40601,
1802.0,ALFRESCO PL,LOUISVILLE,KY,40205,
593.0,CLOVER LN,ELIZABETHTOWN,KY,42701,
6719.0,ARBOR CREEK DR,LOUISVILLE,KY,40228,
200.0,PENDLETON LN,Franklin,KY,40601,
403.0,BOONE ST,BEREA,KY,40403,
1418.0,HASKIN AVE,LOUISVILLE,KY,40215,
13020.0,OBSERVATION CIR,MIDDLETOWN,KY,40243,204.0
104.0,HERITAGE DR,RICHMOND,KY,40475,
1034.0,W INDIAN TRL,LOUISVILLE,KY,40213,
103.0,LINCOLN CT,ELIZABETHTOWN,KY,42701,
6707.0,DOWNS BRANCH RD,HOLLOW CREEK,KY,40228,
424.0,W WALNUT ST,RICHMOND,KY,40475,
100.0,CRABAPPLE LN,Shelby,KY,40245,
183.0,LAKESHORE CIR,GEORGETOWN,KY,40324,
15.0,CHERRY TRAIL WAY,SONORA,KY,42776,
3718.0,NORBOURNE BLVD,ST MATTHEWS,KY,40207,
129.0,E SOUTHERN HEIGHTS AVE,LOUISVILLE,KY,40214,
10908.0,ALTSHELER PL,LOUISVILLE,KY,40229,
1261.0,OLIVER ST,BOWLING GREEN,KY,42101,
2021.0,IVYWOOD PL,LOUISVILLE,KY,40218,
102.0,PUFFIN CT,GEORGETOWN,KY,40324,
0.0,BROWNING RD,ROCKFIELD,KY,42274,
625.0,MARIAN  PT,Henderson,KY,42420-0000,
602.0,E BRECKINRIDGE ST,LOUISVILLE,KY,40203,
0.0,BRYANT WAY,BOWLING GREEN,KY,42103,
2713.0,POINTE CT,DELAND,KY,32720,
9707.0,NORTHRIDGE DR,LOUISVILLE,KY,40272,
2401.0,TAVENER DR,BANCROFT,KY,40242,
918.0,GLENRIDGE DR,LYNDON,KY,40242,
10714.0,JIMSON ST,LOUISVILLE,KY,40059,
12078.0,PARKVIEW TRACE DR,LOUISVILLE,KY,40229,
1405.0,S 28TH ST,LOUISVILLE,KY,40211,
1015.0,LEXINGTON RD,GEORGETOWN,KY,40324,
707.0,OXMOOR WOODS PKY,HURSTBOURNE,KY,40222,
825.0,LOTUS AVE,LOUISVILLE,KY,40213,
1540.0,PHILLIPS RD,SMITHS GROVE,KY,42171,
10170.0,BATTLEFIELD MEMORIAL HWY,BEREA,KY,40403,
12348.0,FOREST SCHOOL LN,ANCHORAGE,KY,40223,
350.0,VALLEY VIEW DR,RADCLIFF,KY,40160,
3708.0,CANOPUS CT,LOUISVILLE,KY,40219,
9314.0,FIESTA WAY,LOUISVILLE,KY,40272,
268.0,C G STEPHENSON DR,Clark,KY,40391,
10802.0,CHATFIELD CT,LOUISVILLE,KY,40299,
1784.0,PORTER RD,SADIEVILLE,KY,40370,
11003.0,WAYCROSS AVE,LOUISVILLE,KY,40229,
102.0,BAKER ST,BEREA,KY,40403,
309.0,ABBEYWOOD DR,Clark,KY,40391,
2310.0,CRITTENDEN DR,LOUISVILLE,KY,40217,101.0
826.0,CLARENCE ODELL RD,BOWLING GREEN,KY,42101,
8852.0,OLD US 60,Henderson,KY,42458-0000,
3809.0,CANE RUN RD,SHIVELY,KY,40211,
544.0,MORRIS RD,SADIEVILLE,KY,40370,
133.0,SYCAMORE DR,GEORGETOWN,KY,40324,
1038.0,EASTERN PKY,LOUISVILLE,KY,40217,
3000.0,ST ANTHONY GARDENS DR,LOUISVILLE,KY,40214,100.0
309.0,BRYANT BENSON RD,Franklin,KY,40601,
602.0,S 40TH ST,LOUISVILLE,KY,40211,1.0
2604.0,DRAYTON DR,LOUISVILLE,KY,40205,
2081.0,KENTUCKY RIVER RD,RICHMOND,KY,40475,
228.0,WILSHIRE WAY,RICHMOND,KY,40475,
4812.0,DIXIE HWY,LOUISVILLE,KY,40216,
1057.0,BARKER LN W,BEREA,KY,40403,
9504.0,HUDSON LN,LOUISVILLE,KY,40291,
4414.0,RIVER RD,GLENVIEW,KY,40222,
403.0,MONUMENT ST,FALMOUTH,KY,41040,
5314.0,ALPINE WAY,LOUISVILLE,KY,40214,
107.0,ST ANNS CT,RICHMOND,KY,40475,
101.0,FOREST HILL DR,Franklin,KY,40601,
224.0,JUNIPER DR,Franklin,KY,40601,
4201.0,SIMCOE LN,LOUISVILLE,KY,40241,122.0
7612.0,WESTPORT RD,GRAYMOOR/DEVONDALE,KY,40222,
2729.0,AVONDALE DR,BOWLING GREEN,KY,42104,
1356.0,S PRESTON ST,LOUISVILLE,KY,40208,1.0
2012.0,DOUGLASS BLVD,LOUISVILLE,KY,40205,3.0
6641.0,OLD HENDERSON SPOTTSVILLE  RD,Henderson,KY,42458-0000,
7735.0,UPTON OXMOOR LN,LOUISVILLE,KY,40222,106.0
6593.0,MILFORD RD,FALMOUTH,KY,41040,
6600.0,OLD ZARING RD,Oldham,KY,40014,
1608.0,KNOB SCHOOL HOUSE RD,SONORA,KY,42776,
120.0,N FORREST RD,RADCLIFF,KY,40160,
2311.0,DE MEL AVE,LOUISVILLE,KY,40214,
110.0,LEIMAUR DR,RICHMOND,KY,40475,
9700.0,WATTERSON TRL,JEFFERSONTOWN,KY,40299,
1112.0,WINDSONG WAY,WINDY HILLS,KY,40207,
931.0,S CLAY ST,LOUISVILLE,KY,40203,
225.0,CRESCENT HILL PL,LOUISVILLE,KY,40206,202.0
8200.0,HORIZON LN,LOUISVILLE,KY,40219,
139.0,JACKSON DR,Franklin,KY,40601,
7807.0,DAFFODIL DR,LOUISVILLE,KY,40258,
3910.0,MT OLIVET RD,BOWLING GREEN,KY,42101,
829.0,MELFORD AVE,PARKWAY VILLAGE,KY,40217,
415.0,REGENCY CT,ST MATTHEWS,KY,40207,6.0
206.0,OLD MILL RD,GEORGETOWN,KY,40324,
588.0,CLOVER LN,ELIZABETHTOWN,KY,42701,
3516.0,HENRY AVE,LOUISVILLE,KY,40215,
722.0,E CHESTNUT ST,LOUISVILLE,KY,40202,
3904.0,PEMBROKE RD,LOUISVILLE,KY,40220,
5101.0,SOUTHSIDE DR,LOUISVILLE,KY,40214,4.0
1171.0,WINTERCRESS LN,BOWLING GREEN,KY,42104,
2806.0,LIME KILN LN,LOUISVILLE,KY,40222,
102.0,CLEARWATER CT,GEORGETOWN,KY,40324,
1349.0,OLIVE ST,LOUISVILLE,KY,40211,2.0
703.0,BURTON AVE,LOUISVILLE,KY,40208,
7727.0,HOGANS RUN,LOUISVILLE,KY,40228,
2208.0,DUNCAN ST,LOUISVILLE,KY,40212,
8803.0,PERRY RD,LYNDON,KY,40222,
6509.0,WATCH HILL RD,HOLLOW CREEK,KY,40228,
104.0,GALEHOUSE RD,GEORGETOWN,KY,40324,
11000.0,SHADY HOLLOW DR,LOUISVILLE,KY,40241,
135.0,ALYCIA DR,RICHMOND,KY,40475,
113.0,ROBINBROOKE BLVD,ELIZABETHTOWN,KY,42701,
2315.0,GLENMARY AVE,LOUISVILLE,KY,40204,
1519.0,W ORMSBY AVE,LOUISVILLE,KY,40210,
6008.0,COLE AVE,LOUISVILLE,KY,40258,
294.0,GRAND HILL PL,ELIZABETHTOWN,KY,42701,
8905.0,FERNDALE RD,LOUISVILLE,KY,40291,
5300.0,WARWICKSHIRE DR,LOUISVILLE,KY,40213,101.0
401.0,S CLAY ST,LOUISVILLE,KY,40202,
1187.0,ROGERS GAP RD,GEORGETOWN,KY,40324,
700.0,S 44TH ST,LOUISVILLE,KY,40211,301.0
9204.0,FAIRRIDGE DR,LOUISVILLE,KY,40229,
12112.0,BELMONT PARK CIR,MIDDLETOWN,KY,40243,
739.0,THRELKEL FERRY RD,BOWLING GREEN,KY,42101,
137.0,TRESLYN WAY,LOUISVILLE,KY,40245,
425.0,W ORMSBY AVE,LOUISVILLE,KY,40203,710.0
912.0,JONES DR,LOUISVILLE,KY,40214,
5402.0,SHEPHERDSVILLE RD,LOUISVILLE,KY,40228,
202.0,CONCORD CT,ELIZABETHTOWN,KY,42701,
4506.0,RENAISSANCE DR,JEFFERSONTOWN,KY,40299,
121.0,N 17TH ST,LOUISVILLE,KY,40203,
126.0,QUILL ST,LOUISVILLE,KY,40206,
135.0,SOUTH ST,BUTLER,KY,41006,
2514.0,HERMITAGE WAY,PLANTATION,KY,40242,
1016.0,ST PAUL CT,LOUISVILLE,KY,40203,3.0
3804.0,RIMONTE DR,LOUISVILLE,KY,40220,
10307.0,PARKSTONE DR,LOUISVILLE,KY,40241,
4808.0,TRACKERS WAY,LOUISVILLE,KY,40216,
2027.0,S WILSON RD,RADCLIFF,KY,40160,
5514.0,HALSTEAD AVE,LOUISVILLE,KY,40213,
9617.0,COMBS LN,LOUISVILLE,KY,40258,
7410.0,SPRING RUN DR,LOUISVILLE,KY,40291,
3030.0,LEDGEBROOK CT,LOUISVILLE,KY,40241,
7202.0,JONES TRCE,Oldham,KY,40014,
10406.0,PERWINKLE CT,LOUISVILLE,KY,40291,
4247.0,ALLMOND AVE,LOUISVILLE,KY,40209,
308.0,BIRCH DR,Franklin,KY,40601,
731.0,CECIL AVE,LOUISVILLE,KY,40211,
5301.0,MILNER RD,LOUISVILLE,KY,40216,3.0
1237.0,MILTON ST,LOUISVILLE,KY,40217,
410.0,FOUNTAIN CT,LOUISVILLE,KY,40208,3.0
2106.0,GLENWORTH AVE,LOUISVILLE,KY,40218,
4117.0,S 3RD ST,LOUISVILLE,KY,40214,
4300.0,LEBANON RD,Franklin,KY,40601,
205.0,LOCKER ST,BEREA,KY,40403,
229.0,AMARYLLIS DR,RICHMOND,KY,40475,
185.0,HOMESTEAD AVE,RADCLIFF,KY,40160,
312.0,HARDIN ST,ELIZABETHTOWN,KY,42701,
1148.0,S 6TH ST,LOUISVILLE,KY,40203,
255.0,SYLVIA WAY,BOWLING GREEN,KY,42104,
1430.0,TALLWOOD CT,BOWLING GREEN,KY,42103,
13638.0,PINNACLE GARDENS CIR,LOUISVILLE,KY,40245,
730.0,LOGAN LICK RD,Clark,KY,40391,
125.0,RALEIGH DR,ELIZABETHTOWN,KY,42701,
706.0,CABELL DR,BOWLING GREEN,KY,42103,
143.0,HIGHLAND AV,LOUISVILLE,KY,40245,
1030.0,QUEEN AVE,LOUISVILLE,KY,40215,
5589.0,OWENTON RD,STAMPING GROUND,KY,40379,
104.0,JUNIPER DR,Franklin,KY,40601,
12982.0,E ORELL RD,LOUISVILLE,KY,40272,
7200.0,NATIONAL TPKE,LOUISVILLE,KY,40214,216.0
1451.0,S 23RD ST,LOUISVILLE,KY,40210,
1730.0,MORRIS RD,Clark,KY,40391,
27.0,CLARK  ST,Henderson,KY,42420-0000,
2422.0,FARNSLEY RD,SHIVELY,KY,40216,
1103.0,CROSSINGS COVE CT,LOUISVILLE,KY,40245,
5328.0,RUSSETT BLVD,LOUISVILLE,KY,40218,1.0
2101.0,TOP HILL RD,LOUISVILLE,KY,40118,
8136.0,LYNDON PARK LN,LYNDON,KY,40222,
4811.0,BROOKLEY CT,LOUISVILLE,KY,40229,
3515.0,W KENTUCKY ST,LOUISVILLE,KY,40211,13.0
6224.0,MOORHAVEN DR,LOUISVILLE,KY,40228,
4010.0,OLD OUTER LOOP,LOUISVILLE,KY,40219,2.0
113.0,THOMPSON  ST,Henderson,KY,42420-0000,
2003.0,BUTTON LN,Oldham,KY,40031,
302.0,LAKESHORE CIR,GEORGETOWN,KY,40324,
6909.0,BRIARHILL RD,Oldham,KY,40014,
708.0,ARBOR  DR,Henderson,KY,42420,
11219.0,RIVER BEAUTY LOOP,LOUISVILLE,KY,40059,212.0
619.0,BARRET AVE,LOUISVILLE,KY,40204,
2059.0,NOLIN RD,SONORA,KY,42776,
5809.0,MONTFORT LN,Oldham,KY,40014,
4403.0,BELRAD DR,LOUISVILLE,KY,40218,1.0
7717.0,CARNATION DR,LOUISVILLE,KY,40258,
575.0,LUKE RD,SADIEVILLE,KY,40370,
9509.0,FEATHERBELL BLVD,LOUISVILLE,KY,40059,
2575.0,BARDSTOWN RD,ELIZABETHTOWN,KY,42701,
1080.0,AMPHITHEATER RD,LOUISVILLE,KY,40214,
295.0,FRANCIS LN,Clark,KY,40353,
205.0,W SOUTHERN HEIGHTS AVE,LOUISVILLE,KY,40214,
1550.0,BROOKWOOD DR,BOWLING GREEN,KY,42101,
8913.0,COLLINGWOOD RD,JEFFERSONTOWN,KY,40299,
1055.0,PRETTY RUN RD,Clark,KY,40391,
9011.0,HURSTWOOD CT,HURSTBOURNE,KY,40222,
150.0,WYSTERIA LN,GEORGETOWN,KY,40324,
2503.0,RAVEN LN,Oldham,KY,40031,
7001.0,BRONNER CIR,LOUISVILLE,KY,40218,1.0
1296.0,CONSERVATORY LN,DOUGLASS HILLS,KY,40223,
3428.0,OLIVE RD,LOUISVILLE,KY,40219,
7705.0,VAUGHN MILL RD,LOUISVILLE,KY,40228,
2203.0,GRANGER RD,LOUISVILLE,KY,40118,
2207.0,EDGEHILL RD,LOUISVILLE,KY,40205,
1437.0,SATURN WAY,BOWLING GREEN,KY,42104,
859.0,E   MAIN ST,Franklin,KY,40601,
706.0,LEAWOOD DR,Franklin,KY,40601,
2021.0,E MOUNT ZION RD,Oldham,KY,40014,
1404.0,KENTUCKY DR,ELIZABETHTOWN,KY,42701,
400.0,RESERVES CT,Shelby,KY,40067,
1239.0,GRIDER POND RD,BOWLING GREEN,KY,42104,
245.0,LEAH WAY,RADCLIFF,KY,40160,
8304.0,SWANCREST CT,LYNDON,KY,40222,3.0
4118.0,BOLLING BROOK DR,LOUISVILLE,KY,40299,
813.0,MCCULLUM AVE,ELIZABETHTOWN,KY,42701,
4201.0,TRIO AVE,LOUISVILLE,KY,40219,2.0
5422.0,RUSTIC WAY,LOUISVILLE,KY,40218,
101.0,BLUE CREEK CT,LOUISVILLE,KY,40229,
3905.0,FAIRFIELD MEADOWS DR,LOUISVILLE,KY,40245,
3036.0,WEDGEWOOD WAY,LOUISVILLE,KY,40220,
10418.0,SHELBYVILLE RD,BLUE RIDGE MANOR,KY,40223,
67.0,HOLIDAY RD,Clark,KY,40391,
540.0,SOUTH FORK DR,BEREA,KY,40403,
210.0,AQUEDUCT DR,RICHMOND,KY,40475,
5239.0,GLASGOW RD,OAKLAND,KY,42159,
6128.0,SUMMER CREEK DR,LOUISVILLE,KY,40272,
108.0,HARTWELL CT,LOUISVILLE,KY,40214,1.0
10709.0,GRAFTON HALL RD,LOUISVILLE,KY,40272,
2617.0,OLD HICKORY RD,JEFFERSONTOWN,KY,40299,
113.0,AMIENS BLVD,Clark,KY,40391,
4214.0,STILGER CIR,LOUISVILLE,KY,40299,
3019.0,MCMAHAN BLVD,LOUISVILLE,KY,40220,
3819.0,WASHINGTON SQ,ST MATTHEWS,KY,40207,
296.0,N RONDA AV,FALMOUTH,KY,41040,
4218.0,FOREMAN LN,LOUISVILLE,KY,40219,5.0
1621.0,LYMAN JOHNSON DR,LOUISVILLE,KY,40211,
5204.0,HEATHER HILL RD,Oldham,KY,40031,
138.0,CASTLEWOOD DR,RICHMOND,KY,40475,
5111.0,MCGREGOR DR,Oldham,KY,40031,
7017.0,CHARISMATIC CT,RICHMOND,KY,40475,
3507.0,PARAGON CT,LOUISVILLE,KY,40218,15.0
6712.0,GUNPOWDER LN,PROSPECT,KY,40059,
510.0,TALBOT BLVD,Oldham,KY,40031,
2306.0,DEVERON DR,SHIVELY,KY,40216,
4020.0,GARLAND AVE,LOUISVILLE,KY,40211,
5517.0,HWY 330 W,FALMOUTH,KY,41040,
8919.0,WIMSATT WAY,LOUISVILLE,KY,40291,
505.0,DAKOTA ST,LOUISVILLE,KY,40209,
10700.0,BLACK WALNUT BLVD,LOUISVILLE,KY,40229,
323.0,FRONTIER WAY,Clark,KY,40391,
1442.0,AVOCA RIDGE DR,LOUISVILLE,KY,40223,202.0
132.0,N BIRCHWOOD AVE,LOUISVILLE,KY,40206,
9619.0,COIN RD,LOUISVILLE,KY,40291,
