NUMBER,STREET,CITY,STATE,POSTCODE,UNIT
204.0,PRINCETON WOODS LOOP,LAFAYETTE,LA,70508,
723.0,HWY 852,RAYVILLE,LA,71269,
123.0,SHADYCREST AVE,LAFAYETTE,LA,70501,
103.0,HELLIER ST,HOUMA,LA,70363,
3427.0,WAINWRIGHT ST,Rapides,LA,0,
5064.0,RANDOLPH ST,Jefferson Parish,LA,70072,
2900.0,LEXINGTON DR,Jefferson Parish,LA,70002,
,STREET D,ST FRANCISVILLE,LA,70775,
4265.0,MOHICAN-PRESCOTT XOVR,BATON ROUGE,LA,70805,
4518.0,CALUMET ST,Jefferson Parish,LA,70001,
2360.0,N Central Av,Lutcher,LA,70071,
14514.0,CLUB DELUXE ROAD,Hammond,LA,70403,
16655.0,CENTURION AVE,BATON ROUGE,LA,70816,
132.0,BEAUCHAMP LN,LAFAYETTE,LA,70506,
1839.0,CARTER AVE,BATON ROUGE,LA,70806,
101.0,GLOUCHESTER RD,LAFAYETTE,LA,70503,
6373.0,Celestan St,St. James,LA,70086,
114.0,AL ST,Alexandria,LA,71360,
112.0,CALADIUM CT,LAFAYETTE,LA,70508,
1335.0,EAST ST,MINDEN,LA,71055,
63.0,CRAWFORD RD,RAYVILLE,LA,71269,
14315.0,Lake Path Dr,Prairieville,LA,70769,
226.0,WASHINGTON ST ST,St Martin,LA,70517,
8845.0,HICKCOCK DR,BATON ROUGE,LA,70811,
445.0,MILLER BRIARWOOD RD,SIBLEY,LA,71073,
100.0,ANSLEM DR,YOUNGSVILLE,LA,70592,
430.0,S  Burnside Ave,Gonzales,LA,70737,
14836.0,GENERAL PRENTISS AVE,BATON ROUGE,LA,70816,
116.0,LAKERIDGE DR,Rapides,LA,0,
224.0,WEATHERFORD DR,SCHRIEVER,LA,70395,
2024.0,THORNTON CT,Alexandria,LA,0,
0.0,NO ADDRESS AVAILABLE,Tickfaw,LA,70466,
1025.0,GAUDET DR,Jefferson Parish,LA,70072,
4005.0,WINDSONG DR,BATON ROUGE,LA,70816,
0.0,CATAHOULA HWY HWY,St Martin,LA,70582,
,BURTON PLANTATION HWY HWY,St Martin,LA,70582,
5003.0,BLUEBIRD LN,Alexandria,LA,71303,
5801.0,S OAK DR,Jefferson Parish,LA,70072,
915.0,GOLDIE DR DR,St Martin,LA,70517,
223.0,S 21ST ST,BATON ROUGE,LA,70806,
102.0,CHEVALLIER RD,Alexandria,LA,71328,
4768.0,BRADLEY ST,BATON ROUGE,LA,70805,
11853.0,STE A BRICKSOME AVE,BATON ROUGE,LA,70816,
5886.0,COMMERCE ST,ST FRANCISVILLE,LA,70775,
1123.0,WESTCHESTER DR,BATON ROUGE,LA,70810,
12736.0,ERIN AVE,BATON ROUGE,LA,70814,
43083.0,Weber City Rd,Gonzales,LA,70737,23.0
497.0,WEST RAILROAD AVENUE,Independence,LA,70443,
9405.0,SARA CT,Jefferson Parish,LA,70123,
100.0,OLD HERITAGE LN,LAF PARISH,LA,70520,
5817.0,SEGNETTE DR,Jefferson Parish,LA,70072,
408.0,BIG LAKE RD,Alexandria,LA,71360,
3317.0,CASTLE DR,Jefferson Parish,LA,70065,
9984.0,BYRNES RD,ST FRANCISVILLE,LA,70775,
5323.0,MOSS SIDE LN,BATON ROUGE,LA,70808,
44326.0,SIMPSON PLACE,Hammond,LA,70403,
714.0,OAK ST,ST ROSE,LA,70087,
3004.0,JACKSON ST,Rapides,LA,0,
117.0,PAUL DR,HOUMA,LA,70363,
3134.0,AUGUSTA AVE,Jefferson Parish,LA,70065,
248.0,PAUL BREAUX AVE,LAFAYETTE,LA,70501,
1319.0,DONAHUE FERRY RD,Rapides,LA,71360,
7546.0,PROXIE DR,BATON ROUGE,LA,70817,
2605.0,THOMAS H DELPIT DR,BATON ROUGE,LA,70802,
802.0,PARK AVE AVE,St Martin,LA,70517,
115.0,YOUNG CT,EDGARD,LA,70049,
1579.0,DOCTOR BEATROUS RD,THERIOT,LA,70397,
27.0,GUNTER EGG FARM RD,Rapides,LA,0,
521.0,MICHAEL ST,Jefferson Parish,LA,70072,
313.0,N ATLANTA ST,Jefferson Parish,LA,70003,
179.0,E  Vesta Dr,Gonzales,LA,70737,
45336.0,GEORGE DRIVE,Hammond,LA,70401,
9554.0,Hwy 22,St Amant,LA,70774,
1307.0,JULIA ST,RAYVILLE,LA,71269,
44002.0,SWEET WILLIAM DRIVE,Hammond,LA,70403,
18818.0,Fabacher Rd,Prairieville,LA,70769,
9244.0,ROSE PL,BATON ROUGE,LA,70809,
600.0,HOLMES BLVD,Jefferson Parish,LA,70056,
429.0,ORANGE LP,LAPLACE,LA,70068,
812.0,LEGION ST,Jefferson Parish,LA,70056,
4815.0,BOOTHVILLE RD,DOYLINE,LA,71023,
1432.0,YORKTOWNE DR,LAPLACE,LA,70068,
3911.0,JEFFERSON ST,BAKER,LA,70714,
42539.0,Baystone Ave,Prairieville,LA,70769,
14209.0,HWY 90,BOUTTE,LA,70039,
7681.0,HIGHWAY 56,CHAUVIN,LA,70344,
,UND WELLS ST,BATON ROUGE,LA,70808,
2667.0,CREEK HOLLOW AVE,ZACHARY,LA,70791,
0.0,NORTH SIXTH STREET,Ponchatoula,LA,70454,
14107.0,Harry Savoy Rd,St Amant,LA,70774,
4075.0,N BLUEBONNET RD,BATON ROUGE,LA,70809,
214.0,LYLES ST,HOUMA,LA,70363,
194.0,RAVAN AVE,Jefferson Parish,LA,70123,
1027.0,HWY 113,Alexandria,LA,0,
413.0,MOSS ST,LAFAYETTE,LA,70501,
53.0,SHEARWATER DR,LAPLACE,LA,70068,
,RIVER RD,Jefferson Parish,LA,70094,
208.0,MARY ST,GRAY,LA,70359,
678.0,SCOTT STREET,CASTOR,LA,71016,
834.0,DANDELION DR,Jefferson Parish,LA,70094,
189.0,CENTRAL AV,EDGARD,LA,70049,
712.0,TEXAS AVE,Alexandria,LA,0,
165.0,CROCKER BAILEY RD,Rapides,LA,71430,
9712.0,WILLOW CREEK DR,GREENWELL SPRINGS,LA,70739,
843.0,BARBE ST,Jefferson Parish,LA,70094,
3408.0,E PARC GREEN ST,Jefferson Parish,LA,70058,
103.0,CHARLOTTE ST,GRAY,LA,70359,
2024.0,CHERRYDALE AVE,BATON ROUGE,LA,70808,
308.0,27TH ST,Jefferson Parish,LA,70062,
,S CAUSEWAY BLVD,Jefferson Parish,LA,70121,
49.0,SCHILL AVE,Jefferson Parish,LA,70065,
106.0,ARISTOTLE DR,LAF PARISH,LA,70508,
2744.0,CHIPPEWA ST,BATON ROUGE,LA,70805,
44506.0,WARDLINE ROAD,Hammond,LA,70401,
12179.0,River Walk,Geismar,LA,70734,
2755.0,WEST MAIN ST,GRAY,LA,70359,
501.0,S FASHION BLVD,HAHNVILLE,LA,70057,
825.0,N 25TH ST,BATON ROUGE,LA,70802,
1604.0,HWY 134,RAYVILLE,LA,71269,
12954.0,CANTERBURY DR,BATON ROUGE,LA,70814,
4700.0,LAKE BORGNE AVE,Jefferson Parish,LA,70006,
18410.0,SOUTH BROOKFIELD DRIVE,Ponchatoula,LA,70454,
3708.0,BAKER DR,HOUMA,LA,70363,
43378.0,RAMBO ROAD,Ponchatoula,LA,70454,
5425.0,TULIP CT,Jefferson Parish,LA,70072,
124.0,GLEN ELLEN DR,Alexandria,LA,0,
828.0,PARK RIDGE DR,Jefferson Parish,LA,70123,
111.0,ACOMB DR,LAF PARISH,LA,70508,
1085.0,JULES BROUSSARD RD RD,St Martin,LA,70517,
304.0,ASHLEY AV,RAYVILLE,LA,71269,29.0
316.0,RUSSELL ST,RAYVILLE,LA,71269,
2900.0,SOUTH MACARTHUR DR,Alexandria,LA,0,
5528.0,SHRIMPERS ROW,HOUMA,LA,70363,
1107.0,POTATO SHED RD RD,St Martin,LA,70517,
1207.0,MARYLAND ST,Rapides,LA,0,
416.0,Charles St,Donaldsonville,LA,70346,
108.0,WEST B ST,NORCO,LA,70079,
1301.0,W WILLOW ST,LAFAYETTE,LA,70506,103.0
219.0,JA DON DR,HOUMA,LA,70363,
11046.0,TUTTLE ROAD,Hammond,LA,70403,
3652.0,W LOYOLA DR,Jefferson Parish,LA,70065,
11081.0,Buxton Rd,St Amant,LA,70774,
3239.0,Leno Dr,Vacherie,LA,70090,
129.0,EDNA ST,LAFAYETTE,LA,70501,
150.0,SHADY ARBORS CIR,HOUMA,LA,70360,
4725.0,LAPLACE ST,Jefferson Parish,LA,70006,
44.0,MASON ST,Jefferson Parish,LA,70053,
1627.0,LAKE AVE,Jefferson Parish,LA,70005,
8000.0,INNOVATION PARK DR,BATON ROUGE,LA,70820,
10062.0,HIGH PINES DR,BATON ROUGE,LA,70809,
10414.0,SPRINGLAKE CIR E,BATON ROUGE,LA,70810,
1881.0,PROGRESS RD,BATON ROUGE,LA,70807,
40411.0,Albert Ave,Prairieville,LA,70769,
14249.0,WOODLANDS DRIVE,Hammond,LA,70401,
174.0,BAILEY ST,Jefferson Parish,LA,70123,
1344.0,SALT MINE RD RD,St Martin,LA,70517,
2602.0,RIVER LN,Jefferson Parish,LA,70058,
615.0,4TH ST,Jefferson Parish,LA,70053,
0.0,NO ADDRESS AVAILABLE,Kentwood,LA,70444,
10805.0,N LAKE ROSEMOUND RD,ST FRANCISVILLE,LA,70775,
12.0,AZALEA TERRACE LN,MINDEN,LA,71055,
10900.0,KINGFISHER AVE,BATON ROUGE,LA,70807,
1611.0,GUILLIOT RD,LAF PARISH,LA,70592,
,UND BAYOU DR,BATON ROUGE,LA,70817,
12340.0,FAIRLANE RD,ST FRANCISVILLE,LA,70775,
5.0,FLORIDA ST,VIDALIA,LA,71373,
10825.0,CHICKASAW AVE,GREENWELL SPRINGS,LA,70739,
2202.0,N VILLAGE GREEN ST,Jefferson Parish,LA,70058,
115.0,JAMES ST,LAFAYETTE,LA,70506,
8280.0,YMCA PLAZA DR,BATON ROUGE,LA,70810,
10750.0,DAWNCREST DR,BATON ROUGE,LA,70811,
33.0,COLONY RD,Alexandria,LA,71433,
254.0,BLANCHARD ST ST,St Martin,LA,70517,
403.0,DOUGLAS ST,Alexandria,LA,71301,
605.0,JEFFERSON PARK AVE,Jefferson Parish,LA,70121,
4713.0,NORTH BOLTON AVE,Rapides,LA,71301,
211.0,MAPLEWOOD DR,HOUMA,LA,70364,
10621.0,N OAK HILLS PKWY,BATON ROUGE,LA,70810,
3113.0,PRIMWOOD DR,Jefferson Parish,LA,70058,
4240.0,DISTRICT ST,ZACHARY,LA,70791,
40249.0,Cotton Field Ave,Gonzales,LA,70737,
3809.0,CHARRY DR,BAKER,LA,70714,
6251.0,WRIGHT DR,BATON ROUGE,LA,70812,
1328.0,HICKORY AVE,Jefferson Parish,LA,70123,
11130.0,R and V Way,St Amant,LA,70774,
1804.0,SHIRLEY AVE,Alexandria,LA,0,
3636.0,MONROE HWY,Alexandria,LA,71360,
6624.0,GOVERNMENT ST,BATON ROUGE,LA,70806,
3805.0,GREENBRIAR LN,Jefferson Parish,LA,70058,
17526.0,ROBLE AVE,GREENWELL SPRINGS,LA,70739,
706.0,BREAUX RD,CARENCRO,LA,70520,
5008.0,DUELING OAKS AVE,Jefferson Parish,LA,70072,
111.0,MARIA LN,Rapides,LA,0,
370.0,MARION DR,BATON ROUGE,LA,70806,
5811.0,CREEK CENTRE DR,BATON ROUGE,LA,70820,
5010.0,EDDIE WILLIAMS ST,Alexandria,LA,0,
,UND HIGHLAND RD,BATON ROUGE,LA,70808,
1604.0,CARTHAGE DR,Jefferson Parish,LA,70072,
20223.0,BUCK HORN DR,ZACHARY,LA,70791,
39094.0,Bayou View Ave,Gonzales,LA,70737,
6211.0,D'JUANNA DR,BATON ROUGE,LA,70811,
502.0,EAST YEAGER DR,Rapides,LA,71405,
4729.0,LAPLACE ST,Jefferson Parish,LA,70006,
17237.0,AIRLINE DR,MONTZ,LA,70068,
6855.0,OAKSIDE DR,BATON ROUGE,LA,70812,
5644.0,LINDEN ST,BATON ROUGE,LA,70805,
1100.0,N ATLANTA ST,Jefferson Parish,LA,70003,
121.0,HARVEST POINTE CIR,SCOTT,LA,70506,
1904.0,RIVIERE AVE,Jefferson Parish,LA,70003,
646.0,URBANDALE ST,Jefferson Parish,LA,70072,
1459.0,CHOCTAW AVE,Jefferson Parish,LA,70005,
101.0,HOBSON ST,LAFAYETTE,LA,70501,
4315.0,FORREST LEBLANC RD,LAF PARISH,LA,70592,
17323.0,EMPRESS DR,GREENWELL SPRINGS,LA,70739,
203.0,DARLENE ST,HOUMA,LA,70364,
2967.0,CARMEN DR,BATON ROUGE,LA,70809,
2230.0,Hwy 20,Vacherie,LA,70090,
5612.0,4TH ST,Jefferson Parish,LA,70072,
40360.0,Crestridge Dr,Gonzales,LA,70737,
3505.0,PRESCOTT RD,Alexandria,LA,0,
15476.0,EAST HOFFMAN ROAD,Ponchatoula,LA,70454,
159.0,WESTMORELAND DR,BATON ROUGE,LA,70806,
516.0,MOBILE ESTATES DR,GRAY,LA,70359,
8708.0,DUNN ST,Jefferson Parish,LA,70003,
210.0,FAIRMONT DR,HOUMA,LA,70360,
887.0,BEE BAYOU RD,RAYVILLE,LA,71269,
18192.0,Swamp Rd,Prairieville,LA,70769,
14277.0,SAMPERE LANE,Tickfaw,LA,70466,
8123.0,VERSAILLES ST,Jefferson Parish,LA,70003,
9221.0,PAULA LN,Jefferson Parish,LA,70094,
1638.0,BROCADE DR,BATON ROUGE,LA,70815,
11890.0,BOYLAN AVE,BATON ROUGE,LA,70809,
405.0,E BROUSSARD RD,LAF PARISH,LA,70503,
16115.0,CHEVERNT AVE,GREENWELL SPRINGS,LA,70739,
1708.0,FOX CROFT BLVD,BATON ROUGE,LA,70815,
3747.0,AMBASSADOR CAFFERY PKWY,LAFAYETTE,LA,70503,
208.0,WOODHAVEN RD,YOUNGSVILLE,LA,70592,
1013.0,HOUMA ST,HOUMA,LA,70360,
513.0,PENICK ST,Alexandria,LA,0,
335.0,W 13TH ST,WALLACE,LA,70049,
11115.0,HIGHWAY 1063,Independence,LA,70443,
721.0,LAKE LONG DR,HOUMA,LA,70364,
7614.0,MAIN ST,HOUMA,LA,70360,
719.0,S S MARTIN LUTHER KING DR DR,St Martin,LA,70582,
12065.0,FAIRVIEW DRIVE,Hammond,LA,70403,
535.0,MARY NICHOLS RD,COUSHATTA,LA,71019,
6431.0,MIL MAR BLVD,Alexandria,LA,0,
11485.0,HWY 112,Alexandria,LA, ,
0.0,ROBIN STREET,Amite,LA,70422,
204.0,DUCK CIR,SAREPTA,LA,71071,
920.0,WINDERMERE BLVD,Rapides,LA,0,
63.0,GRETNA BLVD,Jefferson Parish,LA,70053,
1521.0,GAYOSA ST,BATON ROUGE,LA,70802,
6320.0,COLISEUM BLVD,Rapides,LA,71301,
1302.0,WILLOW GLEN RIVER RD,Alexandria,LA,0,
15330.0,TREASURER AVE,BATON ROUGE,LA,70817,
12116.0,BANOFAX AVE,BATON ROUGE,LA,70814,
268.0,OAK POINT DR,LAPLACE,LA,70068,
2217.0,Canal St,Paulina,LA,70763,
4006.0,HARDING ST,BAKER,LA,70714,
871.0,O'NEAL LN,BATON ROUGE,LA,70816,
294.0,WRIGHT AVE,Jefferson Parish,LA,70056,
8595.0,OAKLEY DR,ZACHARY,LA,70791,
1225.0,HESPER AVE,Jefferson Parish,LA,70005,
1003.0,WENDY DR DR,St Martin,LA,70582,
1818.0,ANDREWS ST,Alexandria,LA,71301,
1108.0,DULLES DR,LAFAYETTE,LA,70506,
432.0,FONTAINEBLEAU DR,BATON ROUGE,LA,70819,
6953.0,HWY 71,COUSHATTA,LA,71019,
544.0,BAYOU TORTUE RD,LAF PARISH,LA,70518,
11918.0,STE C BRICKSOME AVE,BATON ROUGE,LA,70816,
0.0,AUDUBON LAKES BLVD,Robert,LA,70455,
20.0,NOUVEAU LN W,Jefferson Parish,LA,70003,
10826.0,GATEWOOD DR,BATON ROUGE,LA,70810,
12023.0,N OAK HILLS PKWY,BATON ROUGE,LA,70810,
900.0,VETERANS DR,Alexandria,LA, ,
14225.0,HUNTLEY AVE,CENTRAL,LA,70818,
1049.0,BERT ST,LAPLACE,LA,70068,
1217.0,N BENGAL RD,Jefferson Parish,LA,70003,
3036.0,SORBONNE DR,Jefferson Parish,LA,70072,
14037.0,TRICOU BOULEVARD,Hammond,LA,70403,
803.0,NELLIE ST,Rapides,LA,0,
9912.0,HWY 28 W,Rapides,LA,0,
1023.0,NOLAN St,Donaldsonville,LA,70346,
219.0,GUNTER RD,Alexandria,LA,0,
125.0,CHANNING CIR,LAF PARISH,LA,70506,
10727.0,BIRD SONG DR,BATON ROUGE,LA,70810,
302.0,CROFT ROW,LAFAYETTE,LA,70503,
505.0,MERMENTAU RD,LAF PARISH,LA,70592,
2455.0,ALMA ST,Rapides,LA,71301,
108.0,AURORA DR,Alexandria,LA,71360,
3413.0,LEMON ST,Jefferson Parish,LA,70006,
3657.0,WARREN DR,BATON ROUGE,LA,70814,
4310.0,WIMBISH DR,BAKER,LA,70714,
633.0,HALL ST,HOUMA,LA,70360,
2824.0,MYRTLE AVE,BATON ROUGE,LA,70806,
7508.0,6TH ST,Jefferson Parish,LA,70072,
65.0,MASON ST,Jefferson Parish,LA,70053,
13857.0,REED AVE,CENTRAL,LA,70818,
0.0,NO ADDRESS AVAILABLE,Amite,LA,70422,
1852.0,BONNIE ANN DR,Jefferson Parish,LA,70072,
4312.0,W NAPOLEON AVE S,Jefferson Parish,LA,70001,
1900.0,JULIE ST,Jefferson Parish,LA,70072,
3024.0,SHERWOOD ST,BATON ROUGE,LA,70805,
7808.0,BLAKE DR,BATON ROUGE,LA,70817,
16136.0,OLD HAMMOND HWY,BATON ROUGE,LA,70816,
14522.0,W BEAVER DR,PRIDE,LA,70770,
7002.0,MAGNOLIA CT,Jefferson Parish,LA,70003,
,UND ZACHARY-SLAUGHTER HWY,ZACHARY,LA,70791,
120.0,KINFOLKS HILL RD,Rapides,LA,0,
2153.0,HILL ST,Rapides,LA,0,
1883.0,STONEGATE CT,BATON ROUGE,LA,70815,
205.0,REES ST ST,St Martin,LA,70517,
315.0,FULTON ST,MINDEN,LA,71055,
1484.0,BAYOU DULARGE RD,THERIOT,LA,70397,
2336.0,HILLSDALE DR,BATON ROUGE,LA,70808,
0.0,NO ADDRESS AVAILABLE,Hammond,LA,70401,
6106.0,BAYOU CROSSING DR,Alexandria,LA,71301,
209.0,TWIN MEADOW LN,LAFAYETTE,LA,70508,
1107.0,FAIRWAY DR,Jefferson Parish,LA,70062,
17325.0,DEER LAKE AVE,BATON ROUGE,LA,70816,
37349.0,Ski Side Ave,Prairieville,LA,70769,
1208.0,APPLEWHITE ST,Rapides,LA,71301,
1036.0,TRANQUILITY DR,Rapides,LA,71360,
18723.0,W PINEY POINT AVE,BATON ROUGE,LA,70817,
3617.0,MISSION DR,BATON ROUGE,LA,70805,
612.0,PLANTATION RIDGE DR,BATON ROUGE,LA,70810,
174.0,LLOYD ST,SCOTT,LA,70506,
141.0,DENNY RD,Alexandria,LA,71328,
224.0,E Airline Hwy,Gramercy,LA,70052,
310.0,BROOKSIDE DR,LAFAYETTE,LA,70506,
4641.0,ARGONNE ST,Jefferson Parish,LA,70001,
3265.0,WELLER AVE,BATON ROUGE,LA,70805,
3712.0,45TH ST,Jefferson Parish,LA,70001,
33.0,HODGES RD,Rapides,LA,0,
9375.0,WOODBINE DR,BATON ROUGE,LA,70815,
8070.0,Main St,Sorrento,LA,70778,
100.0,CHARLES DR,LAFAYETTE,LA,70508,
4821.0,UTICA ST,Jefferson Parish,LA,70006,
,GOULD DR,ST FRANCISVILLE,LA,70775,
221.0,RIVER POINT DR,DESTREHAN,LA,70047,
222.0,SECOND ST,ST ROSE,LA,70087,
8683.0,SIEGEN LN,BATON ROUGE,LA,70810,
41099.0,NORTH FIRST STREET,Ponchatoula,LA,70454,
5368.0,CANTERDALE AVE,BATON ROUGE,LA,70817,
231.0,HULIN ST ST,St Martin,LA,70582,
213.0,COMMUNITY RD,LAF PARISH,LA,70520,
4097.0,CANNON ST,BATON ROUGE,LA,70805,
2728.0,MILLS ST,Rapides,LA,0,
322.0,S LARRIVIERE RD,LAF PARISH,LA,70592,
118.0,RIDGEWOOD DR,Jefferson Parish,LA,70005,
6582.0,HIGHWAY 56,CHAUVIN,LA,70344,
1203.0,CARRIAGE LIGHT LOOP,BROUSSARD,LA,70592,
20268.0,LIBERTY RD,PRIDE,LA,70770,
6113.0,PINERIDGE AVE,Rapides,LA,0,
17119.0,B BROWN ROAD,Kentwood,LA,70444,
10113.0,GAIL CT,Jefferson Parish,LA,70123,
1055.0,CORA DR,BATON ROUGE,LA,70815,
4101.0,PLAZA TOWER DR,BATON ROUGE,LA,70816,
13939.0,SPANISH OAKS DR,CENTRAL,LA,70818,
1025.0,FAIRWAY DR,Jefferson Parish,LA,70062,
910.0,E  Hamilton St,Gonzales,LA,70737,
86.0,PETERS RD,Jefferson Parish,LA,70058,
9624.0,DEER RUN AVE,ZACHARY,LA,70791,
8258.0,KEEL AVE,BATON ROUGE,LA,70820,
120.0,ADOUE ST,HOUMA,LA,70360,
18337.0,THREE BARS DR,BATON ROUGE,LA,70817,
157.0,SLEDGE RD,COUSHATTA,LA,71019,
1315.0,BALSAM AVE,BATON ROUGE,LA,70807,
206.0,HILL RIDGE DR,YOUNGSVILLE,LA,70592,
4401.0,WALDEN DR,Alexandria,LA,71360,
2905.0,TRADITION AVE,BATON ROUGE,LA,70810,
8149.0,ALBERT DR,BATON ROUGE,LA,70806,
150.0,APRICOT ST,LAPLACE,LA,70068,
1910.0,SOUTH MORRISON BLVD,Hammond,LA,70403,
,V LOUISIANA AVE,BAKER,LA,70714,
4123.0,RALEIGH DR,BATON ROUGE,LA,70814,
2013.0,ALBERT ST ST,St Martin,LA,70582,
2229.0,LITCHWOOD LN,Jefferson Parish,LA,70058,
302.0,DOLPHIN ST,LAF PARISH,LA,70508,
6101.0,NORTH BOLTON AVE,Alexandria,LA,71301,
149.0,ALLIANCE CT,HOUMA,LA,70360,
520.0,N  Bullion Ave,Gonzales,LA,70737,
113.0,DOGLEG DR,BROUSSARD,LA,70518,
8030.0,SKYSAIL AVE,BATON ROUGE,LA,70820,
200.0,EDWARDS AVE,Jefferson Parish,LA,70123,
5080.0,FLOYNELL DR,BATON ROUGE,LA,70809,
2072.0,ALABAMA ST,BATON ROUGE,LA,70802,
91.0,COOK RD,DELHI,LA,71232,26.0
8912.0,BELLEGROVE PL,Jefferson Parish,LA,70123,
105.0,ALSANDOR DR,LAFAYETTE,LA,70501,
306.0,CHARLES DR,LAFAYETTE,LA,70508,
48.0,TOMMY MELDER RD,Rapides,LA, ,
600.0,GUILLIOT RD,YOUNGSVILLE,LA,70592,13.0
12396.0,STAR HILL TRC,ST FRANCISVILLE,LA,70775,
5620.0,VETERANS MEMORIAL BLVD,Jefferson Parish,LA,70003,
122.0,TERRACE OAK LN LN,St Martin,LA,70518,
6180.0,BOUTTE ST,Jefferson Parish,LA,70072,
317.0,DERNIER ST ST,St Martin,LA,70582,
8228.0,TWIN BRIDGES RD,Alexandria,LA,0,
3805.0,BIRCHFIELD DR,Jefferson Parish,LA,70058,
4029.0,TRENTON ST,Jefferson Parish,LA,70002,
609.0,MANCHESTER LN,LAPLACE,LA,70068,
425.0,RANCH RD,LAF PARISH,LA,70529,
525.0,JEFFERSON HWY,Jefferson Parish,LA,70121,803.0
17080.0,Abita Ave,Prairieville,LA,70769,
11420.0,ARD LANE,Hammond,LA,70403,
555.0,SILVER LILY LN,Jefferson Parish,LA,70072,
1341.0,PLANK RD,BATON ROUGE,LA,70802,
111.0,S HAMNER AVE,LAFAYETTE,LA,70501,
0.0,BEDICO CREEK,Ponchatoula,LA,70454,
37582.0,Grand Oak Dr,Prairieville,LA,70769,
309.0,GERMAINE ST,Rapides,LA,71405,
217.0,OCTAVIA DR,LAF PARISH,LA,70583,
1807.0,JEWEL ST,Alexandria,LA,0,
1126.0,S  Lanoux Ave,Gonzales,LA,70737,
8847.0,METAIRIE DR,BATON ROUGE,LA,70810,
8943.0,STARING CT,BATON ROUGE,LA,70810,
5785.0,GRAND CAILLOU RD,HOUMA,LA,70363,
10602.0,CAL RD,BATON ROUGE,LA,70809,
217.0,EUREKA DR,GRAY,LA,70359,
112.0,WOODVALE AVE,LAFAYETTE,LA,70503,
425.0,BARONI DR,Jefferson Parish,LA,70065,
52033.0,RIDGECREST DRIVE,Independence,LA,70443,
3161.0,TOUCHWOOD DR,Jefferson Parish,LA,70058,
6821.0,PERKINS RD,BATON ROUGE,LA,70808,
118.0,EUGENIE DR,LAF PARISH,LA,70529,
250.0,OLD RIVER RD,Alexandria,LA,0,
104.0,WAUBUN AV,SCHRIEVER,LA,70395,
2525.0,CITADEL DR,BATON ROUGE,LA,70816,
3960.0,ASPEN DR,Jefferson Parish,LA,70058,
4089.0,HWY 1,COUSHATTA,LA,71019,
304.0,S 18TH ST,BATON ROUGE,LA,70802,
501.0,CRAWFORD ST,LAFAYETTE,LA,70506,
8197.0,MC CLELLAND DR,BATON ROUGE,LA,70811,
2443.0,Hwy 308  S,Donaldsonville,LA,70346,
7539.0,STE 180 CORPORATE BLVD,BATON ROUGE,LA,70806,
4517.0,BAYOUSIDE DR,CHAUVIN,LA,70344,
8150.0,GOODWOOD BLVD,BATON ROUGE,LA,70806,
734.0,PINE COUPEE RD,Rapides,LA,0,
1518.0,EDWARDS RD,Rapides,LA,0,
50.0,Jim Taylor Rd,Alexandria,LA,0,
1006.0,BERARD ST ST,St Martin,LA,70517,
37143.0,Mindy Way Ave,Prairieville,LA,70769,
27.0,JEANE LN,Rapides,LA,0,
421.0,BELLANGER ST,Jefferson Parish,LA,70058,
99.0,MC KINLEY ST,Jefferson Parish,LA,70065,
5153.0,Salinger Dr,Darrow,LA,70725,
211.0,MAY ST,DELHI,LA,71232,
4832.0,VICTORIA RD,Alexandria,LA,0,
4035.0,9TH ST,Jefferson Parish,LA,70072,
13658.0,Bayou Terrace Dr,St Amant,LA,70774,
12010.0,COMAL DR,BATON ROUGE,LA,70816,
5806.0,SHRIMPERS ROW,HOUMA,LA,70363,
109.0,CANEEL CT,Jefferson Parish,LA,70056,
5800.0,BLDG 10 ONE PERKINS PLACE DR,BATON ROUGE,LA,70808,
1000.0,RENAUD DR,LAF PARISH,LA,70583,65.0
407.0,TEXAS AV,FERRIDAY,LA,71334,
138.0,PLEASANT VALLEY DR,Alexandria,LA,0,
7726.0,N JEFFERSON PLACE CIR,BATON ROUGE,LA,70809,
3.0,HUCKLEBERRY STREET,Ponchatoula,LA,70454,
504.0,6TH ST SE,SPRINGHILL,LA,71075,
309.0,EDITH DR,Alexandria,LA,0,
2226.0,ALBERT ST,Rapides,LA,71301,
13535.0,WOOD CREEK DR,CENTRAL,LA,70818,
,CYPRESS ISLAND HWY HWY,St Martin,LA,70582,
17922.0,GREEN WILLOW DR,BATON ROUGE,LA,70817,
4279.0,ROBERT ST,ZACHARY,LA,70791,
208.0,SHIRLEY LEE ST,HOUMA,LA,70364,
111.0,BROADWAY ST,DELHI,LA,71232,
52475.0,WILSON ROAD,Folsom,LA,70437,
4959.0,ZENITH ST,Jefferson Parish,LA,70001,
506.0,WOODARD ST,MINDEN,LA,71055,
1930.0,METHODIST CAMP LP,MINDEN,LA,71055,
1171.0,N 49TH ST,BATON ROUGE,LA,70802,
610.0,TUCKER AVE,Jefferson Parish,LA,70121,
8323.0,Oak St,Sorrento,LA,70778,
1420.0,DELTA RD,RESERVE,LA,70068,
6267.0,HWY 155,RINGGOLD,LA,71068,
4175.0,SARASOTA DR,BATON ROUGE,LA,70814,
204.0,IRIS LN,LAFAYETTE,LA,70506,
206.0,LAKEVIEW ST,Alexandria,LA,0,
1572.0,CURTIS ST,Jefferson Parish,LA,70058,
43.0,MCDARIS RD,DELHI,LA,71232,
172.0,WILLIS FLAT RD,Rapides,LA,0,
13235.0,BRICKYARD ROAD,Independence,LA,70443,
708.0,THIRD STREET,TAYLOR,LA,71080,
829.0,E LEXINGTON AVE,Jefferson Parish,LA,70056,
128.0,KING ST,HOUMA,LA,70363,
14021.0,KIMBLETON AVE,BATON ROUGE,LA,70817,
39336.0,Oceanview Ave,Prairieville,LA,70769,
802.0,BIRMINGHAM DR,BATON ROUGE,LA,70819,
9252.0,GREAT SMOKY AVE,BATON ROUGE,LA,70814,
103.0,TEXAS ST,DELHI,LA,71232,
11137.0,GOLD CUP AVE,BATON ROUGE,LA,70816,
616.0,LANCER LN,Jefferson Parish,LA,70065,
129.0,WOODSBORO DR,LAFAYETTE,LA,70508,
0.0,NO ADDRESS AVAILABLE,Loranger,LA,70446,
12217.0,Peno Ln,Gonzales,LA,70737,
913.0,OLD SPANISH TRL,SCOTT,LA,70583,
18532.0,CRAWFORD ROAD,Kentwood,LA,70444,
5456.0,L V Rd,Sorrento,LA,70778,
1944.0,TULIP ST,BATON ROUGE,LA,70806,
506.0,BLOUNT RD,COUSHATTA,LA,71019,
220.0,SALA AVE,Jefferson Parish,LA,70094,
4312.0,JAMES DR,Jefferson Parish,LA,70003,
209.0,EVERETTE DR,HOUMA,LA,70364,
,NW 3RD ST,RESERVE,LA,70084,
145.0,WAINWRIGHT RD,Alexandria,LA,71360,
2015.0,AMES BLVD,Jefferson Parish,LA,70072,
228.0,MONTROSE AVE,LAFAYETTE,LA,70503,
10839.0,N DUAL ST,BATON ROUGE,LA,70814,
821.0,N SIBLEY ST,Jefferson Parish,LA,70003,
6125.0,YOHO DR,Rapides,LA,0,
4521.0,WIMBISH DR,BAKER,LA,70714,
5236.0,HWY 371,HEFLIN,LA,71039,
17627.0,BREMAN DR,BATON ROUGE,LA,70817,
191.0,SAVANNE RD,HOUMA,LA,70360,
3207.0,EMPIRE DR,Rapides,LA,0,
1346.0,FIRST STREET,ARCADIA,LA,71001,
224.0,TERRACE ST,NEW SARPY,LA,70047,
538.0,ARLINGTON AVE,BATON ROUGE,LA,70806,
4035.0,OVERLOOK POINT CT,BATON ROUGE,LA,70817,
7538.0,DIRECTOR DR,BATON ROUGE,LA,70817,
10934.0,CLASSIQUE AVE,BATON ROUGE,LA,70815,
,UND GREENWELL SPRINGS RD,GREENWELL SPRINGS,LA,70739,
2121.0,CLAIRE AVE,Jefferson Parish,LA,70053,
3913.0,HILLCREST DR,Jefferson Parish,LA,70072,
13145.0,TODD AVE,BATON ROUGE,LA,70815,
13787.0,STE E OLD HAMMOND HWY,BATON ROUGE,LA,70816,
7045.0,MODOC AVE,BATON ROUGE,LA,70811,
6601.0,VETERANS MEMORIAL BLVD,Jefferson Parish,LA,70003,
1001.0,GARDEN RD,Jefferson Parish,LA,70072,
18116.0,BASS LAKE TRAIL,Ponchatoula,LA,70454,
102.0,MYRNA ST,HOUMA,LA,70363,
17139.0,WINTERFIELD WAY,Kentwood,LA,70444,
1787.0,77TH AVE,BATON ROUGE,LA,70807,
449.0,WESTMORELAND DR,BATON ROUGE,LA,70806,
808.0,SOUTH CYPRESS STREET,Hammond,LA,70403,
,FIRST ST,NORCO,LA,70079,
37279.0,Brigantines  Ave,Prairieville,LA,70769,
12342.0,COLES CREEK BOULEVARD,Hammond,LA,70403,
49.0,GREEN RD,DELHI,LA,71232,
1037.0,WIEGAND DR,Jefferson Parish,LA,70094,
5025.0,WARWICK DR,Jefferson Parish,LA,70072,
4600.0,KAWANEE AVE,Jefferson Parish,LA,70006,
5312.0,OAK DR,Jefferson Parish,LA,70072,
39652.0,EAST TIGER LOOP,Ponchatoula,LA,70454,
0.0,BROUSSARD RD RD,St Martin,LA,70582,
214.0,AVENUE E,Jefferson Parish,LA,70005,
7344.0,Communi St,St. James,LA,70086,
9455.0,W POMONA DR,BATON ROUGE,LA,70815,
1183.0,SPRINGHILL AIRPORT RD,SPRINGHILL,LA,71075,
66.0,COMEAUX RD,RAYVILLE,LA,71269,
709.0,2ND ST NW,SPRINGHILL,LA,71075,
516.0,CEDAR ST,LAPLACE,LA,70068,
5040.0,DUELING OAKS AVE,Jefferson Parish,LA,70072,
129.0,RYALS ST,DOYLINE,LA,71023,
0.0,PIMLOTT STREET,Ponchatoula,LA,70454,
2850.0,MT LAUREL DR,Jefferson Parish,LA,70056,
1238.0,BISTINEAU LINE RD,HEFLIN,LA,71039,
11.0,FAIRLANE DR,Jefferson Parish,LA,70003,
3407.0,LAPALCO BLVD,Jefferson Parish,LA,70058,
160.0,WOODBURN DR,HOUMA,LA,70364,
817.0,GREEN OAK Dr,Gonzales,LA,70737,
2280.0,TURKEY CREEK RD,Rapides,LA, ,
2525.0,SEVERN AVE,Jefferson Parish,LA,70002,
949.0,BAYOU TRACE DR,Alexandria,LA,71301,
1407.0,HOOKS DRIVE,Hammond,LA,70401,
16013.0,B NORWICK AVE,BATON ROUGE,LA,70816,
10141.0,STONEHAVEN AVE,BATON ROUGE,LA,70810,
3205.0,LOYOLA DR,Jefferson Parish,LA,70065,
115.0,REGAN ST,Alexandria,LA,0,
2121.0,VETERANS MEMORIAL BLVD,Jefferson Parish,LA,70002,
257.0,TOURS CT,LAPLACE,LA,70068,
6156.0,BYRON ST,BATON ROUGE,LA,70805,
444.0,NATION RD,Rapides,LA,0,
259.0,AUBURN PL,Jefferson Parish,LA,70065,
4659.0,HWY 371,CASTOR,LA,71016,
37302.0,Lakeshore Ave,Prairieville,LA,70769,
120.0,SHIRLEEN DRIVE,Ponchatoula,LA,70454,
3021.0,WOODBROOK DR,BATON ROUGE,LA,70816,
1709.0,CLAY ST,Jefferson Parish,LA,70062,
212.0,TIOGA RD,Rapides,LA,71405,
501.0,ALINE ST,LAPLACE,LA,70068,
18375.0,BERTHELOT ROAD,Ponchatoula,LA,70454,
12424.0,Cleo Rd,Gonzales,LA,70737,
224.0,DILLON ST,Rapides,LA,71360,
2709.0,CLAIRE AVE,Jefferson Parish,LA,70053,
2055.0,PAXTON ST,Jefferson Parish,LA,70058,
7.0,SOMBRERO LN,ST ROSE,LA,70087,
3339.0,CURTIS DR,Rapides,LA,71301,
849.0,OAK AVE,Jefferson Parish,LA,70094,
301.0,ARCENEAUX RD,CARENCRO,LA,70520,
607.0,WESTWEGO AVE,Jefferson Parish,LA,70094,
103.0,SHOWERS LANE,Hammond,LA,70403,
385.0,MC DONALD AVE,BATON ROUGE,LA,70808,
4141.0,N FLANNERY RD,BATON ROUGE,LA,70814,
14235.0,HARWOOD AVE,BATON ROUGE,LA,70816,
7649.0,HWY 1 N,Alexandria,LA,0,
324.0,HOMEWOOD PL,RESERVE,LA,70084,
13846.0,OAKLEY LN,ST FRANCISVILLE,LA,70775,
1616.0,HOMER ST,Jefferson Parish,LA,70005,
1409.0,HALL AVE,Jefferson Parish,LA,70003,
4624.0,BARNETT ST,Jefferson Parish,LA,70006,
405.0,AUNDRIA DR,LAFAYETTE,LA,70503,
1705.0,N TURNBULL DR,Jefferson Parish,LA,70001,
3811.0,NOKOMIS ST,BATON ROUGE,LA,70805,
13845.0,LA HWY 421,ST FRANCISVILLE,LA,70775,
16259.0,Hwy 44,Prairieville,LA,70769,
109.0,MARTIN LUTHER KING DR,DELHI,LA,71232,
19203.0,CHARDONNAY AVE,BATON ROUGE,LA,70817,
5728.0,4TH ST,Jefferson Parish,LA,70072,76.0
714.0,ROCKY BAYOU DR,Rapides,LA,0,
113.0,FAIRBROOK ST,Rapides,LA, ,
0.0,RANDALL ROAD,Hammond,LA,70401,
89.0,HAROLEANS ST,Jefferson Parish,LA,70123,
201.0,LAKEN LN,LAF PARISH,LA,70508,
134.0,DOWDEY LN,DOYLINE,LA,71023,
6727.0,BIRCH TRACE,Rapides,LA,71405,
2072.0,SUSSEX ST,Jefferson Parish,LA,70058,104.0
1426.0,SIXTH STREET,ARCADIA,LA,71001,
22968.0,N Oak St,Vacherie,LA,70090,
3810.0,CALIFORNIA AVE,Jefferson Parish,LA,70065,
2229.0,NORTH ST,BATON ROUGE,LA,70802,
163.0,CHASE DR,BOURG,LA,70343,
445.0,CHEMIN METAIRIE,LAF PARISH,LA,70592,
628.0,RAILROAD ST ST,St Martin,LA,70517,
57639.0,BRIAR PATCH CEMETERY ROAD,Loranger,LA,70446,
11096.0,TUTTLE ROAD,Hammond,LA,70403,
704.0,CEDAR AVE,Jefferson Parish,LA,70001,
909.0,WEST ST,MINDEN,LA,71055,
5701.0,LAUREL HILL LN,ST FRANCISVILLE,LA,70775,
18319.0,WISTERIA DRIVE,Ponchatoula,LA,70454,
9.0,OLYMPIC ST,Jefferson Parish,LA,70065,
720.0,LIVE OAK ST,Jefferson Parish,LA,70005,
3401.0,Lena St,Paulina,LA,70763,
606.0,S 14TH ST,BATON ROUGE,LA,70802,
6483.0,PARK MANOR DR,Jefferson Parish,LA,70003,
2420.0,ATHANIA PKWY,Jefferson Parish,LA,70001,203.0
5635.0,HIGHWAY 56,CHAUVIN,LA,70344,
3594.0,FRIENDSWOOD DR,HOUMA,LA,70363,4.0
4705.0,AVRON BLVD,Jefferson Parish,LA,70006,
12201.0,Oakline Acres Rd,St Amant,LA,70774,
4006.0,KERR DR,BOURG,LA,70343,
1712.0,FAIRFAX AVE,Jefferson Parish,LA,70003,
0.0,OIL RIG ROAD,Kentwood,LA,70444,
515.0,HWY 1204,Alexandria,LA,71405,
721.0,KENNEY ST,HOUMA,LA,70364,
106.0,NEW MARKET ST ST,St Martin,LA,70582,
4735.0,STEARNS ST,BATON ROUGE,LA,70811,
137.0,MILLSTONE RD,BROUSSARD,LA,70518,
6101.0,NORTH BOLTON AVE,Rapides,LA,71301,
212.0,NELO ST,BOURG,LA,70343,
1923.0,N 39TH ST,BATON ROUGE,LA,70802,
44160.0,BAYWOOD COURT,Hammond,LA,70403,
410.0,WHEELOCK ST,Alexandria,LA,0,
6930.0,S CHOCTAW DR,BATON ROUGE,LA,70806,
19222.0,WEINBERGER ROAD,Ponchatoula,LA,70454,
4201.0,RIVER RD,Jefferson Parish,LA,70094,
0.0,E E MILLS AVE AVE,St Martin,LA,70517,
12.0,RUE SORBONNE,BATON ROUGE,LA,70808,
126.0,BRAMBER DR,LAF PARISH,LA,70508,
1351.0,DOCTOR BEATROUS RD,THERIOT,LA,70397,
419.0,OAKLAWN DR,Jefferson Parish,LA,70005,
66090.0,SOUTH RIVER ROAD,Roseland,LA,70456,
215.0,NORTH THIRD STREET,Ponchatoula,LA,70454,
15707.0,BROWN RD,BAKER,LA,70714,
4120.0,GREEN ACRES RD,Jefferson Parish,LA,70003,
1502.0,LEVIN ST,Alexandria,LA,0,
6117.0,3RD AVE,Jefferson Parish,LA,70072,
150.0,NASH CT,GIBSON,LA,70356,
160.0,Kincaid Ln,Alexandria,LA,0,
507.0,MYERS ST,Alexandria,LA,0,
621.0,SHADYGLEN DR,BATON ROUGE,LA,70816,
942.0,WOODHUE DR,BATON ROUGE,LA,70810,
308.0,ANNUNCIATION ST,LAFAYETTE,LA,70508,
4424.0,VETERANS MEMORIAL BLVD,Jefferson Parish,LA,70006,
206.0,LONG PLANTATION BLVD,LAFAYETTE,LA,70508,
14601.0,AVALON AVE,BATON ROUGE,LA,70816,
2966.0,FARRINGTON DR,BATON ROUGE,LA,70814,
2902.0,WILLOW GLEN RIVER RD,Alexandria,LA,71301,
229.0,JANET LYNN CT,THERIOT,LA,70397,
5379.0,Courtyard Dr,Gonzales,LA,70737,
816.0,GOVERNOR MOUTON ST ST,St Martin,LA,70582,
13394.0,Adam Templet Rd,Gonzales,LA,70737,
1790.0,GRAND CAILLOU RD,HOUMA,LA,70363,
220.0,AUTHEMENT ST,HOUMA,LA,70363,
121.0,PETE CT,CHAUVIN,LA,70344,
8027.0,HICKORY GROVE LP,Alexandria,LA,71328,
17234.0,CHELAN STREET,Ponchatoula,LA,70454,
15019.0,VINTAGE JADE CT,BATON ROUGE,LA,70817,
41010.0,RUE PETIT,Ponchatoula,LA,70454,
33.0,SUGARMILL RD,Rapides,LA,0,
4720.0,LAVEY LN,BAKER,LA,70714,
44044.0,Burton Rd,St Amant,LA,70774,
215.0,KINGS LANDING SQ,LAFAYETTE,LA,70508,
65.0,BEAUBOUEF LP,Alexandria,LA,71328,
102.0,DOE LN,BROUSSARD,LA,70518,
1312.0,N 44TH ST,BATON ROUGE,LA,70802,
4545.0,SHERWOOD COMMON BLVD,BATON ROUGE,LA,70816,
906.0,SOUTH PINE STREET,Hammond,LA,70403,
545.0,BURGIN AVE,BATON ROUGE,LA,70808,
482.0,LEACHMAN RD,SIBLEY,LA,71073,
3415.0,POINTE-MARIE DR,BATON ROUGE,LA,70820,
165.0,CONCORDIA PARK DR,VIDALIA,LA,71373,
217.0,STONERIDGE DR,LAF PARISH,LA,70529,
104.0,MCMULLAN RD,SAREPTA,LA,71071,
208.0,AUBURN PL,Jefferson Parish,LA,70065,
6816.0,GENTRY RD,Jefferson Parish,LA,70072,
,V BURGESS DR,BAKER,LA,70714,
73026.0,HOOKFIN ROAD,Kentwood,LA,70444,
312.0,RANDOLPH DR,LAFAYETTE,LA,70501,
5990.0,LAPALCO BLVD,Jefferson Parish,LA,70072,
124.0,GOODMAN CT,HOUMA,LA,70364,
1715.0,18 HWY,EDGARD,LA,70049,
522.0,CHESTERFIELD DR,BATON ROUGE,LA,70815,
110.0,CLUB VIEW DR,LAFAYETTE,LA,70503,
141.0,LEGACY DR,RAYVILLE,LA,71269,
800.0,METAIRIE RD,Jefferson Parish,LA,70005,
40274.0,Canora Ct,Prairieville,LA,70769,
14104.0,Bishop Woods Rd,Gonzales,LA,70737,
2070.0,SUSSEX ST,Jefferson Parish,LA,70058,
3088.0,GRINELL DR,Jefferson Parish,LA,70072,
13502.0,AIRLINE Hwy,Gonzales,LA,70737,15.0
200.0,NELLWOOD DRIVE,Ponchatoula,LA,70454,
5116.0,PIKE DR,Jefferson Parish,LA,70003,
921.0,S  Abe Ave,Gonzales,LA,70737,
5241.0,FIELDCREST AVE,Rapides,LA,71301,
524.0,FRANCE ST,BATON ROUGE,LA,70802,
0.0,SOUTH CYPRESS STREET,Hammond,LA,70403,
16500.0,Winborne Blvd,Prairieville,LA,70769,
9564.0,GASSIE ST,BATON ROUGE,LA,70807,
2712.0,LARK ST,BATON ROUGE,LA,70807,
226.0,NEWMAN AVE,Jefferson Parish,LA,70121,
1444.0,HERMAN DUPUIS RD RD,St Martin,LA,70517,
5908.0,MORTON ST,Jefferson Parish,LA,70003,
802.0,DELHOMME AVE,SCOTT,LA,70583,
616.0,MAYFLOWER CT,LAPLACE,LA,70068,
19439.0,Simon Dr,Vacherie,LA,70090,
1105.0,S S MAIN ST ST,St Martin,LA,70582,
10641.0,HILLGLEN AVE,BATON ROUGE,LA,70810,
3050.0,MC ILHENNY DR,BATON ROUGE,LA,70809,
41097.0,Bayou Segnette Ave,Gonzales,LA,70737,
81.0,OSBORNE AVE,Jefferson Parish,LA,70065,
7508.0,SAINT ANTHONY ST,Jefferson Parish,LA,70072,
12510.0,ROSELAND AVENUE,Roseland,LA,70456,
273.0,HWY 115,Rapides,LA,71328,
315.0,BROOKHAVEN DR,YOUNGSVILLE,LA,70592,
3951.0,GREATWOOD ST,GRAY,LA,70359,
12091.0,STE A BRICKSOME AVE,BATON ROUGE,LA,70816,
1700.0,MOUNT PLEASANT-ZACHARY RD,ZACHARY,LA,70791,
4908.0,FOLSE DR,Jefferson Parish,LA,70006,
253.0,GREEN ACRES RD,FERRIDAY,LA,71334,
7520.0,PERKINS RD,BATON ROUGE,LA,70808,
343.0,T LEIGH DR,HOUMA,LA,70364,
6313.0,HASTINGS ST,Jefferson Parish,LA,70003,
1533.0,ROSEWOOD DR,Jefferson Parish,LA,70058,
4918.0,KENNEDY DR,ZACHARY,LA,70791,
37519.0,Trails End St,Prairieville,LA,70769,
17176.0,HIGHWAY 442,Tickfaw,LA,70466,
123.0,ANSLEY PLACE CT,HOUMA,LA,70360,
405.0,CODIFER BLVD,Jefferson Parish,LA,70005,
15756.0,HIGHWAY 10,Roseland,LA,70456,
11.0,DONALD CT,Jefferson Parish,LA,70003,
5656.0,BERKSHIRE AVE,BATON ROUGE,LA,70806,
908.0,SAINT LANDRY ST,LAFAYETTE,LA,70506,
2118.0,IOWA AVE,Jefferson Parish,LA,70062,
3605.0,CASA GRANDE DR,BATON ROUGE,LA,70814,
3203.0,PINEAST RIDGE DR,Rapides,LA,0,
4955.0,HIGHLAND RD,BATON ROUGE,LA,70808,
200.0,HIGH MEADOWS BLVD,LAFAYETTE,LA,70507,
1405.0,WEST TUNNEL BLVD,HOUMA,LA,70360,
781.0,BAYOU BLUE RD,HOUMA,LA,70364,
21416.0,STRICKLAND RD,GREENWELL SPRINGS,LA,70739,
20183.0,BELLA GARDENS CIRCLE,Ponchatoula,LA,70454,
42285.0,Egbelu Ln,Gonzales,LA,70737,
1909.0,VAN ST,Rapides,LA,0,
3139.0,GRAND POINT HWY HWY,St Martin,LA,70517,
4422.0,KAREN AVE,Jefferson Parish,LA,70121,
232.0,WASHINGTON HEIGHTS RD,FERRIDAY,LA,71334,
0.0,CANNINO LANE,Hammond,LA,70401,
559.0,RIVERVIEW DR,BATON ROUGE,LA,70816,
4.0,CHATEAU RUE DU JARDIN ST,Jefferson Parish,LA,70065,
1220.0,SINGER DR,Rapides,LA,0,
1431.0,ALDEN CT,Rapides,LA,71301,
14368.0,RIVER RD,NEW SARPY,LA,70047,
116.0,EDNA ST,LAFAYETTE,LA,70501,
39397.0,Waycross Ave,Prairieville,LA,70769,
165.0,VICKERS LN,MONTZ,LA,70068,
7017.0,DIANTHUS DR,BATON ROUGE,LA,70817,
14343.0,LOVETT RD,CENTRAL,LA,70818,
2122.0,DAY ST,Rapides,LA,71301,
4112.0,UNCAS ST,BATON ROUGE,LA,70805,
6830.0,HIGHWAY 56,CHAUVIN,LA,70344,
7103.0,Wayne Floyd Rd,Gonzales,LA,70737,
8945.0,CORTANA PL,BATON ROUGE,LA,70815,
120.0,BRUNDAGE LN,YOUNGSVILLE,LA,70592,
114.0,DEER CREEK E,Alexandria,LA,71360,
6447.0,HWY 71,COUSHATTA,LA,71019,
25255.0,STEPP ROAD,Robert,LA,70455,
119.0,CHAISSON RD,LAF PARISH,LA,70518,
3061.0,HUDSON PARK DR,BATON ROUGE,LA,70810,
1835.0,LEVIN ST,Rapides,LA,0,
17002.0,VALLEY ROAD,Kentwood,LA,70444,
12391.0,Allison Dr,Geismar,LA,70734,
308.0,HIDALGO DR,HOUMA,LA,70363,
6338.0,KINCAID AVE,BATON ROUGE,LA,70805,
7024.0,SIEGEN LN,BATON ROUGE,LA,70809,
202.0,ARNAUD ST ST,St Martin,LA,70517,
370.0,SECTION RD,DELHI,LA,71232,
49.0,LUCKY 13 LN,RAYVILLE,LA,71269,
104.0,MARSHALL ST,MINDEN,LA,71055,
6658.0,Hwy 44,Convent,LA,70723,
236.0,MINNOW FARM RD,MANGHAM,LA,71259,
9235.0,KIMBERLY WAY,BATON ROUGE,LA,70814,
514.0,BAPTIST ST,Rapides,LA,71360,
75348.0,HIGHWAY 1053,Kentwood,LA,70444,
15767.0,WADESBORO ROAD,Ponchatoula,LA,70454,
15255.0,C GEORGE O'NEAL RD,BATON ROUGE,LA,70817,
319.0,W LOYOLA DR,Jefferson Parish,LA,70065,
1630.0,ENGLAND DR,Alexandria,LA,0,
1869.0,SAWMILL RD RD,St Martin,LA,70517,
2715.0,FAYETTE ST,Jefferson Parish,LA,70062,
716.0,N 7TH ST,BATON ROUGE,LA,70802,
320.0,LEWIS AVE,COTTON VALLEY,LA,71018,
429.0,INCARNATE WORD DR,Jefferson Parish,LA,70065,
5631.0,OLD MARKSVILLE HWY,Alexandria,LA,0,
537.0,WILSON ST,Jefferson Parish,LA,70072,
5064.0,DUELING OAKS AVE,Jefferson Parish,LA,70072,
1940.0,INDUSTRIAL BLVD,Jefferson Parish,LA,70058,
12236.0,N OAK HILLS PKWY,BATON ROUGE,LA,70810,
2276.0,ZELMERE ST,ZACHARY,LA,70791,
1903.0,BLOUIN AVE,BATON ROUGE,LA,70808,
1000.0,OAK ST,Jefferson Parish,LA,70072,
42324.0,Devall Rd,Prairieville,LA,70769,
14233.0,Billy Decoteau Rd,St Amant,LA,70774,
1222.0,Lutcher Av,Lutcher,LA,70071,
1617.0,JEWEL ST,Rapides,LA,0,
13322.0,AVANTS AVE,BATON ROUGE,LA,70815,
2416.0,BEECH ST,Rapides,LA,71301,
304.0,PROSPERITY ST,CHAUVIN,LA,70344,
0.0,SALT MINE RD RD,St Martin,LA,70517,
4202.0,GIBBENS PAYNE AVE,BAKER,LA,70714,
118.0,CHARTER ST,DELHI,LA,71232,
4400.0,JEFFERSON HWY,Jefferson Parish,LA,70121,
5805.0,LOUIS I AVE,Jefferson Parish,LA,70072,
,RESWEBER HWY HWY,St Martin,LA,70582,
6435.0,NELLIE AVE,BATON ROUGE,LA,70805,
9641.0,CAMERON ST,DUSON,LA,70529,
257.0,OSCAR MOORE RD,DUBBERLY,LA,71024,
442.0,GOURMET RD,LAF PARISH,LA,70520,
7228.0,ENGLAND DR,Alexandria,LA, ,
6208.0,Pelican Crossing Dr,Gonzales,LA,70737,
377.0,E 26TH ST,RESERVE,LA,70084,
12122.0,Hwy 431,St Amant,LA,70774,
1010.0,D S ACADIAN THWY,BATON ROUGE,LA,70806,
716.0,BRENTWOOD BLVD,LAFAYETTE,LA,70503,
200.0,MORNINGSIDE DR,LAF PARISH,LA,70529,
104.0,CYNTHIA CIR,RESERVE,LA,70084,
71251.0,HIGHWAY 1051,Kentwood,LA,70444,
326.0,OLLIE MORRIS RD,RAYVILLE,LA,71269,
1400.0,RINGGOLD AVE,COUSHATTA,LA,71019,
101.0,SPANISH PL,LAF PARISH,LA,70507,
5503.0,DONALD DR,Rapides,LA,71302,
101.0,ASCOT LN,LAFAYETTE,LA,70508,
9052.0,SHADY BLUFF DR,CENTRAL,LA,70818,
420.0,DOUGLAS ST,Rapides,LA,71301,
124.0,MILLENIUM AV,HOUMA,LA,70364,
,SHERWOOD DR,Alexandria,LA,71423,
0.0,NO ADDRESS AVAILABLE,Kentwood,LA,70444,
243.0,WATSON ST,DOYLINE,LA,71023,
111.0,VETERANS MEMORIAL BLVD,Jefferson Parish,LA,70005,340.0
1606.0,SAWMILL RD RD,St Martin,LA,70517,
4530.0,ROSEDALE DR,Jefferson Parish,LA,70001,
45528.0,Gold Place Rd,St Amant,LA,70774,
10140.0,RIDGEHAVEN AVE,BATON ROUGE,LA,70810,
1820.0,BELLE CHASSE HWY,Jefferson Parish,LA,70056,102.0
3824.0,HUDSON BLVD,Rapides,LA,0,
4045.0,Hwy 73,Geismar,LA,70734,
2612.0,DESTREHAN AVE,Jefferson Parish,LA,70058,
189.0,E 20TH ST,RESERVE,LA,70084,
9445.0,LINDALE AVE,BATON ROUGE,LA,70815,
9555.0,CHANADIA DR,BATON ROUGE,LA,70810,
11223.0,TALTON AVE,BATON ROUGE,LA,70817,
18421.0,Greenbriar Ave,Prairieville,LA,70769,
2117.0,EMERSON ST,Jefferson Parish,LA,70056,
816.0,LOREX RD,MINDEN,LA,71055,
1204.0,PLUM ST,VIDALIA,LA,71373,
6588.0,CLINTON AVE,BATON ROUGE,LA,70805,
46273.0,MILTON ROAD,Hammond,LA,70401,
2500.0,W PEARL DR,Jefferson Parish,LA,70072,
109.0,AVET ST,DULAC,LA,70353,
353.0,E BROUSSARD RD,LAF PARISH,LA,70503,
2632.0,HWY 4,RINGGOLD,LA,71068,
200.0,GREENLEAF DR,LAFAYETTE,LA,70506,
11230.0,CLOVERLAND AVE,BATON ROUGE,LA,70809,
508.0,S LAKESHORE DR,BATON ROUGE,LA,70808,
104.0,CHEMET RD,YOUNGSVILLE,LA,70592,
125.0,MILLCREEK RD,LAF PARISH,LA,70508,
1436.0,DOGWOOD DR,Jefferson Parish,LA,70058,
113.0,PIPER CREST LN,YOUNGSVILLE,LA,70592,
2712.0,HWY 561,COLUMBIA,LA,71418,
24.0,BEAUBOUEF RD,Alexandria,LA,71328,
127.0,STAR CT,HOUMA,LA,70364,
2015.0,E  Catalpa St,Gonzales,LA,70737,
,ORLEANS WAY,Jefferson Parish,LA,70072,
710.0,TEXAS ST,VIDALIA,LA,71373,
136.0,LAKE TYLER DR,Alexandria,LA,71360,
7429.0,LASALLE AVE,BATON ROUGE,LA,70806,
12040.0,ARCHERY DR,BATON ROUGE,LA,70815,
0.0,NO ADDRESS AVAILABLE,Amite,LA,70422,
5249.0,VETERANS MEMORIAL BLVD,Jefferson Parish,LA,70006,
2515.0,FINCH ST,BATON ROUGE,LA,70807,
209.0,ARMENTINE COVE,St Martin,LA,70517,
1112.0,6TH ST SW,SPRINGHILL,LA,71075,
,SUGAR MILL RD,Rapides,LA, ,
4210.0,PECAN DR,Rapides,LA,0,
2811.0,CLERMONT ST,Jefferson Parish,LA,70121,
3000.0,CLEARY AVE,Jefferson Parish,LA,70002,
47091.0,DURBIN ROAD,Tickfaw,LA,70466,
3445.0,W PARC GREEN ST,Jefferson Parish,LA,70058,
6646.0,BIRCH TRACE,Alexandria,LA,71405,
1925.0,ARKANSAS ST,BATON ROUGE,LA,70802,
409.0,GERALD DR,LAFAYETTE,LA,70503,
322.0,ELISE D DR DR,St Martin,LA,70517,
431.0,WASHINGTON ST ST,St Martin,LA,70582,
1085.0,STEPHENSVILLE RD RD,St Martin,LA,70380,
5806.0,OLD BOYCE RD,Rapides,LA,0,
150.0,HOLIDAY DR,HOUMA,LA,70364,
0.0,NO ADDRESS AVAILABLE,Amite,LA,70422,
4916.0,ZENITH ST,Jefferson Parish,LA,70001,140.0
3808.0,ROSE MARIE ST,Rapides,LA,0,
3998.0,N ROW AVE,ZACHARY,LA,70791,
105.0,KEELINGWOOD LN,LAFAYETTE,LA,70507,
2019.0,SAUVAGE AVE,Jefferson Parish,LA,70072,
7932.0,STE A PICARDY AVE,BATON ROUGE,LA,70809,
3913.0,NEYREY DR,Jefferson Parish,LA,70002,
113.0,HWY KING LN,MONTEREY,LA,71354,
2317.0,AMERICA ST,BATON ROUGE,LA,70806,
1474.0,RAVEN WAY DR,ZACHARY,LA,70791,
4502.0,Brown St,Darrow,LA,70725,
41483.0,Hwy 42,Prairieville,LA,70769,
3015.0,HOUMA BLVD,Jefferson Parish,LA,70006,
400.0,MAIN PROJECT RD,SCHRIEVER,LA,70395,
8146.0,GREENWELL SPRINGS RD,BATON ROUGE,LA,70814,
,E AIRLINE HWY,LAPLACE,LA,70068,
603.0,CORPUS CHRISTI DR,HOUMA,LA,70360,
116.0,SAINT MICHAEL ST,LAFAYETTE,LA,70506,
1501.0,HESIOD ST,Jefferson Parish,LA,70005,
219.0,CAPRI CT,HOUMA,LA,70364,
17525.0,PLANK RD,BAKER,LA,70714,
58.0,BURMA RD,Alexandria,LA,71405,
18567.0,DOC OLENA DR,BATON ROUGE,LA,70817,
1829.0,BULL RUN RD,SCHRIEVER,LA,70395,
204.0,DONNIE PRICE RD,Rapides,LA,71328,
227.0,BRICK ST ST,St Martin,LA,70517,
6942.0,FRONTIER DR,GREENWELL SPRINGS,LA,70739,
5000.0,MIDDLEBURY ST,Jefferson Parish,LA,70072,
316.0,WYLIE DR,BATON ROUGE,LA,70808,
544.0,TURTLE CREEK LN,ST ROSE,LA,70087,
11377.0,W  Main St,Gonzales,LA,70737,
23435.0,HWY 371,SAREPTA,LA,71018,
309.0,GOODE ST,HOUMA,LA,70360,
3182.0,SERACEDAR ST,BATON ROUGE,LA,70816,
2121.0,MASON ST,Alexandria,LA,0,
6906.0,MONITEAU CT,BATON ROUGE,LA,70809,
234.0,CIERA DR,HOUMA,LA,70364,
223.0,BALDWIN ST ST,St Martin,LA,70517,
35334.0,Oak Haven Ave,Geismar,LA,70734,
29346.0,Hwy 20 Hwy,Vacherie,LA,70090,
676.0,I-10 NORTH FRONTAGE RD,SCOTT,LA,70583,
1075.0,PHILADELPHIA RD,Alexandria,LA,0,
6855.0,BRADLEY ST,BATON ROUGE,LA,70805,
0.0,BENTON ROAD,Tickfaw,LA,70466,
1067.0,HWY 793,RINGGOLD,LA,71068,
,PEACH ST,Rapides,LA,0,
901.0,RIDGELAKE DR,Jefferson Parish,LA,70001,
2217.0,HILLRIDGE AVE,BATON ROUGE,LA,70810,
956.0,WHITLOW CT,LAPLACE,LA,70068,
4899.0,IMPERIAL DR,HOUMA,LA,70360,
231.0,E Main St,Gramercy,LA,70052,
17115.0,Willow Oak Aly,Prairieville,LA,70769,
474.0,DENNY RD,Rapides,LA,71328,
232.0,LOVELY RD,LAF PARISH,LA,70529,
213.0,KELSO DR,LAF PARISH,LA,70520,
2246.0,S Exchange Al,Lutcher,LA,70071,
486.0,SMITH LP,SAREPTA,LA,71071,
13474.0,ADAMS ROAD,Hammond,LA,70403,
244.0,PLOUDEN BAYOU RD,MONTEREY,LA,71354,
14558.0,HIGHLAND RD,BATON ROUGE,LA,70810,
376.0,MOZART DR,HOUMA,LA,70363,
104.0,IVY LN,Rapides,LA,0,
,UND JEFFERSON AVE,BATON ROUGE,LA,70802,
1920.0,FAITH PL,Jefferson Parish,LA,70056,
321.0,GLEN DELLA DR,Jefferson Parish,LA,70094,
4521.0,TRANSCONTINENTAL DR,Jefferson Parish,LA,70006,
1200.0,44 HWY,RESERVE,LA,70084,
1331.0,NINTH STREET,Kentwood,LA,70444,
113.0,DOGWOOD DR,LULING,LA,70070,
