NUMBER,STREET,CITY,STATE,POSTCODE,UNIT
23,OLD FAITH ROAD,SHREWSBURY,MA,01545,
228,ACREBROOK ROAD,SPRINGFIELD,MA,01129,
1,EDGEWOOD TERRACE,HADLEY,MA,01035,
68,PLEASANT STREET,ORANGE,MA,01364,
133,MYRTLE STREET,MELROSE,MA,02176,
183,CIRCUIT AVENUE,LOWELL,MA,01852,
238,RYAN STREET,NEW BEDFORD,MA,02740,
30,THAXTER STREET,HINGHAM,MA,02043,
64,LINCOLN PARK,LONGMEADOW,MA,01106,
4,VILLAGE GREEN,STURBRIDGE,MA,01566,
13,PARSONS WALK,MARSHFIELD,MA,02050,
5,KINGSON LANE,MEDWAY,MA,02053,3
43,LEON HERZIG DRIVE,COLRAIN,MA,01340,
180,MAIN STREET,BRIDGEWATER,MA,02324,2202
,ROBBINS STREET,WALTHAM,MA,02453,
1460,MAIN STREET,WALTHAM,MA,02451,
20,FERNWOOD CIRCLE,HARWICH,MA,02645,
177,PLAIN STREET,MILLIS,MA,02054,
335,FANEUIL STREET,BRIGHTON,MA,02135,3
139,WEST EMERSON STREET,MELROSE,MA,02176,
17,COMMONWEALTH ROAD,NATICK,MA,01760,
49,BURLINGAME ROAD,CHARLTON,MA,01507,
30,THOMPSON ROAD,NORWOOD,MA,02062,
177,ELM STREET,GARDNER,MA,01440,
700,COMMONWEALTH AVENUE,BOSTON,MA,02215,1053
38,DUNHAM ROAD,BEVERLY,MA,01915,210
273,COX STREET,HUDSON,MA,01749,
915,DORCHESTER AVENUE,DORCHESTER,MA,02125,303
3200,COUNTY STREET,SOMERSET,MA,02726,116
141,GREAT NECK ROAD SOUTH,MASHPEE,MA,02649,
100,FAIRWOOD DRIVE,PEMBROKE,MA,02359,
25,JOSEPHINE AVENUE,SOMERVILLE,MA,02144,1
63,JFK STREET,CAMBRIDGE,MA,02138,
33,BEECHWOOD LANE,ROCKLAND,MA,02370,
15,TOM GRACE WAY,BILLERICA,MA,01821,
53,WOODVIEW DRIVE,TAUNTON,MA,02780,
149,CROSS STREET,WINCHESTER,MA,01890,
15,LEE TERRACE,TAUNTON,MA,02780,
245,WESTERN AVENUE,CAMBRIDGE,MA,02139,
29,LELAND STREET,GRAFTON,MA,01519,
55,KEITH AVENUE,BROCKTON,MA,02301,3
4,HOLLAND TERRACE,NEEDHAM,MA,02492,
80,MANLEY STREET,WEST BRIDGEWATER,MA,02379,
19,TIMBER LANE,WAYLAND,MA,01778,
39,CURTIS ROAD,CANTON,MA,02021,
149,OAKLAND STREET,MANSFIELD,MA,02048,11
86,NINETEENTH STREET SOUTH,EDGARTOWN,MA,02539,
4,CEDAR STREET,WELLESLEY,MA,02481,307
1,LYMAN STREET,WESTBOROUGH,MA,01581,264
24,MILLMONT STREET,ROXBURY,MA,02119,
106,FIRE ROAD 11,LANCASTER,MA,01523,
65,LAKESIDE AVENUE,WEBSTER,MA,01570,
1688,WASHINGTON STREET,BOSTON,MA,02118,2
,SEAVIEW AVENUE,YARMOUTH,MA,02664,
364,ROUTE 6A,YARMOUTH,MA,02675,
317,ALLSTON STREET,BRIGHTON,MA,02135,14
24,WATER STREET,CLINTON,MA,01510,212
216,UPLAND ROAD,CAMBRIDGE,MA,02140,1
33,LEAVIEW DRIVE,WESTFIELD,MA,01085,
1175,MAIN ROAD,WESTPORT,MA,02790,
425,LAUREL STREET,BRIDGEWATER,MA,02324,
1025,HANCOCK STREET,QUINCY,MA,02169,
3,CLIFFORD STREET,YARMOUTH,MA,02664,
23,OLD COACH ROAD,WESTON,MA,02493,
1411,WASHINGTON STREET,BOSTON,MA,02118,16
10,DOE DRIVE,BILLERICA,MA,01821,
16,THOMAS STREET,SOUTHBRIDGE,MA,01550,
635,BERKLEY STREET,BERKLEY,MA,02779,
13,COTTAGE PARK AVENUE,CAMBRIDGE,MA,02140,
150,QUINCY SHORE DRIVE,QUINCY,MA,02171,17
63,KENDALL ROAD,BOXBOROUGH,MA,01719,
29,RITA STREET,CHICOPEE,MA,01020,
41,OAKHURST CIRCLE,NEEDHAM,MA,02492,
35,BURLINGTON ROAD,BEDFORD,MA,01730,
132,KINGSTON ROAD,WALTHAM,MA,02451,
298,CENTRAL STREET,MANSFIELD,MA,02048,
17,SOUTH RIDGE ROAD,CHILMARK,MA,02535,
38,CARRIAGE WAY DRIVE,FITCHBURG,MA,01420,
1,GREENWAY ROAD,SALEM,MA,01970,
169,CHESTNUT STREET,FOXBOROUGH,MA,02035,3
3,SCHOOL COURT,DOUGLAS,MA,01516,
281,CONWAY STREET,GREENFIELD,MA,01301,
300,WEST FARM POND ROAD,FRAMINGHAM,MA,01702,125
28,DEERFIELD DRIVE,FLORENCE,MA,01062,
289,ESSEX STREET,SALEM,MA,01970,5
286,COLUMBIA ROAD,DORCHESTER,MA,02121,
1289,SOUTH MAIN STREET,FALL RIVER,MA,02724,
59,KING STREET,DORCHESTER,MA,02124,
91,WESTLAND AVENUE,BOSTON,MA,02115,405
716,MAIN STREET,WALTHAM,MA,02453,206
788,WILLARD STREET,QUINCY,MA,02169,501
56,BALTIC AVENUE,BROCKTON,MA,02302,
154,FEDERAL STREET,GREENFIELD,MA,01301,
89,LOWELL AVENUE,WATERTOWN,MA,02472,
281,POWDER POINT AVENUE,DUXBURY,MA,02332,
318,WATER STREET,WAKEFIELD,MA,01880,2
12,SUNSET ROAD,WINTHROP,MA,02152,2
1,CANDLEWOOD DRIVE,MEDWAY,MA,02053,
46,ROUNDHOUSE ROAD,BOURNE,MA,02532,
19,KENDRICK AVENUE,WORCESTER,MA,01606,
4,ADDISON STREET,ESSEX,MA,01929,
759,NORTH MAIN ROAD,OTIS,MA,01253,
5,WAYSIDE LANE,ASHLAND,MA,01721,
25,LAUREL STREET,ROXBURY,MA,02119,1
274,MORTON ROAD,CHATHAM,MA,02659,
94,GREENWICH ROAD,WARE,MA,01082,
64,FIFTH STREET,CAMBRIDGE,MA,02141,
3,LANTERN WAY,ASHLAND,MA,01721,
55,PROSPECT STREET,FALL RIVER,MA,02720,3
341,COMMONWEALTH AVENUE,BOSTON,MA,02115,31
20,BALDWIN HILL ROAD NORTH-SOUTH,EGREMONT,MA,01230,
25,NEWBURY STREET,WOBURN,MA,01801,
211,GROVE STREET,WEST ROXBURY,MA,02132,
73,STARRETT ROAD,LYNN,MA,01905,
217,HAVERHILL STREET,NORTH READING,MA,01864,
145,COURT STREET,PLYMOUTH,MA,02360,3
7,SUSAN AVENUE,CHELMSFORD,MA,01863,
122,OVERLAND ROAD,WALTHAM,MA,02451,
45,CLEMENT STREET,FALL RIVER,MA,02724,
63,MOORELAND AVENUE,LEOMINSTER,MA,01453,
820,WARREN AVENUE,BROCKTON,MA,02301,
1549,ALLEN STREET,SPRINGFIELD,MA,01118,4
144,COLUMBIA STREET,ADAMS,MA,01220,
143,OLD SOUTH ROAD,NANTUCKET,MA,02554,
70,BROADWAY,CHICOPEE,MA,01020,169
70,OLD FARM ROAD,CHICOPEE,MA,01020,
30,EUNICE AVENUE,WORCESTER,MA,01606,
27,COLONIAL ROAD,PEABODY,MA,01960,
98,TYLER STREET,BOSTON,MA,02111,
53,F STREET,SOUTH BOSTON,MA,02127,
679,EAST FIFTH STREET,SOUTH BOSTON,MA,02127,
70,BRIARWOOD CIRCLE,WORCESTER,MA,01606,120
250,LEE ROAD,LENOX,MA,01238,
1125,COMMONWEALTH AVENUE,BRIGHTON,MA,02134,30
155,SCHOOL STREET,WATERTOWN,MA,02472,
485,QUINCY STREET,DORCHESTER,MA,02125,1
600,SLOCUM ROAD,DARTMOUTH,MA,02747,
25,MAIN STREET,ROYALSTON,MA,01368,
8,CHUCK HOLLOW ROAD,SIASCONSET,MA,02564,
180,PARK STREET,NORTH ATTLEBOROUGH,MA,02760,30
27,WARREN STREET,WEST SPRINGFIELD,MA,01089,
5,TORREY LANE,DUXBURY,MA,02332,
115,BROOKSIDE AVENUE,BROCKTON,MA,02301,
53,WINTERGREEN LANE,GROTON,MA,01450,
31,CHITTENDEN LANE,NORWELL,MA,02061,
35,GARRISON ROAD,BROOKLINE,MA,02445,5
49,EDGEWOOD STREET,SPRINGFIELD,MA,01109,
284,COMMONWEALTH AVENUE,BOSTON,MA,02115,44
95,BELMONT STREET,ROCKLAND,MA,02370,
55,FEDERAL STREET,SALEM,MA,01970,1
156,THURSTON STREET,WRENTHAM,MA,02093,
531,MAIN STREET,WORCESTER,MA,01608,
14,SHERMAN HILL ROAD,WARE,MA,01082,
7,COUNTRY WAY,MEDFIELD,MA,02052,
,ORCHARD HILL DRIVE,OXFORD,MA,01540,
81,DRAPER ROAD,WAYLAND,MA,01778,
10,GILMER STREET,MATTAPAN,MA,02126,1
303,COLUMBUS AVENUE,BOSTON,MA,02116,301
34,LOOMIS STREET,REVERE,MA,02151,
404,JEFFERSON STREET,FALL RIVER,MA,02721,
56,BAKER STREET,GARDNER,MA,01440,
107,CROSSROADS DRIVE,DARTMOUTH,MA,02747,
20,PARK STREET,CHICOPEE,MA,01013,
29,SAMSON ROAD,MEDFORD,MA,02155,
7275,GREAT MEADOW ROAD,DEDHAM,MA,02026,
93,DALTON ROAD,CHELMSFORD,MA,01824,
1,NEWTOWN ROAD,NANTUCKET,MA,02554,
143,OLD YARMOUTH ROAD,HYANNIS,MA,02601,
18,GRIFFIN STREET,BONDSVILLE,MA,01069,
3,OVERLOOK AVENUE,WOBURN,MA,01801,
295,BOLTON STREET,SOUTH BOSTON,MA,02127,2
20,BLACKBERRY LANE,BREWSTER,MA,02631,
48,WEST BOULEVARD,WAREHAM,MA,02558,
31,CATSKILL ROAD,BOURNE,MA,02532,
57,HAROLD AVENUE,WOBURN,MA,01801,
,NANTASKET AVENUE,HULL,MA,02045,2
423,SOUTHAMPTON ROAD,HOLYOKE,MA,01040,
11,YALE ROAD,ARLINGTON,MA,02474,
11,KNOX STREET,BOSTON,MA,02116,2
167,HILL STREET,ATHOL,MA,01331,
2,MIDDLESEX AVENUE,NORTON,MA,02766,
125,COOLIDGE AVENUE,WATERTOWN,MA,02472,204
10,MERROW LANE,STONEHAM,MA,02180,
20,CROOKED SPRING ROAD,BILLERICA,MA,01862,
9,HAMMOND STREET,WORCESTER,MA,01610,
1818,MAIN STREET,HOLDEN,MA,01522,106
108,MEMORIAL DRIVE,WEYMOUTH,MA,02189,
125,COMMON STREET,QUINCY,MA,02169,3
176,MAPLE STREET,MARLBOROUGH,MA,01752,
7,BELLEVUE AVENUE EXTENSION,WARE,MA,01082,
65,SUMMER STREET,EASTON,MA,02356,
52,CLEARWATER DRIVE,WESTWOOD,MA,02090,
6,KERR AVENUE,ADAMS,MA,01220,
636,MAIN STREET,WOBURN,MA,01801,
8,SEARS ISLAND DRIVE,LAKEVILLE,MA,02347,
291,HILLSIDE STREET,MILTON,MA,02186,
983,MEMORIAL DRIVE,CAMBRIDGE,MA,02138,302
46,BEAVER PARK ROAD,FRAMINGHAM,MA,01702,
815,WASHINGTON STREET,NEWTON,MA,02460,8
17,BALLARDVALE ROAD,ANDOVER,MA,01810,
25,ROSEBERY ROAD,HYDE PARK,MA,02126,
22,SUNRISE COURT,OTIS,MA,01253,
35,NORMANDY AVENUE,CAMBRIDGE,MA,02138,
,CENTRAL SQUARE,LYNN,MA,01901,
15,PIERCE STREET,QUINCY,MA,02171,
22,EVERGREEN ROAD,HUBBARDSTON,MA,01452,
21,COWLES LANE,AMHERST,MA,01002,4
2345,WASHINGTON STREET,ROXBURY,MA,02119,
71,DAVIS STREET,FALL RIVER,MA,02720,
18,SIXTH STREET,WAREHAM,MA,02558,
10,AKRON STREET,CAMBRIDGE,MA,02138,410
,VILLAGE GREEN ROAD,BOURNE,MA,02562,
49,OAKLANDVALE AVENUE,SAUGUS,MA,01906,
800,CARESWELL STREET,MARSHFIELD,MA,02050,
76,RIDGEWOOD STREET,DORCHESTER,MA,02122,3
798,BOSTON POST ROAD,WESTON,MA,02493,
16,GOODWIN ROAD,BEVERLY,MA,01915,
315,BROOKS STATION ROAD,PRINCETON,MA,01541,
8404,INWOOD DRIVE,WOBURN,MA,01801,
17,VIRGINIA STREET,DORCHESTER,MA,02125,
185,FREEMAN STREET,BROOKLINE,MA,02446,749
70,HERITAGE LANE,LEOMINSTER,MA,01453,
430,VILLAGE STREET,MILLIS,MA,02054,
63,BRUCEWOOD STREET,WEST ROXBURY,MA,02132,
127,GASLIGHT DRIVE,WEYMOUTH,MA,02190,10
11,LINDALE AVENUE,DEDHAM,MA,02026,
172,NEWBURY STREET,PEABODY,MA,01960,
1873,CENTRAL STREET,STOUGHTON,MA,02072,
280,ROUTE 130,SANDWICH,MA,02563,
71,HIGH STREET,NORTHBRIDGE,MA,01588,
155,KENDRICK AVENUE,QUINCY,MA,02169,407
203,MILLSTONE ROAD,BREWSTER,MA,02631,
480,SARATOGA STREET,EAST BOSTON,MA,02128,1
40,LITTLE MOHAWK ROAD,SHELBURNE,MA,01370,
62,OAKLAND ROAD,READING,MA,01867,
206,WARREN AVENUE,BROCKTON,MA,02301,
150,ZABROSKY AVENUE,STOUGHTON,MA,02072,1
323,AUBURN STREET,WHITMAN,MA,02382,2
65,VALLEY STREET,MEDFORD,MA,02155,
18,DEWEY COURT,NORTHAMPTON,MA,01060,2
6,EBEN PATH,DENNIS,MA,02660,
27,COWDEN STREET,WORCESTER,MA,01603,
111,BRIGHAM STREET,HUDSON,MA,01749,
773,CONCORD AVENUE,CAMBRIDGE,MA,02138,206
74,MEETING HOUSE ROAD,NORFOLK,MA,02056,
217,WOOD AVENUE,HYDE PARK,MA,02136,
3,CRESCENT LANE,SUDBURY,MA,01776,
26,DAYTON STREET,CHICOPEE,MA,01013,
152,WASHINGTON STREET,DORCHESTER,MA,02121,3
5,HIDDEN MEADOW DRIVE,MILLBURY,MA,01527,
19,MOODY STREET,NORTHFIELD,MA,01360,
958,PROVIDENCE TURNPIKE,NORWOOD,MA,02062,
24,HAWTHORNE BOULEVARD,SALEM,MA,01970,1
7,COUNTRY CLUB DRIVE,CHELMSFORD,MA,01824,
38,WOODLAND ROAD,SHREWSBURY,MA,01545,
234,SANDISFIELD ROAD,SANDISFIELD,MA,01255,
40,ASHFIELD ROAD,BUCKLAND,MA,01370,
21,RAYMOND CIRCLE,PEABODY,MA,01960,
18,CEDAR STREET,MILFORD,MA,01757,
2000,PARKER STREET,SPRINGFIELD,MA,01128,
22,UNIVERSITY ROAD,BROOKLINE,MA,02445,3
1,SILVER LEAF WAY,PEABODY,MA,01960,123
128,WATER STREET,LEOMINSTER,MA,01453,722
425,NEWBURY STREET,BOSTON,MA,02215,
39,LOCUST ROAD,ORLEANS,MA,02653,
169,WARREN AVENUE,BOSTON,MA,02116,
250,WALNUT STREET,NORTH ADAMS,MA,01247,1
1100,ROUTE 134,DENNIS,MA,02660,307
67,SANDERSON STREET,SPRINGFIELD,MA,01107,803
399,METROPOLITAN AVENUE,ROSLINDALE,MA,02131,
16,CHAUNCY STREET,CAMBRIDGE,MA,02138,41
140,WALPOLE STREET,NORWOOD,MA,02062,2
38,RICHLAND ROAD,WELLESLEY,MA,02481,
52,ESSEX STREET,WEYMOUTH,MA,02188,
68,SCENIC DRIVE,LEOMINSTER,MA,01453,
1109,BOYLSTON STREET,BOSTON,MA,02215,002
29,FREELAND STREET,WORCESTER,MA,01603,1
16,SHERIDAN STREET,JAMAICA PLAIN,MA,02130,
53,FRYE STREET,MARLBOROUGH,MA,01752,
321,DWELLY ROAD,SOMERSET,MA,02726,
3,DECA DRIVE,CHELMSFORD,MA,01824,
65,WORCESTER ROAD,CHARLTON,MA,01507,50
414,COMMERCIAL STREET,BOSTON,MA,02109,3
300,LINCOLN AVENUE,DIGHTON,MA,02764,
9,STANDISH ROAD,STONEHAM,MA,02180,
110,TALBOT ROAD,SPRINGFIELD,MA,01119,
49,LEE STREET,CAMBRIDGE,MA,02139,
126,BEAVER STREET,FRAMINGHAM,MA,01702,27
90,SHAWMUT STREET,CHELSEA,MA,02150,1
85,GOLD STREET,SPRINGFIELD,MA,01107,
65,ENDICOTT STREET,DANVERS,MA,01923,
78,DONALD STREET,WEYMOUTH,MA,02188,45
130,MILLER STREET,FRANKLIN,MA,02038,
984,MASSACHUSETTS AVENUE,BOXBOROUGH,MA,01719,
63,CIRCUIT ROAD,DEDHAM,MA,02026,
24,UNION STREET,BEVERLY,MA,01915,
330,LAKE ELIZABETH DRIVE,CENTERVILLE,MA,02632,
97,ARNOLD STREET,MARLBOROUGH,MA,01752,
174,TOWNSEND STREET,NEW BEDFORD,MA,02746,
77,HOLBROOK ROAD,QUINCY,MA,02171,
0,HOBART STREET,EAST BRIDGEWATER,MA,02333,
5,HADWEN LANE,WORCESTER,MA,01602,
86,BARTHOLOMEW STREET,PEABODY,MA,01960,
18,BROOKFIELD TERRACE,FRAMINGHAM,MA,01701,
30,ATLANTIC STREET,WINTHROP,MA,02152,
79,NORTH MARGIN STREET,BOSTON,MA,02113,4
7,CYPRESS DRIVE,BURLINGTON,MA,01803,2
170,BROOKLINE AVENUE,BOSTON,MA,02215,925
23,FRANKLIN STREET,GREENFIELD,MA,01301,1
216,CALIFORNIA AVENUE,PITTSFIELD,MA,01201,
65,LARCH STREET,NEW BEDFORD,MA,02740,
35,FELTON STREET,PEABODY,MA,01960,
17,JERSEY STREET,MARBLEHEAD,MA,01945,3
186,STRONG STREET,AMHERST,MA,01002,
2043,COLUMBUS AVENUE,ROXBURY,MA,02119,1
30,WATER STREET,MILFORD,MA,01757,2
79,FAIRWAY DRIVE,ATTLEBORO,MA,02703,
5,RAYMOND ROAD,CHELMSFORD,MA,01824,
69,ELM STREET,BRAINTREE,MA,02184,2
215,LOWER COUNTY ROAD,HARWICH,MA,02671,
12,BARRY COSGROVE DRIVE,MONTEREY,MA,01245,
74,FALLSTON STREET,SPRINGFIELD,MA,01119,
192,MONASTERY AVENUE,WEST SPRINGFIELD,MA,01089,
119,BRIDGE ROAD,FLORENCE,MA,01062,
11,SOUTHBOURNE ROAD,JAMAICA PLAIN,MA,02130,
514,BROUGHTON DRIVE,BEVERLY,MA,01915,
22,LAWTON LANE,FOXBOROUGH,MA,02035,
396,BOSTON ROAD,BILLERICA,MA,01821,406
500,BROADWAY,MALDEN,MA,02148,4164
1068,VICTORIA STREET,NEW BEDFORD,MA,02745,7
46,PUTNAM AVENUE,PITTSFIELD,MA,01201,
460,BOSTON POST ROAD EAST,MARLBOROUGH,MA,01752,
167,BABCOCK STREET,BROOKLINE,MA,02446,2
668,PRINCETON BOULEVARD,LOWELL,MA,01851,2
12,SATUCKET ROAD,HARWICH,MA,02646,
78,MARLBORO ROAD,SUDBURY,MA,01776,
16,POINSETTIA DRIVE,YARMOUTH,MA,02664,
63,CENTENNIAL DRIVE,NORWOOD,MA,02062,
28,WALLINGFORD ROAD,BRIGHTON,MA,02135,2609
7,HEMLOCK CIRCLE,WILBRAHAM,MA,01095,
42,RICHARDS STREET,WORCESTER,MA,01603,
7,CARRIAGE DRIVE,ACTON,MA,01720,
13,WILSON ROAD,WALTHAM,MA,02452,
133,HUNT ROAD,OAKHAM,MA,01068,
35,DEXTER STREET,PEABODY,MA,01960,
41,THORNTON STREET,ROXBURY,MA,02119,2
14,FLETCHER ROAD,WESTFORD,MA,01886,
20,COMMONWEALTH AVENUE,BOSTON,MA,02116,
721,SOUTH WASHINGTON STATE ROAD,WASHINGTON,MA,01223,
4,MALM AVENUE,SALEM,MA,01970,
64,SOUTHERN AVENUE,ESSEX,MA,01929,
,DRIFT ROAD,WESTPORT,MA,02790,
98,REGIONAL AVENUE,YARMOUTH,MA,02664,
28,CHEVY CHASE ROAD,WORCESTER,MA,01606,
16,VADNAIS STREET,AGAWAM,MA,01001,
158,ROCKY HILL ROAD,HADLEY,MA,01035,
22,WALNUT STREET,FREETOWN,MA,02702,
26,COLD SPRING ROAD,WESTFORD,MA,01886,
65,SHEFFORD STREET,SPRINGFIELD,MA,01107,
1,TISBERT WAY,PLAINVILLE,MA,02762,
65,WESTLAND AVENUE,BOSTON,MA,02115,102
7,CHARLES STREET,WESTBOROUGH,MA,01581,2
22,YORKTOWN COURT,CHICOPEE,MA,01020,
264,TONSET ROAD,ORLEANS,MA,02653,
70,EAST DRUID HILL AVENUE,RANDOLPH,MA,02368,
5,COTTAGE STREET,PROVINCETOWN,MA,02657,12
136,CITY VIEW ROAD,WESTFIELD,MA,01085,7
55,MURRAY ROAD,NEWTON,MA,02466,
22,BICENTENNIAL COURT,MANSFIELD,MA,02048,
102,INDIAN TRAIL,PEMBROKE,MA,02359,
75,FEDERAL STREET,BOSTON,MA,02110,
73,STATE STREET,SPRINGFIELD,MA,01103,210
10,KNOWLTON AVENUE,WORCESTER,MA,01603,2
10,PINKHAM CIRCLE,NANTUCKET,MA,02554,
6,TILLER DRIVE,FALMOUTH,MA,02536,
11,EGRET WAY,MATTAPAN,MA,02126,
4,COLUMBUS AVENUE,TAUNTON,MA,02780,
24,MARION ROAD,BEDFORD,MA,01730,
1376,WASHINGTON STREET,NORWOOD,MA,02062,
43,DAVIS STREET,FALL RIVER,MA,02720,2
550,TEATICKET HIGHWAY,FALMOUTH,MA,02536,701
3,VALE ROAD,WAKEFIELD,MA,01880,
10,JORDAN LANE,FREETOWN,MA,02717,
881,HUNTINGTON AVENUE,ROXBURY,MA,02115,8
20,AUBURN STREET,CHARLESTOWN,MA,02129,
60,HOLLYWOOD STREET,SPRINGFIELD,MA,01108,3
91,MONARCH STREET,LEOMINSTER,MA,01453,
193,WEST STREET,WARE,MA,01082,2
30,EDNA CIRCLE,NORTH BROOKFIELD,MA,01535,
21,SEYMOUR STREET,ROSLINDALE,MA,02131,1
8,REV THOMAS HOOKER ROAD,WESTBOROUGH,MA,01581,
10,DALTON STREET,BOSTON,MA,02115,
15,FAUNCE ROAD,MATTAPAN,MA,02126,
38,WALCHENBACH CIRCLE,PITTSFIELD,MA,01201,
85,RIVERBANK ROAD,NORTHAMPTON,MA,01060,1
44,YORK STREET,NANTUCKET,MA,02554,
173,LINDEN STREET,FALL RIVER,MA,02720,2
28,11TH STREET,MONTAGUE,MA,01376,5
49,EVERTON AVENUE,WORCESTER,MA,01604,
75,LONGHILL STREET,SPRINGFIELD,MA,01108,
251,HAWKES ROAD,WARREN,MA,01083,
47,FAIRBANKS ROAD,BROCKTON,MA,02302,
50,FAIRLAWN AVENUE,MATTAPAN,MA,02126,
10,CARRIE CIRCLE,SHREWSBURY,MA,01545,
19,CARR ROAD,BERLIN,MA,01503,
33,BREWSTER ROAD,MEDFORD,MA,02155,
,BELLEVILLE ROAD,NEW BEDFORD,MA,02745,
51,COLD SPRING ROAD,SOUTHAMPTON,MA,01073,
5,MORNINGSIDE DRIVE,BILLERICA,MA,01821,
26,ANTIOCH ROAD,FALMOUTH,MA,02540,
71,CLEWLEY ROAD,MEDFORD,MA,02155,
138,EAST CENTRAL STREET,FRANKLIN,MA,02038,
54,MAYER DRIVE,HOLYOKE,MA,01040,
70,SOUTHBRIDGE STREET,WORCESTER,MA,01608,1006
9,LAUREL PARK,NORTHAMPTON,MA,01060,
47,THOMPSON STREET,NEW BEDFORD,MA,02740,
24,HIGH STREET,MALDEN,MA,02148,
32,PERKINS STREET,SALEM,MA,01970,
108,HARRISON AVENUE,ORANGE,MA,01364,
307,CABOT STREET,NEWTON,MA,02460,3
500,FALLS BOULEVARD,QUINCY,MA,02169,
89,DANIELS STREET,FRANKLIN,MA,02038,
10,RIVER ROAD,SOMERVILLE,MA,02145,
71,EASTON STREET,NANTUCKET,MA,02554,
11,SPRUCE GROVE ROAD,HARWICH,MA,02645,
1239,BERKSHIRE AVENUE,INDIAN ORCHARD,MA,01151,
68,COOK AVENUE,CHELSEA,MA,02150,1
1374,BROADWAY,SOMERVILLE,MA,02144,
1,HAMILTON PLACE,HARWICH,MA,02671,
18,WYNDCLIFF DRIVE,ACTON,MA,01720,
167,WHITNEY STREET,LEOMINSTER,MA,01453,3
15,LIBERTY LANE,OXFORD,MA,01540,
135,OCEANSIDE DRIVE,SCITUATE,MA,02066,
25,FOSTER STREET,WORCESTER,MA,01608,
25,SEARS ISLAND DRIVE,WORCESTER,MA,01606,
25,WILDWOOD DRIVE,BEDFORD,MA,01730,
1160,MAIN STREET,WORCESTER,MA,01603,
3,PLEASANT STREET,SALEM,MA,01970,
29,GITCHE GUMEE ROAD,WAREHAM,MA,02532,
73,NORTH COMMON STREET,LYNN,MA,01902,
141,MILL STREET,SPRINGFIELD,MA,01108,
22,KING STREET,PEABODY,MA,01960,
83,SILVER STREET,SPRINGFIELD,MA,01107,
387,CANTON STREET,FITCHBURG,MA,01420,
134,FULTON STREET,BOSTON,MA,02109,
29,ROYAL CREST DRIVE,MARLBOROUGH,MA,01752,4
41,INDEPENDENCE AVENUE,BRAINTREE,MA,02184,411
33,WEST JENNESS STREET,LOWELL,MA,01851,
7,SEAPORT DRIVE,QUINCY,MA,02171,509
502,OLD CONNECTICUT PATH,FRAMINGHAM,MA,01701,
93,GROCHMAL AVENUE,INDIAN ORCHARD,MA,01151,50
19,PILGRIM WAY,NEW BEDFORD,MA,02745,
46,MAXWELL STREET,DORCHESTER,MA,02124,
4,BALSAM DRIVE,ACTON,MA,01720,
21,SUPPLE ROAD,DORCHESTER,MA,02121,2
418,ANTHONY STREET,FALL RIVER,MA,02721,2
942,GRAYSON DRIVE,SPRINGFIELD,MA,01119,
42,ROBINSON STREET,DORCHESTER,MA,02122,3
193,BOW STREET,EVERETT,MA,02149,1
257,PINE STREET,LOWELL,MA,01851,
24,GROVER STREET,MALDEN,MA,02148,
1576,TREMONT STREET,ROXBURY,MA,02120,3
880,EAST STREET,LEE,MA,01238,
1231,WEST ROAD,ASHFIELD,MA,01096,
27,PLEASANT STREET,SAUGUS,MA,01906,
,ORCHARD HILL DRIVE,OXFORD,MA,01540,
324,OCEAN STREET,HYANNIS,MA,02601,
6,RAINBOW DRIVE,WORCESTER,MA,01605,
50,RUTLAND STREET,WATERTOWN,MA,02472,
80,MYRTLE STREET,BOSTON,MA,02114,9
171,LITTLETON COUNTY ROAD,HARVARD,MA,01451,
137,JEFFERSON AVENUE,EVERETT,MA,02149,
75,CAMBRIDGE PARKWAY,CAMBRIDGE,MA,02142,
69,GLENDALE ROAD,QUINCY,MA,02169,
9,HILLCREST ROAD,WOBURN,MA,01801,
21,AUBURN STREET,WOBURN,MA,01801,
189,HIGHLAND STREET,TAUNTON,MA,02780,
46,JUNIPER ROAD,AVON,MA,02322,
,MAXFIELD STREET,NEW BEDFORD,MA,02740,
273,WEST MAIN STREET,MARLBOROUGH,MA,01752,2
7,TOTMAN DRIVE,WOBURN,MA,01801,12
41,MAPLE STREET,EASTHAMPTON,MA,01027,2
154,CEDAR STREET,SOMERVILLE,MA,02144,
1867,MIDDLESEX STREET,LOWELL,MA,01851,102
26,HYDE PARK AVENUE,JAMAICA PLAIN,MA,02130,
29,LOCUST STREET,DANVERS,MA,01923,
34,THAYER POND DRIVE,OXFORD,MA,01537,4
9,GEMINI DRIVE,NEW BEDFORD,MA,02745,
219,LAKEWOOD DRIVE,STOUGHTON,MA,02072,
31,TORI LEIGH LANE,REHOBOTH,MA,02769,
402,HEMENWAY STREET,MARLBOROUGH,MA,01752,223
5,EDGE HILL STREET,JAMAICA PLAIN,MA,02130,2
20,HEMENWAY STREET,BOSTON,MA,02115,35
48,JERRY STREET,FITCHBURG,MA,01420,
87,FARMINGTON CIRCLE,MARLBOROUGH,MA,01752,
1365,MASSACHUSETTS AVENUE,ARLINGTON,MA,02476,
8,VISTA AVENUE,SALEM,MA,01970,
2080,NORTHAMPTON STREET,HOLYOKE,MA,01040,
93,OLEAN STREET,WORCESTER,MA,01602,
93,CONSTITUTION DRIVE,FITCHBURG,MA,01420,
11,JOYCE STREET,MARSHFIELD,MA,02050,
20,WHEATLAND AVENUE,CHICOPEE,MA,01020,
18,BEULAH STREET,FRAMINGHAM,MA,01701,2
25,LEAMY STREET,GARDNER,MA,01440,
11,BRIDGEMAN LANE,SOUTH HADLEY,MA,01075,
62,OLDE FIELD ROAD,NEWTON,MA,02459,
9,DUKE STREET,MATTAPAN,MA,02126,2
48,CARLOTTA AVENUE,HYANNIS,MA,02601,
51,CLAYPIT HILL ROAD,WAYLAND,MA,01778,
116,UNION PARK STREET,BOSTON,MA,02118,
517,CHARLTON STREET,SOUTHBRIDGE,MA,01550,
15,HENLEY STREET,CHARLESTOWN,MA,02129,
50,ROSA STREET,HYDE PARK,MA,02136,1
494,WEBSTER STREET,MARSHFIELD,MA,02050,2
234,LINWOOD STREET,BROCKTON,MA,02301,
29,LELAND STREET,JAMAICA PLAIN,MA,02130,
90,MCKINSTRY AVENUE,CHICOPEE,MA,01013,218
45,WILLOW STREET,SPRINGFIELD,MA,01103,339
83,KENDALL HILL ROAD,STERLING,MA,01564,
55,WAVE WAY,WINTHROP,MA,02152,1
87,WHALERS WALK,EDGARTOWN,MA,02539,
250,COUNTRY DRIVE,WESTON,MA,02493,
48,GLEN ROCK AVENUE,MALDEN,MA,02148,
678,WASHINGTON STREET,LYNN,MA,01901,110
200,LEISURE LANE,STONEHAM,MA,02180,31
68,FREMONT STREET,MATTAPAN,MA,02126,
432,PLACE LANE,WOBURN,MA,01801,
2894,WASHINGTON STREET,ROXBURY,MA,02119,
23,WESLEY PARK,SOMERVILLE,MA,02143,
173,ALDEN STREET,SPRINGFIELD,MA,01109,
254,LINCOLN AVENUE,SAUGUS,MA,01906,
41,OAKVIEW TERRACE,JAMAICA PLAIN,MA,02130,
3,GIACINTA WAY,NORTH ATTLEBOROUGH,MA,02760,
148,BROADWAY,WAKEFIELD,MA,01880,
15,WELLESLEY STREET,SPRINGFIELD,MA,01109,
20,SVEA STREET,WORCESTER,MA,01607,
11,WAGER LANE,SOUTH DENNIS,MA,02660,
46,RAILROAD STREET,LEE,MA,01238,312
17,GORMANS COURT,WALTHAM,MA,02451,
106,GERRY ROAD,BROOKLINE,MA,02467,
21,SARATOGA STREET,EAST BOSTON,MA,02128,2
,VETERANS MEMORIAL DRIVE,PEABODY,MA,01960,
10,BOXFORD TERRACE,WEST ROXBURY,MA,02132,1
108,NORTH MAIN STREET,UXBRIDGE,MA,01569,
1062,NORTH MAIN STREET,BROCKTON,MA,02301,2
86,ROBINSON STREET,LYNN,MA,01905,2
50,CHARLESGATE  EAST,BOSTON,MA,02215,191
230,KELLEY BOULEVARD,NORTH ATTLEBOROUGH,MA,02760,
42,MARLBORO ROAD,WOBURN,MA,01801,
911,BROCK AVENUE,NEW BEDFORD,MA,02744,
99,NYES NECK ROAD EAST,CENTERVILLE,MA,02632,
78,BERKELEY STREET,BOSTON,MA,02116,1
251,SUNDERLAND ROAD,WORCESTER,MA,01604,
771,BRADLEY ROAD,SPRINGFIELD,MA,01119,
,WALL STREET,WALTHAM,MA,02453,
22,BOWERS STREET,LOWELL,MA,01854,703
47,NORTH FARMS ROAD,FLORENCE,MA,01062,
37,EGREMONT ROAD,BRIGHTON,MA,02135,3
1655,FALL RIVER AVENUE,SEEKONK,MA,02771,2
36,PROSPECT STREET,FALL RIVER,MA,02720,
36,SACARRAPPA ROAD,OXFORD,MA,01540,
16,LONG MEADOW ROAD,WESTFORD,MA,01886,
237,EVERETT STREET,EAST BOSTON,MA,02128,
201,PICNIC STREET,BOXBOROUGH,MA,01719,
78,SAGAMORE STREET,QUINCY,MA,02171,
74,MANET ROAD,NEWTON,MA,02467,1
118,CASWELL STREET,NEW BEDFORD,MA,02745,
33,BROOK DRIVE,FAIRHAVEN,MA,02719,
48,CHATHAM ROAD,EVERETT,MA,02149,
804,WOBURN STREET,WILMINGTON,MA,01887,
1,LONGFELLOW PLACE,BOSTON,MA,02114,2724
670,MONTGOMERY STREET,FALL RIVER,MA,02720,
164,GALEN STREET,WATERTOWN,MA,02472,21
110,WASHINGTON PARK,NEWTON,MA,02460,3
42,CUNARD STREET,ROXBURY,MA,02120,2
124,HAYDENVILLE ROAD,LEEDS,MA,01053,
181,PENINSULA DRIVE,LUNENBURG,MA,01462,
16,DRESDEN STREET,JAMAICA PLAIN,MA,02130,
3,WALNUT STREET,MILLIS,MA,02054,
98,MAPLE STREET,DOUGLAS,MA,01516,
2,ARBROTH STREET,DORCHESTER,MA,02122,
40,SWAIN ROAD,CHELMSFORD,MA,01863,
21,SEAVERNS AVENUE,JAMAICA PLAIN,MA,02130,2
61,PARK STREET,ATTLEBORO,MA,02703,
,AMES STREET,SPRINGFIELD,MA,01104,
1023,GARDNERS NECK ROAD,SWANSEA,MA,02777,
,WINTER STREET,WILMINGTON,MA,01887,
87,NORTH SKYLINE DRIVE,CHATHAM,MA,02633,
11,ARBOR COURT,BURLINGTON,MA,01803,
31,MOCKINGBIRD LANE,MAYNARD,MA,01754,
136,SEAVER STREET,ROXBURY,MA,02121,27
,SALEM STREET,BOSTON,MA,02113,
45,GRAND STREET,WORCESTER,MA,01610,320
164,BITTERSWEET LANE,RANDOLPH,MA,02368,359
153,SOUTH STREET,LYNN,MA,01905,
140,RUN HILL ROAD,BREWSTER,MA,02631,
44,PHINS HILL MANOR,GRANBY,MA,01033,
25,PORTER ROAD,ANDOVER,MA,01810,
14,MICA LANE,WELLESLEY,MA,02481,210
17,WARWICK AVENUE,WALTHAM,MA,02452,
28,MYOPIA ROAD,HYDE PARK,MA,02136,
1738,WASHINGTON STREET,BOSTON,MA,02118,
300,WEST FARM POND ROAD,FRAMINGHAM,MA,01702,230
334,HARVARD STREET,CAMBRIDGE,MA,02139,
18,COTTAGE AVENUE,WINTHROP,MA,02152,
45,STARBUCK ROAD,NANTUCKET,MA,02554,
27,TASHAMA LANE,NANTUCKET,MA,02554,
15,LAKEVIEW GARDENS,NATICK,MA,01760,104
178,INDIAN POND ROAD,KINGSTON,MA,02364,
11,HILLCREST ROAD,FOXBOROUGH,MA,02035,6
56,SAINT JOSEPH STREET,FALL RIVER,MA,02723,502
174,MILLSTONE ROAD,BREWSTER,MA,02631,
35,TAMPA STREET,WORCESTER,MA,01604,1
15,CAROLINE AVENUE,SHREWSBURY,MA,01545,
51,BANCROFT STREET,SPRINGFIELD,MA,01107,
14,FERNALD DRIVE,CAMBRIDGE,MA,02138,31
15,WINTER STREET,EDGARTOWN,MA,02539,
64,BANCROFT PARK,HOPEDALE,MA,01747,
1731,BEACON STREET,BROOKLINE,MA,02445,524
102,DEXTER STREET,ATTLEBORO,MA,02703,
23,SOUTH STREET,PLYMOUTH,MA,02360,3
11,MOODY STREET,QUINCY,MA,02169,
17,WINTHROP STREET,WALPOLE,MA,02081,
108,WEST STREET,HADLEY,MA,01035,
34,LAUREL WOODS DRIVE,TOWNSEND,MA,01474,
54,SPRUCE STREET,MILTON,MA,02186,
253,MAIN STREET,MEDFIELD,MA,02052,
95,MARY ANN WAY,NORTH ATTLEBOROUGH,MA,02760,
276,ADAMS STREET,NEWTON,MA,02458,
34,PARK STREET,OXFORD,MA,01540,
6,HUBLEY LANE,SOUTHBOROUGH,MA,01772,
76,LONDONDERRY ROAD,GRAFTON,MA,01519,
92,WILMONT STREET,SPRINGFIELD,MA,01108,
931,MASSACHUSETTS AVENUE,CAMBRIDGE,MA,02139,1101
331,DODGE STREET,BEVERLY,MA,01915,
9,SYCAMORE STREET,WESTFIELD,MA,01085,
127,SOUTH WALNUT STREET,QUINCY,MA,02169,
10,GRANDVIEW AVENUE,WATERTOWN,MA,02472,
396,BEECH STREET,ROSLINDALE,MA,02131,
10,CROSS STREET,PLYMPTON,MA,02367,
31,SUNSET DRIVE,CHARLTON,MA,01507,
9,HIGHLAND CIRCLE,WAYLAND,MA,01778,
556,CENTRAL STREET,LEOMINSTER,MA,01453,147
44,VALLEY ROAD,DORCHESTER,MA,02124,
203,ROLLING RIDGE ROAD,AMHERST,MA,01002,
75,BEACON STREET,SOMERVILLE,MA,02143,
40,KINGMAN STREET,BROCKTON,MA,02302,
15,CONDITO ROAD,HINGHAM,MA,02043,155
308,OAK STREET,BROCKTON,MA,02301,
9,HILL STREET,EASTON,MA,02375,
80,GREELEY STREET,CLINTON,MA,01510,
761,LEYDEN ROAD,GREENFIELD,MA,01301,
100,CENTRE STREET,BROOKLINE,MA,02446,814
117,COLUMBIA STREET,BROOKLINE,MA,02446,1
420,RESERVOIR AVENUE,REVERE,MA,02151,114
1,INGERSOLL ROAD,WELLESLEY,MA,02481,
7,HEATHER LANE,MANSFIELD,MA,02048,
27,CHESTNUT HILL DRIVE,WESTPORT,MA,02790,
188,CITY DEPOT ROAD,CHARLTON,MA,01507,
193,HURLEY STREET,CAMBRIDGE,MA,02141,
41,KNOB HILL STREET,SHARON,MA,02067,
512,TALBOT AVENUE,DORCHESTER,MA,02124,3
21,VALLAR ROAD,EAST BOSTON,MA,02128,122
180,LOWE STREET,LEOMINSTER,MA,01453,
32,FLORIAN STREET,ROSLINDALE,MA,02131,1
13,ACADEMY AVENUE,FAIRHAVEN,MA,02719,1
17,SEAVIEW AVENUE,FAIRHAVEN,MA,02719,
875,PIKE AVENUE,ATTLEBORO,MA,02703,
50,ROCHFORD CIRCLE,SPRINGFIELD,MA,01129,
12,PLANTATION CIRCLE,WESTFIELD,MA,01085,
35,EAST CONCORD STREET,BOSTON,MA,02118,4
6,GROVE STREET,MILFORD,MA,01757,2
13,WEST STREET,DOUGLAS,MA,01516,203
35,CURRAN ROAD,LYNN,MA,01905,
6,GARDNER PLACE,LEOMINSTER,MA,01453,
350,UNION STREET,LEOMINSTER,MA,01453,
12,ACORN ROAD,DENNIS,MA,02660,
401,BORDER STREET,EAST BOSTON,MA,02128,101
100,CONZ STREET,NORTHAMPTON,MA,01060,1
43,WINSHIP AVENUE,PITTSFIELD,MA,01201,
91,CLAY STREET,QUINCY,MA,02170,810
1131,TRAPELO ROAD,WALTHAM,MA,02451,
21,TROWBRIDGE CIRCUIT,WORCESTER,MA,01603,
95,COHASSET STREET,WORCESTER,MA,01604,3
940,CRESCENT STREET,NEW BEDFORD,MA,02745,1
134,WASHINGTON STREET,MARBLEHEAD,MA,01945,8
780,MAIN STREET,WEYMOUTH,MA,02190,
4,ELBOW STREET,EAST BOSTON,MA,02128,1
58,FREMONT AVENUE,CHELSEA,MA,02150,2
420,RESERVOIR AVENUE,REVERE,MA,02151,213
9,STONE STREET,GARDNER,MA,01440,
162,ASHMONT STREET,DORCHESTER,MA,02124,1
10,HARBOR MEADOWS LANE,WESTPORT,MA,02790,
80,WILSON STREET,CLINTON,MA,01510,
3,MONMOUTH STREET,EAST BOSTON,MA,02128,
180,BERRY AVENUE,YARMOUTH,MA,02673,
64,SOUTHGATE STREET,WORCESTER,MA,01610,1
534,LINCOLN STREET,MARLBOROUGH,MA,01752,
1510,SOUTH EAST STREET,AMHERST,MA,01002,
1,BROOKSIDE DRIVE,FOXBOROUGH,MA,02035,
66,LITTLE MUGGETT ROAD,CHARLTON,MA,01507,
219,REVERE STREET,REVERE,MA,02151,
30,HANE ROAD,MARSTONS MILLS,MA,02668,
14,GRIZZLY DRIVE,RUTLAND,MA,01543,
448,MAIN STREET,AGAWAM,MA,01001,
14,SANFORD STREET,MEDWAY,MA,02053,14
206,EAST FALMOUTH HIGHWAY,FALMOUTH,MA,02536,
313,LINDEN STREET,HOLYOKE,MA,01040,
80,CATHARINE STREET,SPRINGFIELD,MA,01109,
25,WOODLAWN AVENUE,CHELSEA,MA,02150,
65,MAIN STREET,HUDSON,MA,01749,19
494,RIVET STREET,NEW BEDFORD,MA,02740,3
90,PLEASANT STREET,WAKEFIELD,MA,01880,
86,BROOKLEY ROAD,JAMAICA PLAIN,MA,02130,3
80,BOSTON ROAD,BILLERICA,MA,01862,
10,DIANA CIRCLE,MILFORD,MA,01757,
481,HILL STREET,RAYNHAM,MA,02767,
69,RAGGED HILL ROAD,WEST BROOKFIELD,MA,01585,
200,RICHARDSON ROAD,CHELMSFORD,MA,01863,
36,BANGOR STREET,SPRINGFIELD,MA,01118,
21,LOCUST STREET,DANVERS,MA,01923,2
89,NORTHSIDE ROAD,CHARLTON,MA,01507,
128,CURTIS AVENUE,ATTLEBORO,MA,02703,
27,YALE AVENUE,PLYMOUTH,MA,02360,
209,KELTON STREET,BRIGHTON,MA,02134,
21,GREENLEAF STREET,SPRINGFIELD,MA,01108,
32,HORTON STREET,ATTLEBORO,MA,02703,
50,WHEATLAND AVENUE,DORCHESTER,MA,02124,1
86,MONMOUTH STREET,BROOKLINE,MA,02446,
296,PHILLIPS STREET,HANSON,MA,02341,
1035,BEDFORD STREET,ABINGTON,MA,02351,102
36,CAUSEWAY STREET,MILLIS,MA,02054,
14,NELSON STREET,NORTH ADAMS,MA,01247,
75,PACKARD AVENUE,SOMERVILLE,MA,02144,152
130,DARTMOUTH STREET,BOSTON,MA,02116,805
9,COLLINS STREET,SALEM,MA,01970,2
42,JOHN STREET,READING,MA,01867,
55,KLONDIKE AVENUE,FITCHBURG,MA,01420,
347,LAFAYETTE STREET,SALEM,MA,01970,
7,HAMBLIN HILL ROAD,YARMOUTH,MA,02675,
1,EAGLE WAY,ANDOVER,MA,01810,
14,GAIL AVENUE,HAMILTON,MA,01982,
191,BURBANK STREET,PITTSFIELD,MA,01201,
87,CEDAR STREET,LEXINGTON,MA,02421,
35,TEMI ROAD,BROCKTON,MA,02302,
192,WARREN AVENUE,BROCKTON,MA,02301,8
114,RIVERSIDE AVENUE,NEW BEDFORD,MA,02746,143
147,FAY ROAD,FRAMINGHAM,MA,01702,
4,MEETING HOUSE LANE,HANSON,MA,02341,
11,ELECTRIC AVENUE,BROCKTON,MA,02302,
74,SCHOOL STREET,EDGARTOWN,MA,02539,
1103,READ STREET,SOMERSET,MA,02726,
49,JAMES STREET,BELLINGHAM,MA,02019,
235,ALBION STREET,FALL RIVER,MA,02723,
,SUGARLOAF STREET,SOUTH DEERFIELD,MA,01373,
113,BRANDYWINE ROAD,FRANKLIN,MA,02038,
16,HEMLOCK LANE,MILFORD,MA,01757,
3,RIDGEWOOD CROSSING,HINGHAM,MA,02043,
59,GREENVILLE DRIVE,SANDWICH,MA,02644,
81,SHREWSBURY STREET,BOYLSTON,MA,01505,22
1,YELVERTON LANE,YARMOUTH,MA,02673,
4,CROWS FEET LANE,HARWICH,MA,02645,
11,FOSTER STREET,ARLINGTON,MA,02474,1
14,CRANCH STREET,QUINCY,MA,02169,
70,PARKER HILL AVENUE,ROXBURY,MA,02120,44
50,CARDINAL DRIVE,AGAWAM,MA,01001,237
60,CHESTNUT STREET,STOUGHTON,MA,02072,2
11,OVERLOOK RIDGE DRIVE,REVERE,MA,02151,116
31,MAY STREET,SPENCER,MA,01562,
5,BIRCHWOOD DRIVE,SOUTHAMPTON,MA,01073,
208,JOHN STREET,FALL RIVER,MA,02721,1
123,BEACH STREET,BOSTON,MA,02111,301
56,NORTH COUNTY ROAD,FLORIDA,MA,01247,
30,CLIFFSIDE DRIVE,PLYMOUTH,MA,02360,
24,NORTH MILTON STREET,MALDEN,MA,02148,
2,ROBERTSON ROAD,AUBURN,MA,01501,
104,SUDBURY ROAD,CONCORD,MA,01742,
820,MASSACHUSETTS AVENUE,CAMBRIDGE,MA,02139,213
19,ATWATER DRIVE,FALMOUTH,MA,02536,
547,RUTHERFORD AVENUE,CHARLESTOWN,MA,02129,2
775,NORWEST DRIVE,NORWOOD,MA,02062,
50,HARTS HILL ROAD,WAKEFIELD,MA,01880,210
33,CONNELLY HILL ROAD,HOPKINTON,MA,01748,
93,GREEN MEADOW LANE,WEST SPRINGFIELD,MA,01089,
17,PARK STREET,STONEHAM,MA,02180,2
35,CHESTER STREET,SPRINGFIELD,MA,01105,
380,HILLMAN STREET,NEW BEDFORD,MA,02740,
29,SAINT JAMES STREET,ROXBURY,MA,02119,
123,JAMESTOWN DRIVE,SPRINGFIELD,MA,01108,
825,PENDLETON AVENUE,CHICOPEE,MA,01020,
85,LINDEN DRIVE,COHASSET,MA,02025,
28,EDMANDS ROAD,FRAMINGHAM,MA,01701,56
,NEVADA STREET,NEWTON,MA,02460,
188,WORCESTER PROVIDENCE TURNPIKE,SUTTON,MA,01590,
128,FAWNDALE ROAD,ROSLINDALE,MA,02131,
260,UPPER COUNTY ROAD,DENNISPORT,MA,02639,
16,LAURA CIRCLE,AGAWAM,MA,01001,
159,MOREAU ROAD,BLANDFORD,MA,01034,
64,LILLY STREET,FLORENCE,MA,01062,
30,TREMONT STREET,DUXBURY,MA,02332,
295,SAFFORD STREET,QUINCY,MA,02170,
580,WASHINGTON STREET,BOSTON,MA,02111,
65,LAKE AVENUE,WORCESTER,MA,01604,508
6,DURHAM DRIVE,ANDOVER,MA,01810,
29,PARK CIRCLE,HINGHAM,MA,02043,
80,UPLAND ROAD,CAMBRIDGE,MA,02140,
14,LAKE SHORE TERRACE,BRIGHTON,MA,02135,1
50,WALNUT AVENUE,REVERE,MA,02151,703
2,OLMSTED ROAD,BROOKLINE,MA,02445,
26,MARION AVENUE,NORWOOD,MA,02062,
127,ORANGE ROAD,NORTHFIELD,MA,01360,
27,SHERWOOD ROAD,HINGHAM,MA,02043,
20,SUNSET AVENUE,PLYMOUTH,MA,02360,
44,UNITY AVENUE,BELMONT,MA,02478,
529,COLUMBUS AVENUE,BOSTON,MA,02118,1
50,HASTINGS ROAD,HUDSON,MA,01749,
21,SACHEM STREET,MIDDLEBOROUGH,MA,02346,
121,GASLIGHT DRIVE,WEYMOUTH,MA,02190,8
72,WALKER STREET,LOWELL,MA,01854,3
53,AUBURN STREET,BROCKTON,MA,02302,1
62,CONSTANCE WAY,NORTH ATTLEBOROUGH,MA,02760,
282,HARVARD ROAD,BOLTON,MA,01740,
145,BRECKWOOD BOULEVARD,SPRINGFIELD,MA,01109,
355,HOYTS WHARF ROAD,GROTON,MA,01450,
65,SEARS ROAD,CHATHAM,MA,02633,
14,WHITE PINE ROAD,BOURNE,MA,02532,2
69,RAYMOND AVENUE,SOMERVILLE,MA,02144,
39,BEACON STREET,CHELSEA,MA,02150,1
19,LINWOOD AVENUE,WAREHAM,MA,02571,
460,LINCOLN STREET,MARLBOROUGH,MA,01752,
66,GREENLAWN STREET,SPRINGFIELD,MA,01119,
4,PINE NEEDLE LANE,PEMBROKE,MA,02359,
243,MANTHORNE ROAD,WEST ROXBURY,MA,02132,
47,RESERVOIR STREET,NORTON,MA,02766,
118,SUMMER STREET,WEYMOUTH,MA,02188,
563,FRANKLIN STREET,CAMBRIDGE,MA,02139,
87,HILL AVENUE,FRANKLIN,MA,02038,
240,FAYS AVENUE,LYNN,MA,01904,
1911,DORCHESTER AVENUE,DORCHESTER,MA,02124,
26,CHACE HILL ROAD,STERLING,MA,01564,
71,CHESTER STREET,BRIGHTON,MA,02134,2
1834,MASSACHUSETTS AVENUE,LEXINGTON,MA,02420,
92,WALTER STREET,CHICOPEE,MA,01013,
18,LISA AVENUE,ACUSHNET,MA,02743,
21,ELM STREET,BROOKLINE,MA,02445,1
67,CAVENDISH CIRCLE,SALEM,MA,01970,
18,ABERDEEN,PLYMOUTH,MA,02360,
15,SMITH STREET,BRAINTREE,MA,02184,
15,NEW SUDBURY STREET,BOSTON,MA,02108,
540,COMMONWEALTH AVENUE,BOSTON,MA,02215,
70,BOOTH STREET,NEEDHAM,MA,02494,
12,LONDONDERRY ROAD,MARBLEHEAD,MA,01945,
51,WYCHWOOD HEIGHTS,LITTLETON,MA,01460,
44,WING STREET,NEW BEDFORD,MA,02740,
111,ROCHELLE STREET,SPRINGFIELD,MA,01109,
18,GARDEN STREET,BOSTON,MA,02114,
706,CROSSROADS DRIVE,DARTMOUTH,MA,02747,
26,ROBIN ROAD,WORCESTER,MA,01604,
235,BOLTON STREET,MARLBOROUGH,MA,01752,
2027,CENTRAL STREET,STOUGHTON,MA,02072,1
7,WAGGON ROAD,YARMOUTH,MA,02675,
8,HIGH STREET,ACTON,MA,01720,
64,HOUSATONIC STREET,WORCESTER,MA,01606,
14,LAKESIDE AVENUE,WORCESTER,MA,01603,4
80,DALBY STREET,NEWTON,MA,02458,1
22,GLEASON STREET,DORCHESTER,MA,02121,2
65,CAPTAIN COURTOIS DRIVE,ATTLEBORO,MA,02703,
,NAHATAN STREET,NORWOOD,MA,02062,
114,BRANCH STREET,SCITUATE,MA,02066,11
5,MOHEGAN ROAD,ACTON,MA,01720,
130,EAST HODGES STREET,NORTON,MA,02766,
10,JASPER STREET,WESTBOROUGH,MA,01581,
15,BROOK DRIVE,FAIRHAVEN,MA,02719,
1,HOLLIS ROAD,EASTON,MA,02375,
27,HILL TOP STREET,DORCHESTER,MA,02124,2
20,PHILLIPS STREET,GREENFIELD,MA,01301,1
481,BROOKS ROAD,ATHOL,MA,01331,
70,NOD ROAD,GROTON,MA,01450,
540,NORTH FRONT STREET,NEW BEDFORD,MA,02745,2
1991,COLUMBUS AVENUE,ROXBURY,MA,02119,3
48,LINCOLN STREET,MILLVILLE,MA,01529,
344,SCHOOL STREET,WATERTOWN,MA,02472,
38,NORMANDY STREET,DORCHESTER,MA,02121,3
1919,MIDDLESEX STREET,LOWELL,MA,01851,36
145,BROOKSIDE AVENUE,BROCKTON,MA,02301,2
66,AMHERST ROAD,NEWTON,MA,02468,
7,RIVERVIEW TERRACE,CHICOPEE,MA,01013,
46,RICHARDSON STREET,WOBURN,MA,01801,
221,VALLEY VIEW CIRCLE,WEST SPRINGFIELD,MA,01089,
58,BOWDOIN AVENUE,DORCHESTER,MA,02121,8
20,CHESTNUT AVENUE,JAMAICA PLAIN,MA,02130,1
75,SECOND AVENUE,NEEDHAM,MA,02494,410
13,STILL RIVER ROAD,STERLING,MA,01564,
23,BREED STREET,EAST BOSTON,MA,02128,2
9,OAKWOOD AVENUE,HOLYOKE,MA,01040,
202,K STREET,SOUTH BOSTON,MA,02127,
14,CLAYTON AVENUE,MEDFORD,MA,02155,
,BROOKS STREET,WORCESTER,MA,01606,
15,CURTIS STREET,WESTFIELD,MA,01085,2
10,MYRTLE STREET,WALTHAM,MA,02453,1
41,VAN WINKLE STREET,DORCHESTER,MA,02124,3
54,SLATER STREET,WEBSTER,MA,01570,
87,HUTTLESTON AVENUE,FAIRHAVEN,MA,02719,
31,COLLINS AVENUE,READING,MA,01867,
25,RIVER ROAD,SOMERVILLE,MA,02145,2503
20,LEWIS BAY ROAD,YARMOUTH,MA,02673,
86,WINGS NECK ROAD,BOURNE,MA,02559,
5,RHODE ISLAND AVENUE,YARMOUTH,MA,02673,
36,FRANCESCA AVENUE,SOMERVILLE,MA,02144,2
35,CANTON STREET,WORCESTER,MA,01610,1
115,THORNTON AVENUE,LOWELL,MA,01852,
247,EDGARTOWN-VINEYARD HAVEN ROAD,EDGARTOWN,MA,02539,
271,HURON AVENUE,CAMBRIDGE,MA,02138,2
11,CHAPEL HILL DRIVE,PLYMOUTH,MA,02360,2
43,NORTH STREET,TEWKSBURY,MA,01876,
211,BEACON STREET,WORCESTER,MA,01610,2
18,DANIELS STREET,FRANKLIN,MA,02038,
46,JOHNSTON ROAD,DORCHESTER,MA,02124,
83,MCEACHRON DRIVE,STOUGHTON,MA,02072,
15,DESMOND ROAD,MATTAPAN,MA,02126,
1126,BOYLSTON STREET,BOSTON,MA,02215,506
12,FAIRLAND STREET,ROXBURY,MA,02119,1
323,NORTH STREET,HINGHAM,MA,02043,
740,CENTRAL STREET,LEOMINSTER,MA,01453,
32,HANISCH ROAD,ATTLEBORO,MA,02703,
21,PARKER STREET,AGAWAM,MA,01001,
790,BOYLSTON STREET,BOSTON,MA,02199,
373,NEWPORT AVENUE,ATTLEBORO,MA,02703,2
41,HARMONY CROSSING,EAST BRIDGEWATER,MA,02333,
250,HAMMOND POND PARKWAY,NEWTON,MA,02459,
130,NORTH AVENUE,ATTLEBORO,MA,02703,
504,FRANKLIN STREET,WHITMAN,MA,02382,
40,HOBART STREET,BRIGHTON,MA,02135,
10,GREENSIDE LANE,ACTON,MA,01720,
49,EDMANDS ROAD,FRAMINGHAM,MA,01701,344
,MEAD STREET,CHARLESTOWN,MA,02129,
32,OYSTER POND ROAD,FALMOUTH,MA,02540,
188,SALEM ROAD,BILLERICA,MA,01821,
12,KEITH STREET,WATERTOWN,MA,02472,1
12,HANSON STREET,SOMERVILLE,MA,02143,
22,EAST WINDSOR ROAD,PERU,MA,01235,
70,BROADWAY,CHICOPEE,MA,01020,110
628,MAIN STREET,WOBURN,MA,01801,
9,GARY ROAD,CHELMSFORD,MA,01824,
36,THICKET STREET,ABINGTON,MA,02351,
10,MILL ROAD,BOYLSTON,MA,01505,
41,KENNEDY ROAD,SHARON,MA,02067,
123,SUNSET DRIVE,WESTFIELD,MA,01085,
23,WATSON LANE,WOBURN,MA,01801,
170,SAMOSET AVENUE,QUINCY,MA,02169,
31,MAIN STREET,ASHBURNHAM,MA,01430,
94,NORTH WARREN AVENUE,BROCKTON,MA,02301,1
55,JOUVETTE STREET,NEW BEDFORD,MA,02744,2
10,PAUL X TIVNAN DRIVE,BOYLSTON,MA,01505,
48,WOODLAWN AVENUE,EVERETT,MA,02150,
48,IRVING STREET,BROCKTON,MA,02302,
10,INSTITUTE ROAD,GRAFTON,MA,01536,
21,ALLEN COIT ROAD,HUNTINGTON,MA,01050,
671,MEMORIAL AVENUE,WEST SPRINGFIELD,MA,01089,
159,FRANKLIN STREET,STONEHAM,MA,02180,
100,WATER STREET,FALMOUTH,MA,02543,
,WHITTEMORE AVENUE,CAMBRIDGE,MA,02140,
170,WILLIAMS STREET,LONGMEADOW,MA,01106,
202,BELLEVILLE AVENUE,NEW BEDFORD,MA,02746,
28,ASHMONT ROAD,WELLESLEY,MA,02481,
141,SOUTH STREET,YARMOUTH,MA,02664,
338,THOMPSON ROAD,WEBSTER,MA,01570,328
230,LOWELL STREET,WILMINGTON,MA,01887,
814,GEORGE HANNUM STREET,BELCHERTOWN,MA,01007,
415,RIVER STREET,MATTAPAN,MA,02126,43
14,PROCTOR STREET,SALEM,MA,01970,
99,FLORENCE STREET,MALDEN,MA,02148,413
49,FAIRFIELD PARK,MANSFIELD,MA,02048,
30,CALVERT ROAD,WALPOLE,MA,02032,
20,HYNES AVENUE,QUINCY,MA,02169,3
25,GOFF TERRACE,CENTERVILLE,MA,02632,
11,EDWARDS STREET,FRAMINGHAM,MA,01701,2
6,BAY STREET,BEVERLY,MA,01915,
4,WELLINGTON LANE,CAMBRIDGE,MA,02141,
52,PITMAN STREET,FALL RIVER,MA,02723,
202,CENTRAL STREET,STONEHAM,MA,02180,12
814,AMOSTOWN ROAD,WEST SPRINGFIELD,MA,01089,
171,SUMMER ROAD,BOXBOROUGH,MA,01719,
6,ROBIN ROAD,LYNNFIELD,MA,01940,
68,SCHOOL STREET,SOUTHBRIDGE,MA,01550,
38,CLINTON AVENUE,OAK BLUFFS,MA,02568,
23,ERICK ROAD,MANSFIELD,MA,02048,
443,APPLETON STREET,ARLINGTON,MA,02476,
34,COREY STREET,EVERETT,MA,02149,3
46,TRASK ROAD,PEABODY,MA,01960,
,MAGNOLIA WAY,EDGARTOWN,MA,02539,
145,ENGLEWOOD AVENUE,BRIGHTON,MA,02135,21
69,MERRIMAC STREET,NEW BEDFORD,MA,02740,
116,RIVER STREET,MATTAPAN,MA,02126,19
790,BOYLSTON STREET,BOSTON,MA,02199,
40,VIKING ROAD,ORLEANS,MA,02653,
898,SOUTH STREET,ROSLINDALE,MA,02131,
12,YEOMANS AVENUE,MEDFORD,MA,02155,
21,WORCESTER SQUARE,BOSTON,MA,02118,1
69,ALLEY ROAD,ROCHESTER,MA,02770,
