NUMBER,STREET,CITY,STATE,POSTCODE,UNIT
6404,KILLARNEY ST,CLINTON,MD,20735,
2011,CECIL AVE,BALTIMORE,MD,21218,
556,GLEN CT,GLEN BURNIE,MD,21061,
13101,VENANGO ROAD,FORT WASHINGTON,MD,20744,
5202,ELM ST,BETHESDA,MD,20814,
13513,HOLLY LANE,OCEAN CITY,MD,21842,
6625,OLD SOLOMONS ISLAND ROAD,FRIENDSHIP,MD,20758,
8029,DALESFORD ROAD,PARKVILLE,MD,21234,
9012,DORIS DR,FORT WASHINGTON,MD,20744,
3423,WALNUT CT,WALDORF,MD,20602,
18015,EDITH AVE,MAUGANSVILLE,MD,21767,
405,S COLLINGTON AVE,BALTIMORE,MD,21231,
1407,KING WILLIAM DR,CATONSVILLE,MD,21228,
8772,MANAHAN DR,ELLICOTT CITY,MD,21043,
12213,BROKEN LANCE CT,CLINTON,MD,20735,
8045,NEWELL ST,SILVER SPRING,MD,20910,
4803,HOLLYWOOD ROAD,COLLEGE PARK,MD,20740,
17,6TH AVE,BETTERTON,MD,21610,
29020,THOMPSON CORNER ROAD,MECHANICSVILLE,MD,20659,
12213,QUILT PATCH LANE,BOWIE,MD,20720,
8170,TIVERTON DR,PORT TOBACCO,MD,20677,
7116,NEVIS ROAD,BETHESDA,MD,20817,
2005,CHURCH CREEK ROAD,CAMBRIDGE,MD,21613,
6333,GORAL CT,WALDORF,MD,20603,
5818,LAWTON CT,LANHAM,MD,20706,
513,WINDWOOD ROAD,BALTIMORE,MD,21212,
64,WARFIELDSBURG ROAD,WESTMINSTER,MD,21157,
503,SAVAGE ST,HIGHLANDTOWN,MD,21224,
279,COLLEGE MANOR DR,ARNOLD,MD,21012,
45654,FORD DR,LEXINGTON PARK,MD,20653,
120,BURGESS HILL WAY,FREDERICK,MD,21702,
7760,TELEGRAPH ROAD,SEVERN,MD,21144,
12615,PENTENVILLE ROAD,SILVER SPRING,MD,20904,
8609,ASHCROFT DR,LAUREL,MD,20708,
1967,DUTCH VILLAGE DR,HYATTSVILLE,MD,20785,
903,PINE ROAD,JOPPA,MD,21085,
8009,ADMIRALTY PL,FREDERICK,MD,21701,
102,GWEN DR,FOREST HILL,MD,21050,
9203,PINENUT CT,LAUREL,MD,20723,
238,SEVERN ROAD,MILLERSVILLE,MD,21108,
2821,OVERLAND AVE,BALTIMORE,MD,21214,
517,SHADY GLEN DR,CAPITOL HEIGHTS,MD,20743,
14324,SHOREHAM DR,SILVER SPRING,MD,20905,
2209,PHILADELPHIA AVE,OCEAN CITY,MD,21842,
12801,HOLIDAY LANE,BOWIE,MD,20716,
7815,EDMUNDS WAY,ELKRIDGE,MD,21075,
9701,FIELDS ROAD,GAITHERSBURG,MD,20878,
809,LYNDHURST ST,CARROLL,MD,21229,
628,SCHLEY AVE,FREDERICK,MD,21702,
1720,AMUSKAI ROAD,PARKVILLE,MD,21234,
4836,BOWLAND AVE,RASPEBURG,MD,21206,
807,KAREN DR,KINGSVILLE,MD,21087,
18422,GUILDBERRY DR,GAITHERSBURG,MD,20879,
214,E WASHINGTON ST,HAGERSTOWN,MD,21740,
7916,OAK ROAD,PASADENA,MD,21122,
2640,ASHLAND AVE,BALTIMORE,MD,21205,
3700,LIVERPOOL PL,SILVER SPRING,MD,20906,
540,BURLINGTON CT,EDGEWOOD,MD,21040,
2418,PARK MILLS ROAD,ADAMSTOWN,MD,21710,
1507,CHILWORTH AVE,MIDDLE RIVER,MD,21220,
2504,KINGSWAY ROAD,FORT WASHINGTON,MD,20744,
8010,MAPLE RIDGE ROAD,BETHESDA,MD,20814,
3101,KINGSWAY CT,FORT WASHINGTON,MD,20744,
11603,MONTICELLO AVE,SILVER SPRING,MD,20902,
11305,BROKEN BOW CT,BELTSVILLE,MD,20705,
2636,LAURETTA AVE,FRANKLIN,MD,21223,
15320,JENKINS RIDGE ROAD,BOWIE,MD,20721,
1305,WOODSHOLE ROAD,TOWSON,MD,21286,
561,HALL CT,HAVRE DE GRACE,MD,21078,
7714,SAVANNAH DR,BETHESDA,MD,20817,
22,AMWICH CT,WALDORF,MD,20602,
704,N KENWOOD AVE,BALTIMORE,MD,21205,
13740,NIGHT SKY DR,SILVER SPRING,MD,20906,
3023,FRISBY ST,BALTIMORE,MD,21218,
708,ROYAL MILE DR,ABINGDON,MD,21009,
8307,DEERSTILL WAY,CLINTON,MD,20735,
4910,BROOKEVILLE ROAD,BROOKEVILLE,MD,20833,
113,ELIZABETH ST,SALISBURY,MD,21801,
261,HICKORY RIDGE DR,QUEENSTOWN,MD,21658,
4245,LILAC LANE,ELLICOTT CITY,MD,21042,
1631,N BRADFORD ST,CLIFTON,MD,21213,
11505,STONEWOOD LANE,ROCKVILLE,MD,20852,
3307,LOWELL LANE,IJAMSVILLE,MD,21754,
12513,OCEAN GATEWAY,OCEAN CITY,MD,21842,
3460,DUNRAN ROAD,DUNDALK,MD,21222,
8100,MURPHY ROAD,FULTON,MD,20759,
8614,BEECHNUT CT,ELLICOTT CITY,MD,21043,
5752,FLAGFLOWER PL,COLUMBIA,MD,21045,
54,ELDRID DR,SILVER SPRING,MD,20904,
2151,GRAYTHORNE ROAD,MIDDLE RIVER,MD,21220,
2226,MONTAUK DR,CROFTON,MD,21114,
12923,OLD FORT ROAD,FORT WASHINGTON,MD,20744,
2100,N BALTIMORE AVE,OCEAN CITY,MD,21842,
1706,PLYMOUTH CT,BOWIE,MD,20716,
11400,FEATHERBED LANE NW,CUMBERLAND,MD,21502,
816,PETINOT PL,STEVENSVILLE,MD,21666,
9648,GREEN MOON PATH,COLUMBIA,MD,21046,
9223,FEATHERED HEAD,COLUMBIA,MD,21045,
1000,TYLER CT,WALDORF,MD,20602,
745,MIDDLESEX ROAD,ESSEX,MD,21221,
1561,WADSWORTH WAY,NORTHWOOD,MD,21239,
125,SCOTT ST,BALTIMORE,MD,21201,
11336,CHERRY HILL ROAD,BELTSVILLE,MD,20705,
14034,CASTLE RIDGE WAY,SILVER SPRING,MD,20904,
4246,DRAKE CT,WALDORF,MD,20603,
609,DELMAR ROAD,EDGEWATER,MD,21037,
4410,FIELDGREEN ROAD,NOTTINGHAM,MD,21236,
606,E SEMINARY AVE,TOWSON,MD,21286,
9910,EVERGREEN AVE,COLUMBIA,MD,21046,
1224,N CALVERT ST,BALTIMORE,MD,21202,
3210,OLD WASHINGTON ROAD,WALDORF,MD,20602,
1827,LIGHT ST,MORRELL PARK,MD,21230,
6910,CARIBOU CT,WALDORF,MD,20603,
7199,BROAD ST,PARSONSBURG,MD,21849,
16826,HAMPTON ROAD,WILLIAMSPORT,MD,21795,
3225,PAGEWAY CT,HUNTINGTOWN,MD,20639,
110,S WILTSHIRE CT,LA PLATA,MD,20646,
4504,JOHN AVE,HALETHORPE,MD,21227,
8211,GAMBRILL PARK ROAD,FREDERICK,MD,21702,
28372,OAKLANDS ROAD,EASTON,MD,21601,
7808,SPINNAKER ROAD,LAUREL,MD,20707,
181,GITTINGS AVE,GOVANS,MD,21212,
10101,QUEENS CIR,OCEAN CITY,MD,21842,
7604,HARRISON LANE,TEMPLE HILLS,MD,20748,
3,HIGH SIDE CT,OWINGS MILLS,MD,21117,
122,OLD SOUND ROAD,JOPPA,MD,21085,
3906,DADO CT,BOWIE,MD,20721,
47,N CATHERINE ST,FRANKLIN,MD,21223,
314,CHESTER CT,CENTREVILLE,MD,21617,
12307,GERONIMO DR,NEWBURG,MD,20664,
3405,WELTHAM ST,SUITLAND,MD,20746,
8809,38TH AVE,COLLEGE PARK,MD,20740,
9276,ADELPHI ROAD,HYATTSVILLE,MD,20783,
100,CHAPEL CT,WALKERSVILLE,MD,21793,
24,W BEL AIR AVE,ABERDEEN,MD,21001,
10306,HARMONY ROAD,MYERSVILLE,MD,21773,
7909,CHICAGO AVE,SILVER SPRING,MD,20910,
4213,EASTVIEW ROAD,BALTIMORE,MD,21218,
4454,SCOTIA ROAD,HALETHORPE,MD,21227,
25315,BURNT HILL ROAD,CLARKSBURG,MD,20871,
8541,RAMORT DR,NOTTINGHAM,MD,21236,
16820,VIRGINIA AVE,WILLIAMSPORT,MD,21795,
7535,HEATHERTON LANE,POTOMAC,MD,20854,
2822,W GARRISON AVE,ARLINGTON,MD,21215,
2122,ARTILLERY ROAD,FREDERICK,MD,21702,
15709,ALLNUTT LANE,BURTONSVILLE,MD,20866,
16306,EIDER ST,BOWIE,MD,20716,
23834,MEREDITH CT,HOLLYWOOD,MD,20636,
2601,ALOHA PL,BOWIE,MD,20716,
154,RIVERTON PL,EDGEWATER,MD,21037,
3829,SAINT BARNABAS ROAD,SUITLAND,MD,20746,
6935,EASTBROOK AVE,BALTIMORE,MD,21224,
2804,W LAFAYETTE AVE,BALTIMORE,MD,21216,
19804,MARVIN AVE,HAGERSTOWN,MD,21742,
845,HILLTOP ROAD,CATONSVILLE,MD,21228,
5624,NORTHGREEN ROAD,WINDSOR MILL,MD,21244,
1822,OAKLAND SANG RUN ROAD,OAKLAND,MD,21550,
627,AYRLIE WATER ROAD,GIBSON ISLAND,MD,21056,
50,TADCASTER CIR,WALDORF,MD,20602,
26701,OLDTOWN ROAD SE,OLDTOWN,MD,21555,
1638,CONCORDIA DR,PASADENA,MD,21122,
3486,SOUR CHERRY CT,WALDORF,MD,20602,
9212,LIMESTONE PL,COLLEGE PARK,MD,20740,
7121,PARK HEIGHTS AVE,ARLINGTON,MD,21215,
8311,ANALEE AVE,ROSEDALE,MD,21237,
12702,SHOLTON ST,UPPER MARLBORO,MD,20774,
3011,BETHANY LANE,ELLICOTT CITY,MD,21042,
8785,HOWETH ROAD,WITTMAN,MD,21676,
425,STREAM VALLEY CT,SALISBURY,MD,21804,
6513,FARMINGDALE CT,DERWOOD,MD,20855,
325,S DURHAM ST,BALTIMORE,MD,21231,
1402,CHESACO AVE,ROSEDALE,MD,21237,
3794,HOWARD AVE,KENSINGTON,MD,20895,
9202,HEATHER FIELD CT,GAITHERSBURG,MD,20882,
9739,WINERY CT,GAITHERSBURG,MD,20879,
7104,MAXWELLS GRANT CT,TEMPLE HILLS,MD,20748,
11100,COASTAL HWY,OCEAN CITY,MD,21842,
2308,LYNDHURST AVE,BALTIMORE,MD,21216,
205,E JOPPA ROAD,TOWSON,MD,21286,
8107,GREENSPRING WAY,OWINGS MILLS,MD,21117,
2934,EXCELSIOR SPRINGS CT,ELLICOTT CITY,MD,21042,
3706,LIBERTY HEIGHTS AVE,ARLINGTON,MD,21215,
17217,PINEBROOK DR,SILVER SPRING,MD,20905,
13007,LINGANORE PL,BELTSVILLE,MD,20705,
8560,2ND AVE,SILVER SPRING,MD,20910,
5731,BELLS LANE,FREDERICK,MD,21704,
1723,EDMONDSON AVE,FRANKLIN,MD,21223,
6702,CONWAY AVE,TAKOMA PARK,MD,20912,
22702,ATHLONE DR,GREAT MILLS,MD,20634,
8646,ENOCH PRATT DR,ELLICOTT CITY,MD,21043,
27,MISSION WOOD WAY,REISTERSTOWN,MD,21136,
730,JACKSON ST,SALISBURY,MD,21804,
9501,GLEN WAY,FORT WASHINGTON,MD,20744,
9939,BOISE ROAD,LAUREL,MD,20708,
326,LORRAINE AVE,ESSEX,MD,21221,
12204,PARKTON ST,FORT WASHINGTON,MD,20744,
1336,DEER PARK ROAD,WESTMINSTER,MD,21157,
5427,LYNVIEW AVE,ARLINGTON,MD,21215,
6210,BRYANTOWN DR,BRYANTOWN,MD,20617,
5928,HUBBARD DR,ROCKVILLE,MD,20852,
250,PRESIDENT ST,BALTIMORE,MD,21202,
20403,EPWORTH CT,GAITHERSBURG,MD,20879,
2542,N HAVEN COVE,ANNAPOLIS,MD,21401,
12903,HATHAWAY DR,SILVER SPRING,MD,20906,
14163,READING FERRY ROAD,PRINCESS ANNE,MD,21853,
108,REDFERN PL,BOONSBORO,MD,21713,
1805,LIGHT ST,MORRELL PARK,MD,21230,
1414,OLD OCEAN CITY ROAD,SALISBURY,MD,21804,
23327,ARORA HILLS DR,CLARKSBURG,MD,20871,
1603,NEW WINDSOR CT,CROFTON,MD,21114,
8082,FOREST GLEN DR,PASADENA,MD,21122,
204,REGULATOR DR S,CAMBRIDGE,MD,21613,
10,LIBERTY RIDGE CT,OWINGS MILLS,MD,21117,
2215,E DEEP RUN ROAD,MANCHESTER,MD,21102,
3806,MORAVIA ROAD,RASPEBURG,MD,21206,
12244,WOODFORD DR,MARRIOTTSVILLE,MD,21104,
959,SHORELAND DR,GLEN BURNIE,MD,21060,
319,PRINCETON AVE,SALISBURY,MD,21804,
3202,SUNRISE DR,JEFFERSON,MD,21755,
7730,CHARLESMONT ROAD,DUNDALK,MD,21222,
1629,NEW WINDSOR CT,CROFTON,MD,21114,
359,LEWIS ST,HAVRE DE GRACE,MD,21078,
10114,CHRISTIE ROAD SE,CUMBERLAND,MD,21502,
618,WYE ISLAND CT,ANNAPOLIS,MD,21401,
63,BURKLEIGH ROAD,TOWSON,MD,21286,
10938,MONTROSE AVE,ROCKVILLE,MD,20852,
400,CARRIAGE LANE,HUNTINGTOWN,MD,20639,
557,CRESTPARK DR,GLEN BURNIE,MD,21061,
3149,BETHANY LANE,ELLICOTT CITY,MD,21042,
12505,HEMM PL,BOWIE,MD,20716,
1508,ROCHESTER CT,CROFTON,MD,21114,
1250,SINGERLY ROAD,ELKTON,MD,21921,
6511,CLEAR DROP WAY,GLEN BURNIE,MD,21060,
2,DALE DR,SILVER SPRING,MD,20910,
110,MARSHALL WOOD ROAD,REISTERSTOWN,MD,21136,
313,SETH PL,ROCKVILLE,MD,20850,
324,SPRUCE ST,WESTERNPORT,MD,21562,
406,2ND AVE,HALETHORPE,MD,21227,
507,BUTTONWOODS ROAD,ELKTON,MD,21921,
4707,POWDER MILL ROAD,BELTSVILLE,MD,20705,
3105,KYLE AVE,UPPER MARLBORO,MD,20774,
2949,MILES AVE,BALTIMORE,MD,21211,
53,CEDAR CHIP CT,PARKVILLE,MD,21234,
12810,ATHERTON DR,SILVER SPRING,MD,20906,
5757,WILLIAMS ROAD,HYDES,MD,21082,
9505,IRONSIDES ROAD,NANJEMOY,MD,20662,
5901,MILLRACE CT,COLUMBIA,MD,21045,
4700,EGG HILL DR,MANCHESTER,MD,21102,
605,E JEFFREY ST,BROOKLYN,MD,21225,
28051,FEATHER CT,MECHANICSVILLE,MD,20659,
3563,S LEISURE WORLD BLVD,SILVER SPRING,MD,20906,
7811,BEDDINGTON CT,CLINTON,MD,20735,
5809,NICHOLSON LANE,ROCKVILLE,MD,20852,
809,MCHENRY ST,MORRELL PARK,MD,21230,
6712,BUSHRANGER PATH,COLUMBIA,MD,21046,
6607,FAIRDEL AVE,RASPEBURG,MD,21206,
304,SUNSET AVE,WILLIAMSPORT,MD,21795,
308,70TH ST,CAPITOL HEIGHTS,MD,20743,
500,MARSHALL CT,FREDERICK,MD,21703,
4301,MIDTOWN SQ,SUITLAND,MD,20746,
6709,RAILWAY AVE,DUNDALK,MD,21222,
901,SLIGO CREEK PKWY,TAKOMA PARK,MD,20912,
4983,LINGANORE WOODS DR,MONROVIA,MD,21770,
5520,CEDAR LANE,COLUMBIA,MD,21044,
9101,NATAHALA PL,CLINTON,MD,20735,
3128,JENNINGS ROAD,KENSINGTON,MD,20895,
1229,SHARON ACRES ROAD,FOREST HILL,MD,21050,
8532,OAK ROAD,PARKVILLE,MD,21234,
1626,BENHILL AVE,CURTIS BAY,MD,21226,
619,EMERSON PL,SEVERNA PARK,MD,21146,
9421,FALLING WATERS CT,LAUREL,MD,20723,
5475,RING DOVE LANE,COLUMBIA,MD,21044,
4503,LONGFELLOW ST,HYATTSVILLE,MD,20781,
111,MAPLE RIDGE WAY,RISING SUN,MD,21911,
4800,COYLE ROAD,OWINGS MILLS,MD,21117,
521,EPSOM ROAD,TOWSON,MD,21286,
1435,COOKSIE ST,MORRELL PARK,MD,21230,
2490,GILES ROAD,BROOKLYN,MD,21225,
3604,SHENANDOAH DR,BELTSVILLE,MD,20705,
3218,LAWNVIEW AVE,CLIFTON,MD,21213,
2737,QUARRY HEIGHTS WAY,BALTIMORE,MD,21209,
18,APPLE LANE,ELKTON,MD,21921,
1701,GAFFNEY CT,CROFTON,MD,21114,
520,MONTEREY AVE,ODENTON,MD,21113,
3006,GUILFORD AVE,BALTIMORE,MD,21218,
2650,PFEFFERKORN ROAD,WEST FRIENDSHIP,MD,21794,
7813,TUCKAHOE CT,FULTON,MD,20759,
6317,JOHNNYCAKE ROAD,GWYNN OAK,MD,21207,
5395,OSWALD PL,INDIAN HEAD,MD,20640,
511,STRATFORD ROAD,FALLSTON,MD,21047,
448,CLAYHALL ST,GAITHERSBURG,MD,20878,
8129,TURN LOOP ROAD,GLEN BURNIE,MD,21061,
104,E CHERRY HILL ROAD,REISTERSTOWN,MD,21136,
4703,AMBERFIELD DR,UPPER MARLBORO,MD,20772,
2231,ANDREWS ROAD,CRAPO,MD,21626,
19841,WHEELWRIGHT DR,MONTGOMERY VILLAGE,MD,20886,
6113,RUATAN ST,COLLEGE PARK,MD,20740,
625,TUNBRIDGE ROAD,GOVANS,MD,21212,
5,BOAT SLIP MARINA CONDOMINIUM,OCEAN CITY,MD,21842,
3,BROOKING CT,LUTHERVILLE TIMONIUM,MD,21093,
3900,53RD ST,BLADENSBURG,MD,20710,
801,PLEASANT DR,ROCKVILLE,MD,20850,
10186,CRESTVIEW DR,FREDERICK,MD,21702,
685,LIONS GATE LANE,ODENTON,MD,21113,
13400,COASTAL HWY,OCEAN CITY,MD,21842,
15401,BOUNDS AVE,LAUREL,MD,20707,
12,PLATEAU PL,GREENBELT,MD,20770,
8202,DANGERFIELD PL,CLINTON,MD,20735,
230,S BROADWAY,BALTIMORE,MD,21231,
8602,PRETORIA CT,CLINTON,MD,20735,
3860,STONEYBROOK ROAD,WHITE PLAINS,MD,20695,
1070,ULMSTEAD CIR,ARNOLD,MD,21012,
1,N MONASTERY AVE,CARROLL,MD,21229,
2610,CHAPEL LAKE DR,GAMBRILLS,MD,21054,
7,GREENWAY PL,GREENBELT,MD,20770,
1911,EDMONDSON AVE,FRANKLIN,MD,21223,
2713,ARVIN ST,SILVER SPRING,MD,20902,
537,BUDDS LANDING ROAD,WARWICK,MD,21912,
2112,LINE BRIDGE ROAD,WHITEFORD,MD,21160,
5404,STORMDRIFT,COLUMBIA,MD,21045,
4600,MARX AVE,RASPEBURG,MD,21206,
301,LOTHIAN WAY,ABINGDON,MD,21009,
1304,GRESHAM ROAD,SILVER SPRING,MD,20904,
3626,FOREST GARDEN AVE,GWYNN OAK,MD,21207,
13515,SOVEREIGN TER,HAGERSTOWN,MD,21742,
2011,MARIA CT,FOREST HILL,MD,21050,
8502,TRUMPS HILL ROAD,UPPER MARLBORO,MD,20772,
6929,MOUNTAIN CHURCH ROAD,MIDDLETOWN,MD,21769,
3863,SHANNON DR,CLIFTON,MD,21213,
202,WOODLAND AVE,DUNDALK,MD,21222,
5980,HILLSIDE ROAD,SAINT LEONARD,MD,20685,
9523,BRUCE DR,SILVER SPRING,MD,20901,
2306,DARROW ST,SILVER SPRING,MD,20902,
5101,RIVER ROAD,BETHESDA,MD,20816,
12620,CRAIN HWY,NEWBURG,MD,20664,
9120,ALCONA ST,LANHAM,MD,20706,
5046,SUMMER DAY LANE,COLUMBIA,MD,21044,
5825,DEWEY ST,HYATTSVILLE,MD,20785,
613,HILLVIEW ROAD,BROOKLYN,MD,21225,
267,MUDDY BRANCH ROAD,GAITHERSBURG,MD,20878,
21905,IVY LEAF DR,BOYDS,MD,20841,
2116,STREAMWAY CT,GWYNN OAK,MD,21207,
107,E WEST ST,MORRELL PARK,MD,21230,
14219,CARVER MANOR CIR,EDEN,MD,21822,
16,138TH ST,OCEAN CITY,MD,21842,
140,ROYAL OAK DR,BEL AIR,MD,21015,
1904,PORTER AVE,SUITLAND,MD,20746,
5556,AUTH WAY,SUITLAND,MD,20746,
3000,WALLFORD DR,DUNDALK,MD,21222,
7023,PALAMAR TURN,LANHAM,MD,20706,
303,MILLWRIGHT CIR,ABINGDON,MD,21009,
32000,ANCHORAGE LANE,GALENA,MD,21635,
5702,LYNN CIR,WALDORF,MD,20601,
134,W MEADOW ROAD,BROOKLYN,MD,21225,
6670,HUNTSHIRE DR,ELKRIDGE,MD,21075,
419,KEMPER ROAD,JOPPA,MD,21085,
5110,HERBERT DR,COLUMBIA,MD,21045,
719,COFFREN PL,UPPER MARLBORO,MD,20774,
521,PRITT LANE,BEL AIR,MD,21014,
1778,WESTON AVE,PARKVILLE,MD,21234,
4550,N PARK AVE,CHEVY CHASE,MD,20815,
6317,RARITAN CT,COLUMBIA,MD,21045,
617,STAMFORD ROAD,CARROLL,MD,21229,
2,HAMILTON AVE,FREDERICK,MD,21701,
11926,KEYMAR ROAD,KEYMAR,MD,21757,
1,NEW HAMPSHIRE AVE,EARLEVILLE,MD,21919,
2007,E LANVALE ST,CLIFTON,MD,21213,
27,ROCKY BROOK CT,WINDSOR MILL,MD,21244,
1243,DANIELLE DR,FREDERICK,MD,21703,
604,PARKWYRTH AVE,BALTIMORE,MD,21218,
18330,WOLFPACK WAY,HAGERSTOWN,MD,21740,
10208,CARROLL PL,KENSINGTON,MD,20895,
6405,MAIDEN LANE,BETHESDA,MD,20817,
870,SWIFT ROAD,PASADENA,MD,21122,
1460,S CLINTON ST,HIGHLANDTOWN,MD,21224,
13,EDGEHILL CT,BEL AIR,MD,21014,
7005,KEYSVILLE ROAD,KEYMAR,MD,21757,
5741,MAPLEHILL ROAD,NORTHWOOD,MD,21239,
30693,W POST OFFICE ROAD,PRINCESS ANNE,MD,21853,
21700,NATIONAL PIKE NE,FLINTSTONE,MD,21530,
599,HENDERSON ROAD,BEL AIR,MD,21014,
8311,BROOKTREE ST,LAUREL,MD,20724,
13428,BREGMAN ROAD,SILVER SPRING,MD,20904,
2602,BERKLEY ST,TEMPLE HILLS,MD,20748,
4926,BROOKWOOD ROAD,BROOKLYN,MD,21225,
2709,ASHLAND AVE,BALTIMORE,MD,21205,
7154,BALTIMORE ANNAPOLIS BLVD,GLEN BURNIE,MD,21061,
611,PINEHURST ST,ABERDEEN,MD,21001,
5211,BOSWORTH AVE,GWYNN OAK,MD,21207,
14743,WELLER ROAD,HANCOCK,MD,21750,
3101,CHEVERLY AVE,HYATTSVILLE,MD,20785,
125,CARTERS MILL ROAD,ELKTON,MD,21921,
1822,METZEROTT ROAD,HYATTSVILLE,MD,20783,
13205,GOLDEN OAK DR,LAUREL,MD,20708,
15099,NATIONAL PIKE,FROSTBURG,MD,21532,
12010,EASTVIEW LANE,CHARLOTTE HALL,MD,20622,
330,STONEWALL ROAD,CATONSVILLE,MD,21228,
3103,BRENDAN AVE,CLIFTON,MD,21213,
2285,DUVALL ROAD,WOODBINE,MD,21797,
19045,RED ROBIN TER,GERMANTOWN,MD,20874,
4801,DECATUR ST,HYATTSVILLE,MD,20781,
217,SAINT SWITHINS LANE,ANNAPOLIS,MD,21409,
1844,RYDERWOOD CT,HYATTSVILLE,MD,20785,
10820,SANTA ANITA TER,DAMASCUS,MD,20872,
6,SUSSEX ROAD,SILVER SPRING,MD,20910,
4229,MILFORD MILL ROAD,PIKESVILLE,MD,21208,
2717,BASINGSTOKE LANE,BRYANS ROAD,MD,20616,
16012,RAWLINGS LANE SW,RAWLINGS,MD,21557,
8412,PRAIRIE ROSE PL,PIKESVILLE,MD,21208,
19611,GALWAY BAY CIR,GERMANTOWN,MD,20874,
21216,VIRGINIA PINE TER,GERMANTOWN,MD,20876,
24594,SPRIGGS CT,HOLLYWOOD,MD,20636,
11785,CARRIAGE HOUSE DR,SILVER SPRING,MD,20904,
17405,CHISWELL ROAD,POOLESVILLE,MD,20837,
601,PIN OAK CIR,OAKLAND,MD,21550,
7209,KIDMORE LANE,LANHAM,MD,20706,
5,77TH ST,OCEAN CITY,MD,21842,
2835,GALESHEAD DR,UPPER MARLBORO,MD,20774,
4117,APPLEGATE CT,SUITLAND,MD,20746,
6311,POWHATAN ST,RIVERDALE,MD,20737,
417,W MONTGOMERY AVE,ROCKVILLE,MD,20850,
1907,HERBERT ST,DRUID,MD,21217,
13330,FISHING VALLEY ROAD,WORTON,MD,21678,
12280,DIXIE DR,BISHOPVILLE,MD,21813,
1629,WYATTS RIDGE ROAD,CROWNSVILLE,MD,21032,
7821,GRASSY GARTH,ELKRIDGE,MD,21075,
7500,INDIAN HILLS DR,DERWOOD,MD,20855,
15112,PEARTREE DR,BOWIE,MD,20721,
14433,LONG GREEN DR,SILVER SPRING,MD,20906,
7400,23RD AVE,HYATTSVILLE,MD,20783,
1266,OLD MANCHESTER ROAD,WESTMINSTER,MD,21157,
6533,BEECHWOOD DR,TEMPLE HILLS,MD,20748,
8201,REPPY LANE,FORT WASHINGTON,MD,20744,
2305,GREENERY LANE,SILVER SPRING,MD,20906,
200,WICOMICO ST,OCEAN CITY,MD,21842,
12204,UPPER GEORGES CREEK ROAD SW,FROSTBURG,MD,21532,
1302,VAN BUREN DR,FORT WASHINGTON,MD,20744,
1376,ESCAPADE CT,RIVA,MD,21140,
11002,ATWELL AVE,BOWIE,MD,20720,
7108,CENTRAL AVE,TAKOMA PARK,MD,20912,
5511,CHURCH ROAD,BOWIE,MD,20720,
301,OVERLOOK DR,PRINCE FREDERICK,MD,20678,
1503,REDFIELD ROAD,BEL AIR,MD,21015,
1117,GALLATIN WAY,PASADENA,MD,21122,
935,BRUNSWICK ST,FRANKLIN,MD,21223,
2528,TOLLEY ST,MORRELL PARK,MD,21230,
207,LYNN MANOR DR,ROCKVILLE,MD,20850,
24219,BUDDS CREEK ROAD,CLEMENTS,MD,20624,
2301,ARTHUR AVE,SILVER SPRING,MD,20902,
32,ATLANTIC DR,HAGERSTOWN,MD,21742,
3119,MUNZ DR,EASTPORT,MD,21403,
7329,BAYLOR AVE,COLLEGE PARK,MD,20740,
4,BARREL COOPER CT,GAITHERSBURG,MD,20878,
4322,RIVIERA SUN DR,ELLICOTT CITY,MD,21043,
8377,HILDA AVE,PASADENA,MD,21122,
503,WATERFORD ROAD,SILVER SPRING,MD,20901,
23509,MIDDLE ST SW,BARTON,MD,21521,
1206,STONE BOUNDARY ROAD,CAMBRIDGE,MD,21613,
248,S EATON ST,HIGHLANDTOWN,MD,21224,
641,S LINWOOD AVE,HIGHLANDTOWN,MD,21224,
1335,RICHARDSON ST,MORRELL PARK,MD,21230,
15203,DALEBROOKE DR,BOWIE,MD,20721,
2570,COVE POINT ROAD,LUSBY,MD,20657,
407,S PARRISH ST,FRANKLIN,MD,21223,
1609,EDMONDSON AVE,FRANKLIN,MD,21223,
6260,DEEP EARTH LANE,COLUMBIA,MD,21045,
1775,STONE CHAPEL ROAD,WESTMINSTER,MD,21157,
10205,LOGAN DR,POTOMAC,MD,20854,
3433,PENNSY DR,HYATTSVILLE,MD,20785,
8730,OLD HAGERSTOWN ROAD,MIDDLETOWN,MD,21769,
10716,GLOXINIA DR,ROCKVILLE,MD,20852,
1323,CHAPEL HILL DR,ROSEDALE,MD,21237,
13625,DONNYBROOK DR,HAGERSTOWN,MD,21742,
308,BROCKTON ROAD,OXON HILL,MD,20745,
3414,TYLER DR,ELLICOTT CITY,MD,21042,
11420,FREDERICK AVE,BELTSVILLE,MD,20705,
217,ALEXANDER ST,HAGERSTOWN,MD,21740,
960,FELL ST,BALTIMORE,MD,21231,
4808,CROSSWOOD AVE,BALTIMORE,MD,21214,
814,QUINCE ORCHARD BLVD,GAITHERSBURG,MD,20878,
3615,ELSA AVE,WALDORF,MD,20603,
20444,HARBOR ROAD,NANTICOKE,MD,21840,
6480,TROTTER ROAD,CLARKSVILLE,MD,21029,
2202,LEESBOROUGH DR,SILVER SPRING,MD,20902,
1919,LUZERNE AVE,SILVER SPRING,MD,20910,
7716,IVYMOUNT TER,POTOMAC,MD,20854,
3432,MOULTREE PL,NOTTINGHAM,MD,21236,
7111,RIVER DRIVE ROAD,SPARROWS POINT,MD,21219,
817,W 33RD ST,BALTIMORE,MD,21211,
310,TAYLOR AVE,CATONSVILLE,MD,21228,
4714,MUSKOGEE ST,COLLEGE PARK,MD,20740,
6200,HAMILTON AVE,ROSEDALE,MD,21237,
455,DEER LANE,LUSBY,MD,20657,
12012,BERNARD DR,SILVER SPRING,MD,20902,
54,MIDDLETON LANE,RISING SUN,MD,21911,
5763,YELLOWROSE CT,COLUMBIA,MD,21045,
4810,HEATH ST,CAPITOL HEIGHTS,MD,20743,
14,SILVER KETTLE CT,GAITHERSBURG,MD,20878,
10406,ROSEMONT DR,LAUREL,MD,20723,
315,WASHINGTON BLVD S,LAUREL,MD,20707,
7,N CENTRAL AVE,RIDGELY,MD,21660,
1574,RUTLAND WAY,HANOVER,MD,21076,
3801,CANTERBURY ROAD,BALTIMORE,MD,21218,
6093,BLUE STONE CIR,FREDERICK,MD,21702,
1207,INDEPENDENCE SQ,BELCAMP,MD,21017,
9701,WHISKEY RUN,LAUREL,MD,20723,
20515,WATERLOO LANE,COLTONS POINT,MD,20626,
102,WOOD ST,WESTERNPORT,MD,21562,
7618,CHARLESMONT ROAD,DUNDALK,MD,21222,
334,N CHARLES ST,BALTIMORE,MD,21201,
1423,WINTER PINE TRL,SEVERN,MD,21144,
9063,OLD SCAGGSVILLE ROAD,LAUREL,MD,20723,
214,RIDGELY ROAD,GLEN BURNIE,MD,21061,
2511,BIDLE ROAD,MIDDLETOWN,MD,21769,
6153,PARKWAY DR,GOVANS,MD,21212,
23525,GARDENSIDE PL,CLARKSBURG,MD,20871,
2821,GUARD ROAD,FEDERALSBURG,MD,21632,
2920,BARRISTER LANE,BOWIE,MD,20715,
5819,VICTOR DR,SYKESVILLE,MD,21784,
7872,DERO DR,PASADENA,MD,21122,
8310,SPRUCE HILL DR,LAUREL,MD,20707,
11054,GRASSY KNOLL TER,GERMANTOWN,MD,20876,
405,WOOD DUCK DR,CAMBRIDGE,MD,21613,
13225,BOYD FARM ROAD,WYE MILLS,MD,21679,
9517,ENTRANCE LANE,EASTON,MD,21601,
1807,W NORTH AVE,DRUID,MD,21217,
191,PEARCE CREEK DR,EARLEVILLE,MD,21919,
6400,BROAD RUN ROAD,JEFFERSON,MD,21755,
356,SHEFFIELD ROAD,SEVERNA PARK,MD,21146,
18129,TRUFFLE LANE,BOYDS,MD,20841,
1205,TRAPPE ROAD,STREET,MD,21154,
9408,FLAGSTONE DR,PARKVILLE,MD,21234,
6010,THUNDER HILL CT,FORT WASHINGTON,MD,20744,
4,FORT HILL AVE,CUMBERLAND,MD,21502,
1803,CLAYTON DR,OXON HILL,MD,20745,
8639,GEREN ROAD,SILVER SPRING,MD,20901,
1562,STUART ROAD,EDGEWATER,MD,21037,
13,FORD AVE,BOONSBORO,MD,21713,
1259,DELBERT AVE,DUNDALK,MD,21222,
32,ROSE PETAL CT,PARKVILLE,MD,21234,
33,MISTY SHORE DR,BERLIN,MD,21811,
10647,GRIFFIN ROAD,BERLIN,MD,21811,
13609,OVERHILL DR,HAGERSTOWN,MD,21742,
16105,KENNY CT,LAUREL,MD,20707,
2619,HAMPDEN AVE,BALTIMORE,MD,21211,
307,DOGWOOD ROAD,MILLERSVILLE,MD,21108,
753,AZALEA DR,ROCKVILLE,MD,20850,
2305,WESTFIELD AVE,BALTIMORE,MD,21214,
135,VENTNOR TER,DUNDALK,MD,21222,
11518,SENECA FOREST CIR,GERMANTOWN,MD,20876,
2597,DORSEY ROAD,GLEN BURNIE,MD,21061,
23120,ROBIN SONG DR,CLARKSBURG,MD,20871,
4207,MAPLE GROVE ROAD,HAMPSTEAD,MD,21074,
4162,LABYRINTH ROAD,ARLINGTON,MD,21215,
645,MIRIAM LANE,LUSBY,MD,20657,
44563,CLARKS MILL ROAD,HOLLYWOOD,MD,20636,
7,MULLINGAR CT,LUTHERVILLE TIMONIUM,MD,21093,
9039,SLIGO CREEK PKWY,SILVER SPRING,MD,20901,
5225,POOKS HILL ROAD,BETHESDA,MD,20814,
4373,SOLOMONS ISLAND ROAD,HARWOOD,MD,20776,
5110,DUEL PL,CAPITOL HEIGHTS,MD,20743,
14905,LONDON LANE,BOWIE,MD,20715,
952,VALLEY ROAD,KNOXVILLE,MD,21758,
601,N MONTFORD AVE,BALTIMORE,MD,21205,
3704,NEARBROOK AVE,DISTRICT HEIGHTS,MD,20747,
10,DOOLITTLE CT,MONTGOMERY VILLAGE,MD,20886,
933,CHATSWORTH DR,ACCOKEEK,MD,20607,
6733,DARKWOOD CT,DISTRICT HEIGHTS,MD,20747,
10133,NIGHTINGALE ST,GAITHERSBURG,MD,20882,
2507,WATERSIDE DR,FREDERICK,MD,21701,
10809,RHODENDA AVE,UPPER MARLBORO,MD,20772,
11968,AUTUMNWOOD LANE,FORT WASHINGTON,MD,20744,
2590,ALBERT RILL ROAD,WESTMINSTER,MD,21157,
4017,OLD YORK ROAD,MONKTON,MD,21111,
945,DECESARIS DR,LOTHIAN,MD,20711,
4334,PRICES DISTILLERY ROAD,IJAMSVILLE,MD,21754,
1124,E FORT AVE,MORRELL PARK,MD,21230,
6533,ALLVIEW DR,COLUMBIA,MD,21046,
2218,COVE ROAD,ACCIDENT,MD,21520,
3101,ANNAPOLIS ROAD,MORRELL PARK,MD,21230,
17353,MOUNTAIN VIEW ROAD,EMMITSBURG,MD,21727,
216,SYCAMORE RIDGE ROAD,LAUREL,MD,20724,
4578,DERBY MANOR DR,ARLINGTON,MD,21215,
3945,SHAFTSBURY CT,WHITE PLAINS,MD,20695,
2974,POCAHONTAS ROAD,FROSTBURG,MD,21532,
138,MANCHESTER DR,RISING SUN,MD,21911,
3004,SUNFLOWER DR,IJAMSVILLE,MD,21754,
18,TURNMILL CT,NOTTINGHAM,MD,21236,
2211,STEUBEN AVE,FORT WASHINGTON,MD,20744,
10802,OCEAN GATEWAY,BERLIN,MD,21811,
6703,CONWAY AVE,TAKOMA PARK,MD,20912,
23313,HYACINTH LANE,CALIFORNIA,MD,20619,
10586,WHITE STAG ROAD,LA PLATA,MD,20646,
16011,WOODVILLE ROAD,BRANDYWINE,MD,20613,
510,BEAUMONT AVE,GOVANS,MD,21212,
8224,SKIPJACK DR,BERLIN,MD,21811,
1002,MOSHER ST,DRUID,MD,21217,
10918,BELLS RIDGE DR,POTOMAC,MD,20854,
4103,48TH ST,BLADENSBURG,MD,20710,
530,S CATHERINE ST,FRANKLIN,MD,21223,
536,POTOMAC ROAD,JOPPA,MD,21085,
1016,CONSIDERATION LANE,HYATTSVILLE,MD,20785,
2034,E PRESTON ST,CLIFTON,MD,21213,
42,GLEN OAK CT,WESTMINSTER,MD,21158,
157,FLEET ST,OXON HILL,MD,20745,
16242,BROADFORDING ROAD,HAGERSTOWN,MD,21740,
450,WESTFIELD ROAD,DUNDALK,MD,21222,
8253,TOWN CENTER DR,NOTTINGHAM,MD,21236,
538,FREDERICK ST,HAGERSTOWN,MD,21740,
10678,LONG LEAF LANE,WALDORF,MD,20603,
25720,COLLINS AVE,CHESTERTOWN,MD,21620,
4601,N PARK AVE,CHEVY CHASE,MD,20815,
12710,OLD BRIDGE ROAD,OCEAN CITY,MD,21842,
3300,ANNAPOLIS ROAD,MORRELL PARK,MD,21230,
7940,PICNIC WOODS ROAD,MIDDLETOWN,MD,21769,
29101,HUDSON CORNER ROAD,MARION STATION,MD,21838,
11,WINDY HILLS DR,TANEYTOWN,MD,21787,
1999,CHESAPEAKE AVE,CURTIS BAY,MD,21226,
623,S CAMDEN AVE,FRUITLAND,MD,21826,
2804,SHIREY AVE,BALTIMORE,MD,21214,
15136,PLAYERS WAY,GLENWOOD,MD,21738,
11488,CHEWS BRANCH ROAD,OWINGS,MD,20736,
431,RAMBLEWOOD CT,EMMITSBURG,MD,21727,
26,CROFTLEY ROAD,LUTHERVILLE TIMONIUM,MD,21093,
15210,SABER LANE,WILLIAMSPORT,MD,21795,
4173,BLUEBIRD DR,WALDORF,MD,20603,
6888,RIDGE ROAD,HANOVER,MD,21076,
9452,COPENHAVER DR,POTOMAC,MD,20854,
14202,SPARROW LANE SW,CUMBERLAND,MD,21502,
27712,SANDTOWN ROAD,GOLDSBORO,MD,21636,
2501,DRIFTWOOD CT,FREDERICK,MD,21702,
6791,BALMORAL RIDGE,NEW MARKET,MD,21774,
7767,TILGHMAN ST,FULTON,MD,20759,
2818,ABBEY MANOR CIR,BROOKEVILLE,MD,20833,
124,EAGLES RIDGE,SMITHSBURG,MD,21783,
3320,SINCLAIR LANE,CLIFTON,MD,21213,
1421,WOODBRIDGE ROAD,CATONSVILLE,MD,21228,
205,BELMONT FOREST CT,LUTHERVILLE TIMONIUM,MD,21093,
2721,GWYNNS FALLS PKWY,BALTIMORE,MD,21216,
4315,LOVERS LANE,TRAPPE,MD,21673,
104,E HARVEY ST,NORTH EAST,MD,21901,
2810,PRESSTMAN ST,BALTIMORE,MD,21216,
3029,LEVEL ROAD,CHURCHVILLE,MD,21028,
313,W OAK AVE,EASTON,MD,21601,
45024,HEWITT ROAD,CALLAWAY,MD,20620,
355,PENN COVE ROAD,OAKLAND,MD,21550,
8700,LARKIN ROAD,SAVAGE,MD,20763,
1730,FLEET ST,BALTIMORE,MD,21231,
2914,GLENMORE AVE,BALTIMORE,MD,21214,
6213,GOPHER CT,WALDORF,MD,20603,
433,N RETFORD DR,SEVERNA PARK,MD,21146,
1413,N MAIN ST,HAMPSTEAD,MD,21074,
18011,QUEEN ELIZABETH DR,OLNEY,MD,20832,
19620,GALWAY BAY CIR,GERMANTOWN,MD,20874,
108,WORCESTER ST,OCEAN CITY,MD,21842,
807,OAK KNOLL TER,ROCKVILLE,MD,20850,
11001,JOYCETON DR,UPPER MARLBORO,MD,20774,
6202,BUCKLER ROAD,CLINTON,MD,20735,
61,E JOYCE LANE,ARNOLD,MD,21012,
11002,SPRING LAKE DR,BOWIE,MD,20721,
6211,BIGHORN CT,WALDORF,MD,20603,
6405,CARRICK PL,TEMPLE HILLS,MD,20748,
308,NEW AVE,REISTERSTOWN,MD,21136,
203,FOSTER KNOLL DR,JOPPA,MD,21085,
1800,N PAYSON ST,DRUID,MD,21217,
7606,MANE LANE,DISTRICT HEIGHTS,MD,20747,
601,TEAL CT,CHESTER,MD,21619,
1317,LEWIS LANE,HAVRE DE GRACE,MD,21078,
701,HOWARD ST,EASTON,MD,21601,
5334,TARKINGTON PL,COLUMBIA,MD,21044,
1232,NORTHVIEW ROAD,BALTIMORE,MD,21218,
708,W CENTRAL AVE,DAVIDSONVILLE,MD,21035,
161,OLD RIVER ROAD,ARNOLD,MD,21012,
9823,E LIGHT DR,SILVER SPRING,MD,20903,
3811,HUDEE DR,BOWIE,MD,20721,
3,MAYMONT CT,LUTHERVILLE TIMONIUM,MD,21093,
1744,HAVRE DE GRACE DR,EDGEWATER,MD,21037,
1601,SHAMROCK AVE,CAPITOL HEIGHTS,MD,20743,
6721,LARKSPUR ROAD,SUITLAND,MD,20746,
30371,CANNON DR,SALISBURY,MD,21804,
5225,POOKS HILL ROAD,BETHESDA,MD,20814,
5600,CHELWYND ROAD,HALETHORPE,MD,21227,
19401,LOWER CONSOL ROAD NW,FROSTBURG,MD,21532,
3006,WESTWOOD AVE,BALTIMORE,MD,21216,
704,BETHNAL ROAD,CARROLL,MD,21229,
19580,S GREENS REST DR,GREAT MILLS,MD,20634,
6404,ELLIOT PL,HYATTSVILLE,MD,20783,
511,STANWICH TER,UPPER MARLBORO,MD,20774,
17,W RIDING DR,BEL AIR,MD,21014,
4752,BONNIE BRAE ROAD,PIKESVILLE,MD,21208,
15410,PEACH ORCHARD ROAD,SILVER SPRING,MD,20905,
13719,CORELLO DR,HAGERSTOWN,MD,21742,
5502,HAMLET AVE,BALTIMORE,MD,21214,
9804,WOODLAND AVE,LANHAM,MD,20706,
3405,ACCOLADE DR,CLINTON,MD,20735,
2200,OAK GLEN WAY,DISTRICT HEIGHTS,MD,20747,
4977,BATTERY LANE,BETHESDA,MD,20814,
9597,DONNAN CASTLE CT,LAUREL,MD,20723,
45390,HAVENRIDGE ST,CALIFORNIA,MD,20619,
55,PLEASANT DR,COLORA,MD,21917,
325,E 20TH ST,BALTIMORE,MD,21218,
213,MOUNT ZION CIR,CENTREVILLE,MD,21617,
996,SANTA CRUZ CT,LUSBY,MD,20657,
3315,ESSEX ROAD,GWYNN OAK,MD,21207,
11508,LAKE POTOMAC DR,POTOMAC,MD,20854,
10141,BLANSFORD WAY,MIDDLE RIVER,MD,21220,
27,CATERHAM CT,ROSEDALE,MD,21237,
564,CONGRESS AVE,HAVRE DE GRACE,MD,21078,
2013,E EAGER ST,BALTIMORE,MD,21205,
10612,SIR BRENDAN AVE,CLINTON,MD,20735,
5222,WASENA AVE,BROOKLYN,MD,21225,
1212,FARMINGTON AVE,ACCOKEEK,MD,20607,
13,GRANITE PL,GAITHERSBURG,MD,20878,
8213,JEB STUART ROAD,POTOMAC,MD,20854,
3471,HEWITT AVE,SILVER SPRING,MD,20906,
8794,INSPIRATION CT,WALKERSVILLE,MD,21793,
6903,LOWERY CT,HURLOCK,MD,21643,
12462,SADDLE LANE,LUSBY,MD,20657,
2229,CONGRESBURY PL,UPPER MARLBORO,MD,20774,
32,JOYCETON TER,UPPER MARLBORO,MD,20774,
509,GREENBLADES CT,ARNOLD,MD,21012,
1717,CANAL CLIPPER CT,POINT OF ROCKS,MD,21777,
3707,E MONUMENT ST,BALTIMORE,MD,21205,
44440,MONTANA WAY,LEONARDTOWN,MD,20650,
7807,GLENBROOK ROAD,BETHESDA,MD,20814,
5525,WEYWOOD DR,REISTERSTOWN,MD,21136,
13801,TOWN LINE ROAD,SILVER SPRING,MD,20906,
18101,DARK STAR WAY,BOYDS,MD,20841,
42237,SAINT ANDREWS CHURCH ROAD,LEONARDTOWN,MD,20650,
8806,GEORGETOWN ROAD,CHESTERTOWN,MD,21620,
4704,40TH AVE,HYATTSVILLE,MD,20781,
2432,WHITT ROAD,KINGSVILLE,MD,21087,
10411,THRIFT ROAD,CLINTON,MD,20735,
2626,SALFORD DR,CROFTON,MD,21114,
805,E 43RD ST,GOVANS,MD,21212,
155,POTOMAC PASSAGE,OXON HILL,MD,20745,
8437,OAK BUSH TER,COLUMBIA,MD,21045,
18301,GARNER CT,ACCOKEEK,MD,20607,
1800,MADISON AVE,DRUID,MD,21217,
16910,HILLARD ST,POOLESVILLE,MD,20837,
1321,DALTON ROAD,PARKVILLE,MD,21234,
3010,OHARA PL,OLNEY,MD,20832,
2375,HAMILTOWNE CIR,ROSEDALE,MD,21237,
7205,KENNEBANK ROAD,WINDSOR MILL,MD,21244,
5911,WELBORN DR,BETHESDA,MD,20816,
205,COURTLAND PL,BEL AIR,MD,21014,
700,N EDGEWOOD ST,CARROLL,MD,21229,
7500,WOODMONT AVE,BETHESDA,MD,20814,
4034,SAINT AUGUSTINE LANE,DUNDALK,MD,21222,
6100,64TH AVE,RIVERDALE,MD,20737,
833,JAYDEE AVE,DUNDALK,MD,21222,
11218,SUFFOLK DR,HAGERSTOWN,MD,21742,
2214,GREEN ARBOUR CT,WALDORF,MD,20602,
5220,WYNDHOLME CIR,CARROLL,MD,21229,
4541,THE STRAND,ARLINGTON,MD,21215,
802,FILLMORE ST,SALISBURY,MD,21804,
8516,KEEBLER DR,CLINTON,MD,20735,
7548,MAIN ST,SYKESVILLE,MD,21784,
359,CHAPTICO  S,LAUREL,MD,20724,
4511,W CAROLINE AVE,BELTSVILLE,MD,20705,
428,W COLLEGE AVE,SALISBURY,MD,21801,
3107,GOOD HOPE AVE,TEMPLE HILLS,MD,20748,
5304,TIMS CT,ELLICOTT CITY,MD,21043,
1401,REDWOOD CIR,LA PLATA,MD,20646,
4414,FALLS BRIDGE DR,BALTIMORE,MD,21211,
112,KIPLING CT,ABINGDON,MD,21009,
105,CAROLINE ST,OCEAN CITY,MD,21842,
8314,JORDAN VALLEY WAY,FREDERICK,MD,21702,
1922,VILLAGE GREEN DR,HYATTSVILLE,MD,20785,
810,CRYSTAL CT,GAITHERSBURG,MD,20878,
6550,MOUNT PHILLIP ROAD,FREDERICK,MD,21703,
15316,BAILEYS LANE,SILVER SPRING,MD,20906,
1013,HAVERHILL ROAD,CARROLL,MD,21229,
13303,STONE JUG LANE,LAUREL,MD,20708,
4863,BIG MILL ROAD,STOCKTON,MD,21864,
218,S MONASTERY AVE,CARROLL,MD,21229,
7,SLADE AVE,PIKESVILLE,MD,21208,
418,SHIPLEY ROAD,LINTHICUM HEIGHTS,MD,21090,
5313,BLACKISTONE ROAD,BETHESDA,MD,20816,
7533,ELIOAK TER,GAITHERSBURG,MD,20879,
7300,CIRCLE DR E,OXON HILL,MD,20745,
506,HOLLEN ROAD,GOVANS,MD,21212,
15925,FOUNDRY ROW  NW,MOUNT SAVAGE,MD,21545,
102,N MAIN ST,UNION BRIDGE,MD,21791,
1927,PERLMAN PL,CLIFTON,MD,21213,
4701,CHARLESTON ST,BROOKLYN,MD,21225,
12010,WOODMORE ROAD,BOWIE,MD,20721,
2610,MEDINAH RIDGE ROAD,ACCOKEEK,MD,20607,
26744,BIG WOODS ROAD,WORTON,MD,21678,
5723,CHARSTONE CT,FREDERICK,MD,21703,
9,BOAT SLIP HARBOUR ISLAND CONDOMINIUM,OCEAN CITY,MD,21842,
8903,HILLSIDE CT,HYATTSVILLE,MD,20785,
1162,CLEVELAND ST,MORRELL PARK,MD,21230,
103,WASHINGTON ST,CAMBRIDGE,MD,21613,
4620,VALLEY FORGE DR,ROCKVILLE,MD,20853,
1244,RITCHIE HWY,ARNOLD,MD,21012,
5333,ABBEYWOOD CT,ROSEDALE,MD,21237,
3924,17TH ST,CHESAPEAKE BEACH,MD,20732,
700,SPRINGDALE AVE,EASTPORT,MD,21403,
7908,CHARLES CT,PASADENA,MD,21122,
351,LUMS ROAD,NORTH EAST,MD,21901,
14301,SMOUSES MILL ROAD NE,CUMBERLAND,MD,21502,
1401,MARIAN WAY,MOUNT AIRY,MD,21771,
25752,WOODFIELD ROAD,DAMASCUS,MD,20872,
9,RESEARCH ROAD,GREENBELT,MD,20770,
107,SHERMAN ROAD,WALDORF,MD,20602,
5525,FRIENDSHIP BLVD,CHEVY CHASE,MD,20815,
355,GATEWATER CT,GLEN BURNIE,MD,21060,
1417,ROCK RIDGE ROAD,JARRETTSVILLE,MD,21084,
219,CASPIAN DR,GRASONVILLE,MD,21638,
9347,WAYNESBORO PIKE,EMMITSBURG,MD,21727,
12,RACHEL CT,OWINGS MILLS,MD,21117,
341,EAGLE HARBOR  S,LAUREL,MD,20724,
1836,METZEROTT ROAD,HYATTSVILLE,MD,20783,
10415,CAMPBELL BLVD,MIDDLE RIVER,MD,21220,
5212,REDHILL WAY,ROSEDALE,MD,21237,
4644,AARON CT,JEFFERSON,MD,21755,
7801,OAKLEIGH ROAD,PARKVILLE,MD,21234,
1416,N ROLLING ROAD,CATONSVILLE,MD,21228,
29436,GOLTON DR,EASTON,MD,21601,
6553,WALNUT GROVE,COLUMBIA,MD,21044,
3537,FALLS ROAD,BALTIMORE,MD,21211,
2213,MAPLE HILL CT,GWYNN OAK,MD,21207,
3900,PENNINGTON AVE,CURTIS BAY,MD,21226,
17,MCGUIRE WAY,PERRYVILLE,MD,21903,
10317,PADDINGTON CT,ELLICOTT CITY,MD,21042,
5355,W RUNNING BROOK ROAD,COLUMBIA,MD,21044,
710,WINANS WAY,CARROLL,MD,21229,
10,IDEAL CT,PIKESVILLE,MD,21208,
1004,ELLEGOOD ST,SALISBURY,MD,21801,
5,HAMILL ROAD,ROLAND PARK,MD,21210,
434,ORIOLE AVE,BALTIMORE,MD,21224,
9712,ROBERT JAY WAY,ELLICOTT CITY,MD,21042,
1450,HARWICK CT,CROFTON,MD,21114,
227,BALTIMORE ANNAPOLIS BLVD,SEVERNA PARK,MD,21146,
721,S MONTFORD AVE,HIGHLANDTOWN,MD,21224,
1534,RALWORTH ROAD,BALTIMORE,MD,21218,
2618,ROSELAWN AVE,BALTIMORE,MD,21214,
1803,SOUTHWOOD CT,BOWIE,MD,20721,
408,UNIVERSITY DR,SEVERN,MD,21144,
314,EMILIES LANE,SEVERNA PARK,MD,21146,
3122,HOLLY BERRY CT,ABINGDON,MD,21009,
325,COVE ROAD,QUEENSTOWN,MD,21658,
1111,N COLLINGTON AVE,CLIFTON,MD,21213,
18444,FLOWER HILL WAY,GAITHERSBURG,MD,20879,
12433,BACALL LANE,POTOMAC,MD,20854,
3425,FLORAL ST,SILVER SPRING,MD,20902,
4503,RALEIGH ROAD,TEMPLE HILLS,MD,20748,
2512,LINDLEY TER,ROCKVILLE,MD,20850,
3305,PESCARA CT,PASADENA,MD,21122,
3834,DOGWOOD DR,SNOW HILL,MD,21863,
313,JO DR,UPPER MARLBORO,MD,20774,
16542,SIOUX LANE,GAITHERSBURG,MD,20878,
22780,AUTUMN BREEZE AVE,CLARKSBURG,MD,20871,
2815,WESTFIELD AVE,BALTIMORE,MD,21214,
6660,CRAIN HWY,LA PLATA,MD,20646,
7106,24TH AVE,HYATTSVILLE,MD,20783,
1078,BRADDOCK ROAD,CUMBERLAND,MD,21502,
7005,BEULAH ROAD,HURLOCK,MD,21643,
1728,ALLERFORD DR,HANOVER,MD,21076,
6600,REESES PRIDE ROAD,SHERWOOD,MD,21665,
4213,CHASTETREE CT,PIKESVILLE,MD,21208,
1321,N POINT ROAD,DUNDALK,MD,21222,
17869,GARRETT HWY,OAKLAND,MD,21550,
3714,BONVIEW AVE,CLIFTON,MD,21213,
10742,SYMPHONY WAY,COLUMBIA,MD,21044,
12316,PALERMO DR,SILVER SPRING,MD,20904,
9908,WALKER HOUSE ROAD,MONTGOMERY VILLAGE,MD,20886,
2920,N LOUDON AVE,BALTIMORE,MD,21216,
3500,RIVIERA ST,TEMPLE HILLS,MD,20748,
1733,LANGFORD ROAD,GWYNN OAK,MD,21207,
299,W MAIN ST,WESTMINSTER,MD,21158,
202,NORWOOD ROAD,ANNAPOLIS,MD,21401,
820,RESERVE CHAMPION DR,ROCKVILLE,MD,20850,
5607,FEDERAL HILL ROAD,FEDERALSBURG,MD,21632,
3405,OLANDWOOD CT,OLNEY,MD,20832,
4427,ROMLON ST,BELTSVILLE,MD,20705,
2631,HARLEM AVE,BALTIMORE,MD,21216,
505,FAIRMOUNT DR,EDGEWATER,MD,21037,
1903,LYTTONSVILLE ROAD,SILVER SPRING,MD,20910,
3905,ESSEX ROAD,GWYNN OAK,MD,21207,
328,BARNES AVE,WESTMINSTER,MD,21157,
3901,HIGHLAND AVE,MYERSVILLE,MD,21773,
5604,CARTERS LANE,RIVERDALE,MD,20737,
510,MORRIS AVE,LUTHERVILLE TIMONIUM,MD,21093,
128,REGULATOR DR N,CAMBRIDGE,MD,21613,
322,SYDNEY LANE,DENTON,MD,21629,
1472,SAM FRIEND ROAD,ACCIDENT,MD,21520,
6022,HYNSON ROAD,ROCK HALL,MD,21661,
64,WADDINGTON LANE,ROCKVILLE,MD,20850,
910,CENTRAL AVE,SYKESVILLE,MD,21784,
608,S ROSE ST,HIGHLANDTOWN,MD,21224,
1800,PALMER ROAD,FORT WASHINGTON,MD,20744,
423,KERWIN ROAD,SILVER SPRING,MD,20901,
1013,CHERYLS CT,FREDERICK,MD,21703,
12749,CROUSE MILL ROAD,RIDGELY,MD,21660,
7546,RABON AVE,DUNDALK,MD,21222,
12601,SHOAL CREEK TER,BELTSVILLE,MD,20705,
1729,DANA ST,CROFTON,MD,21114,
6202,JEFFERSON BLVD,FREDERICK,MD,21703,
7429,GAITHER ROAD,SYKESVILLE,MD,21784,
9901,KURTYKA CIR,HAGERSTOWN,MD,21740,
3028,ROSALIND AVE,ARLINGTON,MD,21215,
1000,WICKLOW ROAD,CARROLL,MD,21229,
25335,ALLSTON LANE,HOLLYWOOD,MD,20636,
2831,GWYNNS FALLS PKWY,BALTIMORE,MD,21216,
8817,STERLING ST,HYATTSVILLE,MD,20785,
21216,CHEWSVILLE ROAD,SMITHSBURG,MD,21783,
327,6TH AVE,BROOKLYN,MD,21225,
804,N HOUCKSVILLE ROAD,HAMPSTEAD,MD,21074,
1111,RUPPERT ROAD,SILVER SPRING,MD,20903,
21548,WETIPQUIN ROAD,TYASKIN,MD,21865,
128,N COLLINGTON AVE,BALTIMORE,MD,21231,
8913,GEORGIA AVE,SILVER SPRING,MD,20910,
713,CHESTNUT HILL AVE,BALTIMORE,MD,21218,
6765,MERRI A LEE WAY,HUGHESVILLE,MD,20637,
2603,PROCTOR LANE,PARKVILLE,MD,21234,
2601,CLAYBROOKE DR,WINDSOR MILL,MD,21244,
8690,FORTUNE LANE,WESTOVER,MD,21871,
912,POINTER RIDGE DR,GAITHERSBURG,MD,20878,
11,WARD AVE,WESTMINSTER,MD,21157,
140,N 4TH ST,OAKLAND,MD,21550,
12238,CYPRESS SPRING ROAD,CLARKSBURG,MD,20871,
9812,HUMMINGBIRD LANE,UPPER MARLBORO,MD,20772,
320,OLD ELK NECK ROAD,NORTH EAST,MD,21901,
19209,ARIA CT,BROOKEVILLE,MD,20833,
103,123RD ST,OCEAN CITY,MD,21842,
3226,ATLEE RIDGE ROAD,NEW WINDSOR,MD,21776,
5683,UTRECHT ROAD,BALTIMORE,MD,21206,
332,LYNWOOD DR,SEVERNA PARK,MD,21146,
4008,WHARTON TURN,BOWIE,MD,20715,
3202,SHILOH ROAD,HAMPSTEAD,MD,21074,
2723,JENNINGS ROAD,KENSINGTON,MD,20895,
2414,MEADOWSIDE CT,MONKTON,MD,21111,
4601,N PARK AVE,CHEVY CHASE,MD,20815,
3818,YOLANDO ROAD,BALTIMORE,MD,21218,
2008,WOLF ST,FORT WASHINGTON,MD,20744,
8036,HIGH OAK ROAD,GLEN BURNIE,MD,21060,
2821,GRIER NURSERY ROAD,FOREST HILL,MD,21050,
1858,CHURCH ROAD,DUNDALK,MD,21222,
6404,POND DR,UPPER MARLBORO,MD,20772,
110,SOMERSET AVE,CAMBRIDGE,MD,21613,
5530,APPERSON ROAD,WHITE MARSH,MD,21162,
27143,WALNUT TREE ROAD,SALISBURY,MD,21801,
3,S PROSPECT AVE,CATONSVILLE,MD,21228,
20170,LOCUSTDALE DR,GERMANTOWN,MD,20876,
3429,E NORTHERN PKWY,RASPEBURG,MD,21206,
411,NETTLE HILL LANE,REISTERSTOWN,MD,21136,
1030,COSTER ROAD,LUSBY,MD,20657,
4708,MANHEIM AVE,BELTSVILLE,MD,20705,
6311,OLD WASHINGTON ROAD,SYKESVILLE,MD,21784,
6125,HADDON HALL ROAD,BALTIMORE,MD,21212,
9302,FLOWER AVE,SILVER SPRING,MD,20901,
106,BELVEDERE AVE,GLEN BURNIE,MD,21061,
7672,EGRET LANE,HEBRON,MD,21830,
6151,FOREST LANE,SYKESVILLE,MD,21784,
24307,MCINTOSH ROAD,HOLLYWOOD,MD,20636,
5808,MCINTOSH PL,BRANDYWINE,MD,20613,
14800,HAZELMOOR CT,SILVER SPRING,MD,20906,
6420,GOVERNORS SQ,SALISBURY,MD,21801,
202,S FAGLEY ST,HIGHLANDTOWN,MD,21224,
1109,TIMBER TRAIL ROAD,TOWSON,MD,21286,
27189,LOCH LOMOND CT,SALISBURY,MD,21801,
12113,CYPRESS SPRING ROAD,CLARKSBURG,MD,20871,
528,ROWLANDSVILLE ROAD,CONOWINGO,MD,21918,
3004,UNIONTOWN ROAD,WESTMINSTER,MD,21158,
846,NEW MARK ESPLANADE,ROCKVILLE,MD,20850,
28567,PEACHBLOSSOM LANE,EASTON,MD,21601,
12709,FOUND STONE ROAD,GERMANTOWN,MD,20876,
751,MASONS BEACH ROAD,DEALE,MD,20751,
1396,CANTERBURY WAY,POTOMAC,MD,20854,
28,STEMMERS RUN ROAD,ESSEX,MD,21221,
26889,FITZGERALD ROAD,PRINCESS ANNE,MD,21853,
303,MASON BRANCH ROAD,QUEEN ANNE,MD,21657,
2007,CLIPPER PARK ROAD,BALTIMORE,MD,21211,
16233,REDLAND ROAD,DERWOOD,MD,20855,
15,FOX RUN CT,REISTERSTOWN,MD,21136,
6803,BERKSHIRE DR,TEMPLE HILLS,MD,20748,
2066,ERIC SHAEFER WAY,BALTIMORE,MD,21211,
8646,CHESAPEAKE LIGHTHOUSE DR,NORTH BEACH,MD,20714,
9481,FAREWELL ROAD,COLUMBIA,MD,21045,
2205,ORCHARD DR,POCOMOKE CITY,MD,21851,
7558,WESTLAKE TER,BETHESDA,MD,20817,
5535,GIST AVE,ARLINGTON,MD,21215,
612,MONARCH RIDGE ROAD,FREDERICK,MD,21703,
9605,TREPID ROAD,NOTTINGHAM,MD,21236,
1205,MCKINLEY ST,EASTPORT,MD,21403,
1584,PROVINCIAL LANE,SEVERN,MD,21144,
2611,CRANAPPLE LANE,UPPER MARLBORO,MD,20774,
327,S SMALLWOOD ST,FRANKLIN,MD,21223,
4041,OLD FEDERAL HILL ROAD,JARRETTSVILLE,MD,21084,
914,N BRADFORD ST,BALTIMORE,MD,21205,
10300,ROCKVILLE PIKE,ROCKVILLE,MD,20852,
39,GOLF COURSE ROAD,OCEAN CITY,MD,21842,
2100,OAKTREE LANE,TEMPLE HILLS,MD,20748,
316,WYE ROAD,ESSEX,MD,21221,
2418,PICKWICK ROAD,GWYNN OAK,MD,21207,
237,POTOMAC HEIGHTS,HAGERSTOWN,MD,21742,
5000,BATTERY LANE,BETHESDA,MD,20814,
55,BEAVER CT,RISING SUN,MD,21911,
