NUMBER,STREET,CITY,STATE,POSTCODE,UNIT
43,Ashley Ln,Portland,ME,4103,
18,Hawthorne Dr,Rockport,ME,4856,
10,Mountain Ave,Fairfield,ME,4937,
200,Brunswick Ave,Gardiner,ME,4345,
61,Main St,Biddeford,ME,4005,
7,Vale St,Lewiston,ME,04240,
6,Heather Rd,Bangor,ME,04401,
3,Little Chief Ln,Limington,ME,4049,
16,Smith St,Harrison,ME,4040,
114,Bethel Rd,West Paris,ME,4289,
251,Plains Rd,Hollis,ME,04042,
15,Evergreen Dr,Waterboro,ME,4061,
2,Randall Ave,Old Orchard Beach,ME,4064,
21,Hime Hill Rd,China,ME,4358,
52,Point View Rd,Harpswell,ME,4066,
25,Heather Ln,Alfred,ME,4002,
175,Graham St,Biddeford,ME,4005,
224,Mechanic St,Camden,ME,4843,
1117,South St,Dover-Foxcroft,ME,4426,
9,Fifth Ave,Mechanic Falls,ME,4256,
206,Main St,Monmouth,ME,4259,
969,Sabattus St,Lewiston,ME,04240,
102,Hillcrest Ave,Scarborough,ME,4074,
298,Ocean Ave,Kennebunkport,ME,4046,
4,Broadway Ext,York,ME,3909,
10,Howards Way,Lincoln,ME,4457,
385,Joy Valley Rd,Buxton,ME,4093,
15,Pompeo Dr,Gorham,ME,04038,
14,Lake Farm Cir,Jefferson,ME,4348,
111,Murch Rd,Baldwin,ME,4024,
5,Highland St,Sanford,ME,4083,
794,Anson Valley Rd,New Vineyard,ME,4956,
189,Maguire Rd,Kennebunk,ME,4043,
21,Elm St,Ellsworth,ME,4605,
11,Willow St,Calais,ME,4619,
572,Western Ave,Hampden,ME,4444,
245,Island Rd,South Thomaston,ME,4858,
49,Obrion St,Portland,ME,4101,
285,Court St,Auburn,ME,04210,
501,Westbrook St,South Portland,ME,4106,
14,Cliff Rd,Bristol,ME,4554,
11,Main St,Ellsworth,ME,4605,
4,Ridge Rd,Lewiston,ME,04240,
45,Old Union Rd,Washington,ME,4574,
100,State St,Portland,ME,4102,
14,Crossing Way,Augusta,ME,4330,
3346,Bennoch Rd,Alton,ME,4468,
40,Marshall St,Mechanic Falls,ME,4256,
52,Atlantic Pl,South Portland,ME,4106,
417,Main St,Lewiston,ME,04240,
18,Island View Dr,West Bath,ME,04530,
975,Goodwin Rd,Eliot,ME,3903,
16,Blaisdell Ln,Benton,ME,4901,
753,West St,Rockport,ME,4856,
615,Marsh Rd,Sabattus,ME,4280,
18,Kilgore Rd,Bridgton,ME,4009,
106,Wermuth Rd,South Portland,ME,4106,
514,Independence Cir,Prentiss Twp T7 R3 NBPP,ME,4487,
205,Mountain Rd,Denmark,ME,4022,
188,Flying Point Rd,Freeport,ME,4032,
317,Range Rd,Atkinson,ME,4426,
43,Moose Pond Dr,Bridgton,ME,4009,
143,Brackett Rd,Gorham,ME,04038,
9,Sunnydale Ln,Parsonsfield,ME,4047,
17,Davenport St,Augusta,ME,4330,
80,Elm St,Lewiston,ME,04240,
22,Church St,Paris,ME,4281,
4,Porpoise Pl,Kennebunkport,ME,4046,
4,Glen Cove Dr,Rockport,ME,4856,
5,Rosewood Cir,Biddeford,ME,4005,
35,Stanley Rd,Sanford,ME,4083,
3,Eagle St,Eastport,ME,04631,
257,River Rd,Mexico,ME,4257,
90,Cundys Harbor Rd,Harpswell,ME,04079,
219,Red Cedar Ln,Sidney,ME,04330,
1212,Harpswell Neck Rd,Harpswell,ME,4079,
21,Fernald Rd,Newport,ME,4953,
57,Chamberlain St,Brewer,ME,04412,
45,Johnson Hts,Waterville,ME,04901,
830,Finntown Rd,Waldoboro,ME,4572,
40,St Patrick Ave,Lewiston,ME,4240,
44,Third St,Eastport,ME,04631,
358,Cobb Hill Rd,Otisfield,ME,4270,
445,Western Rd,Warren,ME,4864,
7,Winslow Homer Rd,Scarborough,ME,4074,
238,Broadway,Farmington,ME,04938,
116,Willey Point Rd,Oakland,ME,04963,
7,Saphire Dr,Biddeford,ME,4005,
48,Howe St,Lewiston,ME,04240,
493,Haystack Rd,Castle Hill,ME,4757,
1077,Tasker Rd,Augusta,ME,4330,
12,Minerva Ave,Sanford,ME,4073,
30,High St,Winthrop,ME,4364,
970,Gardiner Rd,Wiscasset,ME,4578,
30,Deake St,South Portland,ME,4106,
10,Perkins Rd,Lovell,ME,4051,
18,Folcutt Rd,Kittery,ME,3905,
175,Main St,Thomaston,ME,4861,
57,Dougherty Rd,New Gloucester,ME,4260,
265,High Meadow Rd,Perham,ME,4766,
746,Hancock Pond Rd,Sebago,ME,04029,
1151,Fairbanks Rd,Farmington,ME,4938,
34,Barton St,Presque Isle,ME,4769,
135,Pond Rd,New Gloucester,ME,4260,
64,Greenwood Ave,Winthrop,ME,4364,
72,Flat Mountain Rd,Saint Agatha,ME,4772,
11,Kief Farm Rd,Bar Harbor,ME,4609,
706,Nash Rd,Pittston,ME,4345,
18,Koluskap Rd,Pleasant Point,ME,4667,
16,Granite Hts,Jay,ME,4239,
6,Church St,Sanford,ME,4073,
592,Route 1,Monticello,ME,4760,
150,Percival St,Portland,ME,4103,
1069,Newbury Neck Rd,Surry,ME,4684,
1110,Pattersons Mobile Home Park,Rockport,ME,4856,
55,Melvin Ln,Gardiner,ME,4345,
768,Branch Rd,Wells,ME,4090,
43,Ledgemere Rd,Harpswell,ME,4066,
11,Shinnecock Ln,Falmouth,ME,4105,
384,Union St,Blue Hill,ME,4614,
513,Fore St,Portland,ME,4101,
50,Powersville Rd,Medway,ME,4460,
10,Patoine Pl,Old Orchard Beach,ME,4064,
90,Goose Eye Dr,Newry,ME,04261,
346,Pine St,Rumford,ME,4276,
110,Eastman Hill Rd,Lovell,ME,04051,
24,Griffin St,Gardiner,ME,4345,
60,Addie Rd,Ellsworth,ME,4605,
1173,Surry Rd,Surry,ME,4684,
170,Holmes Rd,Scarborough,ME,4074,
193,Cottage Rd,Windham,ME,04062,
30,Bagaduce Rd,Brooksville,ME,4617,
800,W Bethel Rd,Bethel,ME,4217,
32,Elm St,Houlton,ME,04730,
18,Tispaquin Trl,Bristol,ME,04554,
76,Webster St,Lewiston,ME,04240,
9,Clark Ln,Naples,ME,4055,
12,Victoria Ln,Falmouth,ME,4105,
5,William Henry Dr,Gorham,ME,4038,
342,Main Rd S,Hampden,ME,4444,
9,Queens Dr,Scarborough,ME,04074,
299,Russell Rd,Madison,ME,4950,
318,Grimes Mill Rd,Caribou,ME,4736,
104,Merrill Rd,Gray,ME,4039,
10,Rowell St,Madison,ME,4950,
836,Main St,Sanford,ME,4073,
46,Main St,Camden,ME,04843,
722,Embden Pond Rd,Embden,ME,4958,
28,Thomas St,Madison,ME,4950,
187,Wayside Rd,Portland,ME,4102,
640,Ocean Ave,Portland,ME,4103,
19,Burbank Hill Rd,Strong,ME,4983,
75,Brown Rd,Nobleboro,ME,4555,
413,Windsor Rd,Chelsea,ME,4330,
134,W Main St,Fort Kent,ME,4743,
48,Pleasant St,Lewiston,ME,04240,
22,Oak St,Brunswick,ME,04011,
1,Ice House Pt,York,ME,3909,
1212,Harpswell Neck Rd,Harpswell,ME,4079,
245,College St,Lewiston,ME,04240,
48,Jones Point Rd,South Bristol,ME,4568,
16,Memory Ln,Arundel,ME,4046,
1050,Main St,Eliot,ME,3903,
28,Halls Dr,Mount Vernon,ME,4352,
33,Drinkwater Ln,Monson,ME,4464,
176,Spears Corner Rd,West Gardiner,ME,4345,
6,Blueberry Ln,Falmouth,ME,04105,
10,Rock End Rd,Mount Desert,ME,4609,
24,Elisa Ln,Bar Harbor,ME,4609,
817,Green Lake Rd,Dedham,ME,4429,
37,Pioneer Ave,Caribou,ME,04736,
206,Webhannet Dr,Wells,ME,4090,
13,Bailey Ave,Lewiston,ME,04240,
90,Great Pond Rd,Franklin,ME,4634,
28,James St,Portland,ME,4103,
181,Main St,Thomaston,ME,4861,
17,Woodside Dr,Cumberland,ME,4021,
29,Library Ave,Auburn,ME,04210,
1375,Forest Ave,Portland,ME,4103,
8,Forest Ln,Wells,ME,4090,
32,Wheelden Hts,Hampden,ME,4444,
99,Pioneer St,West Paris,ME,4289,
92,Sabbady Point Rd,Windham,ME,04062,
553,Route 1,Scarborough,ME,4074,
39,Court St,Houlton,ME,04730,
1212,Harpswell Neck Rd,Harpswell,ME,4079,
45,Eastern Promenade,Portland,ME,4101,
428,Jacob Ave,Scarborough,ME,4074,
27,Prospect St,Westbrook,ME,4092,
25,Orlando St,South Portland,ME,4106,
227,Foreside Rd,Cumberland,ME,4110,
85,Wyman Hill Rd,Rumford,ME,4276,
954,W Etna Rd,Etna,ME,4434,
101,Gross Nck,Waldoboro,ME,4572,
50,Chickadee Ln,Otisfield,ME,4270,
876,Ocean Point Rd,Boothbay,ME,04544,
154,Rockland Ave,Portland,ME,4102,
11,Rankin St,Sanford,ME,04083,
254,Eastern Promenade,Portland,ME,4101,
32,Juniper Point Rd,Boothbay Harbor,ME,04538,
4,Parkview Cir,Brunswick,ME,04011,
143,Warren Rd,Pittston,ME,4345,
30,Parkview Ave,Bangor,ME,4401,
13,Frigate Ln,Portland,ME,4103,
39,Court St,Houlton,ME,04730,
128,Horton St,Lewiston,ME,04240,
24,Mitchellwood Dr,Falmouth,ME,4105,
94,Royal Rd,Bangor,ME,4401,
4,Big Log Cabin Rd,Bucksport,ME,4416,
339,Kincaid Rd,Madison,ME,4950,
42,Tedford Rd,Topsham,ME,4086,
47,Washington St,Calais,ME,4619,
476,West St,Princeton,ME,4668,
90,Sawyer Rd,Scarborough,ME,4074,
63,Upper Methodist Rd,Cumberland,ME,4021,
154,Fayette Rd,Livermore Falls,ME,04254,
347,Pine St,Rumford,ME,4276,
19,Falmouth St,Portland,ME,4103,
78,Pine St,Presque Isle,ME,4769,
177,Shore Rd,Edgecomb,ME,4556,
134,Knox Rd,Shapleigh,ME,4076,
52,Devereux Rd,Castine,ME,4421,
28,Friar Tuck Dr,Winthrop,ME,4364,
590,Hancock Pond Rd,Sebago,ME,4029,
18,Hio Ridge Rd,Bridgton,ME,4009,
60,Lowell St,Rumford,ME,4276,
63,Pine St,South Portland,ME,4106,
39,Beechwood St,Thomaston,ME,4861,
398,High St,Farmington,ME,04938,
15,Lincoln St,Lewiston,ME,04240,
152,Summer St,Auburn,ME,04210,
1019,Gardiner Rd,Wales,ME,4280,
359,Middle Rd,Sabattus,ME,4280,
20,Munjoy St,Portland,ME,4101,
25,Richardson St,Bath,ME,04530,
125,Hill St,South Portland,ME,4106,
4,Rolling Woods Dr,Sanford,ME,04083,
4,Kimball Rd,Mount Desert,ME,04609,
19,Forest Ave,Caribou,ME,4736,
19,Gray Park,Gray,ME,4039,
1157,Fuller Rd,Carmel,ME,4419,
41,Old Lisbon Rd,Lewiston,ME,04240,
374,Cat Mousam Rd,Kennebunk,ME,4043,
39,Court St,Houlton,ME,04730,
232,Center St,Auburn,ME,04210,
271,Shiloh Rd,Durham,ME,4222,
33,Snow Rd,Scarborough,ME,4074,
26,Parkway Dr,Scarborough,ME,4074,
25,Route 1,Edgecomb,ME,4556,
21,Canterbury Cir,Kennebunk,ME,4043,
6,Waterhouse Rd,Cape Elizabeth,ME,4107,
10,Meadowbrook Rd,Brunswick,ME,4011,
26,Juniper Ln,Sanford,ME,4073,
3,Abattoir Dr,York,ME,3909,
35,Hide A Way Ln,Bethel,ME,04217,
56,Birch St,Lewiston,ME,04240,
26,Meadow Dr,Bar Harbor,ME,4609,
63,Sanborn Rd,Greene,ME,4236,
19,Calling Crow Rd,Chelsea,ME,4330,
122,Bucknam Rd,Falmouth,ME,04105,
9,Cole Farm Dr,Scarborough,ME,4074,
78,Saco St,Westbrook,ME,4092,
467,Mansion Rd,Hollis,ME,4042,
165,Wilton Rd,Farmington,ME,4938,
10,Mountain Ave,Lewiston,ME,04240,
336,Main St,Fort Fairfield,ME,4742,
14,Cottage Rd,Sumner,ME,4292,
50,Penwood Dr,Portland,ME,4102,
3,Rocky Point Ln,Cape Elizabeth,ME,4107,
230,Burnt Cove Rd,Stonington,ME,4681,
33,Levesque Dr,Eliot,ME,3903,
2291,Maple Dr,Carrabassett Valley,ME,4947,
729,Route 232,Bethel,ME,4219,
17,Moose Ln,Lebanon,ME,4027,
36,Fairview Dr,Lisbon,ME,04250,
11,N Village Rd,York,ME,3902,
16,Dalten Pines Rd,Windham,ME,4062,
70,Dolby Rd,Lebanon,ME,4027,
34,Bluebird Rd,Warren,ME,4864,
27,Clear Brook Xing,Kennebunk,ME,4043,
49,Glen View Dr,Skowhegan,ME,4937,
33,Emery Cir,Buxton,ME,04093,
89,N Beech Hill Rd,Pittston,ME,4345,
77,S Taylor Rd,Mount Vernon,ME,4352,
100,Wildwood Cir,Westbrook,ME,04092,
257,Vernon St,Bethel,ME,4217,
8,Lobster Cove Rd,York,ME,3909,
10,Gables End,Belgrade,ME,4917,
34,Down St,Indian Island,ME,4468,
19,Seabury Cove Rd,York,ME,3909,
22,Boothby Ave,Sanford,ME,4073,
75,Fernwood Loop,Lyman,ME,04002,
52,Northwood Dr,Portland,ME,4103,
60,Meadowbrook Dr,Waterboro,ME,04030,
8,Airport Dr,York,ME,3909,
23,Davis Rd,Durham,ME,04222,
1107,Tasker Rd,Augusta,ME,04330,
526,High St,West Gardiner,ME,4345,
749,Minot Ave,Auburn,ME,04210,
307,Richmond Rd,Litchfield,ME,4350,
222,Puddledock Rd,Manchester,ME,4351,
44,Mallard Ln,Winthrop,ME,4364,
3,Andrews Ln,South Berwick,ME,3908,
11,Riverplace Dr,South Portland,ME,4106,
583,Forest Ave,Portland,ME,4101,
47,Dresden Ave,Gardiner,ME,4345,
1024,Washington Ave,Portland,ME,4103,
124,Bowdoin St,Millinocket,ME,4462,
85,Main St,Hiram,ME,4041,
53,Great Hill Rd,Kennebunk,ME,4043,
1706,Canada Rd,Moscow,ME,4920,
60,Poplar Rd,Dedham,ME,4429,
515,Elm Hill Rd,Paris,ME,4281,
58,Rocky Rd,Gouldsboro,ME,4607,
2,Main St,Jay,ME,04239,
52,Pioneer St,West Paris,ME,4289,
17,Dow St,Portland,ME,4102,
16,Dalten Pines Rd,Windham,ME,4062,
10,Bridge St,Rumford,ME,4276,
10,Shapleigh Rd,Kittery,ME,3904,
59,Pushaw Rd,Bangor,ME,4401,
238,Bridge St,Westbrook,ME,04092,
45,Highland Ave,Harmony,ME,4942,
3599,Caribou Rd,Cross Lake Twp,ME,04783,
972,Upper St,Turner,ME,4282,
6,Mill St,Patten,ME,04765,
806,Cooper Rd,Alexander,ME,4694,
188,Farrington Mtn Rd,Mexico,ME,4257,
16,Island Rd,Kingfield,ME,4947,
176,Martin Point Rd,Friendship,ME,4547,
45,Highland Ave,Stonington,ME,4681,
2,Darcy Dr,Lewiston,ME,04240,
42,Lincoln St,Calais,ME,4619,
38,Running Brook Rd,Windham,ME,04062,
39,Barley Neck Rd,Woolwich,ME,4579,
3,Middle St,Lewiston,ME,04240,
11,Wharf Rd,Portland,ME,4019,
59,Hardy St,Presque Isle,ME,4769,
9,Bomarc Industrial Park,Bangor,ME,04401,
100,Saco Falls Way,Biddeford,ME,4005,
31,Cottle Rd,Oakland,ME,4963,
13,Grove St,Houlton,ME,4730,
461,River Rd,Hollis,ME,4042,
8,Dewey St,Hampden,ME,4444,
772,Airline Rd,Clifton,ME,4428,
8,Elm St,Gorham,ME,4038,
17,Kerry Rd,York,ME,3909,
629,Old Lewiston Rd,Winthrop,ME,4364,
242,Plains Rd,Harrison,ME,4040,
478,Oak Woods Rd,North Berwick,ME,03906,
4,Winter St,Hallowell,ME,4347,
204,Washington St,Bath,ME,4530,
33,Hemore Rd,Ludlow,ME,4730,
169,Washburn Ave,Portland,ME,4102,
17,Strout Ln,Chelsea,ME,4330,
524,Moosehead Trl,Newport,ME,4953,
104,S Deer Isle Rd,Deer Isle,ME,4627,
129,Court St,Farmington,ME,04938,
74,River Rd,Dresden,ME,4342,
144,Old High Rd,Cornish,ME,4020,
15,Chelsea Way,Cumberland,ME,4110,
29,Piper Landing Ln,Bowdoinham,ME,4008,
37,Morrill Ave,Waterville,ME,4901,
4,Mcgill Fern Rd,Standish,ME,4084,
22,Hancock St,Portland,ME,4101,
66,State Rd,West Bath,ME,04530,
94,Chickadee Ln,New Limerick,ME,4761,
71,Leland St,Portland,ME,4103,
7,Jackson St,Dexter,ME,4930,
132,Campus Ave,Lewiston,ME,04240,
12,Impatiens Mews,Scarborough,ME,4074,
55,Richmond Ter,Cape Elizabeth,ME,04107,
19,Creation Ln,York,ME,3909,
783,Lisbon St,Lewiston,ME,04240,
23,Sandy Point Rd,Yarmouth,ME,4096,
213,Fletcher Rd,Auburn,ME,4210,
470,Drews Lake Rd,New Limerick,ME,4761,
53,Circle Dr,Cornish,ME,4020,
708,Webber Pond Rd,Vassalboro,ME,4989,
66,Robys Pond Ln,Ogunquit,ME,3907,
29,White Rd,Orono,ME,4473,
77,Hill St,Biddeford,ME,4005,
43,Route 236,Berwick,ME,3901,
56,Meade Ln,Bridgton,ME,4009,
550,Cape Cod Hill Rd,New Sharon,ME,04955,
37,South Rd,Dixmont,ME,4932,
67,Morning Glory Ln,Sidney,ME,04330,
502,Pine St,Dover-Foxcroft,ME,4426,
115,Snow Rd,Bridgewater,ME,4735,
1375,Forest Ave,Portland,ME,4103,
48,New Jersey St,Millinocket,ME,4462,
30,Snowy Ridge Rd,Windham,ME,4062,
179,Strickland Loop Rd,Livermore Falls,ME,04254,
2557,State Rd,Castle Hill,ME,4757,
382,Howard St,Bangor,ME,4401,
51,Otter Dr,Standish,ME,4084,
430,Town Farm Rd,Bucksport,ME,04416,
14,High St,York,ME,3909,
39,Northwood Dr,Portland,ME,4103,
64,Middle Rd,Falmouth,ME,04105,
64,Oxford St,Lewiston,ME,04240,
49,Main St,Caribou,ME,04736,
9,Stones Point Rd,Cushing,ME,4563,
28,Ox Plow Ln,Kennebunkport,ME,04046,
57,Cove End Rd,Brownville,ME,4414,
400,Congress St,Portland,ME,4101,
51,Lombard Rd,Caribou,ME,04736,
141,Main St,Freeport,ME,4032,
14,Goodhue Rd,Sidney,ME,4330,
1235,Roosevelt Trl,Raymond,ME,4071,
171,Osborne Rd,Farmington,ME,4938,
263,Eastside Rd,Hancock,ME,04640,
243,Farmington Rd,Strong,ME,4983,
112,Bear Point Rd,Harrison,ME,4040,
125,Horton St,Lewiston,ME,04240,
10,Seville Pl,Lewiston,ME,04240,
275,Lake Rd,Wilton,ME,4294,
24,Willow Ln,Cumberland,ME,4021,
12,Red Maple Dr,Friendship,ME,4547,
250,Bates St,Lewiston,ME,04240,
43,Lagrange Rd,Howland,ME,4448,
60,Snell Hill Rd,Turner,ME,4282,
7,Marion Way,Falmouth,ME,04105,
88,Eastbrook Rd,Franklin,ME,4634,
186,Silver Lake Rd,Shapleigh,ME,4076,
781,Main Rd,Enfield,ME,4493,
11,Chestnut Dr,Poland,ME,4274,
3,Buckthorn Cir,Saco,ME,4072,
487,School St,Berwick,ME,3901,
6,Penacook Dr,Brunswick,ME,4011,
11,Old County Rd,North Berwick,ME,3906,
13,My Way Ln,Mercer,ME,04957,
22,Buck Ln,Howland,ME,4448,
309,Rocky Dundee Rd,Buxton,ME,04098,
20,Walls St,Mount Desert,ME,4609,
4581,Kennebec Rd,Dixmont,ME,4932,
323,Intervale Rd,Temple,ME,4984,
28,Wilson St,Lewiston,ME,04240,
6,Crescent View Ave,Cape Elizabeth,ME,4107,
6,Reg Roc Dr,Falmouth,ME,4105,
101,Birch St,Lewiston,ME,4240,
10,Shoreview Dr,Yarmouth,ME,4096,
46,Washington St,Brewer,ME,04412,
2,Lighthouse Rd N,Bridgton,ME,4009,
431,Davis Rd,Durham,ME,4222,
20,Crescent Dr,Waterboro,ME,4061,
38,Carriage Rd,Cumberland,ME,4110,
963,Canaan Rd,Pittsfield,ME,4967,
49,Loring Ln,Blue Hill,ME,4614,
32,Dirigo Dr,Bangor,ME,4401,
322,Bald Hill Rd,Wells,ME,4090,
637,Lawrence Rd,Pownal,ME,4069,
89,N Taylor Rd,Mount Vernon,ME,4352,
18,Fairhaven Ave,Saco,ME,4072,
102,S Freeport Rd,Freeport,ME,4032,
670,Roosevelt Trl,Windham,ME,04062,
57,Knox St,Lewiston,ME,04240,
60,Waters Edge,Hollis,ME,04042,
38,Fountain St,Bangor,ME,04401,
33,Lavoie St,Jay,ME,4239,
440,Sokokis Trl N,Limerick,ME,4048,
169,King St,Oxford,ME,4270,
19,Margaret Hutchinson Rd,Porter,ME,4068,
660,Webbs Mills Rd,Raymond,ME,4071,
21,Jackson St,Sanford,ME,4073,
9,Hillcrest Dr,Brewer,ME,04412,
44,Exeter Rd,Garland,ME,4939,
42,Bayview Ave,Ogunquit,ME,3907,
961,Main St,Madawaska,ME,4773,
31,Luckman Rd,Saint Albans,ME,4971,
24,Fort Rd,Edgecomb,ME,4556,
2,Johnson St,Sanford,ME,4073,
185,Rowe Hill Rd,Greenwood,ME,4219,
39,Seabury Rd,York,ME,3909,
7,Arbor Field Rd,Windham,ME,4062,
940,Estabrook Rd,Amity,ME,04471,
72,Howard St,Bangor,ME,4401,
41,Hathaway St,Skowhegan,ME,4976,
134,Route 1,Falmouth,ME,4105,
378,Oakwood Dr,Yarmouth,ME,4096,
56,Glen St,Oxford,ME,4270,
175,Tenney Hill Rd,Casco,ME,4015,
183,Main St,Rockland,ME,4841,
184,Walnut Hill Rd,Shapleigh,ME,4076,
46,Gregory Dr,Sanford,ME,04073,
931,Us Route 2  W,Wilton,ME,4294,
259,Macomber Hill Rd,Jay,ME,4239,
723,Riverside St,Portland,ME,4103,
2,Staddle Ln,Scarborough,ME,4074,
318,Essex St,Bangor,ME,4401,
30,Kennedy Ter,Van Buren,ME,4785,
7,Hadlock Pond Rd,Mount Desert,ME,4609,
436,Woodford St,Portland,ME,4103,
40,Paradise Ln,Southport,ME,4576,
77,Elm St,Limerick,ME,4048,
100,Sols Cliff Rd,Bar Harbor,ME,4609,
226,Parker Farm Rd,Buxton,ME,04093,
12,Castle Ter,Scarborough,ME,4074,
10,Pleasant Pond Ln,Litchfield,ME,4350,
137,Wardtown Rd,Freeport,ME,4032,
117,Pinnacle Dr,Newry,ME,4261,
200,N Lower Bay Rd,Lovell,ME,04051,
4446,Arnold Trl,Chain of Ponds Twp,ME,04936,
383,Bay View Dr,Bar Harbor,ME,4609,
5,Lawn Ave,South Portland,ME,4106,
644,Campground Rd,Fayette,ME,4349,
50,Baker Ln,Northfield,ME,4654,
35,Canal St,Lewiston,ME,04240,
386,Ash Point Dr,Owls Head,ME,4854,
11,Bayview Ter,Portland,ME,4103,
30,W Old Orchard Ave,Old Orchard Beach,ME,4064,
122,Maple Ave,Scarborough,ME,4074,
309,W Gray Rd,Gray,ME,4039,
38,Main St,Kennebunk,ME,4043,
42,Highland Ave,Old Orchard Beach,ME,4064,
416,College St,Lewiston,ME,4240,
211,Mayall Rd,Gray,ME,4039,
43,Hatch Dr,Caribou,ME,04736,
39,Court St,Houlton,ME,04730,
26,Annis Rd,Bethel,ME,4217,
194,Spring St,Portland,ME,4102,
410,Main St,Lewiston,ME,04240,
89,Montrose Ave,Portland,ME,4103,
475,Pleasant St,Lewiston,ME,04240,
8,Ridge Rd,Shapleigh,ME,4076,
78,Riverview Rd,Bristol,ME,4558,
235,High St,Paris,ME,4281,
70,Knox Ave,Bangor,ME,04401,
354,Watson Heights Rd,Fayette,ME,4349,
120,Merryfield Ave,Waterville,ME,4901,
281,Main St,Bradley,ME,4411,
101,Riverside Dr,Camden,ME,4843,
255,Lessner Rd,Damariscotta,ME,4543,
1,George St,Bangor,ME,04401,
36,Deerfield Rd,North Berwick,ME,03906,
250,Richardson Rd,Easton,ME,4740,
411,Upper Ridge Rd,Bridgton,ME,4009,
17,Heffron Ln,Georgetown,ME,4548,
1346,Albion Rd,Winslow,ME,04901,
257,Madison Rd,Norridgewock,ME,4957,
13,Osgood Ave,Mexico,ME,4257,
49,Forest St,Westbrook,ME,4092,
17,Everett St,Oakland,ME,4963,
999,Roosevelt Trl,Windham,ME,4062,
142,E Grand Ave,Old Orchard Beach,ME,4064,
12,Village Green Dr,Saco,ME,4072,
128,Pine St,Lewiston,ME,04240,
97,Commercial St,Bath,ME,04530,
8,Elliottsville Rd,Monson,ME,4464,
1120,Stillwater Ave,Old Town,ME,4468,
1041,Lewiston Rd,Topsham,ME,04086,
453,Brownfield Rd,Porter,ME,4068,
65,Lambert St,Portland,ME,4103,8.0
63,Marginal Way,Portland,ME,4101,
92,Ash Tree Trl,Wells,ME,4090,
324,Harvey Rd,South Berwick,ME,3908,
41,Tamarack Dr,South Berwick,ME,3908,
294,Fowler Rd,Cape Elizabeth,ME,4107,
19,Royal Ave,Freeport,ME,04032,
58,Peaceful Vly,Bucksport,ME,4416,
10,Townview Rd,Caribou,ME,4736,
14,Belmont Ave,Camden,ME,04843,
285,7th St,Acton,ME,4001,
9,Page St,Hallowell,ME,4347,
56,Pine Meadow Dr,North Berwick,ME,03906,
55,Chestnut St,Portland,ME,4101,
5,Longmeadow Dr,Veazie,ME,4401,
51,Turkey Cove Rd,Saint George,ME,4860,
728,Togus Rd,Chelsea,ME,4330,
43,Donica Rd,York,ME,3909,
201,Sokokis Trl,Waterboro,ME,4030,
24,Cottage St,Lewiston,ME,04240,
375,China Rd,Winslow,ME,4901,
1,Pine St,East Millinocket,ME,4430,
275,Woodside Rd,Brunswick,ME,4011,
28,Longfellow Dr,Cape Elizabeth,ME,4107,
79,Peninsula Dr,Rome,ME,4963,
14,Cooks Mills Rd,Casco,ME,4015,
10,Sturdivant Dr,Portland,ME,4103,
21,Bradley St,Lewiston,ME,04240,
23,Preble St,Gorham,ME,4038,
95,Split Rock Rd,Jefferson,ME,4348,
465,Norlands Rd,Livermore,ME,04253,
66,Winthrop St,Augusta,ME,04330,
10,Swetts Pond Rd,Orrington,ME,4474,
15,Pleasant St,Hampden,ME,4444,
250,Sanford Rd,Alfred,ME,4002,
57,Bigelow Rd,Saint Albans,ME,4971,
117,Weeks Mills Rd,China,ME,4358,
166,Newman St,Winter Harbor,ME,4693,
11,Debra Ln,Kittery,ME,3904,
307,Langley Shores Dr,Acton,ME,4001,
626,Tunk Lake Rd,Sullivan,ME,4664,
15,Bates St,Sanford,ME,4073,
109,Boyds Corner Rd,South Berwick,ME,3908,
184,Leisure Ln,Frye Island,ME,4071,
80,Linscott Ave,Waterford,ME,4088,
1680,Ludlow Rd,Ludlow,ME,4730,
24,Nash Dr,Chelsea,ME,4330,
118,Old Harbor Rd,Vinalhaven,ME,04863,
1,Railroad Avenue Ext,York,ME,3909,
364,Pettegrow Point Rd,Machiasport,ME,4655,
97,Hill Farm Rd,Belgrade,ME,4917,
15,Campbell Dr,Holden,ME,4429,
1289,Center Hill Rd,Weld,ME,4285,
78,Milt Carlton Rd,Woolwich,ME,4579,
282,E Hebron Rd,Turner,ME,4282,
229,Cottage Rd,South Portland,ME,4106,
7,Elbridge Oliver Way,Scarborough,ME,4074,
489,Westbrook St,South Portland,ME,4106,
33,Holiday Dr,Portland,ME,4103,
156,State Rd,Kittery,ME,3904,
91,Elm St,Lewiston,ME,04240,
28,Perimeter Ave,Standish,ME,4084,
36,Beard Ln,Milo,ME,4463,
94,Jordan Ave,Brunswick,ME,4011,
150,Russell Rd,Skowhegan,ME,4976,
5,Free St,Camden,ME,04843,
72,Depot St,Buxton,ME,4098,
475,Leisure Ln,Frye Island,ME,4071,
110,Pine St,Lewiston,ME,4240,
62,Upper Swallow Rd,Paris,ME,4281,
5,Chesley Dr,Waterville,ME,04901,
163,Main St,Lubec,ME,4652,
382,Main St,North Haven,ME,4853,
780,Harrison Rd,Bridgton,ME,4040,
239,W Old County Rd,Newcastle,ME,4553,
14,Cove Rd,Eliot,ME,03903,
17,Bridge St,Fort Kent,ME,4743,
3,Maxwell Rd,Wilton,ME,4294,
125,Maranacook Rd,Winthrop,ME,4364,
18,Katie Ln,Mexico,ME,4257,
26,Stanley Point Rd,Swans Island,ME,4685,
103,Lawrence Rd,Gray,ME,4039,
8,Hampton Cir,Scarborough,ME,4074,
35,Main St,Lubec,ME,4652,
347,Orange Rd,Casco,ME,4015,
139,Clements Point Rd,Warren,ME,4864,
7,Canterbury Way,Cape Elizabeth,ME,4107,
94,Northern Ave,Gardiner,ME,4345,
622,Congress St,Portland,ME,4101,
33,Finntown Rd,Warren,ME,4864,
11,Linden St,Auburn,ME,4210,
22,Pleasant St,Bar Harbor,ME,4609,
247,Bryant Rd,Dover-Foxcroft,ME,04426,
1200,Main St,Sanford,ME,4073,
2,Fort Hill Rd,Standish,ME,4084,
10,York Ln,Jefferson,ME,4348,
23,Post Office Rd,Dover-Foxcroft,ME,4426,
16,Hackmatack Way,Gorham,ME,04038,
7,Ryans Mdw,Gorham,ME,04038,
52,Brentwood Rd,Cape Elizabeth,ME,4107,
60,Woodland Rd,Cape Elizabeth,ME,04107,
35,Raymonds Way,Jay,ME,4239,
20,Bradford Dr,Gorham,ME,04038,
283,Maine St,Brunswick,ME,4011,
482,Main St,Norway,ME,4268,
6,Caribou Lake Rd,Washburn,ME,4786,
61,Euclid Ave,Portland,ME,4103,
750,York St,York,ME,3909,
121,Neal St,Portland,ME,4102,
9,Park St,Fort Fairfield,ME,4742,
38,Levesque Dr,Eliot,ME,3903,
28,Garden St,Old Orchard Beach,ME,4064,
35,Canal St,Lewiston,ME,04240,
301,High St,Paris,ME,4281,
10,Tapawingo Rd,Sweden,ME,4088,
8,Elm St,Limerick,ME,4048,
120,Beach St,Saco,ME,4072,
80,Brickhill Ave,South Portland,ME,4106,
189,Bradford Point Rd,Friendship,ME,4547,
16,Dahlgren St,Caribou,ME,4736,
23,Spofford St,Lewiston,ME,04240,
967,Broadway,South Portland,ME,4106,
1845,Mattamiscontis Rd,Mattamiscontis Twp,ME,04457,
403,Sproul Block Apt,Waldoboro,ME,4572,
27,Oak St,Waterboro,ME,4061,
98,Seven Tree Ln,Warren,ME,4864,
35,Main St,Peru,ME,4290,
94,Quaker Rd,Sidney,ME,4330,
95,Ferry Rd,Brooksville,ME,4617,
9,Mountain Ave,Lewiston,ME,04240,
169,Main St,Caribou,ME,04736,
196,Pine Hill Rd,Berwick,ME,3901,
532,Sabattus St,Lewiston,ME,04240,
155,Market St,Fort Kent,ME,04743,
269,Burleigh Rd,Bangor,ME,4401,
53,Coles Corner Rd,Athens,ME,4912,
22,Tarratine Dr,Brunswick,ME,4011,
32,Robinson Rd,Albany Twp,ME,4217,
1010,Beckwith Rd,Cornville,ME,4976,
69,Bear Ln,Dexter,ME,4930,
32,Bayview Dr,Tremont,ME,4674,
5,Lookout Cir,Arundel,ME,4046,
6,Portview Ln,Kennebunk,ME,4043,
42,Fort St,Caribou,ME,4736,
360,Bolt Hill Rd,Eliot,ME,3903,
99,Bluff Rd,Winter Harbor,ME,4693,
11,Brooklyn Hts Rd,Thomaston,ME,4861,
257,Poors Mill Rd,Belfast,ME,4915,
40,Eastern Promenade,Portland,ME,4101,
390,Central Ave,Lewiston,ME,04240,
12,Kerry Rd,York,ME,3909,
169,Hacker Rd,Brunswick,ME,4011,
23,Squire Ct,Winthrop,ME,4364,
431,Martin Point Rd,Friendship,ME,4547,
405,Flye Point Rd,Brooklin,ME,4616,
1263,River Rd,Bowdoinham,ME,4008,
76,Jefferson St,Old Town,ME,4468,
8,Ridgeway St,Houlton,ME,04730,
43,Academy Rd,Monmouth,ME,4259,
90,Beaver Rd,Sabattus,ME,4280,
30,Pleasant St,Brunswick,ME,04011,
110,Ash St,Lewiston,ME,04240,
82,Shepherd Ln,Portland,ME,4103,
112,Rocky Lake Rd,Berry Twp,ME,151,
11,Coles Cv,Bar Harbor,ME,4609,
2512,Route 2,Hermon,ME,4401,
16,Winter Street Ext,Saco,ME,4072,
16,Outback Ln,Gray,ME,4039,
5,Lynnsey Holw,Kennebunkport,ME,4046,
111,Sunset Ave,Portland,ME,4109,
53,Woodside Meadow Rd,York,ME,3909,
8,Western Ave,Kennebunk,ME,4043,
21,Rivers Edge Dr,Kennebunk,ME,4043,
47,Irving St,Portland,ME,4103,
77,West St,Rockport,ME,4856,
65,Spring St,Dexter,ME,4930,
159,Mast Rd,Lyman,ME,04002,
98,Kearney Rd,Mars Hill,ME,4758,
13,Whittier St,Brunswick,ME,4011,
30,Gloria Ave,Lewiston,ME,4240,
25,E Oxford Rd,Oxford,ME,4270,
7,Kenosha Ave,Scarborough,ME,4074,
54,Oak St,Alfred,ME,4002,
168,Hill St,Paris,ME,4281,
264,Montello St,Lewiston,ME,04240,
461,Lowelltown Rd,Wiscasset,ME,4578,
4,Tennessee Cir,Limestone,ME,04751,
52,Cates Rd,Dixmont,ME,4932,
30,Maines Farm Rd,Raymond,ME,4071,
50,Hannahs Way,Brooksville,ME,4617,
360,Access Hwy,Caribou,ME,04736,
256,Maine St,Poland,ME,4274,
138,Grove St,Lewiston,ME,04240,
91,Montfort Dr,Strong,ME,4983,
41,Sawyer St,Portland,ME,4103,
28,Hyde Rd,Phippsburg,ME,4562,
594,Preble Ave,Madison,ME,4957,
253,Knowlton Corner Rd,Farmington,ME,04938,
1118,Old North Berwick Rd,Alfred,ME,4002,
459,Plains Rd,Turner,ME,4282,
19,Applebee Cir,Portland,ME,4103,
108,Shaw Rd,Littleton,ME,4730,
235,Biddeford Rd,Alfred,ME,4002,
25,Crescent St,Portland,ME,4102,
5,Green St,Houlton,ME,4730,
407,Crocker Turn Rd,Greenfield Twp,ME,04418,
75,Depot Rd,Gray,ME,4039,
77,Broad St,Bethel,ME,4217,
171,Mayberry Rd,Gray,ME,4039,
497,W Main St,Fort Kent,ME,04743,
29,Baptism Beach Rd,Jefferson,ME,4348,
316,Limerock St,Rockland,ME,4841,
110,Ridlonville Rd,Sweden,ME,4088,
124,Clark Point Rd,Southwest Harbor,ME,4679,
665,Saco St,Westbrook,ME,4092,188.0
33,Lilac Ln,Casco,ME,04015,
36,Roxbury Rd,Mexico,ME,4257,
150,Silo Dr,Industry,ME,04938,
182,Bald Hill Rd,New Gloucester,ME,4260,
115,Manor Dr,Rangeley,ME,4970,
111,Burnell Dr,Yarmouth,ME,4096,
37,Philip Rd,Cape Elizabeth,ME,4107,
938,Gore Rd,Alfred,ME,4002,
845,High St,Bath,ME,04530,
2154,New Vineyard Rd,New Vineyard,ME,04956,
141,Witchtrot Rd,South Berwick,ME,3908,
36,Periwinkle Dr,Yarmouth,ME,4096,
194,Danforth St,Portland,ME,4102,
9,Taylor Way,Ellsworth,ME,4605,
37,Jordan Point Rd,Harpswell,ME,04079,
31,Pride St,Westbrook,ME,4092,
33,Village Green Dr,Saco,ME,4072,
479,Rocky Knoll Rd,Denmark,ME,4010,
477,Back Winterport Rd,Hampden,ME,4444,
33,Dewey Rd,York,ME,3909,
13,Grove Ave,Sanford,ME,4073,
2,Back Ridge Rd,Orland,ME,4472,
143,Mccoy Rd,Robbinston,ME,4671,
135,Grove St,Lewiston,ME,4240,
74,Elm St,Camden,ME,04843,
634,Grindstone Rd,Stacyville,ME,4777,
22,Cogswell St,Fort Fairfield,ME,4742,
45,Tower Hill Rd,Harpswell,ME,04066,
3,Swett St,Brunswick,ME,04011,
11,Green St,Bridgton,ME,04009,
59,Simpson Rd,Saco,ME,4072,
1,Passamaquoddy Rd,Pleasant Point,ME,4667,
108,North Rd,Chebeague Island,ME,4017,
276,Fairbanks Rd,Farmington,ME,04938,
63,Paddock Ln,Frye Island,ME,04071,
76,Glidden St,Newcastle,ME,4553,
19,Wyman Hill Rd,Rumford,ME,4276,
23,Mclellan St,Brunswick,ME,4011,
2,Steward Rd,Mexico,ME,4257,
338,Tolman Rd,Warren,ME,4864,
61,Walker Rd,Woolwich,ME,4579,
563,N Bridgton Rd,Bridgton,ME,4040,
637,South Rd,Dedham,ME,4429,
840,S High St,Bridgton,ME,04009,
33,Winter St,Gardiner,ME,4345,
4,Second St,Hallowell,ME,4347,
9,Pearl St,Waterboro,ME,4087,
189,No Name Pond Rd,Lewiston,ME,04240,
397,Morrill Rd,Winslow,ME,4901,
162,30th St,Shapleigh,ME,4076,
15,Alder St,Mexico,ME,4257,
24,Wagner Farm Rd,Gorham,ME,4038,
268,Brighton Rd,Athens,ME,04912,
18,Wright Brothers Dr,Belfast,ME,4915,
67,Spy Rock Rd,Harpswell,ME,4079,
103,Main St,Princeton,ME,4668,
299,Davis Rd,Durham,ME,4222,
453,Cousins St,Yarmouth,ME,4096,
658,River Rd,Caribou,ME,04736,
6,Roaring Brook Dr,Arundel,ME,04046,
57,Upland Rd,Lisbon,ME,04250,
28,Temple St,Westbrook,ME,04092,
18,Princeton St,Bangor,ME,4401,
47,Maple St,Farmingdale,ME,4347,
117,Fourth St,Bangor,ME,4401,
16,Russell Ln,Warren,ME,4864,
276,Stevens Ave,Portland,ME,4103,
62,Elm St,Bethel,ME,4217,
52,Drowne Rd,Cumberland,ME,04021,
1816,Washington Rd,Waldoboro,ME,4572,
68,Fieldstone Dr,Augusta,ME,4330,
606,S Main St,Brewer,ME,04412,
57,Gateway Dr,Wells,ME,4090,
26,Bridgton Rd,Westbrook,ME,4092,
23,Balsam Ln,Kennebunk,ME,4043,
26,Sanborn Cir,Norway,ME,4268,
725,Maine St,Stoneham,ME,4231,
380,Congress St,Portland,ME,4101,
87,Chicopee Rd,Buxton,ME,04093,
65,Leighton Rd,Falmouth,ME,4105,
12,Neptune Rd,Old Orchard Beach,ME,4064,
21,Cards Ct,Ellsworth,ME,4605,
427,Glenmere Rd,Saint George,ME,4860,
52,York St,York,ME,3909,
62,State St,Portland,ME,4102,
487,Route 219,Leeds,ME,4263,
500,Sawyer Rd,Hampden,ME,4444,
19,Simion Rd,Minot,ME,4258,
34,Hospital St,Augusta,ME,4330,
320,E River Rd,Skowhegan,ME,4976,
924,Ridge Rd,Windsor,ME,4363,
85,Strawberry Ave,Lewiston,ME,04240,
813,Five Islands Rd,Georgetown,ME,4548,
647,Federal Row,Industry,ME,4938,
95,Lincoln St,Westbrook,ME,4092,
58,Betty Ln,Waterboro,ME,4030,
19,Island View Ave,Saco,ME,4072,
291,N Bath Rd,Bath,ME,4530,
880,Forest Ave,Portland,ME,4103,
314,Gray Rd,Gorham,ME,4038,
1057,Main St,Saint Francis,ME,04774,
44,Berwick St,South Portland,ME,4106,
15,Eagle Lake Rd,Bar Harbor,ME,4609,
12,Beacon Ave,Saco,ME,4072,
400,Congress St,Portland,ME,4101,
23,Pearl St,Auburn,ME,04210,
31,N Paris Rd,West Paris,ME,4289,
4,Amys Way,Berwick,ME,3901,
28,Mayo St,Dover-Foxcroft,ME,4426,
39,Court St,Houlton,ME,04730,
24,Headwall Dr,Bridgton,ME,4009,
406,Powers Rd,Caribou,ME,04736,
16,Morses Hill Rd,Swans Island,ME,4685,
195,Bartlett St,Lewiston,ME,04240,
262,Stoney Brook Rd,Phippsburg,ME,04562,
210,Bear Hill Rd,Hollis,ME,4042,
287,Spring St,Portland,ME,4102,
53,Oliver St,Rockland,ME,4841,
331,Port Clyde Rd,Saint George,ME,4860,
700,Post Rd,Bowdoinham,ME,4008,
123,Hadfield Rd,Minot,ME,4258,
100,State St,Portland,ME,4102,
454,Fairbanks Rd,Farmington,ME,04938,
310,Dunham Rd,Vassalboro,ME,4989,
60,Flayhan Dr,Sanford,ME,4073,
12,Raven Ln,Fryeburg,ME,4037,
364,Rabbit Valley Rd,Oxford,ME,4270,
400,Congress St,Portland,ME,4101,
23,Wykes Ln,Baldwin,ME,4024,
253,E Main St,Yarmouth,ME,4096,
181,Town Farm Rd,New Gloucester,ME,4260,
20,Portage Point Dr,T4 Indian Purchase Twp,ME,00130,
28,Endfield St,Porter,ME,4068,
118,School St,Berwick,ME,3901,
37,Luckys Run,Standish,ME,4084,
34,Ledgelawn Ave,Bar Harbor,ME,4609,
290,Beaver Brook Rd,Limerick,ME,4048,
23,Spofford St,Lewiston,ME,04240,
66,Thomas Road Ext,Standish,ME,4084,
11,Peking St,China,ME,4358,
682,Levenseller Rd,Holden,ME,4429,
20,Inspiration Pt,Waterboro,ME,4030,
1,Cobb Cove Ln,Sanford,ME,04073,
2120,Portage Rd,Portage Lake,ME,4768,
42,Cummings Hill Rd,Temple,ME,04984,
1537,State Route 129,South Bristol,ME,4568,
854,Sokokis Trl,Waterboro,ME,4061,
2,Purlin Dr,Windham,ME,4062,
61,Beaver Creek Rd,Carmel,ME,4419,
18,Pleasant St,Randolph,ME,4346,
254,School St,Canton,ME,4221,
68,Shell St,Owls Head,ME,4854,
19,Timothy Ln,Sanford,ME,04073,
34,Brighton Rd,Solon,ME,4979,
316,Intervale Rd,Temple,ME,04984,
14,Crosby St,Portland,ME,4103,
25,Townhouse Dr,South Portland,ME,4106,
6,Bee Hive Dr,Gray,ME,4039,
612,Ridge Rd,Robbinston,ME,4671,
31,Ridge Ln,Brownfield,ME,4010,
164,Washburn Ave,Portland,ME,4102,
326,Keay Rd,Sabattus,ME,04280,
16,Dereks Way,Hope,ME,4847,
233,Dexter Rd,Saint Albans,ME,4971,
28,Kennedy Ter,Van Buren,ME,4785,
1,Balsam Ln,Falmouth,ME,04105,
272,Main St,Lewiston,ME,4240,
79,Fisher Rd,Bowdoinham,ME,04008,
100,Lincoln Ave,Rumford,ME,4276,
45,Martha Beck Dr,Bristol,ME,4564,
41,Joans Hill Rd,Bangor,ME,4401,
437,Common Rd,Union,ME,4862,
9,Grove Street Ct,Bangor,ME,4401,
43,Munjoy St,Portland,ME,4101,
235,Island Ave,Long Island,ME,4050,
30,Pleasant St,Brunswick,ME,04011,
143,North Rd,Cambridge,ME,4923,
44,Jennifer Ln,Bangor,ME,4401,
195,Hodgdon Mills Rd,Hodgdon,ME,4730,
631,Forest Ave,Portland,ME,4101,
1235,Roosevelt Trl,Raymond,ME,4071,
18,Deer Ridge Rd,Wiscasset,ME,4578,
415,Route 1,Frenchville,ME,4745,
349,N Dexter Rd,Sangerville,ME,4479,
561,Sebago Rd,Sebago,ME,4029,
29,Pleasant St,Dover-Foxcroft,ME,4426,
27,Pennmaric Rd,Augusta,ME,4330,
50,Maine Mall Rd,South Portland,ME,4106,
20,Pikes Way,Cornish,ME,4020,
70,Westview Dr,Sanford,ME,4073,
37,Pond St,Bangor,ME,4401,
6,Sylvan Rd,Orono,ME,4473,
25,Hidden Meadows Dr,Arundel,ME,04046,
328,Gilbert Farm Rd,Bar Harbor,ME,4609,
50,New Portland Rd,Gorham,ME,4038,
39,Marston St,Norway,ME,4268,
54,Washington St,Ellsworth,ME,4605,
22,Seaside Ave,Old Orchard Beach,ME,4064,
50,State St,Ellsworth,ME,4605,
1235,Roosevelt Trl,Raymond,ME,4071,
127,MacKenzie Ave,Lincoln,ME,4457,
5,Malo St,Lewiston,ME,4240,
995,Oyster River Rd,Warren,ME,4864,
98,Pine St,Lewiston,ME,04240,
5,Loon Lake Rd,Rangeley,ME,4970,
9,King Moody Rd,Harpswell,ME,04079,
30,Sea St,Rockport,ME,4856,
905,Unionville Rd,Steuben,ME,4622,
201,School House Hill Rd,Turner,ME,4282,
30,Jackson St,Skowhegan,ME,4976,
1050,State Route 32,Bristol,ME,4539,
253,Gardiner Rd,Wales,ME,4280,
85,Edgewood Cir,Wells,ME,4090,
738,Main St,Sandy River Plt,ME,4970,
25,Peter Blvd,Lewiston,ME,4240,
26,South St,Eastport,ME,04631,
91,Port Rd,Kennebunk,ME,4043,
16,Winter St,Guilford,ME,4443,
58,River Rd,Caribou,ME,4736,
61,Bailey Ave,Portland,ME,4103,
74,State Route 232,Rumford,ME,4276,
61,Delwin Dr,North Yarmouth,ME,4097,
18,Eby Dr,Phippsburg,ME,4562,
5,Mainewood Ave,Orono,ME,4473,
7,Marion Way,Falmouth,ME,04105,
1,Hoyt Is,Belgrade,ME,4917,
128,S Shore Dr,Rangeley Plt,ME,4970,
20,John St,Madison,ME,4950,
1012,North Shore Rd,Madawaska Lake Twp,ME,04783,
219,Foxboro Rd,Lovell,ME,4051,
9,Bourne Ave,Wells,ME,4090,
2196,Sanford Rd,Wells,ME,4090,
191,Gray Rd,Falmouth,ME,4105,
