NUMBER,STREET,CITY,STATE,POSTCODE,UNIT
7421,STARLIGHT,Semcog,MI,48166,
38700,M-29,Semcog,MI,48047,
3545,HICKORY,Semcog,MI,48141,
13395,MARK TWAIN,DETROIT,MI,48227,
,144th Avenue,Ottawa,MI,49417,
3945,KINGSTON,Semcog,MI,48125,
3141,SYLVAN DR,Semcog,MI,48310,
1169,OAK VALLEY DR,ANN ARBOR,MI,48108,
2260,Thomas Ave,Berkley,MI,48072,
8006,OAKLAND,DETROIT,MI,48211,
,RAWSONVILLE RD,Semcog,MI,48111,
2422,12TH,Semcog,MI,48192,
14179,ABINGTON AVE,Semcog,MI,48227,
126,CLINTON,Semcog,MI,48192,
2024,ALPHA DR,Semcog,MI,48382,
11867,GRANT,Semcog,MI,48193,
1016,Harbor Drive,Ottawa,MI,49417,
13892,SARATOGA,DETROIT,MI,48205,
2750,COTTAGE LN,Semcog,MI,48028,
1212,MAXWELL AVE,Semcog,MI,48067,
8081,BERNICE,Semcog,MI,48015,
16670,Stanton Street,Ottawa,MI,49460,
1993,E FERRY,DETROIT,MI,48211,
3238,HOLBROOK,HAMTRAMCK,MI,48212,
755,E LONG LAKE RD,Semcog,MI,48085,
14282,MORAVIAN MANOR CIR,Macomb,MI,48312,14
641,W HURON ST,Semcog,MI,48341,
837,LAKEWOOD,Semcog,MI,48215,
2130,PAULINE BLV 102,ANN ARBOR,MI,48103,
14880,PINE KNOLL LN,Semcog,MI,48014,
20714,SHADY LN,Macomb,MI,48080,
17151,HARTWELL,Semcog,MI,48235,
28617,NORTHLINE,Semcog,MI,48174,
19450,REVERE,DETROIT,MI,48234,
10730,LIMA CENTER RD,Semcog,MI,48158,
4555,VALLEY VIEW PT,Semcog,MI,48306,
1830,VINSETTA BLVD,Semcog,MI,48073,
17525,RIOPELLE,DETROIT,MI,48203,
1328,Alivia Dr,Plainwell,MI,49080,
15774,ILENE,DETROIT,MI,48238,
30,SALLIOTTE RD,ECORSE,MI,48229,
469,MELINDA CIR E,Semcog,MI,48386,
18932,WOODBINE,Semcog,MI,48219,
14290,PARK,Semcog,MI,48154,
16894,FENTON,DETROIT,MI,48219,
43241,CAPE DR,Macomb,MI,48313,5
14706,WEST POINT DR,Semcog,MI,48313,
30866,Fortune Trl,Milford,MI,48381,
183,Oak Ave,Highland,MI,48357,
,W FIFTH AVE,FLINT,MI,48504,
32551,HALMICH DR,Macomb,MI,48092,
3081,10Th St,Wayland,MI,49348,
35631,GLEN,Semcog,MI,48186,
20341,PENN,Semcog,MI,48124,
22329,PENNSYLVANIA RD,Semcog,MI,48193,
2704,RED FOX TRAIL,TROY,MI,48098,
23113,RAUSCH,Semcog,MI,48021,
4479,OHEREN ST,BURTON,MI,48529,
,WEST RD,BROWNSTOWN,MI,48134,
20147,SORRENTO,Semcog,MI,48235,
2930,N ALTADENA AVE,Semcog,MI,48073,
3842,MARTIN,DETROIT,MI,48210,
10817,SOMERSET,Semcog,MI,48224,
44316,LAKEPOINTE DR,Macomb,MI,48313,30
1265,SUNNIWOOD PL,Semcog,MI,48306,
27260,GRANDMONT,Semcog,MI,48066,
26300,WINTON,Semcog,MI,48081,
45520,MOONLIGHT,PLYMOUTH,MI,48170,
20630,GENTZ RD,Semcog,MI,48111,
1711,WOODSBORO DR,Semcog,MI,48067,
2309,MALLERY ST,FLINT,MI,48504,
4523,WOODWARD ST,Semcog,MI,48184,
4421,Dora Ln,Lake Orion,MI,48359,
13926,SARASOTA,REDFORD,MI,48239,
450,PENINSULA LAKE DR,Semcog,MI,48357,
460,ELLSWORTH,BELLEVUE,MI,49021,
19440,HILTON DR,Semcog,MI,48075,
6051,LAPEER RD,Semcog,MI,48074,
258,E PIPER AVE,FLINT,MI,48505,
550,N Sherman Dr,Royal Oak,MI,48067,
9601,ARCOLA,Semcog,MI,48150,
40334,LANGTON DR,Macomb,MI,48310,
209,CROSWELL,Semcog,MI,48065,
19231,WARWICK ST,Semcog,MI,48025,
840,Cross Cir,Oxford,MI,48371,
24301,ANN ARBOR TR,Semcog,MI,48127,
,JANE AVE,FLINT,MI,48506,
7056,NAVY,DETROIT,MI,48209,
15844,LINWOOD,DETROIT,MI,48221,
1404,ELK RUN,EAST BAY TWP,MI,49696,
4980,Lakeview Blvd,Clarkston,MI,48348,
28794,SQUIRE DR,Semcog,MI,48047,
2508,BANNISTER,WESTLAND,MI,48186,
4643,DICKSON DR,Macomb,MI,48310,
2131,CHEYENNE TRL,LONG LAKE TWP,MI,49685,
13125,CHESTNUT,SOUTHGATE,MI,48195,
220,CASS AVE,Semcog,MI,48043,
1653,WEEPING WILLOW CT,YPSILANTI,MI,48198,
21486,SYRACUSE AVE,Macomb,MI,48091,
6585,ROSEBERRY,Semcog,MI,48316,
261,SAINT LOUIS ST,Semcog,MI,48220,
6970,DREXEL,Semcog,MI,48127,
999,RIVER MIST DR,Semcog,MI,48307,
21130,LA SALLE,Semcog,MI,48089,
620,E LINCOLN AVE,Semcog,MI,48067,
2037,DRYDEN +,WESTLAND,MI,48186,
9231,CORNELL,TAYLOR,MI,48180,
757,W OAKRIDGE ST,Semcog,MI,48220,
3045,Eastwood Dr,Rochester Hills,MI,48309,
21771,EDMUNTON,Semcog,MI,48080,
850,Markdale Ave,Lake Orion,MI,48362,
30759,BEECHNUT,Semcog,MI,48186,
501,Sunrise Dr,Clarkston,MI,48348,
12828,HURON,Semcog,MI,48180,
31151,DOWNING PL,Semcog,MI,48025,
2066,Red Maple Ln,Commerce Township,MI,48390,
4308,SASHABAW RD,Semcog,MI,48329,
18601,DWYER,Semcog,MI,48234,
2611,LITTLE ST,Semcog,MI,48060,
8480,HYNE RD,Semcog,MI,48114,
69160,HICKS,Semcog,MI,48005,
4011,W PHILADELPHIA,DETROIT,MI,48204,
870,139Th Ave,Wayland,MI,49348,
17657,SHAFTSBURY,DETROIT,MI,48219,
27284,PEMBROKE DR,Macomb,MI,48092,
28728,Petersburg Rd,Farmington Hills,MI,48331,
352,ROLLING MEADOW DR,ANN ARBOR,MI,48103,
0,COLBY,DEXTER,MI,48130,
1802,WILLOW CREEK,LANSING,MI,48917,
6518,Denton Dr,Troy,MI,48098,
25890,COLERIDGE AVE,Macomb,MI,48045,
26018,FERNWOOD,Semcog,MI,48066,
30395,Southampton Ln,Farmington Hills,MI,48331,
1642,Traceky,Rochester Hills,MI,48306,
46,W Barrett Ave,Madison Heights,MI,48071,
5063,SPOKANE,Semcog,MI,48204,
52045,HONEYSUCKLE,Semcog,MI,48316,
15104,O'CONNOR,Semcog,MI,48101,
,DELAWARE,REDFORD,MI,48240,
27200,PARKVIEW BLVD,Macomb,MI,48092,158
13739,S TELEGRAPH RD,Semcog,MI,48145,
6083,PALMETTO DR,MT MORRIS,MI,48458,
4110,BROWNELL BLVD,FLINT,MI,48504,
8379,CHRISTOPHER ST,Macomb,MI,48095,
289,W PRINCETON AVE,Semcog,MI,48340,
34330,ALCINA ST,Macomb,MI,48035,
22817,FIRWOOD,Semcog,MI,48021,
31731,ARLINGTON DR,Semcog,MI,48025,
862,Hampton Cir,Rochester Hills,MI,48307,
2041,Milverton Dr,Troy,MI,48083,
20502,CONE RD,Semcog,MI,48160,
2490,TUXEDO,DETROIT,MI,48206,
7637,MELVIN,Semcog,MI,48185,
2529,BUNKER HILL RD,Semcog,MI,48105,
309,Lake Avenue,Ottawa,MI,49456,
4,N Broadway St,Lake Orion,MI,48362,
7250,HELEN,Semcog,MI,48015,
25660,MAYWOOD,WOODHAVEN,MI,48183,
6749,Granger Dr,Troy,MI,48098,
1696,COBURN CT,ANN ARBOR,MI,48108,
3965,WOODWARD AVENUE,DETROIT,MI,48201,
19378,WOODINGHAM,Semcog,MI,48221,
11680,MENDOTA,DETROIT,MI,48204,
6739,KINGS MILL,Semcog,MI,48187,
800,HEWETT DR,Semcog,MI,48103,
21518,Green Hill Rd,Farmington Hills,MI,48335,
2105,ARLENE ST,ANN ARBOR,MI,48103,
2080,W BOSTON BLVD,DETROIT,MI,48206,
17755,ALLEN RD,MELVINDALE,MI,48122,
,RALPH ST,FLINT,MI,48506,
11010,E STATE FAIR,Semcog,MI,48234,
7651,N MERRIMAN,Semcog,MI,48185,
2913,Royal Ave,Berkley,MI,48072,
15365,GREEN LANE,Semcog,MI,48154,
13254,ENID BLVD,FENTON,MI,48430,
233,N OLD WOODWARD AVE,Semcog,MI,48009,
45101,W  UTICA GREEN,Macomb,MI,48317,
18959,MAYFIELD,Semcog,MI,48152,
5929,HUBBELL,Semcog,MI,48127,
,MAYWOOD ST,Macomb,MI,48066,
28454,KINGSBERRY RD,Macomb,MI,48047,
24802,Verdant Dr,Farmington Hills,MI,48335,
60587,GARY CT,Semcog,MI,48178,
16150,BIRWOOD,Semcog,MI,48221,
3020,E WILLIS RD,Semcog,MI,48176,
13419,MELANIE DR,Semcog,MI,48313,
5909,KATHERINE,Semcog,MI,48180,
6478,RUSTIC RIDGE TRL,GRAND BLANC,MI,48439,
3620,BETSY ROSS DR,Semcog,MI,48073,
20053,CARRIAGE LN,Semcog,MI,48025,
2897,Wentward Court,Ottawa,MI,49426,
19915,ELIZABETH ST,Macomb,MI,48080,
1208,COPPERWOOD DR,Semcog,MI,48302,
2230,W Avon Rd,Rochester Hills,MI,48309,
28779,LEROY,ROMULUS,MI,48174,
28765,MALVINA,Semcog,MI,48088,
5650,HILLSBORO RD,Semcog,MI,48350,
15660,TERRY RD,Semcog,MI,48002,
2907,STONE SCHOOL RD,Semcog,MI,48104,
32851,Bingham Rd,Bingham Farms,MI,48025,
28335,Brush St,Madison Heights,MI,48071,
614,Ridge St,Otsego,MI,49078,
7733,WHEELER,DETROIT,MI,48210,
19335,NORTHROP,DETROIT,MI,48219,
2108,COUNTRY CLUB DR,Macomb,MI,48082,5
30600,VAN BORN,Semcog,MI,48186,
1128,Ferris Ave,Royal Oak,MI,48067,
3651,HALLA LN,Semcog,MI,48301,
23462,SPY GLASS HL N,Semcog,MI,48178,
9685,RUSSELL,PLYMOUTH,MI,48170,
21007,WALTON ST,Macomb,MI,48081,
2776,Addison Cir S,Rochester,MI,48306,
999,E HESS LAKE DR,GRANT,MI,49327,
1217,BROOK,LANSING,MI,48917,
5174,WESTBURY DR,CHELSEA,MI,48118,
8932,ELM ST,Semcog,MI,48006,
6151,MARCUS,Semcog,MI,48211,
46011,MIDDLE BRANCH CT,Macomb,MI,48044,
134,E RUSSELL AVE,FLINT,MI,48505,
2800,LIVERNOIS,Semcog,MI,48083,
57,DAKOTA ST,Semcog,MI,48341,
18222,PARKSIDE,Semcog,MI,48221,
18000,CHERRYLAWN,DETROIT,MI,48221,
695,Ridgewood Rd,Rochester,MI,48306,
329,PRIMROSE LN,FLUSHING,MI,48433,
311,CAMBRIDGE,DIMONDALE,MI,48821,
37749,AMRHEIN,Semcog,MI,48150,
324,FILMORE,Semcog,MI,48188,
9236,UTE POINTE DR,Semcog,MI,48346,
1489,ANDREA ST,Semcog,MI,48198,
7254,CREEKS BEND CT,Semcog,MI,48322,
1213,OLIVIA AV,ANN ARBOR,MI,48104,
6211,MARKELL,Semcog,MI,48039,
1205,07TH ST,Semcog,MI,48060,
2135,CUMBERLAND DR,Semcog,MI,48085,
3777,GREENOOK BLVD,Semcog,MI,48103,
0,ARKONA RD,SALINE,MI,48176,
603,E Windemere Ave,Royal Oak,MI,48073,
12653,SANTA ROSA,DETROIT,MI,48238,
312,W LIBERTY ST,Semcog,MI,48178,
29636,TRANCREST,Semcog,MI,48152,
337,E 11 Mile Rd,Madison Heights,MI,48071,
922,Ridgeview Cir,Lake Orion,MI,48362,
15017,PROSPECT,Semcog,MI,48126,
3339,RAYMOND,Semcog,MI,48124,
11941,ROXBURY,Semcog,MI,48224,
215,Saint Louis St,Ferndale,MI,48220,
14600,POPLAR,Semcog,MI,48195,
2579,ALGONQUIN,DETROIT,MI,48215,
145,FAWNCREEK,HOLT,MI,48842,
6156,VENICE DR,Semcog,MI,48382,
185,W Elmwood Ave,Clawson,MI,48017,
1399,Paddle Wheel Ln,Rochester Hills,MI,48306,
26233,NAGEL,Semcog,MI,48066,
905,LAWNDALE ST,LUDINGTON,MI,49431,
27551,LIBERTY,Semcog,MI,48092,
6553,BANNER,TAYLOR,MI,48180,
46933,BRIAR TOWNE BLVD,Semcog,MI,48051,
23858,VASSAR AVE,Semcog,MI,48030,
7,BRISTOL CT,Semcog,MI,48104,
12784,WYOMING,Semcog,MI,48238,
29144,ROAN,Semcog,MI,48093,
27931,SIX MILE,LIVONIA,MI,48154,
916,Cloverdale Dr,Royal Oak,MI,48067,
7900,W COON LAKE,Semcog,MI,48843,
372,HILLCREST DR,Semcog,MI,48176,
20355,REDFERN,DETROIT,MI,48219,
10157,MAPLELAWN,DETROIT,MI,48204,
18301,FREELAND,DETROIT,MI,48235,
30740,LORRAINE AVE,Macomb,MI,48093,
3800,QUEEN OAKS DR,CHELSEA,MI,48118,
18974,TEPPERT,DETROIT,MI,48234,
509,BALDWIN AVE,Semcog,MI,48067,
697,Pine Ridge Ave,Oxford,MI,48371,
5581,LAKEPOINTE,Semcog,MI,48224,
4417,TRUMBULL DR,FLINT,MI,48504,
14569,STAHELIN,Semcog,MI,48223,
6151,Carey Rd,Commerce Township,MI,48382,
29121,BONNIE,Semcog,MI,48093,
9475,SHYRE CIR,DAVISON,MI,48423,
2126,Kristin Dr,Troy,MI,48084,
2329,IONIA,VERMONTVILLE,MI,49096,
1040,COY ST,MT MORRIS,MI,48458,
6220,COLONIAL,Semcog,MI,48127,
,HOLLY AVE,FLINT,MI,48506,
1728,SWANEY RD,Semcog,MI,48390,
2808,BLANCHE,Semcog,MI,48122,
325,South St,Fennville,MI,49408,
9076,NATHALINE,REDFORD,MI,48239,
24428,CARLYSLE,Semcog,MI,48124,
19968,FAUST,DETROIT,MI,48219,
13580,RYAN,Semcog,MI,48212,
15919,MEYER,ALLEN PARK,MI,48101,
22,N WASHINGTON ST,Semcog,MI,48197,
3003,Glenbroke St,Keego Harbor,MI,48320,
15701,GROOMS CT,Semcog,MI,48035,
5604,Springbrook Dr,Troy,MI,48098,
7410,PIEBERT CT,Semcog,MI,48169,
41345,SINGH BLVD,Semcog,MI,48375,
9340,HARRY,DETROIT,MI,48213,
9328,APPLETON,Semcog,MI,48239,
6009,ELLERY,Semcog,MI,48211,
4711,WOODMIRE DR,Macomb,MI,48316,
700,Bloomer Rd,Rochester,MI,48307,
19194,AUGUSTA,LIVONIA,MI,48152,
24321,HANOVER,Semcog,MI,48125,
221,OWENDALE ST,YPSILANTI,MI,48197,
18065,MACKAY,Semcog,MI,48234,
5801,Hickory Meadows Dr,White Lake,MI,48383,
15855,15 MILE RD,Semcog,MI,48035,
738,HURON ST,FLINT,MI,48507,
619,S Washington Ave,Royal Oak,MI,48067,
19479,ASBURY PARK,Semcog,MI,48235,
16030,BEATRICE,Semcog,MI,48101,
11810,E OUTER DRIVE,DETROIT,MI,48224,
57297,BRECKENRIDGE D,Semcog,MI,48094,
19006,ROSCOMMON,Semcog,MI,48225,
,HUMPHREY,Semcog,MI,48139,
8324,WOODWARD AVENUE,DETROIT,MI,48202,
584,HAGGERTY S,CANTON,MI,48188,
8250,GREGORY RD,DEXTER,MI,48130,
225,GROVE AVE,Semcog,MI,48028,
1337,S HARVEY,PLYMOUTH,MI,48170,
527,Gardenia Ave,Royal Oak,MI,48067,
1909,WABASH AVE,FLINT,MI,48504,
2825,Moosewood Dr,Waterford,MI,48329,
31634,ECKSTEIN,Semcog,MI,48092,
11228,PAIGE,Semcog,MI,48089,
45977,ROYAL DR,Macomb,MI,48051,
29461,John R Rd,Madison Heights,MI,48071,
29962,CLUB HOUSE LN,Semcog,MI,48334,
460,ROLAND RD,Semcog,MI,48236,
15458,ILIAD,DETROIT,MI,48223,
2860,Fishermans Dr,Highland,MI,48356,
3174,MAPLE ST,Semcog,MI,48060,
2619,SUNNYKNOLL AVE,Semcog,MI,48072,
25188,PACKARD,Semcog,MI,48066,
9424,N BRAY RD,CLIO,MI,48420,
5272,W LIBERTY RD,Semcog,MI,48103,
34437,WINSLOW,WAYNE,MI,48184,
20225,FENKELL,Semcog,MI,48223,
48548,LACOTA CT,Macomb,MI,48315,13
3189,Tuckahoe Rd,Bloomfield Hills,MI,48301,
1603,Marywood Dr,Royal Oak,MI,48067,
20206,KLINGER,Semcog,MI,48234,
3425,BROWN ST,FLINT,MI,48503,
9783,CENTER RD,PENINSULA TWP,MI,49686,
4743,HYDE PARK,TROY,MI,48085,
680,Lakes Edge Dr,Oxford,MI,48371,
15035,HOUGH RD,Semcog,MI,48002,
24291,SORRENTINO CT,Macomb,MI,48035,
531,W OAKRIDGE ST,Semcog,MI,48220,
9817,ST JOHNS DR,Semcog,MI,48001,
5948,CLIFFSIDE DR,Semcog,MI,48085,
19964,FLEMING,DETROIT,MI,48234,
20034,ROSEMONT,DETROIT,MI,48219,
20089,KEYSTONE,Semcog,MI,48234,
9061,LAKEVIEW DR,Semcog,MI,48348,
4340,MAIZE AVE,SWARTZ CREEK,MI,48473,
364,2ND AVE,Semcog,MI,48340,
9416,HAYES,Semcog,MI,48213,
19819,SANTA BARBARA,Semcog,MI,48221,
1561,RIVERBANK,LINCOLN PARK,MI,48146,
47608,NAUTICAL WAY,Macomb,MI,48044,
877,Village Lane,Ottawa,MI,49428,
20171,STOEPEL,Semcog,MI,48221,
16294,FAIRWAY,Semcog,MI,48154,
5156,MESA DR,Macomb,MI,48316,97
4102,Cherrywood Ln,Troy,MI,48098,
201,HOWLAND PINES DR,Semcog,MI,48371,
791,FISHER,Semcog,MI,48230,
11150,GREENDALE ST,Macomb,MI,48312,
19065,EASTLAND,Semcog,MI,48066,
51675,BASE,Semcog,MI,48047,
14734,SCHLEWEIS RD,Semcog,MI,48158,
16554,SUNDERLAND RD,DETROIT,MI,48219,
57836,KACZMAREK DR,Macomb,MI,48095,
19314,DENBY,Semcog,MI,48240,
5628,OLD LANSING,LANSING,MI,48917,
416,SUNNYSIDE DR,FLUSHING,MI,48433,
15734,LINDSAY,Semcog,MI,48227,
2941,BIRCH HOLLOW DR,Semcog,MI,48108,
4060,FIELD,Semcog,MI,48214,
29865,6 MILE RD,Semcog,MI,48154,
1616,LAFAYETTE,Semcog,MI,48146,
907,MAXWELL AVE,Semcog,MI,48067,
13494,AGNES,Semcog,MI,48195,
,SUGARBUSH RD,Macomb,MI,48047,
1014,HURON ST,FLINT,MI,48507,
8815,DIXIE HWY,Semcog,MI,48023,
23792,CARLISLE AVE,Semcog,MI,48030,
22135,INKSTER RD,Semcog,MI,48336,
9175,DEAN RD,Semcog,MI,48430,
20004,CAMERON,DETROIT,MI,48203,
10771,DIXIE HWY,Semcog,MI,48350,
2225,HEWITT,Semcog,MI,48212,
3207,AMELIA AVE,FLUSHING,MI,48433,
9035,LA SALLE BLVD,Semcog,MI,48206,
22830,LAKE WAY ST,Semcog,MI,48336,
6223,N HIX,Semcog,MI,48185,
421,EAST SHORE DR,Semcog,MI,48189,
7220,MOHAWK,WESTLAND,MI,48185,
23431,PLAYVIEW,Semcog,MI,48082,
8053,MILLER RD,SWARTZ CREEK,MI,48473,
27844,BOHN ST,Macomb,MI,48066,
7115,ST JOE,MULLIKEN,MI,48861,
2557,HAMMOND,DETROIT,MI,48209,
8653,KINMORE,Semcog,MI,48127,
2600,S BALDWIN RD,Semcog,MI,48360,
122,E NORTH ST,Semcog,MI,48116,
13649,Byran,Ottawa,MI,49424,
4353,NORTH SPIDER LAKE RD,EAST BAY TWP,MI,49696,
48920,PINE HILL DR,PLYMOUTH,MI,48170,
27900,ELMDALE,Semcog,MI,48081,
15885,PREST,Semcog,MI,48227,
370,W JOHN ST,NEWAYGO,MI,49337,
8831,BRICKER RD,Semcog,MI,48006,
827,W SEVENTH ST,Semcog,MI,48161,
1149,JOHN DALY,Semcog,MI,48141,
31634,BELLEAU,Semcog,MI,48092,
15658,MAXWELL AVE,Semcog,MI,48170,
3640,NORTHWOOD DR,Semcog,MI,48324,
18342,MACK AVE,GROSSE POINTE FARMS,MI,48236,
1680,Hillwood Dr,Bloomfield Hills,MI,48304,
2372,S Rochester Rd,Rochester Hills,MI,48307,
24558,OUTER DR,Semcog,MI,48101,
41446,PATRICK DR,Macomb,MI,48313,
566,W Maplehurst St,Ferndale,MI,48220,
9161,Buckingham Rd,White Lake,MI,48386,
8476,VAUGHAN,Semcog,MI,48228,
24400,WOOD,Semcog,MI,48080,
52243,RUTHERFORD CIR,Macomb,MI,48051,
7500,W COON LAKE,Semcog,MI,48843,
16227,ILENE,Semcog,MI,48221,
5117,E 22 MILE RD,SAND LAKE,MI,49343,
209,ABERDEEN CT,FLUSHING,MI,48433,
33164,FOREST AVE,WAYNE,MI,48184,
27042,NORFOLK,Semcog,MI,48141,
28616,WALES DR,Semcog,MI,48047,
3926,Azalea Ct,Clarkston,MI,48348,
525,CHANDLER ST,CHELSEA,MI,48118,
2909,8th Street,MUSKEGON HEIGHTS,MI,49444,
3189,HICKORY STONE LN,Semcog,MI,48442,
6367,DALTON DR,FLUSHING,MI,48433,
18903,OHIO,Semcog,MI,48221,
9349,EASTWIND,Semcog,MI,48150,
721,N CONNECTICUT AVE,Semcog,MI,48067,
1423,Big Timber Trl,Hopkins,MI,49328,
15271,EASTWOOD,Semcog,MI,48205,
3396,15TH ST,DETROIT,MI,48208,
2647,Kenmore Rd,Berkley,MI,48072,
20915,METROVIEW RD,Semcog,MI,48335,
,LUCY,Semcog,MI,48843,
3102,Bloomfield Xing,Bloomfield Hills,MI,48304,
43137,CALAIS AVE,Semcog,MI,48314,
7728,ISLAND,Semcog,MI,48138,
6511,BIRCH,Semcog,MI,48180,
260,CHANDLER,Semcog,MI,48202,
6415,BANNER,Semcog,MI,48180,
5603,WABASH,DETROIT,MI,48208,
3738,MIDDLETON DR,ANN ARBOR,MI,48105,
,ECORSE,ALLEN PARK,MI,48101,
720,FIFTH ST,Semcog,MI,48103,
,LAKESHORE DR,Macomb,MI,48045,
22000,INKSTER RD,Semcog,MI,48174,
15499,DUMAY,Semcog,MI,48195,
15710,STEPHENS,Semcog,MI,48021,
14045,SARASOTA,REDFORD,MI,48239,
18664,JUSTINE,Semcog,MI,48234,
6564,Enclave Dr,Clarkston,MI,48348,
35815,SMITHFIELD RD,Semcog,MI,48335,
719,Maple Hill Ln,Birmingham,MI,48009,
29911,SUTHERLAND,Semcog,MI,48088,
17917,LUMPKIN,Semcog,MI,48234,
199,Fisher Ave,Pontiac,MI,48341,
17151,Richard St,Southfield,MI,48075,
820,S MONROE ST,Semcog,MI,48161,
800,CHRYSLER DR,Semcog,MI,48326,
529,E HAMILTON AVE,FLINT,MI,48505,
50414,JEFFERSON,Semcog,MI,48188,
24777,EUREKA RD,Macomb,MI,48091,
11910,DUCHESS,Semcog,MI,48224,
5333,112Th Ave,Fennville,MI,49408,
27356,N. MOCKINGBIRD DR,FLAT ROCK,MI,48134,
8670,W ADAMS ST,HESPERIA,MI,49421,
21313,TELEGRAPH RD,Semcog,MI,48183,
3138,BELMONT,Semcog,MI,48212,
33883,SHELLEY LYNNE,Semcog,MI,48312,
2020,HOUSTON,DEARBORN,MI,48124,
44760,HUNTINGCROSS DR,Semcog,MI,48375,
12156,Gage Rd,Holly,MI,48442,
14737,EVANSTON,DETROIT,MI,48224,
7109,JENEROUS,Semcog,MI,48015,
4761,KINGSWOOD DR,Macomb,MI,48092,
,E NINTH ST,FLINT,MI,48503,
2619,GOLF CLUB,Semcog,MI,48843,
22515,Tulane Ave,Farmington Hills,MI,48336,
8120,MEYERS,DETROIT,MI,48228,
3702,OGEMA AVE,FLINT,MI,48507,
25189,WOODWORTH DR,Semcog,MI,48374,
3310,BERKSHIRE DR,Semcog,MI,48060,
18815,ROCKPORT ST,Macomb,MI,48066,
9257,VIRGINIA,Semcog,MI,48150,
216,N GROVE ST,Semcog,MI,48198,
24453,Buchanan Ct,Farmington Hills,MI,48335,
710,MANORDALE CT,Semcog,MI,48381,
2270,GOLDEN POND CT,FENTON,MI,48430,
16531,FRAZHO RD,Macomb,MI,48066,
13144,ROSEMARY,Semcog,MI,48213,
55655,Pontiac Trl,New Hudson,MI,48165,
641,W Marshall St,Ferndale,MI,48220,
17566,NORTHLAWN,DETROIT,MI,48221,
30074,CARL,Semcog,MI,48048,
12543,LONGVIEW,Semcog,MI,48213,
155,HUBBARD AVE,Semcog,MI,48043,
4454,LANCASTER DR,Semcog,MI,48348,
21341,SALISBURY,GROSSE ILE,MI,48138,
13595,APPOLINE,Semcog,MI,48227,
3637,BERKSHIRE,Semcog,MI,48224,
2013,ROSELAND AVE,Semcog,MI,48073,
2700,NIXON RD,ANN ARBOR,MI,48105,
12096,MEYERS,Semcog,MI,48204,
1321,W 8 MILE RD,Semcog,MI,48203,
12552,SCOTT RD,Semcog,MI,48350,
880,EAGLE DR,FENTON,MI,48430,
3885,RUTHLAND DR,Semcog,MI,48084,
834,N GULLEY,DEARBORN,MI,48128,
9384,PETOSKEY,Semcog,MI,48204,
651,Central Avenue,Ottawa,MI,49423,
6725,N WILDWOOD,WESTLAND,MI,48185,
9655,BELLETERRE,DETROIT,MI,48204,
11046,RUSSELL ST,Semcog,MI,48317,
1377,S DYE RD,FLINT,MI,48532,
1089,OXFORD RD,Semcog,MI,48072,
2896,Havenwood Dr,White Lake,MI,48383,
1214,KENSINGTON AVE,FLINT,MI,48503,
1001,5Th St,Plainwell,MI,49080,
1851,12TH,Semcog,MI,48192,
42048,FARM LANE CT,Macomb,MI,48313,
35165,Bunker Hill Dr,Farmington Hills,MI,48331,
2729,HASEN,Semcog,MI,48144,
11361,EVANSTON,DETROIT,MI,48213,
12632,GREENHILL DR,GRAND BLANC,MI,48439,
9614,STINCHFIELD WOODS RD,PINCKNEY,MI,48169,
21851,Carleton Ave,Southfield,MI,48033,
34130,UTICA RD,Macomb,MI,48026,
13215,KLINGER,Semcog,MI,48212,
5910,HAGGERTY RD,BELLEVILLE,MI,48111,
59185,ELM CT,Macomb,MI,48095,200
2609,WALNUT GROVE,GRAND LEDGE,MI,48837,
23419,PLAYVIEW,Semcog,MI,48082,
14835,CHAPEL,DETROIT,MI,48223,
13350,24 MILE RD,Macomb,MI,48315,
1583,PROSPECT RD,Semcog,MI,48198,
8998,Tartan Dr,Clarkston,MI,48348,
17602,WOODLAND ST,Macomb,MI,48066,
2390,Woodward Hts,Ferndale,MI,48220,
3677,63Rd St,Saugatuck,MI,49453,
4934,GREENVILLE,Semcog,MI,48166,
15875,VAN AVE,Macomb,MI,48026,
10755,TOWNSEND RD,Semcog,MI,48160,
54303,POCAHONTAS DR,Macomb,MI,48315,
3505,BURNS,DETROIT,MI,48214,
23,Myrtle St,Pontiac,MI,48342,
8637,LOUISE,Semcog,MI,48101,
8340,RUSHTON RD,Semcog,MI,48178,
1151,LAWRENCE,DETROIT,MI,48206,
2896,West Bloomfield Oaks Dr,West Bloomfield,MI,48324,
7193,PARKWOOD,DETROIT,MI,48210,
24908,DUNNING,DEARBORN,MI,48124,
760,W Square Lake Rd,Troy,MI,48098,
20917,OUTER DRIVE,Semcog,MI,48124,
281,Sandalwood Dr,Rochester Hills,MI,48307,
22690,Braeside Cir,Farmington Hills,MI,48335,
22115,REIN,Semcog,MI,48021,
8571,TERRI,WESTLAND,MI,48185,
9300,WAYNE,Semcog,MI,48174,
4327,BEACONSFIELD,DETROIT,MI,48224,
23111,HARMON,Semcog,MI,48080,
17617,RUSSELL,Semcog,MI,48203,
60,ATKINSON,Semcog,MI,48202,
17665,ALBION,Semcog,MI,48234,
14317,POLK,TAYLOR,MI,48180,
0,RAY ST,FLINT,MI,48504,
22731,SAXONY,Semcog,MI,48021,
1485,DRACKA RD,GARFIELD TWP,MI,49685,
421,LYCASTE,Semcog,MI,48214,
2929,FIELD,Semcog,MI,48214,
8820,RUSSELL ST,Macomb,MI,48317,
15751,JENNIFER DR,Macomb,MI,48044,
48671,VILLAGE DR,Macomb,MI,48044,
243,NINEBARK,Semcog,MI,48382,
5124,HATCHERY RD,Semcog,MI,48329,
18650,OLYMPIA,Semcog,MI,48240,
390,W HURON ST,Semcog,MI,48341,
2006,GENEVA,DETROIT,MI,48203,
141,FERNDALE AVE,Semcog,MI,48307,
24841,Westmoreland Dr,Farmington Hills,MI,48336,
1371,CHANDLER,LINCOLN PARK,MI,48146,
9683,KLAIS RD,Semcog,MI,48348,
2642,HUNTERS RIDGE RD,PETOSKEY,MI,49770,
504,Abbey Street,MUSKEGON,MI,49442,
3664,PEARL,Semcog,MI,48162,
42764,MICHIGAN DR,Semcog,MI,48313,
11344,LAUREL WOODS D,Semcog,MI,48094,
14682,MONICA,DETROIT,MI,48238,
51349,MICHIGAN AVE,BELLEVILLE,MI,48111,
801,BALDWIN ST,TRAVERSE CITY,MI,49686,
2040,Hopkins Dr,Wixom,MI,48393,
11,N BENZIE BLVD,BEULAH,MI,49617,
5765,LOCHLEVEN DR,Semcog,MI,48327,
2162,BLACK FOREST LN,EAST BAY TWP,MI,49696,
25,E GREENDALE,DETROIT,MI,48203,
8578,PORTAGE LAKE BLVD,Semcog,MI,48169,
8884,WILDWOOD TR,Semcog,MI,48178,
21002,Coolidge Hwy,Oak Park,MI,48237,
1720,N Connecticut Ave,Royal Oak,MI,48067,
1616,Slayton Street,Ottawa,MI,49417,
6851,BELTON,Semcog,MI,48135,
49293,GLENVILLE CT,Macomb,MI,48315,51
1211,GROVE POINT DR,Semcog,MI,48386,
68181,Baseline Rd,South Haven,MI,49090,
24335,Chippewa Ct,Farmington Hills,MI,48335,
36559,CECILIA DR,Semcog,MI,48312,
4721,ALTON,TROY,MI,48085,
80,Park St,Oxford,MI,48371,
904,East Dale Avenue,MUSKEGON,MI,49442,
49471,Hartwick Dr,Novi,MI,48374,
21300,MARTIN RD,Macomb,MI,48081,
51531,GRATIOT,Semcog,MI,48051,
27825,KAUFMAN ST,Macomb,MI,48066,
16079,KNOBHILL DR,LINDEN,MI,48451,
10918,BURNS RD,Semcog,MI,48117,
3539,Warringham Ave,Waterford,MI,48329,
149,RICHARDS DR,Semcog,MI,48162,
,ADAMS,Semcog,MI,48173,
3976,JACKSON,Semcog,MI,48125,
3545,DETROIT,DEARBORN,MI,48124,
1924,N CONNECTICUT AVE,Semcog,MI,48073,
1409,MCCARTHY ST,YPSILANTI,MI,48198,
17160,Nadora St,Southfield,MI,48076,
5732,Garthby St,Commerce Township,MI,48382,
1419,COURT ST,Semcog,MI,48060,
2303,NICKELBY,Semcog,MI,48316,
14067,SALEM,REDFORD,MI,48239,
4270,EVANS RD,Semcog,MI,48442,
728,PEMBERTON,GROSSE POINTE PARK,MI,48230,
3317,CODY,DETROIT,MI,48212,
518,W FOSS AVE,FLINT,MI,48505,
26229,Southfield Rd,Lathrup Village,MI,48076,
9128,LANTERN WAY,Semcog,MI,48166,
20460,STRATHMOOR,Semcog,MI,48235,
4475,CLIPPERT,DEARBORN HEIGHTS,MI,48125,
53472,AURORA PARK,Macomb,MI,48316,
13321,ROCHELLE,Semcog,MI,48205,
3785,JEFFRIES,DETROIT,MI,48208,
15400,PIERSON,DETROIT,MI,48223,
30342,MADISON AVE,Semcog,MI,48093,
930,John R Rd,Troy,MI,48083,
995,Woodlane Dr,Rochester Hills,MI,48307,
30715,OSMUN ST,Semcog,MI,48071,
1140,E SEVEN MILE,DETROIT,MI,48234,
2545,YOST BLVD,Semcog,MI,48104,
11294,ENGLESIDE,Semcog,MI,48205,
3284,JOHN R,Semcog,MI,48183,
88,Coach Lamp Rd,Rochester,MI,48306,
18814,BLOOM,DETROIT,MI,48234,
559,SEXTON RD,Semcog,MI,48843,
3855,TANGLEWOOD DR,TRENTON,MI,48183,
45400,ROMEO PLANK RD,Macomb,MI,48044,
2223,HOLLYWOOD AVE,GROSSE POINTE WOODS,MI,48236,
21106,ALEXANDER,Semcog,MI,48081,
17381,SUMNER,Semcog,MI,48240,
1565,HARBOUR BLVD #179,TRENTON,MI,48183,
3219,GLENDALE,Semcog,MI,48238,
553,WASHINGTON,Semcog,MI,48230,
8375,HEARTWOOD DR,Semcog,MI,48166,
8107,RIVERDALE,Semcog,MI,48127,
7147,EDGETON,DETROIT,MI,48212,
1550,DAWN AVE,Semcog,MI,48198,
651,HAZY VW,Semcog,MI,48381,
7453,CHATHAM,Semcog,MI,48239,
30426,Knighton Dr,Farmington Hills,MI,48331,
706,Dakota,Rochester Hills,MI,48307,
27840,BOHNHOFF,Semcog,MI,48066,
61481,Rolling Acres Dr,South Lyon,MI,48178,
1639,NEBRASKA AVE,FLINT,MI,48506,
52,Fairgrove St,Pontiac,MI,48342,
5650,CARNEY RD,Semcog,MI,48022,
11075,PACKARD AVE,Macomb,MI,48089,
20225,ANGLIN,DETROIT,MI,48234,
6453,CHELTENHAM,Semcog,MI,48182,
16050,HANFOR,Semcog,MI,48101,
3569,16TH ST,DETROIT,MI,48208,
34449,HIVELEY,Semcog,MI,48186,
341,Arlington Dr,Rochester Hills,MI,48307,
4010,W SAMARIA,Semcog,MI,48182,
410,AMY,MULLIKEN,MI,48861,
5226,KENSINGTON,Semcog,MI,48224,
29355,JEFFERSON AVE,Macomb,MI,48081,
37846,VILLA MAR,Semcog,MI,48045,
,Lincoln Ave,Holland,MI,49423,
1035,E MADGE AVE,Semcog,MI,48030,
22550,CHIPPEWA,Semcog,MI,48219,
12043,PLAINVIEW,DETROIT,MI,48228,
302,SLEEPER,CHARLOTTE,MI,48813,
7131,LABO RD,Semcog,MI,48179,
6819,ESSEX CT,Semcog,MI,48327,
1121,PALMER CT,Semcog,MI,48060,
8820,STONEWALL E,Semcog,MI,48348,
394,Central Ave,Pontiac,MI,48341,
0,YONGE'S DR,MANCHESTER,MI,48158,
3265,BURLINGAME,Semcog,MI,48206,
12892,LUTZ,Semcog,MI,48088,
9419,BEACONSFIELD,Semcog,MI,48224,
9170,N MARTINDALE,Semcog,MI,48204,
224,RIVERSIDE DR,Macomb,MI,48043,
42710,MOUND RD,Macomb,MI,48314,
18813,GILL,Semcog,MI,48152,
28850,LEAMINGTON DR,Semcog,MI,48334,
4099,GREENSBORO DR,Semcog,MI,48085,
490,Burgess Dr,White Lake,MI,48386,
5283,TROMBLEY RD,Semcog,MI,48166,
61,COLORADO,Semcog,MI,48203,
29044,DEMBS,Semcog,MI,48066,
207,Standish St,Holland,MI,49423,
29823,OAKLEY,Semcog,MI,48154,
2534,BEALS,DETROIT,MI,48214,
24633,REGAL PL,Macomb,MI,48045,
10368,BEACONSFIELD,DETROIT,MI,48224,
13707,HAGGERTY,Semcog,MI,48126,
5575,ELMER AVE,Macomb,MI,48092,
16641,LINWOOD,Semcog,MI,48221,
2572,142nd Avenue,Ottawa,MI,49424,
5906,CLOVERLAWN DR,FLINT,MI,48504,
18808,GALLAGHER,Semcog,MI,48234,
19349,ELKHART,Semcog,MI,48225,
29700,HATHAWAY,LIVONIA,MI,48150,
4887,BELLEVUE,Semcog,MI,48362,
29204,W 10 Mile Rd,Farmington Hills,MI,48336,
3213,MCDOWELL ST,Semcog,MI,48220,
808,MILDRED,Semcog,MI,48182,
11120,Bailey Road,RAVENNA,MI,49451,
540,W MOHAWK TRL,WHITE CLOUD,MI,49349,
2625,CALEDONIA,Semcog,MI,48186,
1211,TRUMBULL,DETROIT,MI,48216,
2150,PAULINE BLV 101,ANN ARBOR,MI,48103,
5200,MONTGOMERY,Semcog,MI,48316,
7470,COUNTRY MEADOW DR,SWARTZ CREEK,MI,48473,
5191,MEADOW DR,Semcog,MI,49267,
15474,EDMORE DR,Semcog,MI,48205,
1017,Boston Ave,Waterford,MI,48328,
15540,BAYLIS,DETROIT,MI,48238,
18832,DWYER,DETROIT,MI,48234,
1113,JOANN CT,Semcog,MI,48060,
24284,LEXINGTON,Semcog,MI,48021,
35236,GLOVER,WAYNE,MI,48184,
30941,WENTWORTH,LIVONIA,MI,48154,
913,ETOWAH AVE,Semcog,MI,48067,
3339,Ellwood Ave,Berkley,MI,48072,
15800,FULLERTON,DETROIT,MI,48227,
17430,LENNANE,Semcog,MI,48240,
14239,LITHGOW,Semcog,MI,48126,
12217,LONGACRE,DETROIT,MI,48227,
11140,HALLER,Semcog,MI,48150,
416,E FIFTH ST,Semcog,MI,48161,
53330,ROMEO PLANK RD,Macomb,MI,48042,
1411,BROADWAY ST,Semcog,MI,48105,
4961,MADISON,Semcog,MI,48125,
175,North Green Creek Road,MUSKEGON,MI,49445,
43889,YORKTOWN,Semcog,MI,48188,
32442,JOY,Semcog,MI,48150,
3206,SALEM DR,Semcog,MI,48306,
6011,MONTGOMERY,Semcog,MI,48316,
23118,GLENBROOK,Semcog,MI,48082,
4845,CURTIS,Semcog,MI,48126,
324,VALLEY DR,Semcog,MI,48390,
908,MILLPOND CT,Semcog,MI,48167,
11781,BUNTON RD,Semcog,MI,48191,
3714,Historic Dr,Troy,MI,48083,
9079,ARLINGTON DR,YPSILANTI,MI,48198,
30427,GRANDON,Semcog,MI,48150,
4343,BEMIS RD,Semcog,MI,48197,
28490,Franklin River Dr,Southfield,MI,48034,
15776,STANSBURY,DETROIT,MI,48227,
638,E EUCLID,DETROIT,MI,48202,
24664,PETERSBURG AVE,Macomb,MI,48021,
16077,HOMESTEAD CIR,Semcog,MI,48168,
23123,BOHN RD,Semcog,MI,48111,
205,Summit Ridge Dr,White Lake,MI,48386,
33170,HAMPSHIRE,LIVONIA,MI,48154,
3864,YORBA LINDA BLVD,Semcog,MI,48073,
18175,FLEUR DE LIS,Macomb,MI,48038,
4045,MAPLE,Semcog,MI,48126,
7914,Bridge Vly,Clarkston,MI,48348,
318,W FOURTH ST,Semcog,MI,48161,
0,N DORT HWY,FLINT,MI,48505,
24751,DWIGHT,Semcog,MI,48021,
8106,SAN MARCO BLVD,Macomb,MI,48313,
3200,LONGMEADOW,Semcog,MI,48183,
4784,BEACON RD,Macomb,MI,48310,455
7538,QUINN,Semcog,MI,48234,
21671,KIPLING ST,Semcog,MI,48237,
6115,WHITEFIELD,DEARBORN HEIGHTS,MI,48127,
1095,West Larch Avenue,MUSKEGON,MI,49441,
3150,W US-12 HWY,CLINTON,MI,49236,
7292,LAFAYETTE,Semcog,MI,48127,
38207,APPLEGROVE ST,Macomb,MI,48036,
4545,BEMIS RD,Semcog,MI,48197,
668,MOOREVILLE RD,MILAN,MI,48160,
3801,E DAVISON,Semcog,MI,48212,
3534,PERKEY,CHARLOTTE,MI,48813,
1983,WASHINGTON ST,Semcog,MI,48001,
69,DENNISON ST,Semcog,MI,48371,
25845,HOFFMEYER,Semcog,MI,48066,
6538,DILLON,Semcog,MI,48135,
27441,PEMBROKE,LIVONIA,MI,48152,
11301,BRADY,Semcog,MI,48239,
18285,BREEZEWAY,Semcog,MI,48026,
21730,CASS ST,Semcog,MI,48335,
211,W GRIXDALE,DETROIT,MI,48203,
27371,MICHELE,Semcog,MI,48127,
500,OAKWOOD,Semcog,MI,48217,
8070,Lamplight Drive,Ottawa,MI,49428,
30238,ROAN DR,Macomb,MI,48093,
19650,EASTLAND VIL. DR,Semcog,MI,48225,
2082,VERNIER RD,GROSSE POINTE WOODS,MI,48236,
341,BUCKINGHAM AVE,FLINT,MI,48507,
3561,E HANCOCK,Semcog,MI,48207,
1,OLD BARN CIRCLE,Semcog,MI,48118,
1221,N FREER RD,CHELSEA,MI,48118,
16851,SORRENTO,Semcog,MI,48235,
1055,Moran Dr,Rochester,MI,48307,
39010,MEMORY LANE,Semcog,MI,48045,
211,FIRST,CHARLOTTE,MI,48813,
7195,ELLINWOOD DR,Semcog,MI,48383,
4443,LOIS LN,GENESEE,MI,48437,
602,ALLEN RD,Semcog,MI,48160,
143,WOLFE ST,Semcog,MI,48342,
460,ECKFORD,TROY,MI,48085,
37973,PINERIDGE,Semcog,MI,48045,
24616,GROVE,Semcog,MI,48021,
644,Flowerdale St,Ferndale,MI,48220,
205,NORTON ST,Semcog,MI,48341,
3189,VOICE RD,PARADISE TWP,MI,49649,
39621,WINDWARD CT,Semcog,MI,48045,
2667,HENDRIE,DETROIT,MI,48211,
9911,SORRENTO,Semcog,MI,48227,
18225,WINWOOD AVE,BROWNSTOWN,MI,48193,
25858,Cobblers Ln,South Lyon,MI,48178,
26636,ELM ST,Macomb,MI,48066,
38575,BARTH,Semcog,MI,48174,
24819,CHICAGO,Semcog,MI,48124,
45539,BERKSHIRE DR,Semcog,MI,48044,
3423,Columbia Dr,Rochester Hills,MI,48307,
8944,COOLEY LAKE RD,Semcog,MI,48386,
2100,DALLAS AVE,Semcog,MI,48067,
5950,WILLOWBRIDGE RD,Semcog,MI,48197,
1034,ROBIN RD,ANN ARBOR,MI,48103,
923,BANCROFT ST,Semcog,MI,48060,
1769,RANIER,Semcog,MI,48187,
2114,LANSING,Semcog,MI,48209,
7755,FOREST ST,Semcog,MI,48130,
5132,SUDBURY,Semcog,MI,48092,
1200,PARKDALE RD,Semcog,MI,48307,
7398,PARKWOOD,Semcog,MI,48210,
17815,RAINBOW RD,Macomb,MI,48026,
12790,DENNISON RD,MILAN,MI,48160,
12683,TERRY,DETROIT,MI,48227,
11355,GRANDMONT,DETROIT,MI,48227,
2320,WILSHIRE,Semcog,MI,48186,
13768,BREEZY DR,Macomb,MI,48313,
230,PROSPECT DR,Semcog,MI,48307,
18427,NORTHLAWN,DETROIT,MI,48221,
1337,Burhaven Dr,Rochester Hills,MI,48306,
7341,MIDDLEBURY,Semcog,MI,48144,
1228,HARDING,DETROIT,MI,48214,
11627,GRAYTON,Semcog,MI,48224,
4488,CASS ELIZABETH RD,Semcog,MI,48328,
13126,SEYMOUR RD,GAINES,MI,48436,
15501,STEPHENS DR,Macomb,MI,48021,
696,VINCENT,Semcog,MI,48169,
109,N FRANKLIN ST,LUDINGTON,MI,49431,
1209,S TWELFTH ST,Semcog,MI,48079,
13352,EDISON,Semcog,MI,48195,
7132,YACHT AVE,Macomb,MI,48091,
3911,PARK FOREST DR,FLINT,MI,48507,
,JUDD RD,NEW BOSTON,MI,48164,
,MERRIMAN,ROMULUS,MI,48174,
2240,MERSHON DR,ANN ARBOR,MI,48103,
23850,REPUBLIC AVE,Semcog,MI,48237,
47541,ELDON,Semcog,MI,48317,
14834,SUSSEX,DETROIT,MI,48227,
3917,TALBOT,Semcog,MI,48212,
8641,JEWETT AVE,Macomb,MI,48089,
2319,Rowland Ave,Royal Oak,MI,48067,
230,HELEN,Semcog,MI,48135,
7344,N WILDWOOD,Semcog,MI,48185,
7839,MARGARET,Semcog,MI,48180,
35740,CAMPISTRANO,Semcog,MI,48035,
8235,DRIFTWOOD DR,Semcog,MI,48430,
1575,OAK GROVE DR,Semcog,MI,48390,
37335,ALPINIA LN,Macomb,MI,48036,
42758,ROYAL LANE,Semcog,MI,48038,
14134,152nd Avenue,Ottawa,MI,49417,
19610,SUNSET,Semcog,MI,48234,
2147,LEITCH RD,Semcog,MI,48220,
888,Augusta Dr,Rochester Hills,MI,48309,
2375,CARROLL RD,PENINSULA TWP,MI,49686,
28074,MAPLE,Semcog,MI,48066,
21376,Mitchelldale Ave,Ferndale,MI,48220,
1946,Borman Ct,Milford,MI,48381,
8629,VAUGHAN,DETROIT,MI,48228,
3705,WEST POINT,DEARBORN,MI,48124,
14100,WOODWARD,Semcog,MI,48203,
222,Chippewa St,Clawson,MI,48017,
720,CAMDEN ST,Semcog,MI,48220,
1343,Edgeorge St,Waterford,MI,48327,
23304,Orchard Lake Rd,Farmington Hills,MI,48336,
16904,WILDEMERE,Semcog,MI,48221,
8101,MANOR,Semcog,MI,48204,
720,E PHILADELPHIA BLV,FLINT,MI,48505,
6657,SUNSET BEACH CIR,LUDINGTON,MI,49431,
886,ESTES CT,Semcog,MI,48327,
15646,LEONA,Semcog,MI,48239,
1249,Cambridge Rd,Berkley,MI,48072,
12430,EVERGREEN,DETROIT,MI,48223,
2276,Paris Dr,Troy,MI,48083,
1705,E West Maple Rd,Walled Lake,MI,48390,
1444,FERRY PARK,Semcog,MI,48208,
6641,CRANE,DETROIT,MI,48213,
7552,STERLING,Semcog,MI,48015,
18633,LEXINGTON,Semcog,MI,48240,
80481,MAIN,Semcog,MI,48041,
41343,HARVARD DR,Macomb,MI,48313,
1885,Old Homestead Dr,Rochester Hills,MI,48306,
1403,LIVERNOIS,Semcog,MI,48209,
2051,HAZELWOOD,DETROIT,MI,48206,
4052,GUNTHER DR,Macomb,MI,48310,
50,Spring Lake Dr,Oxford,MI,48371,
908,MEADOW LARK LN,Semcog,MI,48843,
27053,EAST ST,Semcog,MI,48092,
3641,CLOVERLAWN AVE,Semcog,MI,48197,
17200,FIELDING,Semcog,MI,48219,
1701,Cass Lake Rd,Keego Harbor,MI,48320,
2458,N Burwood Ct,Highland,MI,48357,
13646,KOEHN RD,Semcog,MI,48014,
,Linden Drive,Ottawa,MI,49435,
,Road,RAVENNA,MI,49451,
217,S DOBSON,Semcog,MI,48186,
8062,PIERSON,Semcog,MI,48228,
307,EAST SHORE DR,Semcog,MI,48189,
15894,EDSEL,Semcog,MI,48035,
2621,YEMANS,Semcog,MI,48212,
23520,BEVERLY,Semcog,MI,48082,
12456,MENTZ DR,Semcog,MI,48065,
52340,NAUGATUCK DR,Macomb,MI,48042,71
17176,FREELAND,Semcog,MI,48235,
5072,RIDGEWOOD,DETROIT,MI,48204,
15741,WILLIAMSBURG D,Semcog,MI,48044,
1512,E Bernhard Ave,Hazel Park,MI,48030,
7024,BURLINGAME,Semcog,MI,48204,
21109,MARTIN,Semcog,MI,48081,
14092,GRATIOT,DETROIT,MI,48205,
619,Apple Avenue,Ottawa,MI,49423,
6671,Clintonville Rd,Clarkston,MI,48348,
47223,E  MISSION VLY,Macomb,MI,48042,23
26113,FORDSON HWY,Semcog,MI,48239,
3701,FOREST HILL AVE,FLINT,MI,48504,
30025,DAWSON,GARDEN CITY,MI,48135,
18317,DONNELLY AVE,Semcog,MI,48193,
3137,JOHN R AVE,TRENTON,MI,48183,
3691,KNIGHTBRIDGE CIR,Macomb,MI,48314,39
51997,SCHOENHERR RD,Semcog,MI,48315,
5636,Murfield Dr,Rochester,MI,48306,
34461,JESICA LN,NEW BOSTON,MI,48164,
11330,MORRISH RD,MONTROSE,MI,48457,
745,McDougal Ave,Waterford,MI,48327,
215,BAPTISTE AVE,Semcog,MI,48162,
20028,VALERA,Semcog,MI,48080,
49152,DEER RUN CT,Semcog,MI,48315,
4888,KNOLLWOOD CT,Semcog,MI,48348,
17745,EGO AVE,Macomb,MI,48021,
15092,CALIFORNIA CIRCLE,Semcog,MI,48195,
9115,Sherwood Dr,Davisburg,MI,48350,
8853,SCHAEFER,Semcog,MI,48228,
12934,BERESFORD DR,Macomb,MI,48313,
45898,GABLE INN ST,Macomb,MI,48317,
29530,FORD,Semcog,MI,48135,
6659,FORTUNA,Semcog,MI,48182,
15200,Stone Henge Dr,Fenton,MI,48430,
14570,CHEYENNE,DETROIT,MI,48227,
19334,MONICA,Semcog,MI,48221,
1974,ROLLING WOODS DR,Semcog,MI,48098,
6005,VINCENT RD,Semcog,MI,48032,
4309,Brandywyne Dr,Troy,MI,48098,
3016,Lincolnview St,Auburn Hills,MI,48326,
3166,Adele Ter,Commerce Township,MI,48382,
121,W KINGSLEY ST 102,ANN ARBOR,MI,48103,
