NUMBER,STREET,CITY,STATE,POSTCODE,UNIT
6212,Stenstrom Rd,Alborn Twp,MN,55702,
3231,Strand Rd,Lakewood Twp,MN,55803,
2910,Parkview Drive,Medina,MN,55340,
3343,Columbus Avenue,Minneapolis,MN,55407,
175,4TH ST NW,BAGLEY,MN,56621,
3101,Colorado Avenue South,Saint Louis Park,MN,55416,
855,ADA AVE,Benson,MN,56215,
115,3rd St NW,Cook,MN,55723,
5014,Highway 169,New Hope,MN,55428,
11377,LILY ST NW,MINNEAPOLIS,MN,55433,
3323,Shores Boulevard,Minnetonka,MN,55391,
6154,150th Street North,Hugo,MN,55038,
291,County Road 19  North,Independence,MN,55359,
12001,Porter Drive,Champlin,MN,55316,
8679,Terraceview Lane North,Maple Grove,MN,55311,
301,CENTRAL AVE,DODGE CENTER,MN,55927,
5533,104th Street West,Bloomington,MN,55437,
500,Pine North,Carver,MN,55318,
5029,Oxbow Place North,Champlin,MN,55316,
2011,ELTON HILLS DR NW,ROCHESTER,MN,55901,
748,Mount Curve Boulevard,Saint Paul,MN,55116,
17217,Horizon Trail Southeast,Scott,MN,55372,
827,102ND AVE NE,MINNEAPOLIS,MN,55434,
1934,Sargent Avenue,Saint Paul,MN,55105,
6211,Lake Elmo Avenue North,Grant,MN,55082,
4700,Palmer Pointe Road,Minnetrista,MN,55331,
6011,Olney St,Duluth,MN,55807,
3707,Zane Avenue North,Crystal,MN,55422,
2901,CUTTERS GROVE AVE,ANOKA,MN,55303,
138,Minnetonka Avenue North,Wayzata,MN,55391,
15622,EARLY BIRD CIRCLE,APPLE VALLEY,MN,55124,
10300,City Walk Drive,Woodbury,MN,55129,
7460,148th Street West,Scott,MN,55378,
953,Millwood Avenue West,Saint Paul,MN,55113,
207,Brandon Rd,Hoyt Lakes,MN,55750,
76,Address Unassigned,Maple Grove,MN,55369,
1159,Hoyt Avenue West,Saint Paul,MN,55108,
522,9TH ST N,MOORHEAD,MN,56560,
4458,RESERVOIR BLVD NE,MINNEAPOLIS,MN,55421,
1245,70TH ST SW,Appleton,MN,56208,
2258,COPPERFIELD DRIVE,MENDOTA HEIGHTS,MN,55120,
10075,City Walk Drive,Woodbury,MN,55129,
1640,Cumberland Street,Saint Paul,MN,55117,
2211,Van Dyke Street North,Saint Paul,MN,55109,
14328,18TH ST N,GEORGETOWN,MN,56546,
844,Clear Avenue,Saint Paul,MN,55106,
1235,Yale Place,Minneapolis,MN,55403,
1607,Jefferson St,Duluth,MN,55812,
1128,Supornick Lane,Saint Paul,MN,55106,
508,E 4th St,Duluth,MN,55805,
308,MILL AVE W,CLARISSA,MN,56440,
5025,Baker Road,Minnetonka,MN,55343,
16660,GARLAND WAY,LAKEVILLE,MN,55068,
67,Address Unassigned,Hanover,MN,55341,
2414,County Road D  West,Saint Paul,MN,55112,
36877,65TH AVE,CANNON FALLS,MN,55009,
4549,BACON AVENUE,INVER GROVE HEIGHTS,MN,55077,
9149,Dupont Avenue South,Bloomington,MN,55420,
1340,Sheridan Avenue North,Minneapolis,MN,55411,
5404,Lakewood Rd,Lakewood Twp,MN,55804,
12819,Fiona Road North,Hugo,MN,55038,
187,Loretta Lane,Mahtomedi,MN,55115,
5593,Stepetz Rd 53,White Twp,MN,55705,
216,WHITETAIL LN,KENYON,MN,55946,
202,Paul North,Carver,MN,55322,
6333,Alderwood Circle,Woodbury,MN,55125,
4050,Olson Memorial Highway,Golden Valley,MN,55422,
13668,DULUTH DRIVE,APPLE VALLEY,MN,55124,
9931,Balsam Lane North,Maple Grove,MN,55369,
233,FLORENCE AVE,LOWRY,MN,56349,
5370,128th Street Court North,Hugo,MN,55038,
27228,Star Island SE,Cass Lake,MN,56633,
715,Frank Street,Saint Paul,MN,55106,
18615,KANABEC TRAIL,LAKEVILLE,MN,55044,
2663,Virginia Avenue North,Saint Paul,MN,55113,
3300,Gettysburg Avenue South,Saint Louis Park,MN,55426,
3615,11TH AVE S,MOORHEAD,MN,56560,
7433,Stevens Avenue South,Richfield,MN,55423,
1464,97TH AVE NW,MINNEAPOLIS,MN,55433,
2835,31st Avenue South,Minneapolis,MN,55406,
7199,Hillcrest Dr NE,Bemidji,MN,56601,
12086,UNITY ST NW,MINNEAPOLIS,MN,55448,
5641,Maryland Avenue North,Crystal,MN,55428,
2063,Parkside Drive,Saint Paul,MN,55119,
1286,Robert St,Cloquet,MN,55720,
47827,270TH PL,PALISADE,MN,56469,
9865,Wynstone Court,Woodbury,MN,55125,
11,NW 3RD AVE,PELICAN RAPIDS,MN,56572,
2574,Dunlap Street North,Saint Paul,MN,55113,
21530,Healy Avenue Court North,Forest Lake,MN,55025,
14049,DARTMOUTH PATH,ROSEMOUNT,MN,55068,
213,MAIN AVE N,BAGLEY,MN,56621,
14607,COBALT AVENUE,ROSEMOUNT,MN,55068,
34804,COUNTY 14 BLVD,CANNON FALLS,MN,55009,
1068,Tamberwood Court,Woodbury,MN,55125,
6005,75th Lane North,Brooklyn Park,MN,55443,
2470,145TH STREET  WEST,ROSEMOUNT,MN,55068,
12462,Perch Lake Rd,French Twp,MN,55781,
52,Saint Marys Avenue,Minneapolis,MN,55414,
20356,JUNEGRASS         DR,BIG LAKE,MN,55309,
2207,BAIHLY HEIGHTS DR SW,ROCHESTER,MN,55902,
2797,Xerxes Avenue South,Minneapolis,MN,55416,
818,N 10th Ave E,Duluth,MN,55805,
309,Shea Street East,Scott,MN,56011,
8949,Paradise Beach Rd,Crow Wing,MN,56401,
777,Carver Beach,Carver,MN,55317,
5739,Long Brake Circle,Edina,MN,55439,
8248,Newton Avenue North,Brooklyn Park,MN,55444,
12729,DIAMOND DRIVE,BURNSVILLE,MN,55337,
2900,67th Lane North,Brooklyn Center,MN,55430,
501,Theodore Wirth Parkway,Golden Valley,MN,55422,
1735,Marion Street North,Saint Paul,MN,55113,
6733,E SHADOW LAKE DR,CIRCLE PINES,MN,55014,
34374,Northern Ter,Crow Wing,MN,56442,
4120,Terrace Lane,Minnetonka,MN,55305,
5553,Forestry Rd,Aurora,MN,55705,
220,Lake Elmo Avenue North,Lake Elmo,MN,55042,
1823,Portland Avenue,Saint Paul,MN,55104,
14650,Martin Drive,Eden Prairie,MN,55344,
28182,LOOP,BEMIDJI,MN,56601,
3531,France Avenue North,Robbinsdale,MN,55422,
4830,LIONHART DR NW,ROCHESTER,MN,55901,
7720,Vincent Avenue South,Richfield,MN,55423,
4655,BLAINE AVENUE,INVER GROVE HEIGHTS,MN,55076,
15120,18th,Carver,MN,55388,
4870,MAINE AVE SE,ROCHESTER,MN,55904,
820,Fairview Avenue North,Saint Paul,MN,55104,
12,Sunnyside Ests,Cloquet,MN,55720,
10014,Butternut Avenue North,Brooklyn Park,MN,55443,
17574,Emerald Dr,Crow Wing,MN,56448,
9312,Preserve Trail,Woodbury,MN,55125,
111,4th Avenue North,Minneapolis,MN,55401,
465,Tyrol Dr,Crow Wing,MN,56401,
713,Madison Street Northeast,Minneapolis,MN,55413,
1406,45TH AVE S,MOORHEAD,MN,56560,
22,BROADWAY AVE N,ROCHESTER,MN,55906,
1970,Fountain,Carver,MN,55387,
304,Elm Ave,Moose Lake,MN,55767,
1510,THOMAS LAKE POINT,EAGAN,MN,55122,
13785,Glenhurst Avenue South,Scott,MN,55378,
1372,Carling Drive,Saint Paul,MN,55108,
41,Arlington Avenue West,Saint Paul,MN,55117,
6105,Idylwood Drive,Edina,MN,55436,
7115,125TH STREET  WEST,APPLE VALLEY,MN,55124,
19000,Holden Ln NW,Solway,MN,56678,
7617,Woodlawn Dr,Fayal Twp,MN,55734,
57951,350TH ST,Otter Tail,MN,56567,
13047,Glenhurst Circle,Scott,MN,55378,
2033,Arbor Lane,Mound,MN,55364,
701,4th Avenue South,Minneapolis,MN,55415,
5184,N Comstock Lake Rd,UT 55R15,MN,55724,
6582,381st Street,North Branch,MN,55056,
3011,Wellington St,Duluth,MN,55806,
1012,18 1/2 Avenue Northeast,Minneapolis,MN,55418,
2526,12 AVE NW,ROCHESTER,MN,55901,
4350,Woodhill Drive,Independence,MN,55357,
1081,RICE CREEK TER NE,MINNEAPOLIS,MN,55432,
4789,Tacoma Circle Southeast,Scott,MN,55372,
10937,SOUTHVIEW DRIVE,BURNSVILLE,MN,55337,
544,County Road J  West,Saint Paul,MN,55126,
2015,Meadow,Carver,MN,55322,
31029,HAY CREEK HILLS DR,RED WING,MN,55066,
6409,Wilryan Avenue,Edina,MN,55439,
1144,Merrifield Court,Scott,MN,55379,
14013,WHITE ROCK ROAD,BURNSVILLE,MN,55337,
11224,Stanley Avenue South,Bloomington,MN,55437,
1125,10TH ST SE,Murdock,MN,56271,
740,Portland Avenue,Minneapolis,MN,55404,
9347,Ranchview Lane North,Maple Grove,MN,55369,
3085,Van Vac Rd,Morse Twp,MN,55731,
1176,Van Buren Street South,Scott,MN,55379,
6232,HOLLOW LN,CIRCLE PINES,MN,55014,
6504,HWY  61,SILVER BAY,MN,55614,
4247,Russell Avenue North,Minneapolis,MN,55412,
212,Franklin Avenue West,Minneapolis,MN,55404,
2710,Dale Street North,Saint Paul,MN,55113,
20733,461ST AVE,Stevens,MN,56267,
14925,UPLANDER ST NW,ANDOVER,MN,55304,
3131,Colorado Avenue South,Saint Louis Park,MN,55416,
1702,Avenue C,Cloquet,MN,55720,
221,Elmwood Place West,Minneapolis,MN,55419,
8758,Sock Lake Rd,UT 61R13,MN,55706,
1631,Edgerton Street,Saint Paul,MN,55130,
167,BRIDGEPOINT DRIVE,SOUTH ST PAUL,MN,55075,
2344,119TH CIR NE,MINNEAPOLIS,MN,55449,
19638,TYLER             ST   NW,ELK RIVER,MN,55330,
19410,NIGHTINGALE ST NW,CEDAR,MN,55011,
9199,126th Street West,Scott,MN,55378,
8675,Westwind Circle,Eden Prairie,MN,55344,
15797,Rising Sun Ln SE,Cass Lake,MN,56633,
8284,Cypress Lane,Eden Prairie,MN,55347,
21095,Prairie Hills Lane,Scott,MN,55372,
2516,SW   82ND AVE,OWATONNA,MN,55060,
17892,GLASGOW WAY,LAKEVILLE,MN,55044,
228,E ASH ST,PARKERS PRAIRIE,MN,56361,
8678,Iron Bowl Dr,Clinton Twp,MN,55751,
20542,COUNTY,LAPORTE,MN,56461,
8991,COLBY COURT,INVER GROVE HEIGHTS,MN,55076,
24,N 39th Ave W,Duluth,MN,55807,
8209,Queen Avenue North,Brooklyn Park,MN,55444,
14042,Providence Lane,Scott,MN,55378,
10509,VAN BUREN CIR NE,MINNEAPOLIS,MN,55434,
2350,Brockton Lane North,Plymouth,MN,55447,
277,Bonnevista Terrace,Scott,MN,55379,
205,78th Street East,Bloomington,MN,55420,
35533,Sand Pointe Dr,Crow Wing,MN,56442,
2269,Hallmark Avenue North,Oakdale,MN,55128,
3538,SAWGRASS TRAIL  EAST,EAGAN,MN,55123,
315,13TH ST S,MOORHEAD,MN,56560,
17865,57th Avenue North,Plymouth,MN,55446,
651,Ivy Avenue East,Saint Paul,MN,55106,
1434,Jordan Avenue South,Saint Louis Park,MN,55426,
2648,Shenandoah Lane North,Plymouth,MN,55447,
205,5TH AVE W,SABIN,MN,56580,
7901,Victoria Curve,Saint Louis Park,MN,55426,
27189,Jonquil Drive,Chisago City,MN,55013,
341,19th St,Cloquet,MN,55720,
14612,SOUTHPOINTE COURT,BURNSVILLE,MN,55306,
304,9TH ST,DODGE CENTER,MN,55927,
514,HAWTHORN RD,CIRCLE PINES,MN,55014,
2116,74th Court North,Brooklyn Park,MN,55444,
16983,76th Place North,Maple Grove,MN,55311,
3846,Crestwood Place,Saint Paul,MN,55110,
3815,89TH STREET  EAST,INVER GROVE HEIGHTS,MN,55076,
18,2 ST SW,EYOTA,MN,55934,
25211,DAM LAKE ST,AITKIN,MN,56431,
439,3rd St,Cloquet,MN,55720,
125,AVE SE,AKELEY,MN,56433,
20054,SUNNY VIEW DR,GLENWOOD,MN,56334,
12902,Morningside Dr,Crow Wing,MN,56465,
14835,57th Street North,Oak Park Heights,MN,55082,
3900,Highway 7,Carver,MN,55331,
1616,1 AVE NE,ROCHESTER,MN,55906,
1471,Skiles Lane,Saint Paul,MN,55112,
2060,Northwood Drive,Saint Paul,MN,55109,
1855,W Chub Lake Rd,Carlton,MN,55718,
633,1ST ST SE,FARIBAULT,MN,55021,1
4289,SANDSTONE DRIVE,EAGAN,MN,55122,
6309,France Avenue South,Edina,MN,55410,
1873,113TH AVE NW,MINNEAPOLIS,MN,55433,
4209,2ND ST S,MOORHEAD,MN,56560,
10,Poplar Lane,Saint Paul,MN,55127,
8110,COPLAND WAY,INVER GROVE HEIGHTS,MN,55076,
6517,38th Avenue North,Crystal,MN,55427,
11179,Windrow Drive,Eden Prairie,MN,55344,
531,FOREST            RD,BIG LAKE,MN,55309,
10422,Lancaster Lane,Woodbury,MN,55129,
405,E FRONT ST,BATTLE LAKE,MN,56515,
1338,7th Street East,Saint Paul,MN,55106,
7809,119th Avenue North,Champlin,MN,55316,
14521,250TH ST SE,Red Lake,MN,56736,
2775,Shadywood Road,Orono,MN,55331,
8605,Carriage Hill Road,Scott,MN,55378,
962,TRAVELERS TRAIL  EAST,BURNSVILLE,MN,55337,
5920,Carter Lane,Minnetonka,MN,55343,
21625,Wood Ave,Crow Wing,MN,56444,
56,Address Unassigned,Dayton,MN,55327,
1110,Willow Drive South,Orono,MN,55391,
3766,Pete Miller Avenue North,Baytown Twp,MN,55082,
622,Pierce Street Northeast,Minneapolis,MN,55413,
1426,PRESS CAMP RD,TWO HARBORS,MN,55616,
2911,FREMONT CT SW,ROCHESTER,MN,55902,
144,8TH AVENUE  SOUTH,SOUTH ST PAUL,MN,55075,
9025,Garland Lane North,Maple Grove,MN,55311,
9899,AVOCET ST NW,MINNEAPOLIS,MN,55433,
3330,92ND LN NE,MINNEAPOLIS,MN,55449,
6880,Excelsior Boulevard,Saint Louis Park,MN,55426,
14505,289TH             AVE  NW,ZIMMERMAN,MN,55398,
15173,Jeffers Pass Northwest,Scott,MN,55372,
218,Verbena,Carver,MN,55388,
4617,Grand Avenue South,Minneapolis,MN,55419,
,2nd Ave W,Hibbing,MN,55746,
1208,140TH STREET  EAST,BURNSVILLE,MN,55337,
1020,Spring Hill,Carver,MN,55387,
9081,Larch Lane North,Maple Grove,MN,55369,
4901,Chowen Avenue South,Minneapolis,MN,55410,
5111,Woodlawn St,Duluth,MN,55804,
5444,South Park Drive,Scott,MN,55378,
13056,Cypress Dr,Crow Wing,MN,56425,
3861,W Tischer Rd,Rice Lake,MN,55803,
5305,KENSINGTON LN NW,ROCHESTER,MN,55901,
4120,Parklawn Avenue,Edina,MN,55435,
3508,11TH ST S,MOORHEAD,MN,56560,
311,MAIN ST,Stevens,MN,56221,
1015,7th St SE,Bemidji,MN,56601,
12317,Hannon Rd,UT 59R21,MN,55746,
1119,SOUTHERN HILLS LN SW,ROCHESTER,MN,55902,
1131,BAIRD LN NE,ROCHESTER,MN,55906,
1681,VICTORIA ROAD  SOUTH,MENDOTA HEIGHTS,MN,55118,
1719,8 1/2 AVE SE,ROCHESTER,MN,55904,
3816,9 ST NW,ROCHESTER,MN,55901,
521,10TH ST SE,WASECA,MN,56093,
505,Beaumont Street,Saint Paul,MN,55130,
2200,5th St SE,Willmar,MN,56201,
1845,FERRY ST,ANOKA,MN,55303,
546,Marshall Avenue,Saint Paul,MN,55102,
10047,Arden Ln,Crow Wing,MN,56468,
1636,Pullman Avenue,Saint Paul Park,MN,55071,
4859,BISSET LANE,INVER GROVE HEIGHTS,MN,55076,
22860,RUM RIVER BLVD NW,SAINT FRANCIS,MN,55070,
30835,North  Lakes Trail,Lindstrom,MN,55045,
401,2nd Street East,Scott,MN,55352,
18288,TYLER             ST   NW,ELK RIVER,MN,55330,
1827,Alta Vista Drive North,Saint Paul,MN,55113,
1492,Point Douglas Road South,Saint Paul,MN,55119,
1529,Hwy 5,UT 62R21,MN,55723,
603,Lake Street,Excelsior,MN,55331,
950,WILLOW ST,FARIBAULT,MN,55021,
864,Fuller Avenue,Saint Paul,MN,55104,
14821,WILDWOOD ROAD,BURNSVILLE,MN,55306,
1319,Sargent Avenue,Saint Paul,MN,55105,
39785,CO HWY 75,Otter Tail,MN,56482,
1551,97TH LN NW,MINNEAPOLIS,MN,55433,
8702,TYLER ST NE,MINNEAPOLIS,MN,55434,
9018,Bloomington Avenue South,Bloomington,MN,55425,
12420,77th Street Court North,Stillwater,MN,55082,
3005,Mary Court North,Saint Paul,MN,55109,
15785,DR,NEVIS,MN,56467,
9408,Clubhouse Road,Eden Prairie,MN,55347,
9425,FOLEY BLVD NW,MINNEAPOLIS,MN,55433,
14030,Lynn Avenue South,Scott,MN,55378,
2934,Xenwood Avenue South,Saint Louis Park,MN,55416,
971,Central Avenue West,Saint Paul,MN,55104,
303,37th St E,Hibbing,MN,55746,
1821,University Avenue West,Saint Paul,MN,55104,
18368,93RD              ST   SE,BECKER,MN,55308,
4380,Brookside Court,Edina,MN,55436,
2922,3rd Ave E,Hibbing,MN,55746,
13338,UPLANDER ST NW,ANDOVER,MN,55304,
1767,Fremont Avenue South,Minneapolis,MN,55403,
8907,360th Street,North Branch,MN,55056,
501,N 81st Ave W,Duluth,MN,55807,
17985,180TH ST W,FARIBAULT,MN,55021,
2107,Gresham Avenue North,Oakdale,MN,55128,
1840,Dayton Avenue,Saint Paul,MN,55104,
7258,UPPER 136TH STREET  WEST,APPLE VALLEY,MN,55124,
15961,JARVIS ST NW,ELK RIVER,MN,55330,
15010,72nd St NE,Spicer,MN,56288,
1476,ENGLERT ROAD,EAGAN,MN,55122,
8733,1st Avenue South,Bloomington,MN,55420,
2626,4th Street North,Minneapolis,MN,55411,
405,BROOK AVE,MOORHEAD,MN,56560,
19140,Eagleview Lane,Scott,MN,55372,
11778,NORWAY ST NW,MINNEAPOLIS,MN,55448,
15959,XEON ST NW,ANDOVER,MN,55304,
14371,Enclave Court Northwest,Scott,MN,55372,
7538,Vincent Avenue South,Richfield,MN,55423,
10600,South Shore Drive,Plymouth,MN,55441,
12809,WHITEWOOD DRIVE,BURNSVILLE,MN,55337,
2628,Hwy 73,Hibbing,MN,55746,
1325,NORWOOD ST,RED WING,MN,55066,
39187,150TH ST,WASECA,MN,56093,
294,Summit Avenue,Saint Paul,MN,55102,
5301,Penn Avenue North,Brooklyn Center,MN,55430,
798,FISHERMAN DR NW,ORONOCO,MN,55960,
5825,Saint Croix Avenue North,Golden Valley,MN,55422,
215,Juergens Circle,Scott,MN,55352,
882,Watson Avenue,Saint Paul,MN,55102,
217,Lakeview Dr,Spicer,MN,56288,
1289,Scheffer Avenue,Saint Paul,MN,55116,
2540,Brinkhaus,Carver,MN,55318,
842,Gertrude Brown Place,Minneapolis,MN,55411,
758,Victoria Street North,Saint Paul,MN,55104,
17956,Cobblestone Way,Eden Prairie,MN,55347,
5573,EAST OBERLIN CIR NE,MINNEAPOLIS,MN,55432,
22430,BUCHANAN ST NE,BETHEL,MN,55005,
3350,Lakewood Trail,Woodbury,MN,55129,
1415,HIGHWAY ST,DODGE CENTER,MN,55927,
4109,2nd Avenue South,Minneapolis,MN,55409,
303,Winona Street West,Saint Paul,MN,55107,
783,Nevada Avenue East,Saint Paul,MN,55106,
17640,43rd Avenue North,Plymouth,MN,55446,
289,5th Street East,Saint Paul,MN,55101,
205,6th Street Northwest,Saint Paul,MN,55112,
9406,Seaver Ave,Duluth,MN,55808,
16953,GANNON WAY,LAKEVILLE,MN,55068,
15001,BURNHAVEN DRIVE,BURNSVILLE,MN,55306,
540,RIVERVIEW RD,ELY,MN,55731,
4500,WASHINGTON ST NE,MINNEAPOLIS,MN,55421,
4176,TRUMPETER DR SE,ROCHESTER,MN,55904,
7423,Brunswick Avenue North,Brooklyn Park,MN,55443,
1259,Highridge Court East,Saint Paul,MN,55109,
1401,Summit Avenue,Minneapolis,MN,55403,
1373,Award Blvd,Wright,MN,55798,
205,Mac Street,Scott,MN,55054,
3549,Glenarden Road,Saint Paul,MN,55112,
405,FRONT ST,WEST CONCORD,MN,55985,
13690,Theresa Place,Eden Prairie,MN,55346,
5955,Baich Rd,Balkan Twp,MN,55719,
132,Bank Street,Minneapolis,MN,55414,
19187,JACKSON           CT   NW,ELK RIVER,MN,55330,
21473,270TH ST,Otter Tail,MN,56537,
240,Spring Street,Saint Paul,MN,55102,
1929,Ford Parkway,Saint Paul,MN,55116,
640,Main Street North,Stillwater,MN,55082,
1102,MILL ST   W,CANNON FALLS,MN,55009,
6375,152nd,Carver,MN,55315,
36685,HIGHWAY 58 BLVD,GOODHUE,MN,55027,
3124,Emerson Avenue South,Minneapolis,MN,55408,
131,N 1ST AVE,VERGAS,MN,56587,
3947,W Tischer Rd,Rice Lake,MN,55803,
8466,Isleton Court South,Cottage Grove,MN,55016,
12142,Balsam Rd,Prairie Lake Twp,MN,55736,
6875,Macbeth Court,Woodbury,MN,55125,
13321,W 3rd St,Duluth,MN,55808,
1130,Crystal West,Carver,MN,55318,
10442,18TH AVE N,GLYNDON,MN,56547,
1557,Dale Street North,Saint Paul,MN,55117,
24030,STATE HIGHWAY 9,Stevens,MN,56267,
3528,West  Lake Calhoun Parkway,Minneapolis,MN,55416,
8283,Emerald Lane,Woodbury,MN,55125,
1155,Lincoln Avenue,Saint Paul,MN,55105,
8109,Regent Avenue North,Brooklyn Park,MN,55443,
34754,573RD AVE,Otter Tail,MN,56567,
7175,37th Street Court North,Oakdale,MN,55128,
17141,SWAN VIEW RD,Otter Tail,MN,56537,
170,Wheaton Rd,Cloquet,MN,55720,
4555,Arrowood Lane North,Plymouth,MN,55442,
1432,VINCE TRAIL,EAGAN,MN,55121,
2080,VIENNA LANE,EAGAN,MN,55122,
12370,ALAMO CIR NE,MINNEAPOLIS,MN,55449,
30980,MOE RD,Otter Tail,MN,56586,
17079,ENCINA PATH,LAKEVILLE,MN,55024,
1222,16TH ST S,MOORHEAD,MN,56560,
4569,16TH ST S,MOORHEAD,MN,56560,
14949,Sumter Avenue South,Scott,MN,55378,
2305,5th Street Northwest,Saint Paul,MN,55112,
3630,Oak Creek Drive West,Saint Paul,MN,55127,
24146,CO HWY 27,Otter Tail,MN,56537,
7405,Fremont Avenue South,Richfield,MN,55423,
17711,Breconwood Road,Minnetonka,MN,55391,
4550,Alvarado Lane North,Plymouth,MN,55446,
12133,7TH ST NE,MINNEAPOLIS,MN,55434,
5220,Regent Avenue North,Crystal,MN,55429,
3039,Fillmore Street Northeast,Minneapolis,MN,55418,
8837,COUNTY RD 8   SW,STEWARTVILLE,MN,55976,
10051,GROUSE ST NW,MINNEAPOLIS,MN,55433,
11067,NASSAU CIR NE,MINNEAPOLIS,MN,55449,
5528,Welcome Avenue North,Crystal,MN,55429,
1644,Liberty Street,Scott,MN,55379,
655,Overlook Drive West,Saint Paul,MN,55113,
1522,Dupont Avenue North,Minneapolis,MN,55411,
9955,Hudson Place,Woodbury,MN,55125,
23155,Academy Avenue,Shorewood,MN,55331,
11790,134th Avenue North,Dayton,MN,55327,
2080,230th Street West,Scott,MN,55352,
1082,SMITH AVENUE  SOUTH,WEST ST PAUL,MN,55118,
1435,Hampshire Avenue South,Saint Louis Park,MN,55426,
5992,Church Rd,Crow Wing,MN,56401,
1903,Bernese Place,Scott,MN,55379,
4178,W Sibley St,Crow Wing,MN,56472,
6517,4TH ST N,MOORHEAD,MN,56560,
13692,Rogers Drive,Rogers,MN,55374,
1808,Queen Avenue North,Minneapolis,MN,55411,
1080,Montreal Avenue,Saint Paul,MN,55116,
10453,JAY ST NW,MINNEAPOLIS,MN,55433,
95,Lakeland Shores Road North,Lakeland Shores,MN,55043,
1135,Lafond Avenue,Saint Paul,MN,55104,
124,Chevy Chase Drive,Orono,MN,55391,
4268,Vermilion Trl,UT 57R16,MN,55705,
2008,121ST STREET  EAST,BURNSVILLE,MN,55337,
8437,4th Avenue South,Bloomington,MN,55420,
964,Pleasant Avenue,Saint Paul Park,MN,55071,
16833,91st Avenue North,Maple Grove,MN,55311,
4834,WINTERGREEN LN NW,ROCHESTER,MN,55901,
12060,Lakamaga Trail North,Scandia,MN,55047,
541,STANLEY ST,RED WING,MN,55066,
10917,Oak Knoll Terrace South,Minnetonka,MN,55305,
5459,Rd 46,White Twp,MN,55705,
11387,Blazingstar Lane North,Lake Elmo,MN,55042,
859,Pinetree Court,Saint Paul,MN,55109,
7900,Douglas Drive North,Brooklyn Park,MN,55443,
16315,13th Avenue North,Plymouth,MN,55447,
14655,Hampshire Avenue,Scott,MN,55378,
4575,Tracks North Trl NE,Tenstrike,MN,56683,
1100,Hancock Street,Saint Paul,MN,55106,
1352,Maynard Drive East,Saint Paul,MN,55116,
2047,CHARLTON STREET,WEST ST PAUL,MN,55118,
5058,Penn Avenue North,Minneapolis,MN,55430,
8032,Clinton Avenue South,Bloomington,MN,55420,
2532,35th Avenue South,Minneapolis,MN,55406,
2429,121ST CIR NE,MINNEAPOLIS,MN,55449,
6816,Queen Avenue South,Richfield,MN,55423,
27755,Lundberg Point Rd,Crow Wing,MN,56468,
825,XENIA             AVE  NW,ELK RIVER,MN,55330,
2500,Avon Drive,Mound,MN,55364,
22778,OLD 59 RD,Otter Tail,MN,56572,
940,7 AVE NE,ROCHESTER,MN,55906,
11332,State Hwy 25,Crow Wing,MN,56401,
12552,91st Place North,Maple Grove,MN,55369,
4413,Winchester Lane,Brooklyn Center,MN,55429,
4429,Nicollet Avenue,Minneapolis,MN,55419,
4225,Willow Wood Drive,Saint Paul,MN,55127,
600,5TH ST SE,BARNESVILLE,MN,56514,30
16862,CO HWY 24,Otter Tail,MN,56534,
2014,44TH ST S,MOORHEAD,MN,56560,
55158,NATURE AVE,PALISADE,MN,56469,
2212,3rd Ave W,Hibbing,MN,55746,
8501,110th Street West,Bloomington,MN,55438,
2819,Delaware Street Southeast,Minneapolis,MN,55414,
400,Franklin Avenue West,Minneapolis,MN,55405,
4930,Markay Ridge,Golden Valley,MN,55422,
4526,200TH STREET  EAST,VERMILLION TWP,MN,55033,
1017,4TH AVE N,MOORHEAD,MN,56560,
1635,University Avenue West,Saint Paul,MN,55104,
10275,Grand Oaks Trail,Woodbury,MN,55129,
12035,63rd Place North,Maple Grove,MN,55369,
3719,Fox Trail,Saint Bonifacius,MN,55375,
18418,69th Place North,Maple Grove,MN,55311,
39521,LAKE SHORE RV PARK RD,ORTONVILLE,MN,56278,
51,GARDEN DR,SILVER BAY,MN,55614,
409,ELM ST S,MOORHEAD,MN,56560,
6678,162ND COURT  WEST,LAKEVILLE,MN,55068,
2811,CUTTERS GROVE AVE,ANOKA,MN,55303,
1211,Humboldt Avenue North,Minneapolis,MN,55411,
9406,Kingsview Lane North,Maple Grove,MN,55369,
2600,Aldrich Avenue South,Minneapolis,MN,55408,
5701,McGuire Road,Edina,MN,55439,
7601,Edinborough Way,Edina,MN,55435,
7231,Browns Ln,Crow Wing,MN,56401,
6400,Wild Oaks Terrace Northeast,Scott,MN,55372,
4119,Colfax Avenue North,Minneapolis,MN,55412,
5643,Green Circle Drive,Minnetonka,MN,55343,
1677,Garden Lane,Saint Paul,MN,55110,
17293,COUNTY 41 BLVD,RED WING,MN,55066,
5824,Pleasant Avenue,Minneapolis,MN,55419,
1702,Riverside Drive,Scott,MN,55379,
308,Cedar Avenue South,Minneapolis,MN,55454,
2521,CONCORD WAY,MENDOTA HEIGHTS,MN,55120,
720,4th Street North,Minneapolis,MN,55401,
1191,Bibeau Road,Saint Paul,MN,55110,
2990,Southdale Center,Edina,MN,55435,
440,4TH ST,Franklin,MN,55333,
2025,83rd Street West,Bloomington,MN,55431,
7590,18th Street North,Oakdale,MN,55128,
1633,Edmund Avenue,Saint Paul,MN,55104,
9840,Homeward Hills Road,Eden Prairie,MN,55347,
3413,Pilgrim Lane North,Plymouth,MN,55441,
20950,Texas Avenue,Scott,MN,55372,
98,WEST GOLDEN LAKE RD,CIRCLE PINES,MN,55014,
1326,3rd Avenue South,Stillwater,MN,55082,
1002,120TH AVE NW,MINNEAPOLIS,MN,55448,
4445,Enchanted Point,Shorewood,MN,55364,
5415,LINCOLN STREET,HAMPTON,MN,55031,
4191,Canosia Rd,Solway Twp,MN,55720,
2071,Clear Avenue,Saint Paul,MN,55119,
42,Address Unassigned,Richfield,MN,55423,
5501,Humboldt Avenue North,Brooklyn Center,MN,55430,
1704,20 AVE SE,ROCHESTER,MN,55904,
5120,Windsor Avenue,Edina,MN,55436,
3274,ASPEN COURT,EAGAN,MN,55121,
7610,Jasmine Avenue South,Cottage Grove,MN,55016,
5030,Yuma Lane North,Plymouth,MN,55446,
28329,99TH              ST   NW,ZIMMERMAN,MN,55398,
9112,Medley Road,Golden Valley,MN,55427,
8839,Sandy Trl,Crow Wing,MN,56474,
3698,118TH LN NW,MINNEAPOLIS,MN,55433,
2207,4th Street East,Saint Paul,MN,55119,
106,DIVISION ST N,NORTHFIELD,MN,55057,
1620,INNSBRUCK PKWY NE,MINNEAPOLIS,MN,55421,
5345,Hugo Court,Saint Paul,MN,55110,
1960,CLIFF LAKE ROAD,EAGAN,MN,55122,
4931,34 CT NW,ROCHESTER,MN,55901,
125,2 AVE NE,STEWARTVILLE,MN,55976,
1613,Knife River Rd W,Duluth Twp,MN,55616,
3934,STRATHMORE LN SE,ROCHESTER,MN,55904,
629,E 1st St,Duluth,MN,55805,
232,Kuntz Drive,Independence,MN,55359,
200,94TH AVE NW,MINNEAPOLIS,MN,55433,
9316,67th Avenue North,Brooklyn Park,MN,55428,
2972,Eagle Valley Drive,Woodbury,MN,55129,
5700,Dale Avenue,Edina,MN,55436,
6222,Quinwood Lane North,Maple Grove,MN,55369,
103,1ST ST NW,FARIBAULT,MN,55021,3
26523,Linden St,Crow Wing,MN,56450,
36564,640TH AVE,ORTONVILLE,MN,56278,
5405,187TH STREET  WEST,FARMINGTON,MN,55024,
5424,Morgan Avenue South,Minneapolis,MN,55419,
10115,29th Avenue North,Plymouth,MN,55441,
2705,6th Ave SE,Willmar,MN,56201,
2112,Old North Shore Rd,Duluth Twp,MN,55804,
2619,Noble Avenue North,Golden Valley,MN,55422,
1435,FARMDALE ROAD,MENDOTA HEIGHTS,MN,55118,
2004,Merriam Lane,Saint Paul,MN,55104,
20121,COUNTY ROAD 14         NW,BIG LAKE,MN,55309,
9700,69th Avenue North,Maple Grove,MN,55369,
5045,Oxbow Place North,Champlin,MN,55316,
23,SCHILLING RD SE,BAGLEY,MN,56621,
5186,Canvasback Rd NE,Pennington,MN,56663,
6614,4TH ST N,MOORHEAD,MN,56560,
7595,McCarthy Beach Rd,French Twp,MN,55781,
1688,Dayton Avenue,Saint Paul,MN,55104,
3663,Park Center Boulevard,Saint Louis Park,MN,55416,
7592,Derby Lane,Scott,MN,55379,
2100,SUMAC LANE,BURNSVILLE,MN,55306,
1333,104TH PL NE,MINNEAPOLIS,MN,55434,
5173,Country Ln,Hermantown,MN,55810,
7812,Pioneer Road,Wyoming,MN,55092,
9650,ABLE ST NE,MINNEAPOLIS,MN,55434,
5637,Aldrich Avenue South,Minneapolis,MN,55419,
16730,220TH ST,MCGRATH,MN,56350,
8377,Rice Lake Road North,Maple Grove,MN,55369,
20487,JUNEGRASS         DR,BIG LAKE,MN,55309,
2022,24th Avenue South,Minneapolis,MN,55406,
13600,Commerce Boulevard,Rogers,MN,55374,
7209,88th Avenue North,Brooklyn Park,MN,55445,
7201,Walker Street,Saint Louis Park,MN,55426,
520,N Lake Ave,Duluth,MN,55805,
20654,BRENNAN PATH,FARMINGTON,MN,55024,
4749,Krech Avenue,Saint Paul,MN,55110,
3131,NORTHERN VALLEY DR NE,ROCHESTER,MN,55906,
14486,THRUSH ST NW,ANDOVER,MN,55304,
528,HAVANA RD SE,Steele Urban,MN,55060,
12677,Mattson Rd,UT 55R21,MN,55746,
6945,18th Avenue South,Richfield,MN,55423,
9745,Whistling Valley Road,Lake Elmo,MN,55042,
6260,Harborough Court,Eden Prairie,MN,55346,
61,Jessamine Avenue West,Saint Paul,MN,55117,
2333,Stone Creek West,Carver,MN,55317,
1235,Yale Place,Minneapolis,MN,55403,
5304,Malibu Drive,Edina,MN,55436,
8636,Ridgewood Lane,Scott,MN,55378,
12558,THRUSH ST NW,MINNEAPOLIS,MN,55448,
9285,Lennis,Carver,MN,55387,
4436,Cedar Lake Road,Saint Louis Park,MN,55416,
48040,E PINE LAKE RD,GONVICK,MN,56644,
1785,Dellwood Avenue North,Saint Paul,MN,55113,
5661,Oak View Court,Scott,MN,55378,
2046,Saint Anthony Parkway,Minneapolis,MN,55418,
1120,231ST LN NE,BETHEL,MN,55005,
10465,270TH AVE,ISLE,MN,56342,
6800,Medford Rd,Crow Wing,MN,56425,
1251,HERITAGE DR,NORTHFIELD,MN,55057,
48948,STATE HWY 210,Otter Tail,MN,56551,
11090,Scherber Lane,Dayton,MN,55369,
313,NORMAN AVENUE NE,Norman,MN,56584,
603,2ND ST,HAWLEY,MN,56549,
900,Irvine Ave NW,Bemidji,MN,56601,
3115,7TH AVE,ANOKA,MN,55303,
1755,Juliet Avenue,Saint Paul,MN,55105,
619,8th Street Southeast,Minneapolis,MN,55414,
6784,E SHADOW LAKE DR,CIRCLE PINES,MN,55014,
3228,38th Avenue South,Minneapolis,MN,55406,
23368,GOPHER DR NE,BETHEL,MN,55005,
16235,50th Avenue North,Plymouth,MN,55446,
1078,Prospect Pointe Road,Scott,MN,55352,
3656,Quincy Dr SW,Bemidji,MN,56601,
1311,JEFFERSON N,Wadena,MN,56482,
5437,NICKLAUS DR NW,ROCHESTER,MN,55901,
10944,ANDOVER COURT,INVER GROVE HEIGHTS,MN,55077,
932,CHRISTENSEN AVENUE,WEST ST PAUL,MN,55118,
1401,143RD STREET  WEST,BURNSVILLE,MN,55306,
1635,Regatta Alcove,Woodbury,MN,55125,
313,N DAYTON AVE,PARKERS PRAIRIE,MN,56361,
1764,Palace Avenue,Saint Paul,MN,55105,
38760,Oasis Road,Lindstrom,MN,55045,
1014,Montclair Avenue,Saint Paul,MN,55112,
11124,Rhode Island Avenue South,Bloomington,MN,55438,
45454,Iris Avenue,Harris,MN,55032,
317,13TH ST S,Benson,MN,56215,
3201,63rd Avenue North,Brooklyn Center,MN,55429,
345,Wabasha Street North,Saint Paul,MN,55102,
7926,Fairfield Circle North,Brooklyn Park,MN,55444,
611,13TH ST S,Benson,MN,56215,
78,10th Street East,Saint Paul,MN,55101,
14609,91st Avenue North,Maple Grove,MN,55369,
2436,Lydia Avenue East,Saint Paul,MN,55109,
14965,49th Ave NE,Atwater,MN,56209,
9444,TYNE COURT,INVER GROVE HEIGHTS,MN,55077,
2952,McKinley Street Northeast,Minneapolis,MN,55418,
2004,Randolph Avenue,Saint Paul,MN,55105,
13417,OLIVER AVENUE  SOUTH,BURNSVILLE,MN,55337,
1014,Benson Ave SW,Willmar,MN,56201,
603,10TH ST,KASSON,MN,55944,
21381,430TH ST,BERTHA,MN,56437,
4800,Dominick Way,Minnetonka,MN,55343,
15361,VERDIN ST NW,ANDOVER,MN,55304,
3355,Hazelton Road,Edina,MN,55435,
3806,Pine Grove St,Crow Wing,MN,56472,
20940,Co Rd 36,Crow Wing,MN,56447,
3031,164TH AVE NW,ANDOVER,MN,55304,
27721,CO HWY 11,Otter Tail,MN,56537,
4008,Kipling Avenue,Edina,MN,55416,
2225,Summit Avenue,Saint Paul,MN,55105,
4712,Aspasia Circle,Edina,MN,55435,
8801,Ironwood Avenue South,Cottage Grove,MN,55016,
10022,99th Place North,Maple Grove,MN,55369,
1904,36TH ST S,MOORHEAD,MN,56560,
617,Penn Avenue South,Minneapolis,MN,55405,
1305,JESSIE CT,FERGUS FALLS,MN,56537,
7667,Jeffery Avenue South,Cottage Grove,MN,55016,
5275,157th Street North,Hugo,MN,55038,
2807,63rd Avenue North,Brooklyn Center,MN,55430,
34,Address Unassigned,Minnetonka,MN,55305,
1204,KELLER LAKE ROAD,BURNSVILLE,MN,55306,
1355,Phalen Boulevard,Saint Paul,MN,55106,
34771,270 ST,HENDERSON,MN,56044,
3421,20 AVE NW,ROCHESTER,MN,55901,
14374,EBONY LANE,APPLE VALLEY,MN,55124,
748,3rd Street North,Minneapolis,MN,55401,
11894,Emery Village Drive North,Champlin,MN,55316,
1100,Cartway Road,Champlin,MN,55316,
2733,150TH ST,BARNESVILLE,MN,56514,
19998,KIRBY AVENUE,MARSHAN TWP,MN,55033,
9805,Friar Drive,Eden Prairie,MN,55347,
31236,Front St,Crow Wing,MN,56472,
1208,Trailwood South,Hopkins,MN,55343,
2608,DANA DRIVE,BURNSVILLE,MN,55337,
1307,Tyrol Trail,Golden Valley,MN,55416,
17109,STATE HWY 27,MCGREGOR,MN,55760,
865,Mississippi River Boulevard South,Saint Paul,MN,55116,
6931,Homeward Court South,Cottage Grove,MN,55016,
3502,Sioux Drive,Medina,MN,55340,
821,2nd St SE,Bemidji,MN,56601,
30,Address Unassigned,Hopkins,MN,55343,
6444,Elm Street,North Branch,MN,55056,
4122,97TH LN NE,CIRCLE PINES,MN,55014,
9394,Hwy 135 N,Kugler Twp,MN,55790,
1000,PETERS PL NE,MINNEAPOLIS,MN,55421,
25189,LN,NEVIS,MN,56467,
1420,Interlachen Circle,Woodbury,MN,55125,
1170,Cushing Circle,Saint Paul,MN,55108,
13000,CRANE ST NW,MINNEAPOLIS,MN,55448,
610,CORTLAND LN SW,ROCHESTER,MN,55902,
345,Wildwood Avenue,Birchwood Village,MN,55110,
402,N WASHINGTON AVE,BATTLE LAKE,MN,56515,
4208,16th Avenue South,Minneapolis,MN,55407,
1892,Simpson Street,Saint Paul,MN,55113,
978,Conway Street,Saint Paul,MN,55106,
845,Iowa Avenue West,Saint Paul,MN,55117,
7168,218th Street North,Forest Lake,MN,55025,
27652,Co Rd 4,Crow Wing,MN,56472,
5989,177TH ST W,FARIBAULT,MN,55021,15
107,HIDDEN MEADOWS DR,BATTLE LAKE,MN,56515,
420,Julii St SE,Willmar,MN,56201,
16454,ELM CREEK LANE,LAKEVILLE,MN,55044,
724,Harrison St,Eveleth,MN,55734,
819,823 5TH ST SW,Wadena,MN,56482,
720,4th Street North,Minneapolis,MN,55401,
328,22nd St,Cloquet,MN,55720,
7870,Park,Carver,MN,55317,
8900,Greystone Avenue South,Cottage Grove,MN,55016,
4817,Lyndale Avenue South,Minneapolis,MN,55419,
2751,SELKIRK DRIVE,BURNSVILLE,MN,55337,
61,Address Unassigned,Eden Prairie,MN,55347,
408,Broadway North,Carver,MN,55315,
110,Iowa Ave W,Gilbert,MN,55741,
1919,SILVER BELL ROAD,EAGAN,MN,55122,
15043,Idaho Court,Scott,MN,55378,
6595,CLARKIA DR NW,ROCHESTER,MN,55901,
765,Wheeler Street North,Saint Paul,MN,55104,
439,BIRCH LN,MOORHEAD,MN,56560,
452,NATURE VIEW COURT,WEST ST PAUL,MN,55118,
1100,CENTRAL POINT RD,LAKE CITY,MN,55041,
4671,TRAVERSE POINT,EAGAN,MN,55122,
19619,Jackie Lane,Corcoran,MN,55374,
8002,Timber Lake Drive,Eden Prairie,MN,55347,
2087,Fry Street North,Saint Paul,MN,55113,
5421,43rd Avenue South,Minneapolis,MN,55417,
8152,Hornell Avenue South,Cottage Grove,MN,55016,
47670,475TH AVE,Otter Tail,MN,56573,
13213,IRVING AVENUE  SOUTH,BURNSVILLE,MN,55337,
9012,S CORD 45,OWATONNA,MN,55060,
,CAMEO LN,CIRCLE PINES,MN,55014,
2220,VALLEYHIGH DR NW,ROCHESTER,MN,55901,
3035,EAGANDALE PLACE,EAGAN,MN,55121,
13653,170TH             AVE  SE,BECKER,MN,55308,
7014,Hwy 210,Wright,MN,55798,
3933,Zealand Avenue North,New Hope,MN,55427,
7428,MELODY DR NE,MINNEAPOLIS,MN,55432,
5508,Logan Avenue South,Minneapolis,MN,55419,
701,Birch Ave,Moose Lake,MN,55767,
705,S 5th St,Crow Wing,MN,56401,
5960,ANNA AVE NE,MINNEAPOLIS,MN,55432,
873,Ferndale Street South,Saint Paul,MN,55119,
2750,Russell Avenue North,Minneapolis,MN,55411,
3663,Fox Tail Trail Northwest,Scott,MN,55372,
6384,Raccoon Ct,Crow Wing,MN,56472,
732,8TH AVE,TWO HARBORS,MN,55616,
416,Diedrich,Carver,MN,55315,
18528,FALK AVE,FARIBAULT,MN,55021,
15455,UNITY ST NW,ANDOVER,MN,55304,
8501,Union Hill Boulevard,Scott,MN,56011,
20884,IDAHO AVENUE,LAKEVILLE,MN,55044,
205,Barry Avenue South,Wayzata,MN,55391,
23653,DAKOTAH ST NW,SAINT FRANCIS,MN,55070,
32808,Bingham Rd,Crow Wing,MN,56472,
922,Monterey Drive,Saint Paul,MN,55126,
2111,HIDDEN VALLEY RD,NORTHFIELD,MN,55057,
13602,Black Bear Ln NE,Bemidji,MN,56601,
521,Logan Avenue North,Minneapolis,MN,55405,
19768,S LAKESHORE DR,GLENWOOD,MN,56334,
510,GRANT ST   W,WINTHROP,MN,55396,
907,W 6th St,Duluth,MN,55806,
10485,182ND             AVE  NW,ELK RIVER,MN,55330,
11280,Preswick Boulevard,Eden Prairie,MN,55344,
4324,19TH ST S,MOORHEAD,MN,56560,
1614,25 ST SE,ROCHESTER,MN,55904,
1110,MAIN AVE S,Red Lake,MN,56750,
8720,Fremont Avenue South,Bloomington,MN,55420,
2070,9th Avenue East,Saint Paul,MN,55109,
7323,236th Street East,Scott,MN,55044,
1119,Morgan Avenue North,Minneapolis,MN,55411,
14036,PLYMOUTH AVENUE  SOUTH,BURNSVILLE,MN,55337,
2470,Heron,Carver,MN,55386,
430,Wilson West,Carver,MN,55368,
110,7TH ST,MANTORVILLE,MN,55955,
10303,HANSON BLVD NW,MINNEAPOLIS,MN,55433,
340,8TH ST E,Hector,MN,55342,
137,Oakwood Drive,Scott,MN,56011,
210,N 5th Ave,Virginia,MN,55792,
301,Shelard Parkway,Saint Louis Park,MN,55426,
10441,Greenbrier Road,Minnetonka,MN,55305,
9335,6TH ST NE,MINNEAPOLIS,MN,55434,
32406,STARLAND SHORE DR,Otter Tail,MN,56528,
13895,HOLLY ST NW,ANDOVER,MN,55304,
15650,GALAXIE AVENUE,APPLE VALLEY,MN,55124,
12861,ABERDEEN ST NE,MINNEAPOLIS,MN,55449,
450,Peavey Lane,Wayzata,MN,55391,
7474,Hillside Trail South,Cottage Grove,MN,55016,
7601,169th Street East,Scott,MN,55372,
1266,GORMAN AVENUE,WEST ST PAUL,MN,55118,
4744,WIND TRAIL,EAGAN,MN,55122,
715,Lincoln Pkwy,Duluth,MN,55806,
1449,S Lake St,Cromwell,MN,55726,
5109,ROBIN LANE,FARMINGTON,MN,55024,
3109,Hennepin Avenue,Minneapolis,MN,55408,
14305,TUNGSTEN ST NW,ANOKA,MN,55303,
1509,88th Avenue North,Brooklyn Park,MN,55444,
3940,WELLS LAKE WAY,FARIBAULT,MN,55021,
9237,4th Avenue South,Bloomington,MN,55420,
2070,COON RAPIDS BLVD NW,MINNEAPOLIS,MN,55433,
3121,Excelsior Boulevard,Minneapolis,MN,55416,
4617,Island Lake Dr,Gnesen Twp,MN,55803,
5329,Whiting Avenue,Edina,MN,55439,
112,HIDDEN MEADOWS DR,BATTLE LAKE,MN,56515,
13108,Valley Forge Lane North,Champlin,MN,55316,
522,4TH ST   SW,CANNON FALLS,MN,55009,
204,4th Ave SE,New London,MN,56273,
3109,BRAEMORE LN SW,ROCHESTER,MN,55902,
410,WALNUT S,Steele Urban,MN,55060,
2001,Washington Street Northeast,Minneapolis,MN,55418,
5808,Deerwood Lane North,Plymouth,MN,55442,
39488,210 ST,ARLINGTON,MN,55307,
2381,112TH LN NW,MINNEAPOLIS,MN,55433,
5240,100TH ST S,GLYNDON,MN,56547,
50855,COUNTY,BEMIDJI,MN,56601,
651,West River Dr,New London,MN,56273,
15065,Park Drive,Rogers,MN,55327,
5106,Vincent Avenue North,Minneapolis,MN,55430,
327,Prairie Way South,Bayport,MN,55003,
3415,Churchill Street North,Saint Paul,MN,55126,
23291,Newport Avenue,Scott,MN,55372,
6287,WARE RD,CIRCLE PINES,MN,55014,
46462,MINNESOTA ST,Otter Tail,MN,56573,
5589,Jarett Court Northeast,Scott,MN,55372,
7024,Newton Avenue North,Brooklyn Center,MN,55430,
6008,Park Avenue,Minneapolis,MN,55417,
316,Robert Street North,Saint Paul,MN,55101,
1601,NORTH INNSBRUCK DR NE,MINNEAPOLIS,MN,55432,
620,9TH ST SW,STAPLES,MN,56479,
8197,Irving Avenue North,Brooklyn Park,MN,55444,
2840,Bryant Avenue South,Minneapolis,MN,55408,
718,15TH              ST   SE,SAINT CLOUD,MN,56304,
20507,Granada Avenue North,Forest Lake,MN,55025,
15210,Shadow Creek Road North,Maple Grove,MN,55311,
500,HAMILTON AVE,MONTEVIDEO,MN,56265,
6187,Pecan Street,North Branch,MN,55056,
11409,Wisconsin Avenue North,Champlin,MN,55316,
3937,Pillsbury Avenue,Minneapolis,MN,55409,
2335,Hillview Road,Saint Paul,MN,55112,
1536,INDEPENDENCE DRIVE,NORTHFIELD,MN,55057,
5259,Candy Cove Trail Southeast,Scott,MN,55372,
4656,JACKSON ST NE,MINNEAPOLIS,MN,55421,
1538,WATERLOO AVENUE,SOUTH ST PAUL,MN,55075,
1824,E 4th St,Duluth,MN,55812,
19231,Farington Ln NE,Hines,MN,56647,
6540,EAST RIVER RD NE,MINNEAPOLIS,MN,55432,
2903,29TH ST S,MOORHEAD,MN,56560,
724,21st St NW,Bemidji,MN,56601,
8753,Maplebrook Parkway North,Brooklyn Park,MN,55445,
223,Bluffs Ridge Ct,Duluth,MN,55811,
3716,Crescent View Ave,Duluth,MN,55804,
23162,BUTTERFIELD DR NW,SAINT FRANCIS,MN,55070,
3505,WILLIAMS DRIVE,BURNSVILLE,MN,55337,
5155,Bona Road,Saint Paul,MN,55112,
3165,Wolf Lake Rd,Morse Twp,MN,55731,
107,EVERGREEN DR   E,CANNON FALLS,MN,55009,
1103,23rd St E,Hibbing,MN,55746,
2635,Cottage Grove Place,Woodbury,MN,55129,
6333,Halifax Drive,Brooklyn Center,MN,55429,
3226,Rhode Island Avenue South,Saint Louis Park,MN,55426,
9975,BUTTERNUT ST NW,MINNEAPOLIS,MN,55448,
44287,DR,LAPORTE,MN,56461,
512,Augusta Ave SE,Willmar,MN,56201,
18800,ULYSSES ST NE,CEDAR,MN,55011,
624,WOODDALE CT NW,ROCHESTER,MN,55901,
5136,KINGSBURY PL NW,ROCHESTER,MN,55901,
6345,360th Street,North Branch,MN,55056,
11596,Scotch Pine Court,Eden Prairie,MN,55344,
16835,20th Street South,Lake Saint Croix Beach,MN,55043,
4254,Upton Avenue North,Minneapolis,MN,55412,
2021,11TH ST S,MOORHEAD,MN,56560,
5213,51 ST NW,ROCHESTER,MN,55901,
2517,118TH AVE NW,MINNEAPOLIS,MN,55433,
63,Address Unassigned,Excelsior,MN,55331,
14789,DR,NEVIS,MN,56467,
2800,SELKIRK DRIVE,BURNSVILLE,MN,55337,
1150,MCKINLEY ST,ANOKA,MN,55303,
6900,Tartan Curve,Eden Prairie,MN,55346,
20465,18,Crow Wing,MN,56401,
21253,ST,PARK RAPIDS,MN,56470,
7349,Blue Heron Ln,Crow Wing,MN,56468,
872,70TH ST SW,Danvers,MN,56231,
48215,Acacia Trail,Stanchfield,MN,55080,
1914,20TH AVE S,MOORHEAD,MN,56560,
10306,230th Street West,Scott,MN,56011,
1143,Norton Street,Saint Paul,MN,55117,
9537,176TH COURT,LAKEVILLE,MN,55044,
203,SE 1ST ST,PELICAN RAPIDS,MN,56572,
655,OAKWOOD LANE NE,Steele Urban,MN,55060,
445,Lakota,Carver,MN,55318,
617,COLLEGE ST S,NORTHFIELD,MN,55057,
108,6th St,Cloquet,MN,55720,
4528,17th Avenue South,Minneapolis,MN,55407,
409,147TH LN NE,ANDOVER,MN,55304,
4812,Rolling Green Parkway,Edina,MN,55436,
3302,7TH AVE N,MOORHEAD,MN,56560,
2680,410TH ST,Yellow Medicine,MN,56223,
3122,Reuben Johnson Rd,Kettle River,MN,55757,
1200,Kenwood Ave,Duluth,MN,55811,
3430,County Road 101,Minnetonka,MN,55345,
215,150TH LN NW,ANDOVER,MN,55304,
16410,Crooked,Crow Wing,MN,56401,
777,Mound Avenue,Saint Paul,MN,55126,
1724,University Avenue Northeast,Minneapolis,MN,55413,
1455,Almond Avenue,Saint Paul,MN,55108,
1127,161ST LN NW,ANDOVER,MN,55304,
3593,Searle Court,Saint Paul,MN,55127,
1540,ROBERT STREET  SOUTH,WEST ST PAUL,MN,55118,
5709,GLASGOW           BAY,BIG LAKE,MN,55309,
8730,19th Avenue South,Bloomington,MN,55425,
580,IRONTON ST NE,MINNEAPOLIS,MN,55432,
705,FIG ST NW,LONSDALE,MN,55046,
3360,HWY 75  N,Moorhead,MN,56560,
4325,Edinbrook Terrace North,Brooklyn Park,MN,55443,
18400,EUCLID STREET,FARMINGTON,MN,55024,
8849,Sequoia Court,Woodbury,MN,55125,
3734,17TH ST S,MOORHEAD,MN,56560,
1025,1 ST NW,ORONOCO,MN,55960,
13834,Savanna Drive,Rogers,MN,55374,
701,10 ST SW,PINE ISLAND,MN,55963,
8102,Highwood Drive,Bloomington,MN,55438,
4301,Yosemite Avenue South,Saint Louis Park,MN,55436,
5810,Teakwood Lane North,Plymouth,MN,55442,
51500,171ST AVE,PINE ISLAND,MN,55963,
1934,Omega Drive,Scott,MN,55379,
4683,KINGSBURY DRIVE,EAGAN,MN,55122,
12421,TYLER ST NE,MINNEAPOLIS,MN,55434,
3232,Fremont Avenue North,Minneapolis,MN,55412,
650,EAST GARFIELD ST,ANOKA,MN,55303,
1979,Banyan Street,Saint Paul,MN,55112,
6450,York Avenue South,Edina,MN,55435,
14614,Beverley Lane,Scott,MN,55378,
1148,39TH AVE S,MOORHEAD,MN,56560,
2256,Balsam Ln,Morse Twp,MN,55731,
6725,Lyndale Avenue South,Richfield,MN,55423,
11832,MONROE CIR NE,MINNEAPOLIS,MN,55434,
9831,Maple Grove Parkway North,Maple Grove,MN,55369,
8674,Carriage Hill Road,Scott,MN,55378,
30084,TRL,BEMIDJI,MN,56601,
2150,Belmont Avenue Northwest,Scott,MN,55379,
742,Case Avenue,Saint Paul,MN,55106,
4655,Lake Sarah Drive South,Independence,MN,55359,
735,37 ST SW,ROCHESTER,MN,55902,
723,Woodlawn Avenue,Saint Paul,MN,55116,
1204,PARKWOOD COURT,BURNSVILLE,MN,55337,
120,37 AVE NW,ROCHESTER,MN,55901,
210,Grant Street West,Minneapolis,MN,55403,
958,Manvel Street,Saint Paul,MN,55114,
9783,Hames Court South,Cottage Grove,MN,55016,
7333,WEST CIR NE,MINNEAPOLIS,MN,55432,
7540,Edinborough Way,Edina,MN,55435,
12861,ABERDEEN ST NE,MINNEAPOLIS,MN,55449,
1713,Reaney Avenue,Saint Paul,MN,55106,
3854,Vincent Avenue North,Minneapolis,MN,55412,
5218,Green Farms Road,Edina,MN,55436,
56,Address Unassigned,Dayton,MN,55327,
16575,IRWIN COURT,LAKEVILLE,MN,55044,
209,8th Street East,Saint Paul,MN,55101,
4225,Osgood Avenue North,Baytown Twp,MN,55082,
5104,61 ST NW,ROCHESTER,MN,55901,
31260,361 LN,LE SUEUR,MN,56058,
9020,Hudson Road,Woodbury,MN,55125,
4336,230TH AVE NW,SAINT FRANCIS,MN,55070,
24571,West Cedar Lake Drive,Scott,MN,56071,
44,Robie Street West,Saint Paul,MN,55107,
5360,HIGHLAND          TRL,BIG LAKE,MN,55309,
