NUMBER,STREET,CITY,STATE,POSTCODE,UNIT
2404.0,MONTEZUMA DR,FLORISSANT,MO,63031,
229.0,Shinstock Ln,OFallon,MO,63366,
2612.0,SE 3RD ST,BLUE SPRINGS,MO,64014,
200.0,W WORLEY ST,COLUMBIA,MO,65203,
14192.0,SE COUNTY ROAD 4566,APPLETON CITY,MO,64724,
1757.0,NE BLUE HERON CT,LEE'S SUMMIT,MO,64086,
934.0,HEMINGWAY LN,WELDON SPRING,MO,63304,
1420.0,DE PORRES LN, ,MO,63304,
191.0,CONCORD PLAZA SHOPPING CTR,SAINT LOUIS,MO,63128,
4904.0,BURBANK LOOP,COLUMBIA,MO,65202,
18401.0,E SALISBURY RD,INDEPENDENCE,MO,64056,
2602.0,Red Cedar Parc Dr,OFallon,MO,63368,
113.0,SW MCCLENDON DR,LEE'S SUMMIT,MO,64081,
389.0,COUNTRY CLUB DR,Cape Girardeau,MO,63701,
717.0,E SHELLEY ST,WILLARD,MO,65781,
1931.0,E STONERIDGE DR,SPRINGFIELD,MO,65803,
4430.0,MONTGALL AVE,KANSAS CITY,MO,64130,
203.0,HILLSIDE AVE,WILDWOOD,MO,63038,
200.0,AQUA RD,KIRBYVILLE,MO,65679,
14.0,SPRING TIME CT, ,MO,63303,
5300.0,E HAYES RD,COLUMBIA,MO,65201,
1279.0,ENDERBURY DR,SAINT LOUIS,MO,63125,
126.0,BORGSCHULTE RD, ,MO,63373,
13132.0,HUNTERCREEK RIDGE RD,SAINT LOUIS,MO,63131,
1316.0,E BATTLEFIELD RD,SPRINGFIELD,MO,65804,
4915.0,ROYAL LYTHAM DR,COLUMBIA,MO,65203,
,NO ADDRESS ASSIGNED BY CITY,KANSAS CITY,MO,64132,
164.0,GRAHAM RD,FLORISSANT,MO,63031,
7221.0,NORMANDY PL,SAINT LOUIS,MO,63121,
8600.0,SILVER LN,Jefferson,MO,63016,
2406.0,CALDER CT,COLUMBIA,MO,65201,
1427.0,TICONDEROGA DR,ST PETERS,MO,63376,
600.0,BREEZE PARK DR,WELDON SPRING,MO,63304,16.0
10213.0,DUKE DR,SAINT LOUIS,MO,63136,
1207.0,PARMER DR,FLORISSANT,MO,63031,
304.0,E 132ND ST,KANSAS CITY,MO,64145,
549.0,BRIARWYCK DR,BALLWIN,MO,63011,
1800.0,GEORGE CT,COLUMBIA,MO,65202,
2179.0,CATLIN CT,Jefferson,MO,63012,
700.0,W STONE ST,INDEPENDENCE,MO,64050,
9513.0,SAMANA DR,SAINT LOUIS,MO,63136,
13316.0,FAIRFIELD CIRCLE DR,CHESTERFIELD,MO,63017,
4320.0,S TYER RD,UNINCORPORATED,MO,64029,
404.0,NE GOLFVIEW DR,BLUE SPRINGS,MO,64014,
1600.0,CASTLE PARK DR,SAINT LOUIS,MO,63133,
304.0,BREWER DR,COLUMBIA,MO,65203,
5201.0,HUNNING RD,Jefferson,MO,63049,
725.0,LOST CANYON BLVD,WENTZVILLE,MO,63385,
4687.0,Highway K,OFallon,MO,63368,
2944.0,CHARLES ST,ST JOSEPH,MO,64501,
3929.0,MITCHFORD DR,SAINT LOUIS,MO,63125,
,NW COUNTY ROAD 14001,DREXEL,MO,64742,
1220.0,RIVER CHASE DR,Jefferson,MO,63010,
824.0,WILD HAWK DR,EUREKA,MO,63025,
1273.0,WALDORF DR,SAINT LOUIS,MO,63137,
16117.0,E 40TH ST S,INDEPENDENCE,MO,64055,
3260.0,UPPER BOTTOM RD, ,MO,63303,
2424.0,TERRIE HILL RD,Cape Girardeau,MO,63701,
405.0,HOLLOWGATE CT,OFALLON,MO,63367,
965.0,PREAKNESS LN,FLORISSANT,MO,63033,
116.0,E WHITE OAK ST,INDEPENDENCE,MO,64050,
2501.0,SPRUCE AVE,KANSAS CITY,MO,64127,
1491.0,HERITAGE VALLEY DR,HIGH RIDGE,MO,63049,
10303.0,E 10TH ST S,INDEPENDENCE,MO,64053,
5867.0,S ANTHONY CT,SPRINGFIELD,MO,65804,
2125.0,E MEADOW DR,SPRINGFIELD,MO,65804,
417.0,HEDRICK AVE,BUCKNER,MO,64016,
11244.0,MARLEY DR,SAINT LOUIS,MO,63123,
3800.0,TROOST AVE,KANSAS CITY,MO,64109,
3601.0,AMRON CT,COLUMBIA,MO,65202,
131.0,STILLWOOD DR,BRANSON,MO,65616,
10712.0,OAK POINTE DR,SAINT ANN,MO,63074,
2100.0,SANTA CATALINA DR,ST CHARLES,MO,63303,
1106.0,LA RAIL DR,COLUMBIA,MO,65203,
331.0,Shady Rock Ln,OFallon,MO,63368,
1006.0,N HUTCHINSON AVE,SPRINGFIELD,MO,65803,
4213.0,GARDENVIEW DR,SAINT ANN,MO,63074,
4836.0,PASEO BLVD,KANSAS CITY,MO,64110,
1107.0,RIDENBAUGH ST,ST JOSEPH,MO,64501,
1323.0,MALLET HL,BALLWIN,MO,63021,
1418.0,LOCUST ST,ST JOSEPH,MO,64501,
4612.0,NE KINGSTON DR,LEE'S SUMMIT,MO,64064,
811.0,CLARK AVE,SAINT LOUIS,MO,63119,
406.0,NE CORSICANA ST,LEE'S SUMMIT,MO,64086,
1616.0,ANTHONY ST,COLUMBIA,MO,65201,
10805.0,CORAL RIDGE DR,SAINT LOUIS,MO,63123,
1642.0,E CHERRY ST,SPRINGFIELD,MO,65802,
4590.0,TELEGRAPH RD,SAINT LOUIS,MO,63129,
29006.0,E RYAN RD,UNINCORPORATED,MO,64014,
320.0,WINDING WAY CT,WENTZVILLE,MO,63385,
10075.0,TOELLE LN,SAINT LOUIS,MO,63137,
8910.0,E ROBERTS ST,INDEPENDENCE,MO,64053,
1820.0,OLD BOYD ST,Jefferson,MO,63020,
3027.0,BLUFFWOOD DR, ,MO,63301,
4401.0,COLONIAL AVE,SAINT LOUIS,MO,63121,
6746.0,HORNBROOK CT,SAINT LOUIS,MO,63129,
707.0,E GREGORY BLVD,KANSAS CITY,MO,64131,
42.0,RAMBLING OAK DR,OFALLON,MO,63368,
149.0,S ARLINGTON AVE,INDEPENDENCE,MO,64053,
8106.0,LURCH AVE,SAINT LOUIS,MO,63140,
1550.0,SUMMER RUN DR,FLORISSANT,MO,63033,
12367.0,CREEK RUN DR,SAINT LOUIS,MO,63141,
716.0,DARTMOUTH BEND CT,BALLWIN,MO,63011,
1950.0,PYRENEES DR,FLORISSANT,MO,63033,
3526.0,ST FRANCIS DR,Jefferson,MO,63010,
3521.0,BARLOW ST,COTTLEVILLE,MO,63376,
2558.0,W WESTVIEW ST,SPRINGFIELD,MO,65807,
9830.0,LINDEN CIR,KANSAS CITY,MO,64131,
509.0,S HANLEY RD,SAINT LOUIS,MO,63105,
805.0,N FLORISSANT RD,SAINT LOUIS,MO,63135,
287.0,NE ADAMS DAIRY PKWY,BLUE SPRINGS,MO,64014,
4746.0,WILBERT RD,Jefferson,MO,63049,
1.0,RIDER TRAIL PLAZA DR,EARTH CITY,MO,63045,
5226.0,SE COUNTY ROAD 1286,BUTLER,MO,64730,
1750.0,W CROCKETT DR,COLUMBIA,MO,65203,
4350.0,S FARM ROAD 205 RD,ROGERSVILLE,MO,65742,
3191.0,W SEXTON ST,SPRINGFIELD,MO,65810,
4085.0,SW ROYALE CT,LEE'S SUMMIT,MO,64082,
712.0,RICHARD AVE,Jefferson,MO,63028,
426.0,DOVEDALE DR,OFALLON,MO,63366,
17077.0,SANDALWOOD CREEK DR,WILDWOOD,MO,63038,
805.0,MOUNT VERNON AVE,COLUMBIA,MO,65201,
522.0,SE 4TH STREET TER,LEE'S SUMMIT,MO,64063,
1316.0,TURTLE CV,BALLWIN,MO,63011,
14852.0,GREENLEAF VALLEY DR,CHESTERFIELD,MO,63017,
14720.0,CHESTERFIELD TRAILS DR,CHESTERFIELD,MO,63017,
4625.0,S NATIONAL AVE,SPRINGFIELD,MO,65810,
5211.0,WILBORN DR,SAINT LOUIS,MO,63136,
2710.0,ROLLINS RD,COLUMBIA,MO,65203,
18035.0,E READING PL,INDEPENDENCE,MO,64057,
2.0,META LN,NEW MELLE,MO,63385,
1412.0,LEXINGTON AVE,Cape Girardeau,MO,63701,
10426.0,MANCHESTER AVE,KANSAS CITY,MO,64134,
1505.0,N M 7 HWY,INDEPENDENCE,MO,64056,
64.0,BLUE SAGE CT,DARDENNE PRAIRIE,MO,63368,
2830.0,MERRELL DR,SAINT LOUIS,MO,63125,
6203.0,E 148TH TER,GRANDVIEW,MO,64030,
9206.0,E TRUMAN RD,INDEPENDENCE,MO,64053,
504.0,AUBURN TRACE LN,OFALLON,MO,63376,
3417.0,S DENTON RD,INDEPENDENCE,MO,64052,
204.0,PARTINICO PL,ST PETERS,MO,63376,
4034.0,OLD SALT RIVER RD, ,MO,63385,
6106.0,E 8TH ST,KANSAS CITY,MO,64125,
5209.0,E   POINTE DR,LAKE SAINT LOUIS,MO,63367,
6.0,LE TOUR DR,BALLWIN,MO,63021,
4222.0,SPRINGDALE AVE,SAINT LOUIS,MO,63134,
1240.0,S FRANKLIN DR,INDEPENDENCE,MO,64052,
254.0,CHAMBERS RD,SAINT LOUIS,MO,63137,
24.0,COPPER STONE CT,WENTZVILLE,MO,63385,
520.0,HENTSCHEL PL,SAINT LOUIS,MO,63135,
550.0,MONCEAU DR,SAINT LOUIS,MO,63135,
3.0,SPUR DR,Jefferson,MO,63026,
242.0,MASSOTT RD,Jefferson,MO,63028,
5542.0,W JOSH ST,SPRINGFIELD,MO,65802,
7544.0,MARILLAC DR,SAINT LOUIS,MO,63121,
37305.0,E TRUMAN RD,UNINCORPORATED,MO,64075,
7435.0,HARDSCRAPPLE DR,SAINT LOUIS,MO,63123,
9914.0,TRACY AVE,KANSAS CITY,MO,64131,
129.0,Park Ridge Dr,OFallon,MO,63366,
1104.0,MARIEDALE CT,SAINT LOUIS,MO,63122,
4101.0,N BELT HWY,ST JOSEPH,MO,64506,
14977.0,NW COUNTY ROAD 2001,ADRIAN,MO,64720,
503.0,SE 3RD ST,LEE'S SUMMIT,MO,64063,
1782.0,SANTA DELORA WALK,SAINT LOUIS,MO,63138,
5804.0,N TERESA DR,COLUMBIA,MO,65202,
36909.0,E CUMMINGS RD,UNINCORPORATED,MO,64075,
1716.0,ELM ST,ST CHARLES,MO,63301,
486.0,PEVELY HEIGHTS DR,Jefferson,MO,63070,
104.0,SE WINDSOR CT,BLUE SPRINGS,MO,64014,
2007.0,ARROWPOINT DR,SAINT LOUIS,MO,63138,
754.0,WOODSIDE TRAILS DR,BALLWIN,MO,63021,
107.0,N WILLIAM ST,COLUMBIA,MO,65201,
7422.0,BRIGHTWOOD DR,SAINT LOUIS,MO,63123,
4619.0,Highway K,OFallon,MO,63368,
15038.0,CLAYMOOR CT,CHESTERFIELD,MO,63017,
,NO ADDRESS ASSIGNED BY CITY,KANSAS CITY,MO,64137,
2676.0,KETTERING CT,ST CHARLES,MO,63303,
3218.0,SOUTHWOOD TER,Cole,MO,65101,
1880.0,CLARKSON RD,CHESTERFIELD,MO,63017,
3194.0,N FARM ROAD 125 RD,SPRINGFIELD,MO,65803,
701.0,S THIRD ST,BRANSON,MO,65616,
938.0,ZEISS AVE,SAINT LOUIS,MO,63125,
5323.0,OFallon Lakes Dr,OFallon,MO,63366,
2013.0,BELLTOWER DR,ST PETERS,MO,63376,
628.0,NE ENGLISH MANOR DR,LEE'S SUMMIT,MO,64086,
16.0,WILLOW CT,BRANSON,MO,65616,
2135.0,CRESCENT AVE,SAINT LOUIS,MO,63121,
12117.0,CHARLOTTE ST,KANSAS CITY,MO,64146,
9010.0,Harvest Run Dr,OFallon,MO,63368,
225.0,S MERAMEC AVE,SAINT LOUIS,MO,63105,
1030.0,COMMODORE DR,SAINT LOUIS,MO,63117,
2851.0,S NATURAL BRIDGE DR,SPRINGFIELD,MO,65809,
717.0,W TRACY ST,SPRINGFIELD,MO,65807,
900.0,OAK TRAIL CT,FENTON,MO,63026,
869.0,S WACO AVE,SPRINGFIELD,MO,65802,
2421.0,FRANCIS ST,ST JOSEPH,MO,64501,
915.0,YALE,COLUMBIA,MO,65203,
1515.0,ROY DR,Jefferson,MO,63010,
3216.0,ROGER WILLIAMS DR,BRIDGETON,MO,63044,
148.0,HARVEST GRV,Jefferson,MO,63052,
209.0,CRYSTAL RIDGE DR,OFALLON,MO,63366,
151.0,SW ROCK GARDEN LN,BLUE SPRINGS,MO,64064,
11221.0,HICKMAN MILLS DR,KANSAS CITY,MO,64134,
4.0,WESTWOOD COUNTRY CLB,SAINT LOUIS,MO,63131,
4446.0,SCARRITT AVE,KANSAS CITY,MO,64123,
934.0,JEANERETTE DR,SAINT LOUIS,MO,63130,
31.0,WOODGATE VLG, ,MO,63304,
4282.0,SW AVERIO LN,LEE'S SUMMIT,MO,64082,
1609.0,N HOCKER ST,INDEPENDENCE,MO,64050,
936.0,HANNA VALLEY ESTATES DR,BALLWIN,MO,63021,
215.0,E BROADMOOR ST,SPRINGFIELD,MO,65807,
2800.0,SW GRAY CT,LEE'S SUMMIT,MO,64081,
3912.0,E WINDSMORE DR,SPRINGFIELD,MO,65802,
,NO ADDRESS ASSIGNED BY CITY,RAYTOWN,MO,64133,
1008.0,DONNER PASS,ST PETERS,MO,63376,
1701.0,OAK CLIFF PL,COLUMBIA,MO,65203,
2228.0,NE TOWN CENTER BLVD,LEE'S SUMMIT,MO,64064,
2978.0,PINE HILL SPUR,Cape Girardeau,MO,63701,
11315.0,GRANDVIEW RD,KANSAS CITY,MO,64137,
1121.0,LAKESHORE DR,UNINCORPORATED,MO,64075,
5.0,MEGANS CT,OFALLON,MO,63366,
302.0,W 28TH ST N,INDEPENDENCE,MO,64050,
11511.0,MANCHESTER AVE,KANSAS CITY,MO,64134,
7457.0,CHANDLER AVE,SAINT LOUIS,MO,63136,
9470.0,N EVERT SCHOOL RD,HARRISBURG,MO,65256,
1436.0,ROSE ST,Cape Girardeau,MO,63701,
1209.0,FLAGSTONE TER,LAKE SAINT LOUIS,MO,63367,
4407.0,CHERYL CT,COLUMBIA,MO,65203,
2608.0,WOODBERRY CT,COLUMBIA,MO,65203,
1319.0,S LONE PINE AVE,SPRINGFIELD,MO,65804,
2240.0,BENNETT SPRINGS DR,COLUMBIA,MO,65201,
1536.0,HIGHWAY 109 ST,WILDWOOD,MO,63038,
2118.0,WYANDOTTE ST,KANSAS CITY,MO,64108,
4517.0,HANOVER CT,KANSAS CITY,MO,64110,
4869.0,S STATE HIGHWAY 125 HWY,ROGERSVILLE,MO,65742,
,Montrachet Dr,OFallon,MO,63368,
12114.0,BOURBON ST,MARYLAND HEIGHTS,MO,63043,
64.0,BERKSHIRE DR,SAINT LOUIS,MO,63117,
3236.0,DONNELLY AVE,KANSAS CITY,MO,64129,
2818.0,SYLVANIE ST,ST JOSEPH,MO,64501,
415.0,N PONCA DR,INDEPENDENCE,MO,64056,
1420.0,S OAKMONT AVE,SPRINGFIELD,MO,65809,
2207.0,NE CHIPMAN RD,LEE'S SUMMIT,MO,64086,
11600.0,DELMAR DR,KANSAS CITY,MO,64134,
1010.0,W SUNSHINE ST,SPRINGFIELD,MO,65807,
303.0,E 67TH ST,KANSAS CITY,MO,64113,
10308.0,PINEVIEW CT,SAINT LOUIS,MO,63114,
2514.0,INDIANA AVE,KANSAS CITY,MO,64127,
8962.0,NATURAL BRIDGE RD,SAINT LOUIS,MO,63121,
5512.0,ELK VALLEY ESTATES DR,SAINT LOUIS,MO,63128,
207.0,VIRGINIA ST,ST JOSEPH,MO,64504,
6204.0,PEERY AVE,KANSAS CITY,MO,64126,
16.0,WYDOWN TER,SAINT LOUIS,MO,63105,
1270.0,POSEIDON CT,ST PETERS,MO,63376,
8209.0,HARVARD AVE,RAYTOWN,MO,64138,
217.0,BITTERSWEET CT,COLUMBIA,MO,65203,
5301.0,TALL TREE CT,COLUMBIA,MO,65202,
5207.0,HIGHWAY 89  S,BELLE,MO,65013,
1009.0,N COTTAGE ST,INDEPENDENCE,MO,64050,
5342.0,WILLARD AVE,SAINT LOUIS,MO,63123,
23.0,MORNING VIEW CT, ,MO,63304,
9928.0,VICKSBURG SIEGE CT,SAINT LOUIS,MO,63123,
2042.0,HASTINGS RD,JEFFERSON CITY,MO,65109,
4750.0,BUCKEYE SCHOOL RD,Jefferson,MO,63028,
2348.0,NE STATE ROUTE E,ARCHIE,MO,64725,
,CA RESIDENTIAL,INDEPENDENCE,MO,64055,
374.0,WESTWIND ESTATES LN,VALLEY PARK,MO,63088,
4.0,HYANNIS CT,ST CHARLES,MO,63301,
611.0,S WEST END BLVD,Cape Girardeau,MO,63703,
289.0,VILLAGE MEAD DR,BALLWIN,MO,63021,
1021.0,QUEEN ANN DR,COLUMBIA,MO,65201,
4313.0,NELSON DR,SAINT LOUIS,MO,63121,
409.0,E DOWNING ST,SPRINGFIELD,MO,65807,
7325.0,Cinnamon Teal Dr,OFallon,MO,63368,
244.0,MILL RUN LN,ST PETERS,MO,63376,
508.0,STONE ST,Jefferson,MO,63020,
308.0,ANDY HABSIEGER ST,Jefferson,MO,63028,
1413.0,SW 3RD ST,LEE'S SUMMIT,MO,64081,
908.0,TWIN PINE DR,SAINT LOUIS,MO,63131,
7420.0,GAYOLA PL,SAINT LOUIS,MO,63143,
1966.0,DELWIN ST,Cape Girardeau,MO,63701,
1642.0,E ADAMS ST,SPRINGFIELD,MO,65803,
315.0,N MERAMEC AVE,SAINT LOUIS,MO,63105,
,Wyndcrest Ct,Lake Saint Louis,MO,63367,
4226.0,E 62ND ST,KANSAS CITY,MO,64130,
6812.0,MURRAY ST,SAINT LOUIS,MO,63121,
7411.0,RICHMOND PL,SAINT LOUIS,MO,63143,
45.0,S OLD ORCHARD AVE,SAINT LOUIS,MO,63119,
1407.0,ROSEMARY LN,COLUMBIA,MO,65201,
4601.0,RAINBOW DR,Cole,MO,65109,
121.0,PINTO CIR, ,MO,63368,
9725.0,VISTA DR,Jefferson,MO,63050,
18605.0,E 14TH TER N,UNINCORPORATED,MO,64058,
1751.0,SMIZER STATION RD,FENTON,MO,63026,
4918.0,STONECREST TER,ST JOSEPH,MO,64506,
7471.0,HABLE RD,Jefferson,MO,63012,
19305.0,S OLD HWY 63,HARTSBURG,MO,65039,
8306.0,WEAVER LN,Cole,MO,65101,
24208.0,E BLUE MILLS RD,UNINCORPORATED,MO,64058,
1126.0,BIG BEND RD,Cape Girardeau,MO,63701,
1415.0,ELBRIDGE PAYNE RD,CHESTERFIELD,MO,63017,
451.0,PARKGATE DR,OFALLON,MO,63367,
43.0,DORCLIN LN,SAINT LOUIS,MO,63128,
4915.0,CHESTNUT AVE,KANSAS CITY,MO,64130,
11016.0,OLD HALLS FERRY RD,SAINT LOUIS,MO,63136,
11261.0,GRABEN DR,SAINT ANN,MO,63074,
,NO ADDRESS ASSIGNED BY CITY,LEE'S SUMMIT,MO,64063,
1733.0,IVY CHASE CT,FENTON,MO,63026,
50.0,MAY VALLEY LN,FENTON,MO,63026,
1415.0,WILKES BLVD,COLUMBIA,MO,65201,
144.0,CRESTMONT CIR,WILDWOOD,MO,63040,
,NO ADDRESS ASSIGNED BY COUNTY,UNINCORPORATED,MO,64075,
9170.0,HAROLD DR,SAINT LOUIS,MO,63134,
1408.0,NW SANDALWOOD CT,BLUE SPRINGS,MO,64015,
1017.0,HOMESTEAD RD,MERRIAM WOODS,MO,65740,
10592.0,EMERALD RIDGE AVE,SAINT LOUIS,MO,63114,
2017.0,GROTHE RD,FLINT HILL,MO,63385,
1915.0,STEDMAN CT,SAINT LOUIS,MO,63114,
5017.0,GRANDVIEW DR,Jefferson,MO,63052,
,SE STATE RT 116,DEARBORN,MO,64439,
310.0,VIRGINIA ST,ST JOSEPH,MO,64504,
1508.0,HINKSON AVE,COLUMBIA,MO,65201,
1273.0,BAL HARBOR DR,Jefferson,MO,63010,
124.0,S PRICE RD,SAINT LOUIS,MO,63124,
4137.0,N RIDER TRL,EARTH CITY,MO,63045,
3207.0,BROADWAY BLVD,KANSAS CITY,MO,64111,
1238.0,TAHITI DR,SAINT LOUIS,MO,63126,
713.0,EMERALD OAKS CT,EUREKA,MO,63025,
3820.0,E LINWOOD DR,SPRINGFIELD,MO,65809,
4609.0,S EASTLAND CENTER DR,INDEPENDENCE,MO,64055,
6151.0,ETZEL AVE,SAINT LOUIS,MO,63133,
1331.0,RIDGELAND CIR,ST PETERS,MO,63304,
562.0,PIPING DR,SAINT LOUIS,MO,63138,
1529.0,COACHWAY LN,HAZELWOOD,MO,63042,
820.0,SE HOCKER CT,LEE'S SUMMIT,MO,64081,
301.0,W ARMOUR BLVD,KANSAS CITY,MO,64111,
420.0,S KIRKWOOD RD,SAINT LOUIS,MO,63122,
44.0,DOGWOOD LN,ST PETERS,MO,63376,
7410.0,BRUNSWICK AVE,SAINT LOUIS,MO,63119,
9739.0,PAULINE PL,SAINT LOUIS,MO,63123,
538.0,DOVER DR,INDEPENDENCE,MO,64056,
6717.0,PERRY AVE,SAINT LOUIS,MO,63121,
4816.0,HERITAGE HEIGHTS CIR,HAZELWOOD,MO,63042,
2409.0,SADDLERIDGE LN,Cape Girardeau,MO,63701,
8606.0,SHOSS AVE,SAINT LOUIS,MO,63125,
13317.0,OVERHILL AVE,GRANDVIEW,MO,64030,
1147.0,Sunny Ridge Dr,OFallon,MO,63366,
106.0,HOLDINGHAUSEN DR,Jefferson,MO,63019,
2434.0,WISMER AVE,SAINT LOUIS,MO,63114,
410.0,N ASH AVE,INDEPENDENCE,MO,64053,
6514.0,WEST FLORISSANT AVE,SAINT LOUIS,MO,63136,
7510.0,E 50TH TER,KANSAS CITY,MO,64129,
1932.0,MONTGALL AVE,KANSAS CITY,MO,64127,
2026.0,CLOCK TOWER SQ,ST CHARLES,MO,63303,
2540.0,BROADWAY BLUFFS DR,COLUMBIA,MO,65201,
2805.0,PARKER RD,FLORISSANT,MO,63033,
104.0,COUNTY ROAD 600A,LOOSE CREEK,MO,65054,
1323.0,BRENDA KAY CT,Cape Girardeau,MO,63703,
520.0,S JEFFERSON ST,FLORISSANT,MO,63031,
2110.0,Brassel Ct,OFallon,MO,63368,
5593.0,BARONRIDGE DR,SAINT LOUIS,MO,63129,
411.0,NICHOLS RD,KANSAS CITY,MO,64112,
12778.0,OLIVE BLVD,SAINT LOUIS,MO,63141,
601.0,S FIFTH ST,COLUMBIA,MO,65201,
7304.0,MELBOURNE AVE,SAINT LOUIS,MO,63119,
2348.0,TOPPING AVE,KANSAS CITY,MO,64127,
10521.0,LITZ AVE,SAINT ANN,MO,63074,
6501.0,E CLAYSVILLE RD,HARTSBURG,MO,65039,
3315.0,BERRYWOOD DR,COLUMBIA,MO,65201,
8205.0,MASTIS MEADOWS CT,SAINT LOUIS,MO,63123,
3908.0,AMARYLLIS CT,COLUMBIA,MO,65203,
3400.0,DERBY RIDGE DR,COLUMBIA,MO,65202,
1827.0,E 16TH ST,KANSAS CITY,MO,64127,
10500.0,E 5063,Cole,MO,65101,
300.0,HUNTLEIGH PKWY,WENTZVILLE,MO,63348,
10109.0,STATE RD BB,Jefferson,MO,63050,
1211.0,SE CENTURY DR,LEE'S SUMMIT,MO,64081,
1424.0,E MAPLE ST,RICH HILL,MO,64779,
15.0,N GREENWOOD AVE,COLUMBIA,MO,65203,
4001.0,IVANHOE BLVD,COLUMBIA,MO,65203,
2209.0,SW KEYSTONE DR,BLUE SPRINGS,MO,64014,
4801.0,CENTER BROOK CT,COLUMBIA,MO,65203,
3768.0,STEPHANIE CT,Jefferson,MO,63010,
5542.0,SOUTHFIELD DR,SAINT LOUIS,MO,63129,
11813.0,FREMONT AVE,KANSAS CITY,MO,64134,
5407.0,KERTH RD,SAINT LOUIS,MO,63128,
1318.0,SE 6TH ST,LEE'S SUMMIT,MO,64063,
612.0,WOODLAND AVE,KANSAS CITY,MO,64124,
4647.0,REDFIELD CT,SAINT LOUIS,MO,63121,
3920.0,TOLARIAN DR,COLUMBIA,MO,65203,
,NO ADDRESS ASSIGNED BY CITY,KANSAS CITY,MO,64138,
1123.0,CORBY ST,ST JOSEPH,MO,64501,
109.0,BOONVILLE RD,JEFFERSON CITY,MO,65109,
99.0,NUMBER TEN GREEN DR,ST CHARLES,MO,63303,
1631.0,SW MANOR LAKE DR,LEE'S SUMMIT,MO,64082,
4139.0,MEXICO RD,ST PETERS,MO,63376,
9014.0,FERNALD DR,SAINT LOUIS,MO,63123,
2748.0,SHEPHERD OF THE HILLS EXPWY,BRANSON,MO,65616,
1963.0,GREENPOINT DR,SAINT LOUIS,MO,63122,
9538.0,HOLTWOOD RD,SAINT LOUIS,MO,63114,
2604.0,E CRESTVIEW ST,SPRINGFIELD,MO,65804,
308.0,S NINTH ST,COLUMBIA,MO,65201,
722.0,TINSLEY CT,COTTLEVILLE,MO,63304,
7.0,AUTUMN GROVE CT,OFALLON,MO,63366,
283.0,STILLBROOK ESTATES DR,Jefferson,MO,63026,
7045.0,BELLEFONTAINE AVE,KANSAS CITY,MO,64132,
14778.0,SCHOETTLER GROVE CT,CHESTERFIELD,MO,63017,
13048.0,NARBONNE DR,SAINT LOUIS,MO,63141,
48.0,WALNUT PLACE CT, ,MO,63304,
1864.0,E PIONEER LN,FAIR GROVE,MO,65648,
1.0,MCKNIGHT PL,SAINT LOUIS,MO,63124,
322.0,MYSTIC BROOK DR,OFALLON,MO,63366,
2949.0,E ROCKLYN RD,SPRINGFIELD,MO,65804,
2075.0,W WEDGWOOD DR,FLORISSANT,MO,63033,
3600.0,WELLAND AVE,BRIDGETON,MO,63044,
905.0,HANNA PLACE CT,BALLWIN,MO,63021,
700.0,S BUCKLIN DR,EASTON,MO,64443,
6830.0,OLD LEMAY FERRY RD,Jefferson,MO,63052,
10984.0,WHITEHALL MANOR DR,BRIDGETON,MO,63044,
47.0,FOREST LAKE CT,ST CHARLES,MO,63301,
2310.0,KINGSTOWNE WAY CT,BALLWIN,MO,63011,
3555.0,DEHART PL,SAINT ANN,MO,63074,
11632.0,MISTY MOSS CT,SAINT LOUIS,MO,63146,
432.0,ADRIAN DR,SAINT LOUIS,MO,63137,
7030.0,PERSHING AVE,SAINT LOUIS,MO,63130,
1829.0,CHARA ST,Jefferson,MO,63010,
3408.0,KENSINGTON AVE,KANSAS CITY,MO,64128,
1414.0,KEARNEY DR,DARDENNE PRAIRIE,MO,63368,
5433.0,STATE RD B,Jefferson,MO,63050,
4.0,MULLANPHY CT,FLORISSANT,MO,63031,
509.0,E COTTAGE PL,REPUBLIC,MO,65738,
218.0,E EMANUEL CLEAVER II BLVD,KANSAS CITY,MO,64112,
9701.0,SCOTTDALE DR,SAINT LOUIS,MO,63136,
522.0,BROOKLYN AVE,KANSAS CITY,MO,64124,
714.0,GUENEVERE DR,BALLWIN,MO,63011,
,CA RESIDENTIAL,LEE'S SUMMIT,MO,64064,
1925.0,SACRAMENTO ST,ST JOSEPH,MO,64507,
1824.0,MEADOW TRAILS DR,FLORISSANT,MO,63031,
2312.0,Marbury Way,OFallon,MO,63368,
,LAKE SHORE DR,LAKE LOTAWANA,MO,64086,
116.0,PERUQUE VALLEY DR,WENTZVILLE,MO,63385,
2083.0,BENTLEY PLZ,FENTON,MO,63026,
5442.0,MIRASOL MANOR WAY,Jefferson,MO,63025,
3122.0,W COLLEGE ST,SPRINGFIELD,MO,65802,
8601.0,E 114TH TER,KANSAS CITY,MO,64134,
2302.0,QUAINT COTTAGE DR,OFALLON,MO,63368,
9808.0,APPLETON AVE,KANSAS CITY,MO,64134,
2210.0,PALESTRA DR,SAINT LOUIS,MO,63146,
1019.0,W 27TH ST,KANSAS CITY,MO,64108,
1739.0,W 5TH ST,EUREKA,MO,63025,
2808.0,JACOBS PL,COLUMBIA,MO,65201,
5130.0,GARFIELD AVE,KANSAS CITY,MO,64130,
607.0,SW 34TH ST,LEE'S SUMMIT,MO,64082,
3.0,LAKEWAY CT, ,MO,63341,
14238.0,RAINY LAKE DR,CHESTERFIELD,MO,63017,
216.0,W OLD WATSON RD,SAINT LOUIS,MO,63119,
8637.0,NEW SAPPINGTON RD,SAINT LOUIS,MO,63126,
3118.0,MITCHELL AVE,ST JOSEPH,MO,64507,
194.0,ANTHONY WAY,FORSYTH,MO,65653,
3062.0,BECKER PINES DR,SAINT LOUIS,MO,63129,
908.0,PINEVIEW RIDGE CT,BALLWIN,MO,63021,
120.0,ST BENEDICT LN,FLORISSANT,MO,63033,
1765.0,STATE RD AA,Jefferson,MO,63028,
4617.0,S EASTLAND CENTER DR,INDEPENDENCE,MO,64055,
3733.0,ARPENT ST,ST CHARLES,MO,63301,
4700.0,N KIRSTEN LN,COLUMBIA,MO,65202,13.0
4461.0,FEE FEE RD,BRIDGETON,MO,63044,
10418.0,EAGLEWOOD AVE,SAINT LOUIS,MO,63114,
10404.0,HIGH ST,Cole,MO,65032,
7409.0,COMMONWEALTH AVE,SAINT LOUIS,MO,63143,
621.0,REAVIS BARRACKS RD,SAINT LOUIS,MO,63125,
2322.0,OSSENFORT RD,WILDWOOD,MO,63038,
1524.0,LAKESHORE DR,ST CHARLES,MO,63303,
1814.0,N FARVIEW DR,UNINCORPORATED,MO,64058,
2820.0,ADIE RD,SAINT ANN,MO,63074,
2342.0,SARTHE CT,MARYLAND HEIGHTS,MO,63043,
1195.0,MULLANPHY RD,FLORISSANT,MO,63031,
990.0,DINGLEDINE MANOR CT, ,MO,63304,
8142.0,FLORENCE AVE,SAINT LOUIS,MO,63144,
12800.0,E US 40 HWY,INDEPENDENCE,MO,64055,
1508.0,WHISPERING CREEK DR,BALLWIN,MO,63021,
5653.0,NORTON AVE,KANSAS CITY,MO,64130,
12211.0,WHEATLEIGH GROVE RD,SAINT LOUIS,MO,63131,
2609.0,E BROADWAY,COLUMBIA,MO,65201,
920.0,TAYLOR DR,JEFFERSON CITY,MO,65101,
135.0,CLARA AVE,SAINT LOUIS,MO,63119,
9645.0,VINCENNES DR,SAINT LOUIS,MO,63136,
1506.0,5TH AVE,ST JOSEPH,MO,64505,
3402.0,JAMESDALE RD,COLUMBIA,MO,65202,
409.0,NE FLORENCE AVE,LEE'S SUMMIT,MO,64063,
2730.0,BELOIT DR,MARYLAND HEIGHTS,MO,63043,
36.0,THF BLVD,CHESTERFIELD,MO,63005,
4201.0,CLARK LN,COLUMBIA,MO,65202,
413.0,Carol Renee Ct,OFallon,MO,63366,
3.0,HARNEYWOLD DR,SAINT LOUIS,MO,63136,
2991.0,PINE HILL SPUR,Cape Girardeau,MO,63701,
810.0,WILDWOOD DR,JEFFERSON CITY,MO,65109,
1121.0,N PARK AVE,SPRINGFIELD,MO,65802,
12369.0,SPANISH TRACE DR,MARYLAND HEIGHTS,MO,63043,
5579.0,S FARM ROAD 221 RD,ROGERSVILLE,MO,65742,
1807.0,W MAIN ST,BLUE SPRINGS,MO,64015,
1806.0,MAJESTIC OAKS DR,WENTZVILLE,MO,63385,
,W HALLS LEVEE,RUSHVILLE,MO,64484,
1291.0,Red Feather Ct,OFallon,MO,63366,
3302.0,TALENT DR,COLUMBIA,MO,65203,
111.0,W LEXINGTON AVE,INDEPENDENCE,MO,64050,
1503.0,W LEE ST,SPRINGFIELD,MO,65803,
14010.0,E 43RD ST S,INDEPENDENCE,MO,64055,
109.0,BEARS PAW WAY,HOLLISTER,MO,65672,
3747.0,ST KEVIN PARK DR,SAINT ANN,MO,63074,
1504.0,LONGWELL DR,COLUMBIA,MO,65203,
76.0,PARKGATE CT,OFALLON,MO,63367,
6400.0,WYDOWN BLVD,SAINT LOUIS,MO,63105,
2762.0,CUMBERLAND LNDG, ,MO,63303,
9208.0,E 50TH TER,KANSAS CITY,MO,64133,
7900.0,VIRGINIA AVE,KANSAS CITY,MO,64131,
2710.0,CANTABERRY DR,Cole,MO,65109,
555.0,BLUFF PARKS DR,FLORISSANT,MO,63031,
2716.0,EDGEWORTH AVE,MARYLAND HEIGHTS,MO,63043,
348.0,CHARLESTOWNE PLACE DR,ST CHARLES,MO,63301,
1013.0,NW WILLOW DR,GRAIN VALLEY,MO,64029,
1015.0,SOUTHPARK DR,COLUMBIA,MO,65201,
1107.0,LANDGRAF DR,Cape Girardeau,MO,63701,
6623.0,PASEO BLVD,KANSAS CITY,MO,64132,
429.0,S WEST END BLVD,Cape Girardeau,MO,63703,
13222.0,WINDBROOKE LN,SAINT LOUIS,MO,63146,
11801.0,E 45TH TER,KANSAS CITY,MO,64133,
406.0,BRIDLE PATH LN, ,MO,63366,
1005.0,W 67TH ST,KANSAS CITY,MO,64113,
805.0,MANRESA LN,FLORISSANT,MO,63031,
931.0,GLEN ARDEN CT,OFALLON,MO,63366,109.0
,SE 85 RD,ST JOSEPH,MO,64507,
2071.0,W HIGHPOINT ST,SPRINGFIELD,MO,65810,
616.0,CORBY ST,ST JOSEPH,MO,64501,
9309.0,KOENIG CIRCLE DR,SAINT LOUIS,MO,63134,
3025.0,ARBOR STATION CT,BALLWIN,MO,63021,
199.0,England Dr,OFallon,MO,63366,
1118.0,MISSOURI AVE,KANSAS CITY,MO,64106,
4861.0,S OLD MILL CREEK RD,COLUMBIA,MO,65203,
401.0,WYNCREST DR,BALLWIN,MO,63011,
3410.0,S 30TH ST,ST JOSEPH,MO,64503,
12821.0,PORTULACA DR,SAINT LOUIS,MO,63146,
53.0,BUCKS RIDGE CT,ST PETERS,MO,63304,
11014.0,CLEAR SKIES DR,SAINT LOUIS,MO,63114,
9511.0,FANTASY LN,SAINT LOUIS,MO,63126,
8215.0,MATHILDA AVE,SAINT LOUIS,MO,63123,
4.0,JACOBS PLACE CT,OFALLON,MO,63376,
14443.0,WHITE BIRCH VALLEY LN,CHESTERFIELD,MO,63017,
3909.0,SIDEWINDER DR,COLUMBIA,MO,65202,
212.0,S MERAMEC AVE,SAINT LOUIS,MO,63105,
2714.0,S GLENDALE AVE,SPRINGFIELD,MO,65804,
4626.0,WALLINGTON CT,SAINT LOUIS,MO,63121,
10975.0,MIDLAND BLVD,SAINT LOUIS,MO,63114,
4582.0,S WARREN AVE,SPRINGFIELD,MO,65810,
2715.0,SCHOTT RD,Cole,MO,65101,
5031.0,SCRUGGS STATION RD,Cole,MO,65109,
8206.0,E 133RD TER,GRANDVIEW,MO,64030,
6250.0,E BASS LN,COLUMBIA,MO,65201,
1132.0,S GEYER RD,SAINT LOUIS,MO,63122,
800.0,S SUNMEADOW DR,STRAFFORD,MO,65757,
2351.0,GRINDSTONE PKWY,COLUMBIA,MO,65201,
1202.0,KARON DR, ,MO,63304,
9500.0,RIDGE RD,Jefferson,MO,63023,
11506.0,E 14TH ST S,INDEPENDENCE,MO,64052,
2949.0,STATE HWY BB,HOLLISTER,MO,65672,20.0
211.0,N 21ST ST,ST JOSEPH,MO,64501,
596.0,E MONTROSE DR,SPRINGFIELD,MO,65810,
7108.0,HORNER AVE,SAINT LOUIS,MO,63117,
219.0,ENCHANTED CT,BALLWIN,MO,63021,
3107.0,LAFAYETTE ST,ST JOSEPH,MO,64507,
7117.0,CAMPBELL RD,Cole,MO,65074,
3023.0,N BALLAS RD,SAINT LOUIS,MO,63131,
2598.0,BLUFF VIEW DR,Jefferson,MO,63026,
15601.0,E 2ND ST S,INDEPENDENCE,MO,64050,
1544.0,MISTY RIVER DR,ST PAUL,MO,63366,
37.0,KELLY LEAF DR,ST PETERS,MO,63376,
189.0,WESTWOOD TRL, ,MO,63348,
12533.0,BENNINGTON PL,SAINT LOUIS,MO,63146,
2401.0,Tuckahoe Cir,OFallon,MO,63368,
4936.0,WYANDOTTE ST,KANSAS CITY,MO,64112,
10205.0,E 58TH TER,RAYTOWN,MO,64133,
11519.0,E 14TH ST S,INDEPENDENCE,MO,64050,
812.0,ELSWORTH PL,SAINT LOUIS,MO,63135,
321.0,CHAPEL RIDGE DR,HAZELWOOD,MO,63042,
1002.0,S 5TH ST,RICH HILL,MO,64779,
21113.0,E 2ND ST S,INDEPENDENCE,MO,64056,
39.0,Dunmore Cir,OFallon,MO,63368,
1309.0,LAKE SAINT LOUIS BLVD,LAKE SAINT LOUIS,MO,63367,
11705.0,SE CROUSE RD,EASTON,MO,64443,
10305.0,E 70TH TER,RAYTOWN,MO,64133,
106.0,E 63RD ST,KANSAS CITY,MO,64113,
1111.0,RENSHAW DR,SAINT LOUIS,MO,63135,
3016.0,CEDARSHADE CT,ST PETERS,MO,63376,
2110.0,COTTONTAIL DR,FLORISSANT,MO,63033,
17536.0,WYMAN RIDGE DR,EUREKA,MO,63025,
,Megans Ct,OFallon,MO,63366,
1806.0,E BROADWAY,COLUMBIA,MO,65201,
605.0,NE JEFFERSON ST,BLUE SPRINGS,MO,64014,
834.0,ZEISS AVE,SAINT LOUIS,MO,63125,
2064.0,LICK CREEK DR,WENTZVILLE,MO,63385,
12471.0,OBERLIN CT,SAINT LOUIS,MO,63146,
5615.0,S BETHEL CHURCH RD,COLUMBIA,MO,65203,
10346.0,BRIAR HOLLOW DR,SAINT LOUIS,MO,63146,
704.0,20TH AVE S,GREENWOOD,MO,64034,
8801.0,NEWTON AVE,KANSAS CITY,MO,64138,
2554.0,BURNS AVE,SAINT LOUIS,MO,63114,
1230.0,KINGS TRAIL LN,FENTON,MO,63026,
1600.0,JACKSON AVE,KANSAS CITY,MO,64127,
1594.0,BROWN CEMETERY RD,KISSEE MILLS,MO,65680,
4444.0,E 56TH TER,KANSAS CITY,MO,64130,
5419.0,RIDGEWAY AVE,KANSAS CITY,MO,64133,
5245.0,RALSTON AVE,RAYTOWN,MO,64133,
1860.0,NW 2ND ST,BLUE SPRINGS,MO,64014,
1573.0,SUMMER CHASE LN,FENTON,MO,63026,
1436.0,Snowbird Ln,OFallon,MO,63366,
25384.0,BUCK CREEK RD,Jefferson,MO,63028,
6515.0,SAN BONITA AVE,SAINT LOUIS,MO,63105,
9932.0,VALLEY DR,SAINT LOUIS,MO,63137,
713.0,NE BANNER DR,LEE'S SUMMIT,MO,64086,
1301.0,Wagon Wheel Trl,OFallon,MO,63366,
11776.0,PENMAR DR,MARYLAND HEIGHTS,MO,63043,
3933.0,JANE AVE,SAINT ANN,MO,63074,
715.0,HOUCHIN ST,JEFFERSON CITY,MO,65101,
13396.0,WALFIELD LN,SAINT LOUIS,MO,63141,
2520.0,SOUTHRIDGE DR,JEFFERSON CITY,MO,65109,
16635.0,WESTGLEN FARMS DR,BALLWIN,MO,63011,
10545.0,WASHINGTON ST,KANSAS CITY,MO,64114,
10342.0,SCHUESSLER RD,SAINT LOUIS,MO,63128,
5977.0,N LAKECREST DR,SPRINGFIELD,MO,65803,
4701.0,LOGAN AVE,KANSAS CITY,MO,64136,
6551.0,SAGAMORE HILLS CT,FLORISSANT,MO,63033,
1603.0,W LEE ST,SPRINGFIELD,MO,65803,
813.0,CRESTWOOD CT,OFALLON,MO,63366,
508.0,NE JOHNSTON DR,BLUE SPRINGS,MO,64014,
11.0,W   MEADOW DR,ST PETERS,MO,63376,
4650.0,S FARM ROAD 189 RD,ROGERSVILLE,MO,65742,
1008.0,NW KINGSRIDGE DR,BLUE SPRINGS,MO,64015,
651.0,HARDESTY AVE,KANSAS CITY,MO,64124,
3841.0,MELBA PL,SAINT LOUIS,MO,63121,
65.0,SCENIC COVE LN,ST CHARLES,MO,63303,
3824.0,MELBA PL,SAINT LOUIS,MO,63121,
920.0,S SOUTH AVE,SPRINGFIELD,MO,65806,
2710.0,MARY ST,ST JOSEPH,MO,64507,
8600.0,KATHLYN DR,SAINT LOUIS,MO,63134,
741.0,W CANTERBURY RD,SAINT LOUIS,MO,63132,
6.0,SHERRI LN,ST PETERS,MO,63376,
4036.0,RATON DR,SAINT LOUIS,MO,63134,
2331.0,E MONROE ST,SPRINGFIELD,MO,65802,
2607.0,EASTWOOD DR,COLUMBIA,MO,65202,
9025.0,VETERANS MEMORIAL PKWY,OFALLON,MO,63366,
4109.0,PASEO BLVD,KANSAS CITY,MO,64110,
1922.0,E CINDERELLA ST,SPRINGFIELD,MO,65804,
2750.0,E IMPERIAL CIR,SPRINGFIELD,MO,65804,
15.0,PINES DR, ,MO,63376,
9742.0,CONCORD HILLS CT,SAINT LOUIS,MO,63123,
405.0,VALLEY SPRING DR,OFALLON,MO,63366,
17.0,SOMERSET TERRACE CT,SAINT LOUIS,MO,63136,
8025.0,BONHOMME AVE,SAINT LOUIS,MO,63105,
3900.0,WESTGATE DR,ST JOSEPH,MO,64506,
1700.0,E CAIRO ST,SPRINGFIELD,MO,65802,
8939.0,CAMBRIDGE AVE,KANSAS CITY,MO,64138,
126.0,RUBY ST,TANEYVILLE,MO,65759,
1326.0,E ARMOUR BLVD,KANSAS CITY,MO,64109,
12508.0,CLARK MANOR CIR,SAINT LOUIS,MO,63141,
2006.0,JEFFERY MARTIN DR,OFALLON,MO,63366,
1351.0,RAINY DAYS TRL,CHAMOIS,MO,65024,
9807.0,GUTHRIE AVE,SAINT LOUIS,MO,63134,
3001.0,WATERFALL RD,BRANSON,MO,65616,
2480.0,W BROOK RIDGE ST,SPRINGFIELD,MO,65803,
2112.0,E 25TH ST,KANSAS CITY,MO,64127,
908.0,MAPLEWOOD DR,COLUMBIA,MO,65203,
4551.0,W 3RD ST,BATTLEFIELD,MO,65619,
941.0,E LINDBERG ST,SPRINGFIELD,MO,65807,
613.0,W DIVISION ST,SPRINGFIELD,MO,65803,
9639.0,DIELMAN ROCK ISLAND INDUSTRIAL DR,SAINT LOUIS,MO,63132,
6001.0,HELEN AVE,SAINT LOUIS,MO,63134,
50.0,SMOKE TREE CT,FENTON,MO,63026,
1055.0,DAUPHIN LN,FLORISSANT,MO,63033,
1548.0,Norwood Hills Dr,OFallon,MO,63366,
701.0,S LACLEDE STATION RD,SAINT LOUIS,MO,63119,
404.0,Prince Ruppert Dr,OFallon,MO,63366,
2816.0,MONTEREY ST,ST JOSEPH,MO,64507,
10155.0,CLOVERDALE DR,SAINT LOUIS,MO,63136,
35.0,GATESWOOD DR,ST PETERS,MO,63376,
11119.0,COLLEGE AVE,KANSAS CITY,MO,64137,
7.0,EVERGREEN LN,Jefferson,MO,63028,
3415.0,HAVENBROOK DR,SAINT LOUIS,MO,63114,
827.0,N DODGION ST,INDEPENDENCE,MO,64050,
15017.0,MANCHESTER RD,BALLWIN,MO,63011,
4208.0,ROLLINS RD,COLUMBIA,MO,65203,
10404.0,HILLCREST RD,KANSAS CITY,MO,64134,
2710.0,N FARM ROAD 137 RD,SPRINGFIELD,MO,65803,
5417.0,EUCLID AVE,KANSAS CITY,MO,64130,
6450.0,E FORSEE RD,ASHLAND,MO,65010,
963.0,PROVIDENCE WAY,Jefferson,MO,63048,
4600.0,FORUM BLVD,COLUMBIA,MO,65203,
3609.0,E FARM ROAD 26 RD,FAIR GROVE,MO,65648,
14332.0,MANCHESTER RD,BALLWIN,MO,63011,
303.0,TURNBERRY PLACE DR,BALLWIN,MO,63011,
10564.0,GREGORY CT,SAINT LOUIS,MO,63128,
519.0,E 106TH ST,KANSAS CITY,MO,64131,
713.0,FORESTWOOD LN, ,MO,63366,
2710.0,S 24TH ST,ST JOSEPH,MO,64503,
113.0,RUE GRAND DR,LAKE SAINT LOUIS,MO,63367,
1119.0,RIDGE RD,COLUMBIA,MO,65203,
13414.0,TALLEYWOOD DR,FLORISSANT,MO,63033,
1612.0,LIMERICK LN,COLUMBIA,MO,65203,
1609.0,FARAON ST,ST JOSEPH,MO,64501,
1750.0,EWING AVE,KANSAS CITY,MO,64126,
131.0,COLE BLVD,ST CHARLES,MO,63301,
1916.0,NEWTON DR,COLUMBIA,MO,65202,
5493.0,PAINTED ACRES DR,Jefferson,MO,63016,
11965.0,N FARM ROAD 101 RD,WILLARD,MO,65781,
1432.0,CORTEZ DR,Jefferson,MO,63050,
9326.0,BRANCH RD,Cole,MO,65053,
7126.0,HEEGE RD,SAINT LOUIS,MO,63123,
1020.0,HAWTHORN AVE,ST CHARLES,MO,63301,
1982.0,LOOSE CREEK HIGHWAY,LOOSE CREEK,MO,65054,
799.0,ESTES PARK DR,ST PETERS,MO,63376,
10136.0,KELEMEN FARMS,Jefferson,MO,63023,
1268.0,W 72ND ST,KANSAS CITY,MO,64114,
973.0,Highway P,OFallon,MO,63366,
204.0,RANGER DR,WENTZVILLE,MO,63348,
1301.0,E LAKEWOOD ST,SPRINGFIELD,MO,65804,
911.0,THUNDERHEAD DR,SAINT LOUIS,MO,63138,
11422.0,NORLEDGE ST,SUGAR CREEK,MO,64054,
3724.0,N MOUNT ZION CT,SPRINGFIELD,MO,65803,
1008.0,CLEVELAND AVE,KANSAS CITY,MO,64127,
8500.0,HILLTOP PLACE CT,SAINT LOUIS,MO,63123,
6451.0,SOUTH BENTON ST,KANSAS CITY,MO,64132,
3215.0,WINGATE CT,COLUMBIA,MO,65201,
5614.0,YOUNGER DR,COLUMBIA,MO,65201,
1370.0,KAEL DR,FLORISSANT,MO,63033,
729.0,BERQUIST DR,BALLWIN,MO,63011,
1054.0,CAMELOT GARDENS DR,SAINT LOUIS,MO,63125,
621.0,S NEW BALLAS RD,SAINT LOUIS,MO,63141,
9063.0,SKY CREST DR,SAINT LOUIS,MO,63126,
1032.0,SW ARBORFAIR DR,LEE'S SUMMIT,MO,64082,
440.0,S CLAY AVE,SAINT LOUIS,MO,63122,
3705.0,FORUM BLVD,COLUMBIA,MO,65203,
2408.0,Stoney Brook Dr,OFallon,MO,63368,
8669.0,MORNINGAIRE CIR,HAZELWOOD,MO,63042,
1233.0,W HIGHLAND ST,SPRINGFIELD,MO,65807,
1004.0,REDTREE LN,ST PETERS,MO,63376,
2709.0,NW 4TH ST,BLUE SPRINGS,MO,64014,
826.0,WASHINGTON ST,ST CHARLES,MO,63301,
1496.0,PAYASO CT,FENTON,MO,63026,
1880.0,N BROADWAY AVE,SPRINGFIELD,MO,65803,
1103.0,SW WESTMINISTER RD,BLUE SPRINGS,MO,64014,
1757.0,SCHWEDE RD, ,MO,63385,
8707.0,ST CHARLES ROCK RD,SAINT LOUIS,MO,63114,
915.0,LOCUST ST,COLUMBIA,MO,65201,
1361.0,E MEADOWMERE ST,SPRINGFIELD,MO,65804,
18.0,APPALOOSA CT, ,MO,63385,
124.0,BULL RUN RD,BRANSON,MO,65616,
1326.0,ASHLAND RD,COLUMBIA,MO,65201,
1825.0,BRIDLEBROOK LN,SAINT LOUIS,MO,63122,
4018.0,DUNN RD,HAZELWOOD,MO,63042,
6255.0,S SINCLAIR RD,COLUMBIA,MO,65203,
4333.0,AUSTIN PASS DR, ,MO,63304,
511.0,MAY VALLEY DR,FENTON,MO,63026,
1222.0,E WALNUT ST,COLUMBIA,MO,65201,
525.0,ORCHARD ST,CENTRALIA,MO,65240,
1228.0,SE 12TH ST,LEE'S SUMMIT,MO,64081,
2310.0,DOTLEY AVE,SAINT LOUIS,MO,63136,
2264.0,NE TOWN CENTER BLVD,LEE'S SUMMIT,MO,64064,
11176.0,N FARM ROAD 167 RD,PLEASANT HOPE,MO,65725,
304.0,NW MOORE ST,LEE'S SUMMIT,MO,64081,
6157.0,CHERRY ST,KANSAS CITY,MO,64110,
1109.0,LOCUST ST,COLUMBIA,MO,65201,
129.0,NW WHITLOCK DR,LEE'S SUMMIT,MO,64081,
1600.0,CHELSEA AVE,KANSAS CITY,MO,64127,
3004.0,CORNELIA LN,COLUMBIA,MO,65203,
2902.0,OAKMONT DR,ST CHARLES,MO,63301,
705.0,S LACLEDE STATION RD,SAINT LOUIS,MO,63119,
1220.0,NORTH AND SOUTH RD,SAINT LOUIS,MO,63130,
853.0,W WESTVIEW ST,SPRINGFIELD,MO,65807,
6513.0,JOSEPH AVE,SAINT LOUIS,MO,63133,
1200.0,SIOUX DR, ,MO,63373,49.0
1909.0,CATHEDRAL HILL DR,SAINT LOUIS,MO,63138,
800.0,CHAMBERS RD,SAINT LOUIS,MO,63135,
15421.0,CLAYTON RD,BALLWIN,MO,63011,
226.0,WESTRIDGE PARC LN,BALLWIN,MO,63021,
8026.0,NEW HAVEN AVE,SAINT LOUIS,MO,63123,
3015.0,EMS GLEN LN,Jefferson,MO,63010,
182.0,CATHY ST,BRANSON,MO,65616,
2026.0,BIRD RD,BRANSON,MO,65616,
501.0,W 107TH ST,KANSAS CITY,MO,64114,
709.0,PRESTON DOWNS,OFALLON,MO,63376,
905.0,JEFFERSON ST,Jefferson,MO,63020,
13278.0,HOBNAIL DR,SAINT LOUIS,MO,63146,
217.0,E STONEARCH DR,INDEPENDENCE,MO,64052,
3106.0,N BELT HWY,ST JOSEPH,MO,64506,
5928.0,CARDINAL CREEK DR,SAINT LOUIS,MO,63129,
586.0,ARBOR MEADOW DR,BALLWIN,MO,63021,
26.0,St Nicholas Ct,OFallon,MO,63366,
225.0,N MERAMEC AVE,SAINT LOUIS,MO,63105,
216.0,BROADVIEW  CT,ST PAUL,MO,63366,
4327.0,GEMSTONE CIR,SAINT LOUIS,MO,63125,
1921.0,E FARM ROAD 88 RD,SPRINGFIELD,MO,65803,
71.0,MORNING SUN CT,WENTZVILLE,MO,63385,
1702.0,S BURKS AVE,SPRINGFIELD,MO,65807,
1416.0,BRADFORD DR,COLUMBIA,MO,65203,
4312.0,CARACALLA DR,FLORISSANT,MO,63033,
2919.0,LISTER AVE,KANSAS CITY,MO,64128,
6916.0,WILDWOOD DR,RAYTOWN,MO,64133,
8189.0,NORMANDY TRACE DR,SAINT LOUIS,MO,63121,
8920.0,N SWAN CIR,SAINT LOUIS,MO,63144,
339.0,SCENIC DR,HOLLISTER,MO,65672,
141.0,PSALMS WAY,FORSYTH,MO,65653,
5924.0,OLD ANTONIA RD,Jefferson,MO,63052,
4934.0,SEFTON DR,SAINT LOUIS,MO,63128,
7996.0,HOLLY OAK CT,OFALLON,MO,63368,
1915.0,DEVONSHIRE PL,INDEPENDENCE,MO,64057,
12051.0,PROSPECT AVE,GRANDVIEW,MO,64030,
8312.0,E 105TH ST,KANSAS CITY,MO,64134,
2415.0,CHARLACK AVE,SAINT LOUIS,MO,63114,
7005.0,DOUBLE EAGLE LN,SAINT LOUIS,MO,63129,
152.0,BEACH DR,LAKE TAPAWINGO,MO,64015,
3142.0,S BRENTWOOD BLVD,SAINT LOUIS,MO,63119,
16275.0,WINDFALL RIDGE DR,CHESTERFIELD,MO,63005,
209.0,N PARK AVE,SPRINGFIELD,MO,65802,
475.0,W JACKSON RD,SAINT LOUIS,MO,63119,
600.0,BREEZE PARK DR,WELDON SPRING,MO,63304,386.0
724.0,E GREGORY BLVD,KANSAS CITY,MO,64131,
1409.0,ELMRIDGE PL,SAINT LOUIS,MO,63132,
1510.0,HUNTERS MEADOW DR,OFALLON,MO,63366,
7598.0,PROSPECT AVE,KANSAS CITY,MO,64132,
9100.0,CENTRAL ST,KANSAS CITY,MO,64114,
9731.0,TREADWAY LN,SAINT LOUIS,MO,63134,
1917.0,E GLENCO ST,SPRINGFIELD,MO,65803,
230.0,KAYSER AVE,SAINT LOUIS,MO,63125,
3013.0,N 6TH ST,ST JOSEPH,MO,64505,
9.0,ALGONQUIN ESTATES RD,SAINT LOUIS,MO,63122,
1201.0,DEAN DR,GRAIN VALLEY,MO,64029,
8.0,COLONIAL VILLAGE CT,SAINT LOUIS,MO,63119,
18.0,MARQUETTE MOBILE PARK, ,MO,63303,
3222.0,BRISTOL AVE,KANSAS CITY,MO,64129,
9620.0,HOLMES RD,KANSAS CITY,MO,64131,
1218.0,N 12TH ST,ST JOSEPH,MO,64501,
2119.0,WOODSIDE DR,Cape Girardeau,MO,63701,
3902.0,HARVEST MEADOW DR,ST PETERS,MO,63376,
308.0,SALINDA DR,ASHLAND,MO,65010,
6612.0,SAN BONITA AVE,SAINT LOUIS,MO,63105,
1549.0,LAKESIDE LN,SAINT LOUIS,MO,63138,
3500.0,SW WESTBOUND US 40 HWY,UNINCORPORATED,MO,64015,
560.0,E RITTER ST,REPUBLIC,MO,65738,
9709.0,E INDEPENDENCE AVE,INDEPENDENCE,MO,64053,
1618.0,OAK HILLS DR,Cape Girardeau,MO,63701,
6815.0,COTTAGE GROVE LN,SAINT LOUIS,MO,63129,
701.0,WESTGATE AVE,SAINT LOUIS,MO,63130,
1182.0,CASA BRAZILIA CT,SAINT LOUIS,MO,63129,
6026.0,TOWN AND COUNTRY LN,Jefferson,MO,63051,
506.0,VERNON ST,BUCKNER,MO,64016,
48.0,CATHCART DR,BALLWIN,MO,63021,
3348.0,TOWN AND COUNTRY LN,ST CHARLES,MO,63301,
2260.0,BELFAST DR,FLORISSANT,MO,63033,
679.0,WINDINGPATH LN,BALLWIN,MO,63021,
117.0,S ROCK RIDGE ST,FAIR GROVE,MO,65648,
285.0,N CASTELLO ST,FLORISSANT,MO,63031,
1133.0,ASHLAND RD,COLUMBIA,MO,65201,
1730.0,W ATLANTIC ST,SPRINGFIELD,MO,65803,
13073.0,ORCHARD PARK LN,Jefferson,MO,63020,
2305.0,S PROVIDENCE RD,COLUMBIA,MO,65203,
3003.0,HIGHWAY 94   N, ,MO,63301,
7105.0,SUNNY DR,Jefferson,MO,63012,
581.0,HITCHING POST DR, ,MO,63304,
1345.0,AUBURN HILLS DR, ,MO,63304,
5200.0,AURIESVILLE LN,HAZELWOOD,MO,63042,
1096.0,TESON RD,HAZELWOOD,MO,63042,
4617.0,JEFFERSON ST,KANSAS CITY,MO,64112,
5205.0,SCHUYLER CT,COLUMBIA,MO,65202,
1616.0,HURSTBOROUGH MANOR DR,HAZELWOOD,MO,63042,
306.0,OAKLEY AVE,KANSAS CITY,MO,64123,
3714.0,E 27TH ST,KANSAS CITY,MO,64127,
720.0,EMERALD POINTE DR,HOLLISTER,MO,65672,5.0
2427.0,E BAGNELL ST,SPRINGFIELD,MO,65804,
816.0,BEECHWOOD DR,Jefferson,MO,63010,
406.0,LENNOX DR,BALLWIN,MO,63011,
7.0,WEYMOUTH CT,FLORISSANT,MO,63031,
10805.0,SUNSET OFFICE DR,SAINT LOUIS,MO,63127,
2901.0,FAIRWAY POINTE CT,WENTZVILLE,MO,63385,
950.0,E RUE DE LA BANQUE ST,SAINT LOUIS,MO,63141,
5.0,GRAHAM DR, ,MO,63304,
68.0,FOUR WINDS DR,ST PETERS,MO,63376,
5165.0,W LOUISVILLE CT,COLUMBIA,MO,65203,
7402.0,LYNDOVER PL,SAINT LOUIS,MO,63143,
5050.0,N LOCUST GROVE CHURCH RD,COLUMBIA,MO,65202,
5517.0,PINE WOOD FRST,SAINT LOUIS,MO,63128,
139.0,S SPANISH ST,Cape Girardeau,MO,63703,
4123.0,E AUTUMN CT,SPRINGFIELD,MO,65802,
4414.0,AGNES AVE,KANSAS CITY,MO,64130,
2141.0,E RAYNELL ST,SPRINGFIELD,MO,65804,
3307.0,CHARLOTTE ST,KANSAS CITY,MO,64109,
9410.0,BALES DR,KANSAS CITY,MO,64132,
5130.0,CARIBEE DR,SAINT LOUIS,MO,63128,
11119.0,BRISTOL TER,KANSAS CITY,MO,64134,
11210.0,SCHUETZ RD,SAINT LOUIS,MO,63146,
4849.0,W ELM ST,BATTLEFIELD,MO,65619,
,NO ADDRESS ASSIGNED BY CITY,KANSAS CITY,MO,64124,
272.0,STONEWALL DR,EUREKA,MO,63025,
15100.0,S LOST CABIN RD,HARTSBURG,MO,65039,
450.0,W ADAMS AVE,SAINT LOUIS,MO,63122,
3058.0,WESTMINSTER DR,FLORISSANT,MO,63033,
3200.0,FRISCO HILL RD,Jefferson,MO,63052,
3713.0,RANDALL DR,Cole,MO,65109,
4034.0,W KAY POINTE BLVD,SPRINGFIELD,MO,65802,
8710.0,E BUCKHORN LN,ROGERSVILLE,MO,65742,
2251.0,N DRURY AVE,SPRINGFIELD,MO,65803,
1407.0,LAKEWOOD DR,COLUMBIA,MO,65202,
601.0,W BUSINESS LOOP 70,COLUMBIA,MO,65203,
9124.0,BOYCE PL,SAINT LOUIS,MO,63136,
8810.0,LUCAS AND HUNT RD,SAINT LOUIS,MO,63136,
63.0,DAVENPORT CT, ,MO,63303,
131.0,GREEN FOREST ESTATES DR,ST PETERS,MO,63376,
2.0,TRAILRIDGE CT,ST CHARLES,MO,63301,
,NO ADDRESS ASSIGNED BY CITY,BLUE SPRINGS,MO,64015,
406.0,E ASHLEY ST,JEFFERSON CITY,MO,65101,
612.0,HOENE RIDGE ESTATES DR,Jefferson,MO,63025,
201.0,LINDYS LANDING CT,ST PETERS,MO,63376,
7741.0,KINGSBURY BLVD,SAINT LOUIS,MO,63105,
1401.0,EAGLES WAY CT,HAZELWOOD,MO,63042,
2040.0,SW M 150 HWY,LEE'S SUMMIT,MO,64082,
2802.0,S 22ND ST,ST JOSEPH,MO,64503,
1613.0,SE MANOR PL,BLUE SPRINGS,MO,64014,
1701.0,KEEGAN CT,COLUMBIA,MO,65203,
917.0,N LYNN ST,INDEPENDENCE,MO,64050,
1254.0,DEVONWORTH DR,CHESTERFIELD,MO,63017,
12057.0,AUTUMN LAKES DR,MARYLAND HEIGHTS,MO,63043,
230.0,THF BLVD,CHESTERFIELD,MO,63005,
2807.0,STONINGTON DR,ST CHARLES,MO,63301,
6475.0,SAN BONITA AVE,SAINT LOUIS,MO,63105,
310.0,PATTERSON LN,FLORISSANT,MO,63031,
8132.0,FROST AVE,SAINT LOUIS,MO,63134,
2900.0,S M 291 HWY,INDEPENDENCE,MO,64057,
1209.0,INCA DR,INDEPENDENCE,MO,64056,
186.0,NORTHWEST INDUSTRIAL CT,BRIDGETON,MO,63044,
3428.0,S OXFORD AVE,INDEPENDENCE,MO,64052,
453.0,BOONES LICK RD,ST CHARLES,MO,63301,
1382.0,KAEL DR,FLORISSANT,MO,63033,
817.0,S GRANT AVE,SPRINGFIELD,MO,65806,
9107.0,LAVANT DR,SAINT LOUIS,MO,63126,
4885.0,TOWNE SOUTH RD,SAINT LOUIS,MO,63128,
132.0,MUIRFIELD CREST CT, ,MO,63304,
27.0,N TENTH ST,COLUMBIA,MO,65201,
1059.0,OAK GLEN CIR,BALLWIN,MO,63021,
3270.0,BAYVUE BLVD,Jefferson,MO,63010,
102.0,CORCORAN DR,COLUMBIA,MO,65202,
500.0,N KEENE ST,COLUMBIA,MO,65201,
229.0,MASSOTT RD,Jefferson,MO,63028,
2350.0,TIMBERVIEW RD,SAINT LOUIS,MO,63122,
11.0,FAIRWAYS CIR, ,MO,63303,
11023.0,NORLEDGE ST,SUGAR CREEK,MO,64054,
7183.0,N WAGON TRAIL RD,COLUMBIA,MO,65202,
20.0,ARCHBISHOP MAY DR,SAINT LOUIS,MO,63119,
11500.0,OLIVE BLVD,SAINT LOUIS,MO,63141,
326.0,WILMER VALLEY DR,WENTZVILLE,MO,63385,
16615.0,WESTGLEN FARMS DR,BALLWIN,MO,63011,
1700.0,SPIROS DR,COLUMBIA,MO,65202,
6714.0,C,Cole,MO,65053,
206.0,OAK TREE ACRES LN,BRANSON,MO,65616,
959.0,SAN SEBASTIAN DR,FENTON,MO,63026,
46.0,Piepers Glen Ct,OFallon,MO,63366,
56.0,PORTLAND DR,SAINT LOUIS,MO,63131,
1701.0,NE AUBURN DR,LEE'S SUMMIT,MO,64086,
3595.0,ARPENT ST,ST CHARLES,MO,63301,
270.0,COLT CIR, ,MO,63368,
102.0,OLD VIENNA RD,FREEBURG,MO,65035,
1624.0,S FERGUSON AVE,SPRINGFIELD,MO,65807,
22.0,OLDE WESTCHESTER CT, ,MO,63304,
13100.0,MANCHESTER RD,SAINT LOUIS,MO,63131,
9601.0,TOCAN CT,SAINT LOUIS,MO,63123,
51.0,HIGH VALLEY DR,CHESTERFIELD,MO,63017,
407.0,NW WATSON RD,LEE'S SUMMIT,MO,64063,
423.0,Appaloosa Trl,Saint Peters,MO,63376,
4516.0,WASHEON RD, ,MO,63301,
7908.0,ARLINGTON AVE,RAYTOWN,MO,64138,
1230.0,E HWY 22,STURGEON,MO,65284,
17241.0,E 31ST TER S,INDEPENDENCE,MO,64055,
4712.0,ROANOKE PKWY,KANSAS CITY,MO,64112,
2319.0,S CEDAR AVE,INDEPENDENCE,MO,64052,
11957.0,YARMOUTH CT,BRIDGETON,MO,63044,
832.0,W CYPRESS ST,SPRINGFIELD,MO,65807,
611.0,WILDROSE PL,COLUMBIA,MO,65201,
411.0,MEADOW LN,HALLSVILLE,MO,65255,
45.0,GRANTWOOD LN,SAINT LOUIS,MO,63123,
4461.0,N BRANAVY CT,SPRINGFIELD,MO,65803,
724.0,N ROGERS AVE,SPRINGFIELD,MO,65802,
503.0,CROMWELL RD,Jefferson,MO,63028,
3431.0,N MARWIN AVE,SPRINGFIELD,MO,65803,
1275.0,GARDENS CIRCLE DR,SAINT LOUIS,MO,63125,
1922.0,WESTERN CAPE DR,SAINT LOUIS,MO,63146,
2844.0,GLENDALE AVE,SAINT LOUIS,MO,63136,
3890.0,RANGE LINE ST,COLUMBIA,MO,65202,
910.0,CENTRAL ST,KANSAS CITY,MO,64105,
216.0,PRALLE LN, ,MO,63303,
1141.0,Villa Flora Dr,OFallon,MO,63366,
7136.0,RHODES AVE,SAINT LOUIS,MO,63123,
1902.0,PARKSIDE DR,COLUMBIA,MO,65202,
4245.0,RAVENWOOD AVE,SAINT LOUIS,MO,63121,
