NUMBER,STREET,CITY,STATE,POSTCODE,UNIT
12308.0,FERNWOOD CV,Gulfport,MS,39503,
1040.0,BOWSPRIT LN,BRANDON,MS,39047,
11232.0,HENDRY RD,Gulfport,MS,39503,
2300.0,COLLINS BLVD,Gulfport,MS,39507,
3019.0,E FAIRWAY DR,BRANDON,MS,39047,
102.0,MEADOWVIEW DR,BRANDON,MS,39047,
608.0,OVERLOOK PT,BRANDON,MS,39047,
10900.0,E   TAYLOR RD,Gulfport,MS,39503,
22.0,E   52ND ST,Gulfport,MS,39507,
305.0,OAKVILLE CIR,BRANDON,MS,39047,
335.0,N GROVE CIR,BRANDON,MS,39047,
328.0,AZALEA CT,BRANDON,MS,39047,
116.0,RICHLAND EAST CIR,RICHLAND,MS,39218,
901.0,TOWNSHIP RD,Gulfport,MS,39507,
5109.0,17TH ST,Gulfport,MS,39501,
550.0,MAGNOLIA ST,Gulfport,MS,39507,12.0
169.0,BERRY DR,PEARL,MS,39208,
1415.0,DILLER RD,OCEAN SPRINGS,MS,39564,
302.0,CEDAR STONE CT,FLORENCE,MS,39073,
2826.0,23RD AVE,Gulfport,MS,39501,
213.0,TRAYLOR RD,FLORENCE,MS,39073,
520.0,SUNNY CIR,FLORENCE,MS,39073,
523.0,WESTFIELD DR,PEARL,MS,39208,
618.0,BRAEBURN CT,FLOWOOD,MS,39232,
1890.0,HWY 49 S,FLORENCE,MS,39073,
3400.0,14TH ST,Gulfport,MS,39501,
488.0,R T BRADDY RD,FLORENCE,MS,39073,
143.0,MONROE DR,BRANDON,MS,39047,
125.0,HOLLYBERRY RD,BRANDON,MS,39042,
190.0,MANDY DR,BRANDON,MS,39042,
221.0,LEGACY DR,BRANDON,MS,39042,
355.0,AUDUBON CIR,BRANDON,MS,39047,
524.0,JACKSON AV,OCEAN SPRINGS,MS,39564,
11171.0,COLEMAN RD,Gulfport,MS,39503,
406.0,SILVER HILL,PEARL,MS,39208,
1732.0,CABERNET CIR,BRANDON,MS,39047,
1440.0,CHAMPLIN CIR,Gulfport,MS,39507,
330.0,SHERBORNE PL,FLOWOOD,MS,39232,
6147.0,WIRTZ RD,FLOWOOD,MS,39232,
1139.0,OLD FANNIN RD,BRANDON,MS,39047,
10377.0,HUNTLEIGH DR,Gulfport,MS,39503,
294.0,BAKER LN,BRANDON,MS,39047,
211.0,CARRIER BLVD,RICHLAND,MS,39218,
262.0,GREEN HILL RD,FLORENCE,MS,39073,
11.0,RIVERS BEND DR,Gulfport,MS,39507,
4701.0,LAKELAND DR,FLOWOOD,MS,39232,
228.0,MARIE DR,BRANDON,MS,39042,
440.0,CROSSPARK DR,PEARL,MS,39208,1002.0
226.0,CAMELOT WAY,BRANDON,MS,39047,
3635.0,WILCOX DR,PEARL,MS,39208,
8365.0,FLORIDA AVE,Gulfport,MS,39501,9.0
110.0,MAGEE AV,RICHLAND,MS,39218,
225.0,FRONT BEACH DR,OCEAN SPRINGS,MS,39566,
4657.0,HWY 18,BRANDON,MS,39042,
1633.0,OAK ST,JACKSON,MS,39286,
13342.0,JOHN RD,Gulfport,MS,39503,
1015.0,ALEXANDER MYERS RD,FLORENCE,MS,39073,
303.0,WARREN CV,BRANDON,MS,39047,
203.0,GLADEVIEW CT,BRANDON,MS,39047,
901.0,TOPAZ CT,FLOWOOD,MS,39232,
15235.0,O'NEAL RD,Gulfport,MS,39503,
120.0,SUMMER PINE DR,FLORENCE,MS,39073,
238.0,HOLMAR DR,BRANDON,MS,39047,
5014.0,28TH ST,Gulfport,MS,39501,1524.0
1525.0,E   PASS RD,Gulfport,MS,39507,727.0
3601.0,PARK BLVD,Gulfport,MS,39501,
2320.0,MEADOW OAK DR,FLOWOOD,MS,39232,
1066.0,HWY 43 S,PELAHATCHIE,MS,39145,
703.0,SPRING LAKE DR,PEARL,MS,39208,
1210.0,LONDONDERRY LN,OCEAN SPRINGS,MS,39564,
113.0,SANDSTONE DR,BRANDON,MS,39047,
134.0,FOSTER RD,FLORENCE,MS,39073,
2708.0,SAMUEL ST,Gulfport,MS,39503,
3015.0,20TH AVE,Gulfport,MS,39501,
619.0,CHAMBORD DR,APLINGTON,MS,50604,
146.0,RANKIN RD,BRANDON,MS,39042,
106.0,SANDPIPER RD,BRANDON,MS,39047,
835.0,LYNELL DR,BRANDON,MS,39042,
7016.0,72ND AVE,Gulfport,MS,39501,
555.0,CLIFFVIEW DR,BRANDON,MS,39047,
3915.0,HIDI LN,PEARL,MS,39208,
128.0,SLOAN DR,RICHLAND,MS,39218,
3911.0,YOSEMITE DR,OCEAN SPRINGS,MS,39564,
2703.0,OLD COUNTRY CLUB RD,PEARL,MS,39208,
2.0,BAYOU PL,Gulfport,MS,39503,
100.0,QUAIL RUN,BRANDON,MS,39047,
336.0,AUSTIN CIR,BRANDON,MS,39047,
12145.0,LAKE FOREST DR,Gulfport,MS,39503,
173.0,CROSSOVER DR,BRANDON,MS,39042,
229.0,ASBURY CIR,BRANDON,MS,39042,
414.0,BLACK OAK CIR,PEARL,MS,39208,
506.0,E   RAILROAD ST,Gulfport,MS,39507,
1107.0,COWAN RD,Gulfport,MS,39507,
571.0,ACORN LN,BRANDON,MS,39047,
2441.0,SHELL OIL RD,BRANDON,MS,39073,
531.0,RIDGE CIR,BRANDON,MS,39047,
606.0,PLAINVIEW CIR,FLORENCE,MS,39073,
2011.0,CROSS CREEK CV,BRANDON,MS,39042,
1012.0,S PEARSON RD,PEARL,MS,39208,
13597.0,W   ECHO DR,Gulfport,MS,39503,
3341.0,EAST LISA DR,PEARL,MS,39208,
1204.0,BRISTOL BLVD,OCEAN SPRINGS,MS,39564,
220.0,NORTHSHORE PKWY,RIDGELAND,MS,39157,
106.0,OAKHILL PL,BRANDON,MS,39042,
116.0,PLUM TREE RD,BRANDON,MS,39047,
2028.0,PEBBLE CREEK DR,BRANDON,MS,39043,
0.0,ANDREW CHAPEL RD,PEARL,MS,39208,
271.0,BARN ST,RICHLAND,MS,39218,
120.0,WINCHESTER LN,BRANDON,MS,39042,
175.0,VALLEY CV,FLORENCE,MS,39073,
3133.0,HWY 80,BRANDON,MS,39042,
451.0,GREENFIELD RIDGE CIR,BRANDON,MS,39042,
2524.0,31ST ST,Gulfport,MS,39501,
409.0,GRANDVIEW CT,PEARL,MS,39208,
8003.0,BELLE OAK PK,BRANDON,MS,39042,
1.0,PLANTERS LN,Gulfport,MS,39503,
4701.0,LAKELAND DR,FLOWOOD,MS,39232,
230.0,LEWIS ST,BRANDON,MS,39047,
612.0,FALON WAY,BRANDON,MS,39047,
3501.0,MEADOWLARK DR,Gulfport,MS,39501,
219.0,LIGHTHOUSE LN,BRANDON,MS,39047,
407.0,GREENFIELD RIDGE CIR,BRANDON,MS,39042,
2305.0,17TH AVE,Gulfport,MS,39501,
102.0,MULLICAN CV,FLORENCE,MS,39073,
313.0,42ND ST,Gulfport,MS,39507,
59.0,WOODGATE DR,BRANDON,MS,39042,
535.0,GREEN HEAD CIR,BRANDON,MS,39047,
13602.0,TARA HILLS DR,Gulfport,MS,39503,
2526.0,CYPRESS AVE,Gulfport,MS,39501,
416.0,WILDBERRY CIR,PEARL,MS,39208,
109.0,ROSEWOOD LN,BRANDON,MS,39042,
103.0,GREENFIELD RIDGE DR,BRANDON,MS,39042,
820.0,LINDH RD,Gulfport,MS,39507,3.0
1803.0,BIRCHWOOD CT,NCBC,MS,39501,
55.0,BAYOU CIR,Gulfport,MS,39507,
503.0,N   WILSON BLVD,Gulfport,MS,39503,
1504.0,BEACH DR,Gulfport,MS,39507,
11499.0,KLEIN RD,Gulfport,MS,39503,
147.0,CAIN CIR,BRANDON,MS,39047,
505.0,STOCKTON CV,FLOWOOD,MS,39232,
401.0,OAK BEND,BRANDON,MS,39047,
1703.0,22ND ST,Gulfport,MS,39501,
105.0,GREENWAY CIR,RICHLAND,MS,39218,
2010.0,CANTERBURY PL W,BRANDON,MS,39042,
107.0,JOY LN,BRANDON,MS,39042,
89.0,LONGMEADOW RD,BRANDON,MS,39042,
606.0,WINDWARD LN,RICHLAND,MS,39218,
275.0,JACKS PL,BRANDON,MS,39047,
16267.0,HUDSON ST,Gulfport,MS,39501,
143.0,EASTWOOD CIR,FLORENCE,MS,39073,
604.0,SCARLET OAK CV,BRANDON,MS,39047,
607.0,SOUTHERN OAKS DR,FLORENCE,MS,39073,
3823.0,CABILDO PLACE AV,OCEAN SPRINGS,MS,39564,
110.0,CHAPEL HILLS LN,BRANDON,MS,39042,
11391.0,NEW ORLEANS AVE,Gulfport,MS,39503,
104.0,TRICKHAMBRIDGE RD,BRANDON,MS,39042,
535.0,WESTFIELD DR,PEARL,MS,39208,
0.0,PORTER ST,OCEAN SPRINGS,MS,39564,
15.0,LANCE DR,BRANDON,MS,39042,
301.0,VALENTOUR RD,PEARL,MS,39208,
262.0,GREENSVIEW DR,BRANDON,MS,39047,
2475.0,LAKELAND DR,FLOWOOD,MS,39232,
124.0,WOODLANDS GREEN DR,BRANDON,MS,39047,
223.0,GULDE RD,BRANDON,MS,39042,
220.0,ST PAUL ST,PEARL,MS,39208,
109.0,TRIMBLE ST,PEARL,MS,39208,
103.0,CANE CREEK PL,BRANDON,MS,39047,
1156.0,SHELL OIL RD,BRANDON,MS,39042,
125.0,OLD HWY 49 S,RICHLAND,MS,39218,
2204.0,UPPER DR,PEARL,MS,39208,
385.0,ROBINHOOD TR,BRANDON,MS,39042,
17434.0,COUNTRY OAK DR,Gulfport,MS,39503,
408.0,MCGUIRE CIR,Gulfport,MS,39507,
1133.0,20TH AVE,Gulfport,MS,39501,
110.0,FERN VALLEY RD,BRANDON,MS,39042,
796.0,MONTEREY RD,FLORENCE,MS,39073,
638.0,SUMMER PL,FLOWOOD,MS,39232,
503.0,THOMASVILLE RD,FLORENCE,MS,39073,
259.0,SEAPOINTE BLVD,OCEAN SPRINGS,MS,39564,
221.0,SWEET HOME CHURCH RD,PEARL,MS,39208,
406.0,PELICAN WAY,BRANDON,MS,39047,
233.0,GREENFIELD RIDGE DR,BRANDON,MS,39042,
160.0,THE ELMS DR,FLORENCE,MS,39073,
714.0,WARREN HILL PL,BRANDON,MS,39042,
1222.0,CROSSVIEW CT,BARTLETT,MS,38135,
14364.0,HATTEN LN,Gulfport,MS,39503,
10341.0,ENGLISH MANOR DR,Gulfport,MS,39503,
12139.0,KENCREST DR,Gulfport,MS,39503,
143.0,DAVID ST,PEARL,MS,39208,
25.0,47TH ST,Gulfport,MS,39507,
3442.0,DAWN DR,PEARL,MS,39208,
322.0,41ST ST,Gulfport,MS,39507,
17396.0,LOWERY RD,Gulfport,MS,39503,
435.0,SPRING HILL PT,BRANDON,MS,39047,
731.0,PINE VLY,PEARL,MS,39208,
396.0,ALLISTON DR,FLORENCE,MS,39073,
6970.0,HWY 25,BRANDON,MS,39047,
267.0,NORTH FOXHALL RD,MORTON,MS,39117,
611.0,LEXINGTON DR,FLORENCE,MS,39073,
10867.0,WATERSIDE DR,Gulfport,MS,39503,
12400.0,DEPEW RD,Gulfport,MS,39503,
38102.0,CROWN CT,BRANDON,MS,39042,
179.0,SUNNY LN,BRANDON,MS,39042,
196.0,SLADE RD,MORTON,MS,39117,
181.0,SHADY LAKE SUB,PARIS,MS,72855,
2432.0,CABERNET CIR,BRANDON,MS,39047,
655.0,OLD HWY 49 S,RICHLAND,MS,39218,
2473.0,GINA DR,PEARL,MS,39208,
1045.0,FLYNT DR,FLOWOOD,MS,39232,3.0
800.0,WOODLAND PINE,FLOWOOD,MS,39232,
1708.0,25TH AVE,Gulfport,MS,39501,
127.0,GORE RD,LENA,MS,39094,
106.0,CARNES ST,Gulfport,MS,39503,
23.0,MARSEILLES ST,BRANDON,MS,39047,
421.0,PECAN BLVD,BRANDON,MS,39042,
11510.0,CHRISTIAN PL,Gulfport,MS,39503,
1116.0,ELLINGTON CT,BRANDON,MS,39042,
144.0,N LAKESIDE CT,RICHLAND,MS,39218,
4004.0,BAY BRIDGE DR,FLOWOOD,MS,39232,
86.0,TERRAPIN DR,BRANDON,MS,39042,
3064.0,HWY 80 E,PEARL,MS,39208,
11384.0,DOGWOOD TRL,Gulfport,MS,39503,
1.0,LAMPLIGHTER RD,PEARL,MS,39208,
162.0,JOHN LEWIS RD,FLORENCE,MS,39073,
169.0,BEECHWOOD CIR,PEARL,MS,39208,
173.0,CLEAR BRANCH RD,FLORENCE,MS,39073,
143.0,SAMPLE LN,SANDHILL,MS,39161,
1911.0,22ND AVE,Gulfport,MS,39501,
309.0,SILTSTONE RIDGE,BRANDON,MS,39047,
3522.0,PAYNE DR,FLOWOOD,MS,39232,
14027.0,PLANTATION OAKS DR,Gulfport,MS,39503,
1409.0,SECOND ST,PELAHATCHIE,MS,39145,
2282.0,UPPER DR,PEARL,MS,39208,
251.0,JOHNSON CIR,BRAXTON,MS,39044,
11840.0,KLEIN RD,Gulfport,MS,39503,
2836.0,BURMA DR,PEARL,MS,39208,
1029.0,SWEET HOME CHURCH RD N,PICKENS,MS,39146,
14229.0,OLD HWY 49,Gulfport,MS,39503,42.0
11119.0,ALLEN RD,Gulfport,MS,39503,
4823.0,HWY 49 S,STAR,MS,39167,
13815.0,GINGER LN,Gulfport,MS,39503,
133.0,DOGWOOD TR,BRANDON,MS,39047,
701.0,NORTH COLLEGE ST, ,MS, ,
125.0,PILOTS CV,BRANDON,MS,39042,
830.0,BIBURY PL,BRANDON,MS,39047,
1311.0,25TH AVE,Gulfport,MS,39501,
118.0,PINE RIDGE CIR,BRANDON,MS,39047,
440.0,CROSSPARK DR,PEARL,MS,39208,811.0
190.0,TEGARDEN RD,Gulfport,MS,39507,14.0
11413.0,MEMPHIS AVE,Gulfport,MS,39503,
109.0,SHEARWATER DR,OCEAN SPRINGS,MS,38801,
213.0,HUNTERS LN,BRANDON,MS,39042,
161.0,TED CIR,RICHLAND,MS,39218,
338.0,EMERALD WAY,BRANDON,MS,39047,
323.0,ADAMS ST,RICHLAND,MS,39218,
19.0,39TH ST,Gulfport,MS,3907,
11220.0,HUGHES RD,Gulfport,MS,39503,97.0
635.0,ELDORADO RD,PEARL,MS,39208,
509.0,GREENFIELD RIDGE WAY,BRANDON,MS,39042,
1343.0,FOXWOOD PL,Gulfport,MS,39507,
108.0,QUAIL FIELD RUN,BRANDON,MS,39042,
15010.0,DAWNLAND DR,Gulfport,MS,39503,
340.0,TRADEWIND CV,BRANDON,MS,39042,
148.0,MICHEL ST,BRANDON,MS,39042,
121.0,LINEAGE LN,FLOWOOD,MS,39232,
503.0,GRIMES ST,PELAHATCHIE,MS,39145,
119.0,BOWMAN LN,BRANDON,MS,39042,
486.0,SPRINGWOOD CT,Gulfport,MS,39507,
304.0,RAIL SPIKE RD,BRANDON,MS,39042,
875.0,LIBERTY RD,FLOWOOD,MS,39233,
3127.0,GREENFIELD RD,PEARL,MS,39208,285.0
104.0,PINE PARK DR,PEARL,MS,39208,
100.0,OAK GROVE DR,BRANDON,MS,39047,
161.0,POST HILL RD,JACKSON,MS,39298,
4191.0,HWY 49 S,STAR,MS,39167,
310.0,GILCHRIST DR,PEARL,MS,39208,
11111.0,HIGHLAND AVE,Gulfport,MS,39503,1313.0
5118.0,HWY 80 E,PEARL,MS,39208,24.0
2932.0,HWY 468,PEARL,MS,39208,
530.0,RICHLAND CIR,RICHLAND,MS,39218,
805.0,HIGHLAND CT,BRANDON,MS,39047,
1023.0,BARKER RD,JACKSON,MS,39209,
1045.0,CENTRE POINTE DR,BRANDON,MS,39042,
419.0,PROVIDENCE DR,BRANDON,MS,39042,
730.0,WHIPPOORWILL DR,BRANDON,MS,39047,
3064.0,HWY 80 E,PEARL,MS,39208,29.0
401.0,PROVISION PKWY,BRANDON,MS,39042,
514.0,SHALOM WAY,FLOWOOD,MS,39232,
14180.0,O'NEAL RD,Gulfport,MS,39503,11.0
505.0,GRANDVIEW CT,PEARL,MS,39208,
15260.0,VAN BUREN ST,Gulfport,MS,39501,
107.0,FIRECREST DR,BRANDON,MS,39042,
13421.0,WINDRIDGE DR,Gulfport,MS,39503,
744.0,HUINTER HL,BRANDON,MS,39047,
1197.0,HWY 13 N,BRANDON,MS,39042,
1482.0,CHELSEA LN,RICHLANDG,MS,39218,
12196.0,BOLES BLVD,Gulfport,MS,39503,
1038.0,MULLICAN RD, ,MS, ,
115.0,STULL RD,BRANDON,MS,39047,
138.0,APPLERIDGE DR,BRANDON,MS,39042,
137.0,REDBUD TR,BRANDON,MS,39047,
0.0,EAGLE POINT RD,OCEAN SPRINGS,MS,39564,
1300.0,MONTEREY RD,PEARL,MS,39208,
3569.0,OLD BRANDON RD,PEARL,MS,39208,65.0
109.0,BLACKBERRY CIR,BRANDON,MS,39042,
12373.0,CRESTVIEW CT,Gulfport,MS,39503,
1900.0,SWITZER RD,Gulfport,MS,39507,2304.0
177.0,LAKEBEND CIR,BRANDON,MS,39042,
1200.0,BEACH DR,Gulfport,MS,39507,207.0
508.0,HAYDEN DR,Gulfport,MS,39507,
291.0,WINTERFIELD CT,BRANDON,MS,39042,
41.0,E   PIER RD,Gulfport,MS,39501,
180.0,NICHOLS DR,BRANDON,MS,39042,
76.0,SPRINGVIEW DR,BRANDON,MS,39042,
204.0,NELSON CIR,PEARL,MS,39208,
210.0,GAMBLE CT,OCEAN SPRINGS,MS,39564,
214.0,SHADY LN,RICHLAND,MS,39218,
1287.0,CENTURY OAKS DR,Gulfport,MS,39507,
312.0,NORTH ST,BRANDON,MS,39042,
723.0,BROOKWOOD CIR,BRANDON,MS,39042,
110.0,HONEY CIR,BRANDON,MS,39042,
615.0,S PEARSON RD,PEARL,MS,39208,2007.0
2255.0,SWITZER RD,Gulfport,MS,39507,
1901.0,SWITZER RD,Gulfport,MS,39507,1.0
304.0,PEACHTREE ST,BRANDON,MS,39042,
1043.0,SPANISH OAK DR,PEARL,MS,39208,
463.0,WIMBLEDON DR,BRANDON,MS,39047,
2541.0,CLEARY RD,FLORENCE,MS,39073,
100.0,RIDGETOP CIR,FLOWOOD,MS,39232,
142.0,ANNIE BURCH DR,BRAXTON,MS,39044,
13141.0,THREE RIVERS RD,Gulfport,MS,39503,124.0
431.0,W SUNSET DR,BRANDON,MS,39042,
10581.0,SHARP BLVD,Gulfport,MS,39503,
14221.0,O'NEAL RD,Gulfport,MS,39503,
145.0,COUNTRY DR,BRANDON,MS,39042,
500.0,AVALON WAY,BRANDON,MS,39047,1108.0
243.0,LODI DR,BRANDON,MS,39043,
647.0,WESTHILL RD,BRANDON,MS,39042,
15235.0,O'NEAL RD,Gulfport,MS,39503,
370.0,GRAY RD,PELAHATCHIE,MS,39145,
348.0,LAKEBEND DR,BRANDON,MS,39042,
346.0,DANBY CT,BRANDON,MS,39047,
491.0,MT CREEK FARM RD,FLORENCE,MS,39073,
111.0,PINE RD,BRANDON,MS,39047,
4091.0,HWY 18,BRANDON,MS,39042,
225.0,SARATOGA DR,OCEAN SPRINGS,MS,39564,
108.0,WATER WELL RD,BRANDON,MS,39042,
700.0,TREELINE DR,BRANDON,MS,39042,
133.0,W LISA DR,PEARL,MS,39208,
135.0,HENDERSON LN,JACKSON,MS,39208,
145.0,CODY LN,BRANDON,MS,39042,
139.0,BOOTH CIR,OCEAN SPRINGS,MS,39564,
110.0,CHINKAPIN CV,PEARL,MS,39208,
16487.0,CRESTWOOD CT,Gulfport,MS,39503,
104.0,S   KERNS DR,Gulfport,MS,39503,
119.0,HANGING MOSS RD,RICHLAND,MS,39218,
1414.0,RUBY POINTE,FLOWOOD,MS,39232,
12205.0,FIVE OAKS DR,Gulfport,MS,39503,
250.0,BURNHAM DR,PELAHATCHIE,MS,39145,
219.0,MEADOWVIEW LN,BRANDON,MS,39047,
73.0,HIDDEN RANCH RD,FLORENCE,MS,39073,
2003.0,CROSS POINT CV,BRANDON,MS,39042,
1701.0,LIVE OAK CT,NCBC,MS,39501,
500.0,MULLICAN RD,FLORENCE,MS,39073,
11596.0,KLEIN RD,Gulfport,MS,39503,
136.0,AMANDA DR,PEARL,MS,39208,
574.0,MULLICAN RD,FLORENCE,MS,39073,
109.0,CLOVER VALLEY BLVD,BRANDON,MS,39047,
242.0,GATEWOOD DR,FLOWOOD,MS,39232,
13360.0,SEAWAY RD,Gulfport,MS,39503,
3334.0,E LISA DR,PEARL,MS,39208,
108.0,DEBORAH DR,BRANDON,MS,39042,
200.0,JACKS PL,BRANDON,MS,39047,
108.0,UNO CIR,PEARL,MS,39208,
119.0,NOVELLA CV,FLORENCE,MS,39073,
108.0,DANUBE ST,Gulfport,MS,39501,
4248.0,HWY 43 N,BRANDON,MS,39047,
4715.0,HEWES AVE,Gulfport,MS,39507,3.0
501.0,HARDY AVE,Gulfport,MS,39501,
540.0,HICKORY PL,BRANDON,MS,39047,
212.0,TRACE DR,PEARL,MS,39208,
1133.0,20TH AVE,Gulfport,MS,39501,
112.0,WATER TANK RD,FLORENCE,MS,39073,
13051.0,OAKBERRY LN,Gulfport,MS,39503,
307.0,GLADEVIEW PL,BRANDON,MS,39047,
1200.0,IOLA RD,OCEAN SPRINGS,MS,39564,
1004.0,COLLEGE SOUTH CV,BRANDON,MS,39042,
113.0,ROSEBUD DR,BRANDON,MS,39047,
230.0,LAKELAND DR,BRANDON,MS,39043,
311.0,MONTEREY RD,RICHLAND,MS,39218,
19595.0,CHAMPION CIR,Gulfport,MS,39503,
411.0,BRIGHTON CT,BRANDON,MS,39047,
2347.0,CLEARY RD,FLORENCE,MS,39073,
217.0,TERRAPIN CREEK RD,BRANDON,MS,39042,
108.0,CEDAR RIDGE DR,BRANDON,MS,39042,
1241.0,PASS RD,Gulfport,MS,39501,
16099.0,CRESTVIEW DR,Gulfport,MS,39503,
119.0,FORMOSA DR,BRANDON,MS,39047,
3103.0,8TH AVE,Gulfport,MS,39501,1304.0
31.0,CROSSWOODS RD,BRANDON,MS,39042,
615.0,S PEARSON RD,PEARL,MS,39208,2003.0
18422.0,LANDON RD,Gulfport,MS,39503,
628.0,SUMMER PL,FLOWOOD,MS,39232,
2252.0,BEACH DR,Gulfport,MS,39507,1804.0
115.0,HUNTERS OAK CV,BRANDON,MS,39047,
178.0,BURNETT CIR,BRANDON,MS,39047,
617.0,WILLOW COURT CIR,BRANDON,MS,39047,
116.0,PINE RIDGE CIR,BRANDON,MS,39047,
1175.0,STAR RD,BRANDON,MS,39042,
160.0,AQUA WAY,PEARL,MS,39208,
380.0,FERNWOOD CV,PEARL,MS,39208,
10082.0,HUTTER RD,Gulfport,MS,39503,
405.0,WOODY CIR,OCEAN SPRINGS,MS,39564,
103.0,SUSAN LN,BRANDON,MS,39042,
412.0,SADDLEBROOK DR,PEARL,MS,39208,
2512.0,TRACY DR,Gulfport,MS,39503,
12911.0,COLES CV,Gulfport,MS,39503,
135.0,PINEVALE ST,FLOWOOD,MS,39232,
2151.0,HWY 18,BRANDON,MS,39042,
1009.0,DEBRA DR,Gulfport,MS,39503,
49.0,CROSSGATES DR,BRANDON,MS,39042,
5201.0,LAKELAND BLVD,FLOWOOD,MS,39042,120.0
6.0,HONEYSUCKLE HL,PEARL,MS,39208,
1045.0,FLYNT DR,FLOWOOD,MS,39232,3.0
217.0,MALLARD DR,BRANDON,MS,39047,
1044.0,ANTIOCH SHILOH RD,PELAHATCHIE,MS,39145,
521.0,SHALOM WAY,FLOWOOD,MS,39232,
113.0,AMETHYST LN,BRANDON,MS,39047,
15.0,CRESTVIEW CIR,BRANDON,MS,39042,
3064.0,HWY 80 E,PEARL,MS,39208,
70102.0,ROYAL CT,BRANDON,MS,39042,
216.0,DUCLAIR CT,BRANDON,MS,39042,
603.0,CAMP AVE,Gulfport,MS,39501,
169.0,EASY ST,BRAXTON,MS,39044,
3416.0,HERMITAGE CT,OCEAN SPRINGS,MS,39564,
19.0,SANDWAY DR,BRANDON,MS,39042,
238.0,LEWIS ST,BRANDON,MS,39042,
103.0,LAUREL PARK PL,PEARL,MS,39208,
559.0,WHITE OAK RD,FLORENCE,MS,39073,
86.0,LAMPLIGHTER RD,PEARL,MS,39208,
3908.0,18TH ST,Gulfport,MS,39501,
153.0,KING COLLIER RD,BRANDON,MS,39042,
2190.0,FLORENCE-BYRAM RD,FLORENCE,MS,39073,
947.0,ROCK HILL RD,BRAXTON,MS,39044,
5118.0,HWY 80 E,PEARL,MS,39208,5.0
6416.0,GRANTS FERRY RD,BRANDON,MS,39047,
167.0,LA GAIL,PEARL,MS,39208,
8204.0,GROVELAND RD,OCEAN SPRINGS,MS,39564,
891.0,ANTIOCH-SHILOH RD,PELAHATCHIE,MS,39145,
1280.0,ST JOHNS RD,JACKSON,MS,39212,
340.0,MT CREEK FARM RD,FLORENCE,MS,39073,
134.0,EASTVIEW DR,BRANDON,MS,39047,
957.0,ST JOHNS RD,BRAXTON,MS,39044,
67.0,BAYOU CIR,Gulfport,MS,39507,
101.0,BRENHAVEN PL,BRANDON,MS,39047,
405.0,DUNLIN CT,BRANDON,MS,39047,
108.0,THREE PRONG RD,BRANDON,MS,39047,
632.0,LEXINGTON DR,FLORENCE,MS,39073,
400.0,PEARLWOOD DR,PEARL,MS,39208,19.0
5022.0,HWY 80 E,PEARL,MS,39208,
116.0,HICKORY HILL CV,FLORENCE,MS,39208,
13050.0,SWEETWATER TRL,Gulfport,MS,39503,
79.0,EASTGATE DR,BRANDON,MS,39042,
264.0,CLEAR BRANCH RD,FLORENCE,MS,39073,
509.0,SEYMOUR AV,OCEAN SPRINGS,MS,39565,
1507.0,34TH AVE,Gulfport,MS,39501,
4108.0,11TH ST,Gulfport,MS,39501,
224.0,CROSSROADS RD,PELAHATCHIE,MS,39145,
412.0,TAHOE DR,PEARL,MS,39208,
561.0,THORNGATE CT,BRANDON,MS,39047,
3701.0,22ND ST,Gulfport,MS,39501,
2020.0,CAROLYN LN,PEARL,MS,39208,
13706.0,HOPEWELL LN,Gulfport,MS,39503,
113.0,TIFFANY DR,BRANDON,MS,39042,
63.0,HARDY COURT SHOPPING CENTER RD,Gulfport,MS,39507,
480.0,HICKORY RIDGE RD,FLORENCE,MS,39073,
14493.0,DUCKWORTH RD,Gulfport,MS,39503,
1921.0,43RD AVE,Gulfport,MS,39501,
2222.0,30TH ST,Gulfport,MS,39501,
3301.0,HARLE ST,PEARL,MS,39288,
2069.0,HWY 49 S,FLORENCE,MS,39073,
319.0,COURTNEY CIR,BRANDON,MS,39042,
13039.0,OAKBERRY LN,Gulfport,MS,39503,
106.0,VICTORIA PL,BRANDON,MS,39042,
15538.0,TOURIEL RD,Gulfport,MS,39503,95.0
13058.0,TRACEWOOD DR,Gulfport,MS,39503,
106.0,RHODES AV,PELAHATCHIE,MS,39145,
1201.0,HWY 49 S,RICHLAND,MS,39218,2.0
20008.0,WINDANCE WEST DR,Gulfport,MS,39503,
103.0,BAY HARBOUR PL,BRANDON,MS,39047,
379.0,GARDEN DR,BRANDON,MS,39042,
11241.0,LAURA LN,Gulfport,MS,39503,
1032.0,WAKEFIELD PL,BRANDON,MS,39047,
531.0,INDUSTRIAL DR,RICHLAND,MS,39218,1619.0
16.0,EAGLES POINT,BRANDON,MS,39047,
105.0,CUMBERLAND CT,BRANDON,MS,39047,
10615.0,SHARP BLVD,Gulfport,MS,39503,
3374.0,DAWN DR,PEARL,MS,39208,
458.0,OLD ENOCHS RD,FLORENCE,MS,39073,
407.0,APPLE BLOSSOM CV,BRANDON,MS,39047,
1631.0,CLEARY RD,RICHLAND,MS,39218,
3569.0,BEAUMONT DR,PEARL,MS,39208,
285.0,OAKWOOD DR,Gulfport,MS,39507,
117.0,WOODHAVEN RD,FLORENCE,MS,39073,
15049.0,REMINGTON DR,Gulfport,MS,39503,
1106.0,HARDY AVE,Gulfport,MS,39501,
117.0,KEN DR,BRANDON,MS,39042,
107.0,ARBOR LANDING,BRANDON,MS,39047,
128.0,FLORENCE AVE,BRANDON,MS,39047,
172.0,REGATTA DR,BRANDON,MS,39047,
12178.0,HWY 49,Gulfport,MS,39503,
289.0,HOLLOW OAK LN,BENTONIA,MS,39040,
700.0,BAY TREE DR,FLOWOOD,MS,39232,
1103.0,MARTIN DR,BRANDON,MS,39047,
111.0,GLEN ARBOR CT,BRANDON,MS,39042,
12469.0,PRESERVATION DR,Gulfport,MS,39503,
2468.0,STAR RD,FLORENCE,MS,39073,
20.0,FLEETWOOD DR,Gulfport,MS,39503,
2008.0,45TH AVE,Gulfport,MS,39501,
1045.0,FLYNT DR,FLOWOOD,MS,39232,2.0
111.0,BRADFORD CIR,OCEAN SPRINGS,MS,39564,
417.0,W SUNSET DR,BRANDON,MS,39042,
209.0,JEFFRIES DR,PEARL,MS,39208,
113.0,VILLAGE ROW,PEARL,MS,39208,
2823.0,25TH AVE,Gulfport,MS,39501,
817.0,ANDREW CHAPEL RD,BRANDON,MS,39042,
2067.0,MURRAY DR,PEARL,MS,39208,
159.0,ERLICH RD,FLORENCE,MS,39073,
130.0,GETTYSBURG CIR,OCEAN SPRINGS,MS,39564,
1704.0,21ST AVE,Gulfport,MS,39501,17.0
5.0,FERN CV,FLOWOOD,MS,39232,
510.0,TURTLE LN,BRANDON,MS,39047,
3127.0,GREENFIELD RD,PEARL,MS,39208,358.0
185.0,BEECHWOOD CIR,PEARL,MS,39208,
1511.0,19TH AVE,Gulfport,MS,39501,
541.0,EAST JASPER ST,BRANDON,MS,39042,
3624.0,JODY NELSON DR,Gulfport,MS,39507,
980.0,COURTHOUSE RD,Gulfport,MS,39507,724.0
122.0,HICKORY RIDGE RD,FLORENCE,MS,39073,
440.0,CROSSPARK DR,PEARL,MS,39208,1510.0
50.0,51ST ST,Gulfport,MS,39507,
108.0,VICKSBURG PL,OCEAN SPRINGS,MS,39759,
2623.0,W MOUNTAIN CREEK RD,FLORENCE,MS,39073,
521.0,RIDGE CREST DR,RICHLAND,MS,39218,
3103.0,8TH AVE,Gulfport,MS,39501,1303.0
201.0,LIGHTHOUSE LN,BRANDON,MS,39047,
126.0,PINNACLE CIR,BRANDON,MS,39047,
1417.0,JO ELLEN CIR,Gulfport,MS,39501,
213.0,MOSS VALLEY DR,BRANDON,MS,39042,
627.0,RED OAK RD,PELAHATCHIE,MS,39145,
1310.0,SHERWOOD DR,Gulfport,MS,39507,
3102.0,HUNTER AVE,Gulfport,MS,39501,
200.0,LAVELLE DR,Gulfport,MS,39503,
4612.0,W   RAILROAD ST,Gulfport,MS,39501,
13924.0,ASTER CIR,Gulfport,MS,39503,
500.0,AVALON WAY,BRANDON,MS,39047,302.0
317.0,BULLOCK CIR,RICHLAND,MS,39218,
12400.0,DEPEW RD,Gulfport,MS,39503,
109.0,BRYANT ST,OCEAN SPRINGS,MS,39564,
801.0,BELLE OAK PK,BRANDON,MS,39042,
905.0,BARKER RD,PELAHATCHIE,MS,39145,
9250.0,CANAL RD,Gulfport,MS,39503,
14.0,40TH ST,Gulfport,MS,39507,
200.0,SUNSET ST,FOREST,MS,39074,
307.0,WARREN AVE,PELAHATCHIE,MS,39145,
125.0,SPRINGHILL DR,PEARL,MS,39208,
3235.0,HWY 468,PEARL,MS,39208,
12.0,KEYSER LN,Gulfport,MS,39507,
200.0,FIVE OAKS TR,FLORENCE,MS,39073,
0.0,CARTER STORE RD,BRANDON,MS,39042,
108.0,SUMMERWOOD DR,PEARL,MS,39208,
126.0,VINEYARD BLVD,BRANDON,MS,39047,
1608.0,42ND AVE,Gulfport,MS,39501,
1437.0,MONTEREY RD,FLORENCE,MS,39073,
726.0,BIENVILLE BLVD,OCEAN SPRINGS,MS,38101,
11480.0,STANTON CIR,Gulfport,MS,39503,
351.0,EMERALD WAY,BRANDON,MS,39047,
3404.0,DAWN DR,PEARL,MS,39208,
1525.0,E   PASS RD,Gulfport,MS,39507,521.0
703.0,ALLENDALE AVE,Gulfport,MS,39501,
8156.0,S   CENTER ST,Gulfport,MS,39501,
2998.0,HWY 80 E,BRANDON,MS,39042,
111.0,PENNER ST,PEARL,MS,39208,
1215.0,36TH ST,Gulfport,MS,39501,
105.0,WHIPPOORWILL RD,BRANDON,MS,39047,
406.0,CATO CIR,PEARL,MS,39208,
1132.0,PASS RD,Gulfport,MS,39501,
326.0,HWY 49 S,RICHLAND,MS,39218,
419.0,JULEE CIR,BRANDON,MS,39042,
123.0,BLUEBIRD AVE,BRANDON,MS,39047,
122.0,DUO CIR,PEARL,MS,39208,
12409.0,QUAIL RIDGE RD,Gulfport,MS,39503,
115.0,MARBLE HEAD DR,BRANDON,MS,39047,
115.0,TRADITION PKWY,FLOWOOD,MS,39232,
15251.0,PARKWOOD DR N,Gulfport,MS,39503,
206.0,28TH ST,Gulfport,MS,39507,
307.0,WINTERFIELD CT,BRANDONE,MS,39042,
112.0,MELLOMEADE PKWY,BRANDON,MS,39047,
3403.0,QUEEN ELIZABETH DR,OCEAN SPRINGS,MS,39564,
205.0,WARWICK DR,BRANDON,MS,39042,
161.0,TWIN LAKES DR,BRANDON,MS,39047,
766.0,HWY 468,BRANDON,MS,39042,
1305.0,MUSE RD,FLORENCE,MS,39073,
298.0,THOMASVILLE RD,FLORENCE,MS,39073,
4209.0,NANCY ST,PEARL,MS,39208,
,MULLICAN RD,FLORENCE,MS,39073,
153.0,CLEARMONT CIR,PEARL,MS,39208,
100.0,RALPH DR,Gulfport,MS,39503,
105.0,BRIDGEPOINTE BLVD,BRANDON,MS,39047,
1290.0,GREENFIELD CIR,BRANDON,MS,39042,
103.0,WOODLANDS GLEN CIR,BRANDON,MS,39047,
405.0,TIMBER RIDGE WAY,BRANDON,MS,39047,
204.0,ALLISON CIR,Gulfport,MS,39503,
304.0,GREER DR,PEARL,MS,392887294,
240.0,ELDORADO RD,PEARL,MS,39208,
13037.0,JORDAN PL,Gulfport,MS,39503,
130.0,VICKSBURG AVE,RICHLAND,MS,39218,
14182.0,CHERRY CT,Gulfport,MS,39503,
203.0,W BRANDON CT,BRANDON,MS,39042,
169.0,PLANTATION BLVD,BRANDON,MS,39047,
1307.0,OAK HILL AVE,Gulfport,MS,39507,
2200.0,JONES PARK DR,Gulfport,MS,39501,
801.0,LAUREL DR,FLOWOOD,MS,39232,
2109.0,21ST AVE,Gulfport,MS,39501,
2401.0,PINE AVE,Gulfport,MS,39501,
140.0,N LAKESIDE CT,RICHLAND,MS,39218,
247.0,CENTRAL AVE,FLORENCE,MS,39073,
225.0,WILLIAMS CIR,FLOWOOD,MS,39232,
142.0,FERNWOOD LN,PEARL,MS,39208,
2129.0,LEESBURG RD,MORTON,MS,39117,
230.0,GRACE DR,FLOWOOD,MS,39232,
417.0,OLD WHITFIELD RD,PEARL,MS,39208,
194.0,SWAMP DR,PELAHATCHIE,MS,39145,
131.0,BENTLEY DR,BRANDON,MS,39042,
334.0,MARVIN SHIELDS BLVD,NCBC,MS,39501,
311.0,SOUTHWIND DR,RICHLAND,MS,39218,
631.0,28TH ST,Gulfport,MS,39501,
3306.0,GOVERNMENT ST,OCEAN SPRINGS,MS,39564,
108.0,GLENARTNEY ST,BRANDON,MS,39042,
3300.0,PASS RD,Gulfport,MS,39501,
209.0,EMERALD CIR,BRANDON,MS,39047,
12.0,HEATHER LN,Gulfport,MS,39503,
455.0,CROSSGATES BLVD,BRANDON,MS,39042,
339.0,TOWNE ST,BRANDON,MS,39042,
118.0,WATERWOOD DR,BRANDON,MS,39047,
13187.0,DEDEAUX RD,Gulfport,MS,39503,
120.0,BRADFORD CIR,OCEAN SPRINGS,MS,39564,
1034.0,JOSEPH AVE,Gulfport,MS,39501,
19383.0,LAKE VILLAGE DR W,Gulfport,MS,39503,
36.0,TIMBER RIDGE DR,BRANDON,MS,39042,
100.0,BOXWOOD PL S,BRANDON,MS,39047,
112.0,WILDWOOD LN,BRANDON,MS,39047,
401.0,COPPER RIDGE DR,FLORENCE,MS,39073,
545.0,FOREST DR,Gulfport,MS,39507,
257.0,CHERRY BARK DR,BRANDON,MS,39047,
171.0,BOWMAN DR,PELAHATCHIE,MS,39145,
450.0,OAK LAWN DR,PEARL,MS,39208,
337.0,SUNDANCE CIR,RICHLAND,MS,39218,
344.0,HWY 468,BRANDON,MS,39042,
257.0,ANN DR,ENCINTAS,MS,92024,
509.0,PLUM GROVE,BRANDON,MS,39047,
124.0,LAKE POINTE DR,PEARL,MS,39208,
210.0,IRON HORSE STATION,BRANDON,MS,39042,
2235.0,ALMAR RD,FLORENCE,MS,39073,
1019.0,38TH AVE,Gulfport,MS,39501,
608.0,BOATMANS CV,BRANDON,MS,39047,
2006.0,WINDY CV,BRANDON,MS,39042,
2806.0,50TH AVE,Gulfport,MS,39501,
259.0,BELLAMY CT,FLOWOOD,MS,39232,
11220.0,HUGHES RD,Gulfport,MS,39503,67.0
11.0,EASTGATE CT,BRANDON,MS,39042,
1000.0,34TH ST,Gulfport,MS,39501,
11310.0,ARTHUR DR,Gulfport,MS,39503,
108.0,BASSWOOD CIR,BRANDON,MS,39047,
356.0,S SWEET HOME CHURCH RD,PEARL,MS,39208,
2405.0,PINE CIRCLE DR,PEARL,MS,39208,
108.0,OFFICE PARK DR,BRANDON,MS,39042,
207.0,E LAKE DR,BRANDON,MS,39047,
,BRENDALWOOD BLVD,BRANDON,MS,39047,
5435.0,HWY 80 E,PEARL,MS,39208,
15235.0,O'NEAL RD,Gulfport,MS,39503,
4512.0,HILLTOP DR,OCEAN SPRINGS,MS,39564,
458.0,MANCHESTER DR,PEARL,MS,39288,
128.0,WOODLANDS GREEN DR,BRANDON,MS,39047,
109.0,SUNRIDGE PARK,Gulfport,MS,39507,
4248.0,HWY 43 N,BRANDON,MS,39047,
4191.0,HWY 49 S,FLORENCE,MS,39073,
1324.0,SHERWOOD DR,Gulfport,MS,39507,
1824.0,PRATT AVE,Gulfport,MS,39501,
66.0,CROSSGATES DR,BRANDON,MS,39042,
925.0,WILLOW GRANDE CIR,BRANDON,MS,39047,
208.0,GRACE DR,FLOWOOD,MS,39232,
529.0,OLYMPIC DR,BRANDON,MS,39042,
200.0,AZALEA CT,BRANDON,MS,39047,
1500.0,SHILOH CIR,OCEAN SPRINGS,MS,39564,
185.0,CHOTARD AVE,PEARL,MS,39208,
106.0,HERON CT,BRANDON,MS,39047,
228.0,BYRD RD,FLORENCE,MS,39073,
4715.0,HEWES AVE,Gulfport,MS,39507,284.0
3177.0,CANARY CT,NCBC,MS,39501,
520.0,VINE DR,BRANDON,MS,39047,3.0
4701.0,LAKELAND DR,FLOWOOD,MS,39232,
1700.0,65TH AVE,Gulfport,MS,39501,
314.0,CHRIS DR,BRANDON,MS,39042,
11167.0,CREEL CIR,Gulfport,MS,39503,
288.0,BOOKER LAKE RD,BRANDON,MS,39042,
129.0,BENT CREEK DR,BRANDON,MS,39047,
834.0,LEO PAUL,PEARL,MS,39208,
85.0,HILL CT,BRANDON,MS,39042,
3410.0,18TH ST,Gulfport,MS,39501,
117.0,MARBLE HEAD DR,BRANDON,MS,39047,
130.0,CAMP PIONEER RD,PEARL,MS,39288,
705.0,SHIRLEY DR,Gulfport,MS,39503,
615.0,SANDPIPER DR,BRANDON,MS,39047,
920.0,HOLLY BUSH RD,BRANDON,MS,39042,
113.0,QUEENS WOOD,BRANDON,MS,39047,
14221.0,O'NEAL RD,Gulfport,MS,39503,
3505.0,KITES AVE,PEARL,MS,39208,
2615.0,W   DAVID DR,Gulfport,MS,39503,
12407.0,HWY 49,Gulfport,MS,39503,6.0
2826.0,LAWNWOOD DR,OCEAN SPRINGS,MS,39564,
106.0,TOPAZ ST,FLORENCE,MS,39073,
109.0,W LEGACY,BRANDON,MS,39042,
234.0,PINEBROOK CR E,BRANDON,MS,390477817,
1756.0,CLEARY RD,RICHLAND,MS,39218,
611.0,WILDBERRY DR,PEARL,MS,39208,
711.0,WHIPPOORWILL DR,BRANDON,MS,39047,
674.0,SPRING LAKE DR,PEARL,MS,39208,
10480.0,KLEIN RD,Gulfport,MS,39503,195.0
615.0,S PEARSON RD,PEARL,MS,39208,1102.0
305.0,GREENBRIAR ST,BRANDON,MS,39047,
118.0,BRITTON CIR,FLOWOOD,MS,39232,
305.0,BRIARHILL RD,FLORENCE,MS,39073,
209.0,DEER RIDGE RD,BRANDON,MS,39042,
704.0,RUE RUAGE,OCEAN SPRINGS,MS,39564,
647.0,LOWE CIR,RICHLAND,MS,39218,
204.0,CARLINE SHOWS DR,FLORENCE,MS,39073,
13391.0,LOCUST HILL DR,Gulfport,MS,39503,
150.0,CROSSVIEW PL,BRANDON,MS,39047,
1634.0,21ST ST,Gulfport,MS,39501,
144.0,MAXINE DR,PEARL,MS,39208,
129.0,HIGHLAND DR,FLORENCE,MS,39073,
2197.0,COLLINS BLVD,Gulfport,MS,39507,
11238.0,CYPRESS BAYOU DR,Gulfport,MS,39503,
444.0,RANDALL DR,PEARL,MS,392884082,
3518.0,SOUTHWARD DR,Gulfport,MS,39501,
524.0,OAK RIDGE WAY,PEARL,MS,39208,
790.0,CLARA FOOTE RD,BRAXTON,MS,39044,
212.0,SOUTHGATE DR,RICHLAND,MS,39218,
227.0,JOHNS SHILOH RD,BRANDON,MS,39042,
11.0,HEMLOCK DR,BRANDON,MS,39042,
619.0,WILDBERRY DR,PEARL,MS,39208,
206.0,ARKANSAS AVE,Gulfport,MS,39507,
395.0,AUDUBON CIR,BRANDON,MS,39047,
15248.0,DEDEAUX RD,Gulfport,MS,39503,
2727.0,BURMA DR,PEARL,MS,39208,
461.0,S PEARSON RD,PEARL,MS,39208,
190.0,WESTVILLE RD,FLORENCE,MS,39073,
225.0,COPPER RIDGE WAY,FLORENCE,MS,39073,
101.0,BROOKS DR,BRANDON,MS,39047,
,IRONWOOD DR,FLORENCE,MS,39073,
731.0,TATUM DR,FLORENCE,MS,390730732,
12423.0,CRESTWOOD DR,Gulfport,MS,39503,
13080.0,TURTLE CREEK PKWY,Gulfport,MS,39503,
3440.0,KITES AV,PEARL,MS,39208,
124.0,ADAMS RD,BRANDON,MS,39047,
142.0,WILLOW CREST CIR,BRANDON,MS,39047,
216.0,BRADFORD PL,RICHLAND,MS,39218,
11405.0,ALLEN RD,Gulfport,MS,39503,
527.0,TAMMY DR,LAUREL,MS,39442,
332.0,ST PAUL,PEARL,MS,39208,
4617.0,GOLDFINCH DR,Gulfport,MS,39501,
16232.0,SADDLE DR,Gulfport,MS,39503,
251.0,THORNTON RD,BRANDON,MS,39042,
120.0,AMANDA DR,PEARL,MS,39208,
13922.0,OLIVERO PL,Gulfport,MS,39503,
3715.0,OAK AVE,Gulfport,MS,39507,
210.0,HIGHPOINTE DR,BRANDON,MS,39042,296.0
1.0,SPRING LAKE PT,PEARL,MS,39208,
11620.0,EASY ST,Gulfport,MS,39503,
135.0,CONERLY RD,BRAXTON,MS,39044,
10495.0,RIVERROAD DR,Gulfport,MS,39503,
140.0,FAUST DR,Gulfport,MS,39503,
483.0,WIMBLEDON DR,BRANDON,MS,39047,
3624.0,JODY NELSON DR,Gulfport,MS,39507,
991.0,JENKINS ST,PEARL,MS,39208,
2831.0,HWY 471,BRANDON,MS,39047,
1609.0,HOLLY BUSH RD,PELAHATCHIE,MS,39145,
106.0,PLUM TREE RD,BRANDON,MS,39047,
211.0,WELLINGTON WAY,BRANDON,MS,39047,
1911.0,GLORIA DR,PEARL,MS,39208,
130.0,BRIDLEWOOD DR,BRANDON,MS,39047,
14044.0,DUNBARTON DR,Gulfport,MS,39503,
509.0,PINE RIDGE RD,FLORENCE,MS,39073,
105.0,PECAN LN,STAR,MS,39167,
535.0,BRUIN AVE,PEARL,MS,39208,
915.0,OLD TOWNE ST,Gulfport,MS,39507,
617.0,HARBOR RIDGE DR,BRANDON,MS,39047,
122.0,BERMUDA CIR,PEARL,MS,39208,
104.0,CRIMSON LN,BRANDON,MS,39042,
1216.0,37TH AVE,Gulfport,MS,39501,
2451.0,W MT CREEK RD,FLORENCE,MS,39073,
1045.0,FLYNT DR,FLOWOOD,MS,39232,8.0
3267.0,CRAFTON,FLOWOOD,MS,39232,
643.0,N   FOREST DR,Gulfport,MS,39507,
3703.0,REYNOSA DR,Gulfport,MS,39501,
3308.0,NOTTINGHAM RD,OCEAN SPRINGS,MS,39564,
1361.0,OLD LAKE RD,BRANDON,MS,39042,
3235.0,BETTY DR,PEARL,MS,39208,
3939.0,21ST ST,Gulfport,MS,39501,
600.0,BAY PARK DR,BRANDON,MS,39047,
2700.0,ENGLISH DR,OCEAN SPRINGS,MS,39564,
203.0,S COLLEGE ST,BRANDON,MS,39042,6.0
7015.0,HWY 25,BRANDON,MS,39047,
531.0,WILLIAMS RD,FLORENCE,MS,39073,
107.0,CEDAR HILL PL,BRANDON,MS,39042,
14375.0,MAYS RD,Gulfport,MS,39503,
2108.0,BOARDMAN BLVD,Gulfport,MS,39507,
3209.0,CARDINAL DR,NCBC,MS,39501,
202.0,35TH ST,Gulfport,MS,39507,
156.0,GREENFIELD LN,PEARL,MS,39208,
66.0,OPAL CV,Gulfport,MS,39503,
3417.0,KITES AVE,BRANDON,MS,39047,
1800.0,E   BEACH BLVD,Gulfport,MS,39501,
203.0,JEFFERSON ST,RICHLAND,MS,39218,
3406.0,NOTTINGHAM RD,OCEAN SPRINGS,MS,39564,
2206.0,TAYLOR BLVD,Gulfport,MS,39507,
605.0,FERN VALLEY DR,PEARL,MS,39208,
227.0,COON HUNTERS RD,BRANDON,MS,39042,
379.0,SOUTHWIND DR,RICHLAND,MS,39218,
126.0,SURGERS PL,OCEAN SPRINGS,MS,39564,
1816.0,BIENVILLE BLVD,OCEAN SPRINGS,MS,39564,
500.0,AVALON WAY,BRANDON,MS,39047,115.0
107.0,SANDPIPER RD,BRANDON,MS,39047,
108.0,BOXWOOD CV,BRANDON,MS,39047,
412.0,OAK LAWN DR,PEARL,MS,39208,
623.0,CORBETT,PEARL,MS,39208,
26.0,PASS RD,Gulfport,MS,39507,
15235.0,O'NEAL RD,Gulfport,MS,39503,
12410.0,HIGHLAND DR,Gulfport,MS,39503,
1625.0,CLEARY RD,FLORENCE,MS,39073,
835.0,EAST HARPER ST,RICHLAND,MS,39218,
157.0,POST HILL RD,BRANDON,MS,390422038,
3823.0,HWY 80 E,PEARL,MS,39208,900.0
522.0,FOX RUN TRL,PEARL,MS,39208,7.0
143.0,TIMBER LN,RICHLAND,MS,39218,
3981.0,HWY 80 E,PELAHATCHIE,MS,39145,
201.0,BERRY DR,BRANDON,MS,39042,
247.0,SEVENTH DAY RD,FLORENCE,MS,39073,
203.0,MAGNOLIA TR,BRANDON,MS,39047,
1122.0,36TH ST,Gulfport,MS,39501,
5111.0,MEADOWOOD DR,BRANDON,MS,39042,
54.0,WESTRIDGE DR,BRANDON,MS,39047,
512.0,WILL DR,BRANDON,MS,39047,
1002.0,DENNY AV,OCEAN SPRINGS,MS,39564,
105.0,LINDA CIR,OCEAN SPRINGS,MS,39564,
12479.0,LAKELAND CT,Gulfport,MS,39503,
70.0,SPRINGVIEW DR,BRANDON,MS,39042,
1314.0,25TH AVE,Gulfport,MS,39501,
133.0,EAGLE DR,BRANDON,MS,39047,
5014.0,28TH ST,Gulfport,MS,39501,824.0
921.0,MT ELAM CHURCH RD,PEARL,MS,39208,
399.0,WIRE RD,PELAHATCHIE,MS,39145,
135.0,E MT CREEK RD,COLLIERVILLE,MS,38017,
103.0,MENDENHALL AV,RICHLAND,MS,39218,
162.0,BAYOU CIR,Gulfport,MS,39507,
3101.0,HARLE ST,PEARL,MS,39208,
15275.0,PARKWOOD DR N,Gulfport,MS,39503,
1709.0,KENSINGTON ST,OCEAN SPRINGS,MS,39564,
276.0,FOSTER RD,FLORENCE,MS,39073,
3527.0,BEAUMONT DR,PEARL,MS,39208,
415.0,ROBERTS ST,PEARL,MS,39208,
216.0,PATTON VILLAGE CV,PEARL,MS,39208,
4246.0,NANCY ST,FLOWOOD,MS,39232,
12336.0,BRITTANY BLVD,Gulfport,MS,39503,
12154.0,TON RD,Gulfport,MS,39503,
4248.0,HWY 43 N,BRANDON,MS,39047,
2828.0,56TH AVE,Gulfport,MS,39501,
102.0,PALISADES BLVD,BRANDON,MS,39047,
50.0,ALPINE PARK DR,BRANDON,MS,39047,
737.0,WHIPPOORWILL DR,BRANDON,MS,39047,
5014.0,28TH ST,Gulfport,MS,39501,911.0
211.0,LAKELAND DR,BRANDON,MS,39042,
833.0,HOLLY BUSH RD,BRANDON,MS,39047,
106.0,MICKIE DR,BRANDON,MS,39042,
1605.0,32ND AVE,Gulfport,MS,39501,
1133.0,20TH AVE,Gulfport,MS,39501,
337.0,PEMBERTON DR,PEARL,MS,39208,
376.0,ELDORADO LAKE DR,PEARL,MS,39208,
105.0,RED BIRD LN,PEARL,MS,39288,
344.0,ALLISTON DR,FLORENCE,MS,39073,
221.0,VILLAGE CV,PEARL,MS,39208,
1111.0,2ND ST,Gulfport,MS,39501,
332.0,KEITH AV,BRANDON,MS,39042,
1549.0,CHELSEA LN,RICHLAND,MS,39218,
3546.0,HWY 18,BRANDON,MS,39042,
,OLD WHITFIELD RD,PEARL,MS,39208,
305.0,GARDEN DR,BRANDON,MS,39042,
410.0,BRADFORD DR,BRANDON,MS,39047,
134.0,HILTON RD,FLORENCE,MS,39073,
17374.0,GENTRY DR,Gulfport,MS,39503,
8.0,FERN CV,FLOWOOD,MS,39232,
259.0,MALLARD DR,BRANDON,MS,39047,
609.0,TENNESSEE ST,Gulfport,MS,39501,
829.0,HARBOR BEND DR,VICKSBURG,MS,39180,
209.0,CIRCLE DR E,BRANDON,MS,39042,
520.0,SUSANNAH DR,BRANDON,MS,39047,
1911.0,19TH AVE,Gulfport,MS,39501,
13312.0,W   ECHO DR,Gulfport,MS,39503,
226.0,ALLISTON FARM PL,FLORENCE,MS,39073,
12317.0,ARLEDGE ST,Gulfport,MS,39503,
2011.0,HWY 471,BRANDON,MS,39047,
4207.0,OLD BRANDON RD,PEARL,MS,39208,
404.0,COVENTRY WAY,BRANDON,MS,39042,
123.0,ROLLINGWOOD DR,BRANDON,MS,39042,66.0
476.0,PINEBROOK CIR,BRANDON,MS,39047,
103.0,SANDSTONE DR,BRANDON,MS,39047,
305.0,BEDFORD CT,BRANDON,MS,39047,
494.0,HWY 468,BRANDON,MS,39042,
101.0,MAXINE LN,FLORENCE,MS,39073,101.0
254.0,MARY CRAPPS RD,PELAHATCHIE,MS,39145,
3910.0,BAYWOOD LN,OCEAN SPRINGS,MS,39564,
531.0,INDUSTRIAL DR,RICHLAND,MS,39218,818.0
263.0,BELLAMY CT,FLOWOOD,MS,39232,
17085.0,RACETRACK RD,Gulfport,MS,39503,
862.0,HWY 49 S,BRANDON,MS,39042,
331.0,BRADFORD DR,RICHLAND,MS,39218,
116.0,CLEARMONT CIR,PEARL,MS,39208,
290.0,CHURCH RD,BRANDON,MS,39047,
1220.0,PARKTOWN DR,OCEAN SPRINGS,MS,39564,
8120.0,LAVENDER ST,Gulfport,MS,39501,
113.0,QUEENS WOOD,BRANDON,MS,39047,
1432.0,CABERNET CIR,BRANDON,MS,39047,
403.0,BRENMAR ST,BRANDON,MS,39042,
632.0,MONTEREY RD,PEARL,MS,39208,
206.0,LAFAYETTE LN,FLOWOOD,MS,39232,
483.0,MCKINNEY AVE,NCBC,MS,39501,
110.0,OLD HWY 49 S,RICHLAND,MS,39218,
127.0,BARRON RD,FLORENCE,MS,39073,
333.0,WOODLAKE DR,BRANDON,MS,39047,
503.0,EAGLEWOOD DR,FLORENCE,MS,39073,
2000.0,PINEHAVEN DR,FLOWOOD,MS,39232,
402.0,WHITE OAK CV,FLORENCE,MS,39073,
12168.0,PARC AUX CHENES,Gulfport,MS,39503,
,FAIRFAX CIR,BRANDON,MS,39047,
14221.0,O'NEAL RD,Gulfport,MS,39503,
927.0,RED OAK RD,PELAHATCHIE,MS,39145,
307.0,AMBERWOOD CT,PEARL,MS,39208,
637.0,ELDORADO RD,JACKSON,MS,39225,
119.0,HAYNES CHAPEL RD,PELAHATCHIE,MS,39145,
213.0,PREWITT CIR,RICHLAND,MS,39218,
14310.0,CARRIAGE CIR,Gulfport,MS,39503,
148.0,CHESTNUT DR,BRANDON,MS,39047,
2056.0,OAK RIDGE DR,PEARL,MS,39208,
3535.0,HWY 80 E,PEARL,MS,39208,132.0
4503.0,JEFFERSON AVE,Gulfport,MS,39507,
105.0,BLUEBIRD LN,BRANDON,MS,39042,
5482.0,HWY 18,PUCKETT,MS,39151,
13200.0,HICKORY CT,Gulfport,MS,39503,
402.0,PISGAH RD,BRANDON,MS,39047,
102.0,RIVERWOOD PL,PEARL,MS,39208,
406.0,BULLOCK CIR,RICHLAND,MS,39218,
982.0,N BIERDEMAN RD,PEARL,MS,39208,
139.0,SUNSET ST,BRANDON,MS,39042,
512.0,WINDSOR DR,BRANDON,MS,39047,
210.0,ANDREW CHAPEL RD,BRANDON,MS,39042,
3682.0,HWY 471,BRANDON,MS,39047,
2997.0,HWY 49 S,FLORENCE,MS,39073,
3008.0,JACKSON ST,Gulfport,MS,39501,
202.0,DOGWOOD PL,FLOWOOD,MS,39232,
119.0,LAKEBEND CIR,BRANDON,MS,39042,
170.0,EL PINE RD,PELAHATCHIE,MS,39145,
2512.0,25TH AVE,Gulfport,MS,39501,
229.0,MANDARIN DR,BRANDON,MS,39047,
1100.0,SUSAN CV,BRANDON,MS,39042,
1460.0,STEEN'S CREEK DR,FLORENCE,MS,39073,
11072.0,ELLIS DR,Gulfport,MS,39503,
1092.0,ACADIAN DR,Gulfport,MS,39507,4.0
204.0,MARY DR,Gulfport,MS,39503,
13297.0,WISTERIA DR,Gulfport,MS,39503,
742.0,HWY 468,BRANDON,MS,39042,
3318.0,39TH AVE,Gulfport,MS,39501,
187.0,MALLARD DR,BRANDON,MS,39047,
123.0,REDBUD DR,BRANDON,MS,39047,
1919.0,24TH AVE,Gulfport,MS,39501,
559.0,CLUBHOUSE DR,PEARL,MS,39208,
238.0,GRACE DR,FLOWOOD,MS,39232,
260.0,LOWE CIR,RICHLAND,MS,39218,
222.0,PATTON VILLAGE CV,PEARL,MS,39208,
2520.0,HWY 468,PEARL,MS,39208,
403.0,SANDSTONE RIDGE,BRANDON,MS,39047,
727.0,OAKRIDGE DR N,BRANDON,MS,39047,
409.0,PINEBROOK CIR,BRANDON,MS,39047,
175.0,COON HUNTERS RD,BRANDON,MS,39042,
8110.0,VIRGINIA AVE,Gulfport,MS,39501,
301.0,WALKER CIR,DUNCAN,MS,293340218,
201.0,MIMOSA AV,PELAHATCHIE,MS,39145,
2104.0,NAPOLEON AV,PEARL,MS,39208,
311.0,ST JOE BLVD,PEARL,MS,39208,
310.0,BRENMAR ST,BRANDON,MS,39042,
