NUMBER,STREET,CITY,STATE,POSTCODE,UNIT
714,MILWAUKEE AVE,DEER LODGE,MT,59722,
220,1ST ST E,POLSON,MT,59860,
5200,THORPE RD,BELGRADE,MT,59714,
4511,PRAIRIE DR,HELENA,MT,59602,
301,EAGLE BEND DR,BIGFORK,MT,59911,
15,JAYHAWK LN,CASCADE,MT,59421,
13,1ST AVE N,OLNEY,MT,59927,
3225,40TH ST W,BILLINGS,MT,59106,
19730,N WAGNER RD,DODSON,MT,59538,
5502,CIRCLE DR,FLORENCE,MT,59833,
95,PETERSEN LN,DILLON,MT,59725,
6409,EU 1 DR,WOLF POINT,MT,59201,
105,KATHERINE CT,KALISPELL,MT,59901,
750,MOUNTAIN VIEW DR,KALISPELL,MT,59901,
30953,MISSION CREEK RD,ST IGNATIUS,MT,59865,
36258,4TH ST N,PABLO,MT,59855,
42,HERSRUD RD,COLUMBUS,MT,59019,
962,WESTSIDE RD,HAMILTON,MT,59840,
409,EVERETT DR,BILLINGS,MT,59102,
1924,5TH AVE S,GREAT FALLS,MT,59405,
884,BITTERROOT DR,MARION,MT,59925,
255,ASHLEY CT W,BILLINGS,MT,59105,
28995,SOUTHSIDE RD,ALBERTON,MT,59820,
2143,HIGHWAY 2 W,LIBBY,MT,59923,
3478,BIRKLAND DR,HELENA,MT,59602,
721,10TH AVE S,GREAT FALLS,MT,59405,
6559,MT HIGHWAY 200,PLAINS,MT,59859,
412,E 7TH AVE,BIG TIMBER,MT,59011,
207,W SEBREE ST,DILLON,MT,59725,
39314,SUNCREST LN,POLSON,MT,59860,
3662,CHALK BUTTE RD,CUT BANK,MT,59427,
25770,US HIGHWAY 2,CUT BANK,MT,59427,
1107,BOAT CLUB DR,BIGFORK,MT,59911,
1224,S MONTANA AVE,BOZEMAN,MT,59715,
5147,ROAD 1072,WOLF POINT,MT,59201,
104,BEARPAW CT,VICTOR,MT,59875,
100,CASH RD,MOLT,MT,59057,
,1ST ST,EAST GLACIER PARK,MT,59434,
420,FULLER AVE,HELENA,MT,59601,
256,BISON TRL,BOZEMAN,MT,59718,
183,BECK LN,FLORENCE,MT,59833,
2950,YORK RD,HELENA,MT,59602,
103,ALICE AVE,HAMILTON,MT,59840,
3022,GOLDEN ACRES DR,BILLINGS,MT,59106,
162,LARCH LN,SEELEY LAKE,MT,59868,
35,ALTHOFF RD,BRIDGER,MT,59014,
194,LOST HORSE RD,HAMILTON,MT,59840,
4355,HIGHWAY 91 S,DILLON,MT,59725,
431,COLUMBINE CT,GREAT FALLS,MT,59405,
14,4TH AVE N,GLASGOW,MT,59230,
122,9TH AVE SW,CHOTEAU,MT,59422,
240,31ST AVE S,GREAT FALLS,MT,59405,
935,S LAKE ACCESS RD,SACO,MT,59261,
333,AIRPORT RD,LEWISTOWN,MT,59457,
65,AIRPORT RD,PLENTYWOOD,MT,59254,
311,2ND ST E,CHINOOK,MT,59523,
709,W MONTANA ST,LEWISTOWN,MT,59457,
2775,BUNKHOUSE PL,MISSOULA,MT,59808,
1301,LOCKEY AVE,HELENA,MT,59601,
17,WAGONEER DR,COLSTRIP,MT,59323,
995,DAMARELL RD,BOZEMAN,MT,59718,
1130,CRUISER LN,BELGRADE,MT,59714,
5,E HICKORY ST,THREE FORKS,MT,59752,
160,SCHOOLHOUSE LOOP,KALISPELL,MT,59901,
6155,MCGEE LN,HELENA,MT,59602,
1320,BOZEMAN ST,HELENA,MT,59601,
317,1ST AVE E,KALISPELL,MT,59901,
210,W MAIN ST,VIDA,MT,59274,
1855,HOMESTEAD DR,MISSOULA,MT,59808,
921,E PARK AVE,ANACONDA,MT,59711,
34572,CLAIRMONT RD,PABLO,MT,59855,
1000,MICHAEL LN,BILLINGS,MT,59105,
3540,TERRY AVE,BILLINGS,MT,59102,
365,COCLET LN,KALISPELL,MT,59901,
2565,MARIAH DR,EAST HELENA,MT,59635,
2725,CHISHOLM DR,COLSTRIP,MT,59323,
43,MEADOWLARK DR,KALISPELL,MT,59901,
680,S 20TH ST W,BILLINGS,MT,59102,
3232,AVENUE F,BILLINGS,MT,59102,
10807,FRENCHMAN RD,SACO,MT,59261,
3101,2ND ST NE,GREAT FALLS,MT,59404,
301,OHIO ST,CHINOOK,MT,59523,
404,N 9TH ST,COLUMBUS,MT,59019,
2220,RUDDY DUCK DR,KALISPELL,MT,59901,
2951,S 51ST ST W,BILLINGS,MT,59106,
301,N HAYDEN ST,WEST YELLOWSTONE,MT,59758,
407,MAIN ST,WILLOW CREEK,MT,59760,
803,5TH AVE N,GLASGOW,MT,59230,
299,FAIRWAY DR,WHITEFISH,MT,59937,
128,W CEDAR ST,FORSYTH,MT,59327,
409,S EXCELSIOR AVE,BUTTE,MT,59701,
415,DUTCH HILL RD,HAMILTON,MT,59840,
4625,BLANKENSHIP RD,COLUMBIA FALLS,MT,59912,
115,MAIN ST N,BAKER,MT,59313,
540,MORRELL CREEK DR,SEELEY LAKE,MT,59868,
5895,HIGHWAY 93 S,SOMERS,MT,59932,
126,CENTER ST,HARRISON ,MT,59735,
202,E CASCADE AVE,BELGRADE,MT,59714,
301,E KANSAS ST,FORT PECK,MT,59223,
1224,E SECOND ST,BUTTE,MT,59701,
4100,BUFFALO TRAIL RD,MOLT,MT,59057,
4022,SOUTH AVE W,MISSOULA,MT,59804,
725,EAST GALLATIN ST,LIVINGSTON,MT,59047,
509,S SANDERS ST,HELENA,MT,59601,
43,YELLOWSTONE AVE,BILLINGS,MT,59101,
2325,MCDONALD DR,EAST HELENA,MT,59635,
2924,STATE HIGHWAY 66,ZORTMAN,MT,59546,
30556,S FORK YAAK RD,TROY,MT,59935,
421,PINE CREEK RD,TROY,MT,59935,
428,S ROBERTS ST,HELENA,MT,59601,
821,16TH ST W,BILLINGS,MT,59102,
3716,HIGHWAY 1 W,LAUREL,MT,59044,
326,JEFFERSON ST,BILLINGS,MT,59101,
36296,MUD CREEK LN,RONAN,MT,59864,
1924,W STEVENS ST,BOZEMAN,MT,59718,
2012,W MAIN ST,BOZEMAN,MT,59718,
28,SOUTHERN CROSS RD,ANACONDA,MT,59711,
30,6TH AVE E,MELSTONE,MT,59054,
1141,W MERCURY ST,BUTTE,MT,59701,
123,SHELTER VW,KALISPELL,MT,59901,
1411,DICKINSON ST,MISSOULA,MT,59802,
3225,SPOKANE CREEK RD,EAST HELENA,MT,59635,
120,SHORT PINE DR,KALISPELL,MT,59901,
556,GUETTLER RD,HELENA,MT,59602,
1950,WHALEBONE DR,KALISPELL,MT,59901,
610,BLACKTAIL RD,LAKESIDE,MT,59922,
132,CUSTER AVE,BILLINGS,MT,59101,
28,DOUBLETREE DR,BIGFORK,MT,59911,
902,AVENUE C,BILLINGS,MT,59102,
55,RAINBOW LN,LIBBY,MT,59923,
2400,LOWER NORTH FORK RD,WISE RIVER,MT,59762,
1395,HIGHWAY 83,BIGFORK,MT,59911,
623,N B ST,LIVINGSTON,MT,59047,
633,E 3RD AVE S,COLUMBUS,MT,59019,
5174,AVALON LN,LOLO,MT,59847,
134,HEATHER LN,GLASGOW,MT,59230,
407,WICKES,BOULDER,MT,59632,
716,S TRACY AVE,BOZEMAN,MT,59715,
150,POLLYWOG LN,BELGRADE,MT,59714,
11510,KONA RANCH RD,MISSOULA,MT,59804,
1010,DEARBORN AVE,HELENA,MT,59601,
574,TIMBERLANE,SEELEY LAKE,MT,59868,
7474,LEDGER RD,LEDGER,MT,59456,
3725,CENTRAL AVE,GREAT FALLS,MT,59401,
11775,VALIER-CUT BANK HWY,VALIER,MT,59486,
1046,DICKENS AVE,BILLINGS,MT,59105,
92,PERIMETER RD,SAINT MARIE,MT,59231,
32,WHITEPINE CREEK RD,TROUT CREEK,MT,59874,
155,AURORA LIGHTS DR,BIG SKY,MT,59716,
234,DEER ST,CORAM,MT,59913,
160,BEECH ST,AUGUSTA,MT,59410,
530,SPRUCE DR,SEELEY LAKE,MT,59868,
5759,HIGHWAY 91 S,DILLON,MT,59725,
301,W PARK AVE,BRIDGER,MT,59014,
2929,MILES AVE,BILLINGS,MT,59102,
165,SOUTHSHORE RD,WEST YELLOWSTONE,MT,59758,
831,TEN MILE RD,TERRY,MT,59349,
510,FRONT ST,LIVINGSTON,MT,59047,
508,EVANS ST,BAINVILLE,MT,59212,
61,WOODBINE PL,BIG SKY,MT,59716,
110,SOMMERS ST,MISSOULA,MT,59802,
350,S BILLINGS BLVD,BILLINGS,MT,59101,
9440,BRIDGER CANYON RD,BOZEMAN,MT,59715,
453,LODGEPOLE RD,WHITEFISH,MT,59937,
616,1ST AVE NW,HUNGRY HORSE,MT,59919,
5831,HWY 7,WIBAUX,MT,59353,
20220,SLEEPY CT,FRENCHTOWN,MT,59834,
431,FAIRWAY VIEW DR,LAUREL,MT,59044,
1383,STILLWATER RIVER RD,NYE,MT,59061,
8083,HIGHWAY 35,BIGFORK,MT,59911,
90,TIZER LAKE,JEFFERSON CITY,MT,59638,
31,ELK HAVEN CT,WHITE SULPHUR SPRINGS,MT,59645,
2035,EMMONS CANYON RD,KILA,MT,59920,
379,BOHL AVE,BILLINGS,MT,59105,
555,TRAP RD,COLUMBIA FALLS,MT,59912,
850,STAR RD,HELENA,MT,59602,
2808,15TH AVE S,GREAT FALLS,MT,59405,
1803,BANNACK DR,BILLINGS,MT,59105,
50,HEDGES LN,CARDWELL ,MT,59721,
1409,6TH ST NW,GREAT FALLS,MT,59404,
232,CEDAR CREEK RD,PLAINS,MT,59859,
11842,PRYOR RD,BILLINGS,MT,59101,
275,N FERGUSON AVE,BOZEMAN,MT,59718,
3,SPOTTED HORSE TRL,ABSAROKEE,MT,59001,
5221,BLACK STONE CIR,BILLINGS,MT,59106,
312,ANDREA DR,BELGRADE,MT,59714,
520,9TH AVE W,KALISPELL,MT,59901,
1101,SNYDER AVE,GLENDIVE,MT,59330,
4062,BROADWATER ST,BOZEMAN,MT,59718,
320,ASPEN ST,HUNGRY HORSE,MT,59919,
2210,LIME KILN RD,HELENA,MT,59601,
2200,W DICKERSON ST,BOZEMAN,MT,59718,53
2937,WARBLER WAY,BOZEMAN,MT,59718,
2228,PUEBLO DR,BILLINGS,MT,59102,
2315,HUMBLE RD,MISSOULA,MT,59804,
1500,OKLAHOMA STAR TRL W,BILLINGS,MT,59105,
51,HYVONEN RD,ROBERTS,MT,59070,
77,HUDSON BAY RD,BROWNING,MT,59417,
443,OSBORN AVE,BIGFORK,MT,59911,
2535,SPURGIN RD,MISSOULA,MT,59804,
4952,DANFORD DR,BILLINGS,MT,59106,
1923,7TH AVE N,GREAT FALLS,MT,59401,
11040,CAT CREEK RD,WINNETT,MT,59087,
2110,HERITAGE DR,HAVRE,MT,59501,
368,PONDEROSA ST,KALISPELL,MT,59901,
180,POINT WAY,SEELEY LAKE,MT,59868,
54,MACKINAW WAY,SOMERS,MT,59932,
1202,IDAHO ST,BELGRADE,MT,59714,
88,OUSEL FALLS RD,BIG SKY,MT,59716,
7752,HIGHWAY 12,BAKER,MT,59313,
415,BROADWAY AVE S,RED LODGE,MT,59068,
3260,MCMASTERS RD,BILLINGS,MT,59101,
5285,KERR DR,HELENA,MT,59602,
327,WHITE STAR CIR,BILLINGS,MT,59106,
1520,VALLEY FORGE RD,HELENA,MT,59602,
8645,SYPES CANYON RD,BOZEMAN,MT,59715,
621,ECHO RETREAT DR,BIGFORK,MT,59911,
27901,NORRIS RD,BOZEMAN,MT,59718,82
104,JUDITH CT,POLSON,MT,59860,
2833,MOONDANCE TRL,STEVENSVILLE,MT,59870,
402,PARK AVE,SHELBY,MT,59474,
217,N CLARK ST,BUTTE,MT,59701,
41,2ND AVE S,HUNGRY HORSE,MT,59919,
412,CENTRAL AVE,PARADISE,MT,59856,
805,SUNSET BLVD,CONRAD,MT,59425,
1411,MONTANA AVE,LIBBY,MT,59923,
131,ANDREA DR,BELGRADE,MT,59714,4
3331,N 27TH AVE,BOZEMAN,MT,59718,9
2902,FARMALL ST,BOZEMAN,MT,59718,
878,LAKNAR LN,DILLON,MT,59725,
4640,WALDBILLIG RD,CONDON,MT,59826,
112,MOUNTAIN VIEW BLVD,CUT BANK,MT,59427,
119016,BATTLE RIDGE RD,BUTTE,MT,59750,
422,N HIGGINS AVE,MISSOULA,MT,59802,
1816,FARRAGUT AVE,BUTTE,MT,59701,
1025,MENDOCINO DR,HELENA,MT,59601,
2217,8TH AVE N,GREAT FALLS,MT,59401,
306,ZEPHYR LN,HELENA,MT,59602,
2410,S 5TH ST W,MISSOULA,MT,59801,
1826,OLD DARBY RD,HAMILTON,MT,59840,
205,4TH AVE SE,RONAN,MT,59864,
2228,E CRESCENT DR,MISSOULA,MT,59803,
603,CURLEY BEAR RD,BIG SKY,MT,59716,
10,2ND LN SE,FAIRFIELD,MT,59436,
221,LOG YARD CT,BIGFORK,MT,59911,
2520,ELM ST,BUTTE,MT,59701,
1018,22ND ST W,BILLINGS,MT,59102,
,WYOMING ST,BUTTE,MT,59701,
3355,WHITEFISH STAGE,KALISPELL,MT,59901,
73862,BLODGETT LN,ARLEE,MT,59821,
1315,UTAH AVE,LIBBY,MT,59923,
235,DWYER RD,DAGMAR,MT,59219,
221,N 3RD ST,PLEVNA,MT,59344,
3735,GALLOWAY ST,BOZEMAN,MT,59718,
118,KERI ST,MANHATTAN,MT,59741,
176,CEDAR STREET EXT,LIBBY,MT,59923,
2425,PREVOST TRL,BUTTE,MT,59701,
19,MONTANA AVE W,BAKER,MT,59313,
1225,REDWING DR HOUSE,BOZEMAN,MT,59715,
1130,TWO MILE DR,KALISPELL,MT,59901,
224,7TH AVE S,SHELBY,MT,59474,
65,WINDWARD WAY,KALISPELL,MT,59901,
8964,JACK PINE DR,HELENA,MT,59602,
2940,W VILLARD ST,BOZEMAN,MT,59718,
105,KENNEDY AVE,EKALAKA,MT,59324,
708,SKYLINE DR NE,GREAT FALLS,MT,59404,
3397,LAVENDER DR,HELENA,MT,59602,
126,MAIN ST,CHESTER,MT,59522,
815,LONGBOW LN,BOZEMAN,MT,59718,
802,7TH AVE NW,CHOTEAU,MT,59422,
1040,EVERGREEN DR,BILLINGS,MT,59105,
524,1ST AVE,ST IGNATIUS,MT,59865,
38776,SLOAN BUTTES DR,RONAN,MT,59864,
1411,PLEASANT ST,MILES CITY,MT,59301,
906,S 1ST ST,HAMILTON,MT,59840,
805,ELKHORN,BOULDER,MT,59632,
96,MILLS SPRING RD,EUREKA,MT,59917,
796,QUAIL RUN RD,BOZEMAN,MT,59718,
326,N 14TH AVE,FORSYTH,MT,59327,
1820,S MARIPOSA LN,BILLINGS,MT,59102,
410,LOCUST ST,ANACONDA,MT,59711,
1502,WILLIAMSBURG RD,HELENA,MT,59602,
310,1ST AVE S,HOT SPRINGS,MT,59845,
2766,ANCABIDE LN,MISSOULA,MT,59803,
1243,YELLOWSTONE AVE,BILLINGS,MT,59102,
211,CEDAR ST,ANACONDA,MT,59711,
46349,STAGECOACH TRL,RONAN,MT,59864,
4545,AIRPORT RD,EUREKA,MT,59917,
418,GALENA RD,PHILIPSBURG,MT,59858,
1303,N 5TH ST,MILES CITY,MT,59301,
5520,CERKONEY LN,SHEPHERD,MT,59079,
17,LARIAT LOOP,BOZEMAN,MT,59715,
3075,HIGHWAY 93 S,KALISPELL,MT,59901,
5774,KRAUT LN,HELENA,MT,59602,
26546,SKOOKUM DR,ELMO,MT,59915,
200,MOUNTAIN VIEW DR,VICTOR,MT,59875,
722,WAVERLY PL,WHITEFISH,MT,59937,
2501,HALF HITCH DR,MISSOULA,MT,59808,
305,1ST ST N,FROID,MT,59226,
8,N ROUSE AVE,BOZEMAN,MT,59715,
330,S 2ND ST,LIVINGSTON,MT,59047,
493,KILA RD,KILA,MT,59920,
6,SEDORA DR,MANHATTAN,MT,59741,
4656,S WYOMING ST,BUTTE,MT,59701,
904,S 4TH AVE,PLAINS,MT,59859,
1126,MATADOR AVE,BILLINGS,MT,59105,
2120,MARINA CT,BIGFORK,MT,59911,
16191,HIGHLAND DR,FLORENCE,MT,59833,
11,SPENCER FARMS LN,FROMBERG,MT,59029,
125,W HILLTOP RD,BILLINGS,MT,59105,
5292,PIPE CREEK RD,LIBBY,MT,59923,
710,24TH RD NE,DUTTON,MT,59433,
226,SEGO RIDGE LN,HOBSON,MT,59452,
2312,SPRUCE ST,BILLINGS,MT,59101,
3644,CRATER LAKE AVE,BILLINGS,MT,59102,
8,HEDGES LN,CARDWELL ,MT,59721,
504,W GALENA ST,BUTTE,MT,59701,
2914,SUNRISE RD,HELENA,MT,59602,
2807,NIEHENKE DR,SIDNEY,MT,59270,
287,MAGDALENE WAY,BOZEMAN,MT,59718,
111,S 11TH AVE,BOZEMAN,MT,59715,
101,MARIAS ST,POLSON,MT,59860,
565,COLUMBIA AVE,WHITEFISH,MT,59937,
4933,CHESAPEAKE LN,DARBY,MT,59829,
412,W RAILROAD AVE,PLAINS,MT,59859,
1460,14TH RD NE,DUTTON,MT,59433,
89,ROAD 551,GLENDIVE,MT,59330,
1610,AVENUE F,BILLINGS,MT,59102,
1501,W QUARTZ ST,BUTTE,MT,59701,
387,S BOULDER RD,CARDWELL ,MT,59721,
606,S WALNUT ST,TOWNSEND,MT,59644,
820,FOURTH ST,BIG SANDY,MT,59520,
14232,HEBGEN LAKE RD,WEST YELLOWSTONE,MT,59758,
15,WAKEFIELD DR,BILLINGS,MT,59102,
2052,GLASSER PL,BILLINGS,MT,59102,
79371,US HIGHWAY 87,LEWISTOWN,MT,59457,
214,W RESERVOIR ST,LIVINGSTON,MT,59047,
1088,MADDEN LAKE RD,REXFORD,MT,59930,
14526,HIGHWAY 16,CULBERTSON,MT,59218,
240,SPEEDWAY AVE,MISSOULA,MT,59802,
130,MARTIN ST S,VICTOR,MT,59875,
3852,AVENUE D,BILLINGS,MT,59102,
421,N 6TH ST,LIVINGSTON,MT,59047,
365,10TH ST,EUREKA,MT,59917,
14,PONDEROSA LN,ROBERTS,MT,59070,
17,SUNNY SHORE LN,TROUT CREEK,MT,59874,
204,BIRCHWOOD DR,BILLINGS,MT,59102,
92,INDUSTRIAL WAY,LEWISTOWN,MT,59457,
2,MALLARD LN,BOZEMAN,MT,59718,
16,ROAD 120,GLENDIVE,MT,59330,
86,SHAKOPEE DR,ANACONDA,MT,59711,
401,ILLINOIS AVE,VALIER,MT,59486,
2979,ANDERSON CUTACROSS RD,WHITEWATER,MT,59544,
45787,SCHOOLHOUSE LN,CHARLO,MT,59824,
1385,87 E,BILLINGS,MT,59101,
609,1ST ST SW,PARK CITY,MT,59063,
270,BRIDGE ST,BIGFORK,MT,59911,
2129,US 89 HWY N,WHITE SULPHUR SPRINGS,MT,59645,
346,CHAFFIN CREEK RD,DARBY,MT,59829,
2310,UNIVERSITY WAY,BOZEMAN,MT,59715,
221,RIVERVIEW 2 E,GREAT FALLS,MT,59404,
220,TWELFTH ST W,HARDIN,MT,59034,
7,DENNIS LN,ASHLAND,MT,59003,
888,ADOBE DR,BILLINGS,MT,59105,
415,1ST AVE S,HARLEM,MT,59526,
100,STONER CREEK RD,LAKESIDE,MT,59922,
1407,LINCOLN ST,MILES CITY,MT,59301,
4818,SECRET VALLEY DR,BILLINGS,MT,59101,
615,4TH AVE N,FAIRFIELD,MT,59436,
109,N FIRST ST,BEARCREEK,MT,59007,
1215,LINHAVEN WY,BILLINGS,MT,59102,
120,E IDAHO ST,KALISPELL,MT,59901,
118,US HIGHWAY 89 S,GARDINER,MT,59030,
66138,US HWY 93,RONAN,MT,59864,
646,WALLSTREET RD,WOLF POINT,MT,59201,
4103,AUDUBON WY,BILLINGS,MT,59106,
185,SAGE GROUSE WAY,KALISPELL,MT,59901,
417,N LAST CHANCE GULCH,HELENA,MT,59601,
730,NEVADA AVE,BUTTE,MT,59701,
13715,SPRINGHILL RD,BELGRADE,MT,59714,
14390,CHURCHILL RD,MANHATTAN,MT,59741,
1312,5TH AVE E,SUPERIOR,MT,59872,
6305,SAINT THOMAS DR,MISSOULA,MT,59803,
242,HAPPY ACRES LN,SULA,MT,59871,
345,PARMA DR,ESSEX,MT,59916,
1009,HARMON WAY,BOZEMAN,MT,59718,
1139,CALEDONIA ST,BUTTE,MT,59701,
5348,FLORENCE CARLTON LOOP,FLORENCE,MT,59833,
921,WILDER AVE,HELENA,MT,59601,
201,JIM ST,BILLINGS,MT,59101,
3031,MT HIGHWAY 28,HOT SPRINGS,MT,59845,
727,FOX DEN TRL,KALISPELL,MT,59901,
915,HIDDEN VALLEY RD S,STEVENSVILLE,MT,59870,
429,N PRATTEN ST,COLUMBUS,MT,59019,
4665,BEMBRICK ST,BOZEMAN,MT,59718,
528,6TH AVE N,GLASGOW,MT,59230,
402,WASHINGTON ST,EAST GLACIER PARK,MT,59434,
2470,HIGHWAY 93 W,WHITEFISH,MT,59937,
909,RODGERS ST,MISSOULA,MT,59802,
0,MILL CREEK RD,FRENCHTOWN,MT,59834,
203,RAILROAD ALY N,GLASGOW,MT,59230,
812,12TH ST,HAVRE,MT,59501,
3300,WES DAVIS RD,BELGRADE,MT,59714,
2109,PHILLIPS AVE,BUTTE,MT,59701,
3628,MT HIGHWAY 3,BROADVIEW,MT,59015,
910,WHITETAIL LN,DILLON,MT,59725,
134,MAIN ST,WHITEWATER,MT,59544,
88,LOMOND AVE,GLASGOW,MT,59230,
2201,ST CHARLES ST,FORT BENTON,MT,59442,
1052,ROCK CREEK CATTLE RD,DEER LODGE,MT,59722,
141,HUGHES LN,MC ALLISTER,MT,59740,
160,SUN PRAIRIE RD,GREAT FALLS,MT,59404,
321,HODGE CREEK DR,KILA,MT,59920,
120,S 5TH ST,HAMILTON,MT,59840,
208,MADISON ST,SHERIDAN,MT,59749,
1648,S 7TH AVE,BOZEMAN,MT,59715,
407,3RD AVE NE,CHOTEAU,MT,59422,
707,COLORADO ST,BELGRADE,MT,59714,
80,E LAWRENCE ST,HELENA,MT,59601,
106,DALY AVE,HAMILTON,MT,59840,
202,BRIGHTON,LOLO,MT,59847,
981,GOLDEN WEST CEMETERY RD,LEDGER,MT,59425,
3409,S 27TH AVE,BOZEMAN,MT,59718,
1425,COOK AVE,BILLINGS,MT,59102,
507,COMMERCIAL AVE,ANACONDA,MT,59711,
879,MAIN ST,FORSYTH,MT,59327,
1509,COLORADO ST,BILLINGS,MT,59102,
122,COTTAGE ST,NASHUA,MT,59248,
151,EVERGREEN DR,BOZEMAN,MT,59715,
1719,GAYLORD ST,BUTTE,MT,59701,
305,S 5TH ST,HAMILTON,MT,59840,
,BROKEN LEG RD,BIGFORK,MT,59911,
559,15TH AVE N,HAVRE,MT,59501,
613,BACH AVE,LEWISTOWN,MT,59457,
3400,S JOPLIN RD,JOPLIN,MT,59531,
201,MICHELLE LN,GLENDIVE,MT,59330,
4111,HWY 7,BAKER,MT,59313,
306,WILEY DIKE RD,KALISPELL,MT,59901,
632,WISHART RD,KALISPELL,MT,59901,
6915,JACKRABBIT LN,BELGRADE,MT,59714,
518,S JORDAN AVE,MILES CITY,MT,59301,
145,RIVERVIEW C,GREAT FALLS,MT,59404,
248,WHITISH HILL RD,RESERVE,MT,59258,
127,18TH ST SW,GREAT FALLS,MT,59404,
935,SADDLE DR,HELENA,MT,59601,
2311,PINE ST,BILLINGS,MT,59101,
8861,SUN PRAIRIE RD,MALTA,MT,59538,
8825,SUNDANCE DR,BILLINGS,MT,59106,
112,PEARL ST,ENNIS,MT,59729,
2625,OVERLAND AVE,BILLINGS,MT,59102,
2611,GARLAND DR,MISSOULA,MT,59803,
406,E MANY LAKES DR,KALISPELL,MT,59901,
130,W RICHLAND AVE,SHELBY,MT,59474,
675,SOMERS RD,SOMERS,MT,59932,
400,MONTANA AVE,SUPERIOR,MT,59872,
10341,LARB HILLS RD,MALTA,MT,59538,
2142,E ECHO DR,BILLINGS,MT,59105,
1408,FORT ST,MILES CITY,MT,59301,
626,WESTWOOD RD,GARRISON,MT,59731,
3816,9TH AVE S,GREAT FALLS,MT,59405,
34,LAKEVIEW RD,THOMPSON FALLS,MT,59873,
4710,FOOTHILL RD,BIGFORK,MT,59911,
4242,MONROE ST,BOZEMAN,MT,59718,
3625,S 19TH AVE,BOZEMAN,MT,59718,
45,E HYALITE PEAK DR,BOZEMAN,MT,59718,
41857,MELITA ISLAND RD,ELMO,MT,59915,
485,OLD EAGLE RIVER RD,BOX ELDER,MT,59521,
7335,MOSSMAIN LN,BILLINGS,MT,59106,
2775,CARRIGAN LN,DILLON,MT,59725,
7907,MONAD RD,BILLINGS,MT,59106,
108,WITTLAKE DR,KALISPELL,MT,59901,
2100,16TH AVE S,GREAT FALLS,MT,59405,
30302,HARBOR LN,POLSON,MT,59860,
2317,GENEVA WALK,BILLINGS,MT,59105,
167,FAIRWAY DR,MISSOULA,MT,59803,
386,COUGAR DR,BOZEMAN,MT,59718,
3272,APPALOOSA DR,COLSTRIP,MT,59323,
6,DEWEY BLVD,BUTTE,MT,59701,
,N 1ST ST E,MALTA,MT,59538,
16,HIGH MEADOW RD,PLAINS,MT,59859,
9,MUFFLEY LN,WINSTON,MT,59647,
1309,CRIST DR,BILLINGS,MT,59105,
18,CAVALIER ST,BILLINGS,MT,59105,
922,YELLOWSTONE RIVER RD,BILLINGS,MT,59105,
825,FORESTGLEN DR,BOZEMAN,MT,59718,
3012,LOWER RIVER RD,GREAT FALLS,MT,59405,
2510,GLENGARRY CT,BILLINGS,MT,59101,
601,PIONEER CT N,MISSOULA,MT,59801,
145,HAWTHORN AVE,KALISPELL,MT,59901,
1865,COON HOLLOW RD,KILA,MT,59920,
1088,LAKE DR,COLUMBIA FALLS,MT,59912,
8874,HEAVENLY PINES WAY,LINCOLN,MT,59639,
42526,LA BELLA LN,BIG ARM,MT,59910,
225,W OAK ST,LIBBY,MT,59923,
120,TERRACE HL,BIGFORK,MT,59911,
505,N 23RD AVE,BOZEMAN,MT,59718,
713,FRONTAGE RD,WOLF POINT,MT,59201,
712,12TH ST,HAVRE,MT,59501,
1746,6TH AVE S,GREAT FALLS,MT,59405,
721,S PRAIRIE AVE,MILES CITY,MT,59301,
3140,S 27TH AVE,BOZEMAN,MT,59718,
696,ROAD 261,GLENDIVE,MT,59330,
52,30TH ST W,BILLINGS,MT,59102,
801,ADOBE DR,GREAT FALLS,MT,59404,
13074,ALPINE LN,CANYON CREEK,MT,59633,
74325,HIGHWAY 43,DIVIDE,MT,59727,
1126,CACTUS CT,HARDIN,MT,59034,
303,E NORTHERN PACIFIC AVE,BELGRADE,MT,59714,
541,AVENUE F,BILLINGS,MT,59102,
2955,SUNRISE RD,HELENA,MT,59602,
2235,BAGAN RD,CHINOOK,MT,59523,
2121,CENTRAL AVE W,GREAT FALLS,MT,59404,
1020,4TH ST,ANACONDA,MT,59711,
501,RED BARN DR,BELGRADE,MT,59714,
214,BOX ELDER ST,BOX ELDER,MT,59521,
3141,MAIN BOULDER RD,MCLEOD,MT,59052,
12,SPRING DR,BIG TIMBER,MT,59011,
639,AVENUE E,BILLINGS,MT,59102,
101,LIMESTONE RD,NYE,MT,59061,
17,BENJI CT,HOT SPRINGS,MT,59845,
873,PARKWAY LN,BILLINGS,MT,59101,
31682,COUNTY 154,BROCKTON,MT,59213,
485,KOKANEE DR W,REXFORD,MT,59930,
2217,YAAK RIVER RD,TROY,MT,59935,
141,ARIELLE WAY,WHITEFISH,MT,59937,
2654,HAMILTON WAY,MISSOULA,MT,59804,
207,2ND ST,TROY,MT,59935,
1260,BIRCH POINT DR,WHITEFISH,MT,59937,
984,SOUTHSIDE RD,TROY,MT,59935,
5550,N MONTANA AVE,HELENA,MT,59602,
404,COAL SPRINGS TRL,PLEVNA,MT,59344,
299,FRONTIER TRL,KALISPELL,MT,59901,
127,HOLT RIDGE RD,BIGFORK,MT,59911,
1411,LEIGHTON BLVD,MILES CITY,MT,59301,
413,NEVADA AVE,LIBBY,MT,59923,
14032,RAINBOW DR,BIGFORK,MT,59911,
4365,BROOKSIDE LN,BOZEMAN,MT,59718,
2106,BRIDGER DR,BOZEMAN,MT,59715,
1805,JOSLYN ST,HELENA,MT,59602,
2925,ST ANN ST,BUTTE,MT,59701,
2400,DURSTON RD,BOZEMAN,MT,59718,4
1368,SIERRA RD E,HELENA,MT,59602,
304,LONE MOOSE DR,BIG SKY,MT,59716,
2363,VILLAGE SQ,MISSOULA,MT,59801,
204,2ND ST S,SHELBY,MT,59474,
79,MILLWORKS RD,EUREKA,MT,59917,
800,HARRISON ST,MISSOULA,MT,59802,
6935,LINDA VISTA BLVD,MISSOULA,MT,59803,
417,32ND AVE NE,GREAT FALLS,MT,59404,
187,SUMMIT DR,SEELEY LAKE,MT,59868,
56,MILLER DR,LIVINGSTON,MT,59047,
693,STOCKETT RD,STOCKETT,MT,59480,
110,15TH AVE NW,SIDNEY,MT,59270,
17431,FISHING ROCK LN,BIGFORK,MT,59911,
925,W WOOLMAN ST,BUTTE,MT,59701,
892,PIT RD,HARDIN,MT,59034,
73289,COTTONWOOD LN,ARLEE,MT,59821,
340,MIRACLE MOUNTAIN DR,POLARIS,MT,59746,
3508,PONDERA DR,HELENA,MT,59602,
212,CENTRAL AVE N,HARLOWTON,MT,59036,
410,TERRY AVE,BILLINGS,MT,59101,
2606,S 64TH ST W,BILLINGS,MT,59106,
510,BEAVER CREEK RD,GALLATIN GATEWAY,MT,59730,
60,MILLIGAN CANYON RD,THREE FORKS,MT,59752,
96,UPPER BEAVER CREEK RD,HERON,MT,59844,
10720,LINCOLN RD W,CANYON CREEK,MT,59633,
113,EIGHTH AVE,LINCOLN,MT,59639,
108,9TH AVE SE,BROWNING,MT,59417,
2101,AVALON RD,BILLINGS,MT,59102,
3108,LINNEY RD,BOZEMAN,MT,59718,
394,WALKING HORSE LN,BIG ARM,MT,59910,
1025,N MONTANA AVE,HELENA,MT,59602,
1180,ERICKSON RD,HELENA,MT,59602,
435,DECLARATION AVE,BILLINGS,MT,59105,
980,CAP RD,HELENA,MT,59602,
912,W PLATINUM ST,BUTTE,MT,59701,
210,H ST W,POPLAR,MT,59255,
301,ELKHORN RD,SEELEY LAKE,MT,59868,
306,W COOK ST,LEWISTOWN,MT,59457,
2511,HOLMAN AVE,BILLINGS,MT,59102,
1513,DEBORGIA HAUGAN FRONTAGE RD,DEBORGIA,MT,59830,
1701,ROUNDUP BLVD,BELGRADE,MT,59714,
711,N LAKE AVE,MILES CITY,MT,59301,
409,S 28TH ST,BILLINGS,MT,59101,
78,WILDCAT WAY,BOZEMAN,MT,59718,
275,TV HILL RD,BIG SANDY,MT,59520,
202,PACER COULEE RD,DENTON,MT,59430,
54720,GALLATIN RD,GALLATIN GATEWAY,MT,59730,
5504,KERR DR,HELENA,MT,59602,
1331,VAN BUREN ST,MISSOULA,MT,59802,
400,NEW MIAMI COLONY LN,CONRAD,MT,59425,
1015,W LEWIS ST,LIVINGSTON,MT,59047,
3835,S 6TH ST W,MISSOULA,MT,59804,
0,S 7TH AVE,BOZEMAN,MT,59715,
111,SOURDOUGH RIDGE RD,BOZEMAN,MT,59715,
291,SODERQUIST RD,PLENTYWOOD,MT,59254,
1008,SKYLINE DR NE,GREAT FALLS,MT,59404,
1204,W ALDERSON ST,BOZEMAN,MT,59715,
3436,US HIGHWAY 89 W,BROWNING,MT,59417,
397,S HANLEY AVE,BOZEMAN,MT,59718,
2105,S HIGGINS AVE,MISSOULA,MT,59801,
519,2ND ST W,ROUNDUP,MT,59072,
513,COOPER AVE N,RED LODGE,MT,59068,
472,NUMBER 4 RD,ROUNDUP,MT,59072,
1277,CAMBRAY LP,HELENA,MT,59602,
618,3RD ST,ANACONDA,MT,59711,
84,BLUE SLIDE RD,TROUT CREEK,MT,59874,
1007,S PEARSON AVE,GLENDIVE,MT,59330,
1,DENT ADDITION RD,MILES CITY,MT,59301,
624,NE MAIN ST,LEWISTOWN,MT,59457,
1550,PLEASANT VALLEY RD,MARION,MT,59925,
135,POPHAM LN,CORVALLIS,MT,59828,
1709,ST JOHNS AVE,BILLINGS,MT,59102,
185,TUMBLEWEED TRL,COLUMBIA FALLS,MT,59912,
108,S MERRIAM AVE,MILES CITY,MT,59301,
5,ROWTON RD,MOSBY,MT,59058,
309,W RIVER ROCK RD,BELGRADE,MT,59714,
738,RINAY RD,HELENA,MT,59602,
1540,LAKE ELMO DR,BILLINGS,MT,59105,
221,GREENWOOD AVE,BILLINGS,MT,59101,
541,N DALY AVE,HAMILTON,MT,59840,
945,CLEVELAND ST,MISSOULA,MT,59801,
44457,MISSION MEADOWS DR,RONAN,MT,59864,
241,S 12TH AVE,FORSYTH,MT,59327,
1105,3RD AVE S,GLASGOW,MT,59230,
8170,ROLLING HILLS DR,BOZEMAN,MT,59715,
233,15TH AVE S,GREAT FALLS,MT,59405,
4610,EDWARD AVE,MISSOULA,MT,59804,
29,ROHDE WAY,HUNGRY HORSE,MT,59919,
614,S OAKES ST,HELENA,MT,59601,
298,SANTA RITA HWY,CUT BANK,MT,59427,
1321,HJARTARSON RD,ETHRIDGE,MT,59435,
4050,W BABCOCK ST,BOZEMAN,MT,59718,47
4611,10TH AVE S,GREAT FALLS,MT,59405,
99,PHEASANT TAIL LN,BIG SKY,MT,59716,3
2,RAINBOW CT,NOXON,MT,59853,
1445,18TH ST,HAVRE,MT,59501,
1107,S 2ND ST,HAMILTON,MT,59840,
502,S HAYNES AVE,MILES CITY,MT,59301,
447,BATAVIA LN,KALISPELL,MT,59901,
914,DELANO CT,GREAT FALLS,MT,59404,
1679,US HIGHWAY 89 N,CLYDE PARK,MT,59018,
651,ADIRONDAC AVE,HAMILTON,MT,59840,
22301,HILL RD,CLINTON,MT,59825,
126,GRANITE ST,GARDINER,MT,59030,
805,NORTHWOODS DR,WHITEFISH,MT,59937,
6053,MT HIGHWAY 1,DRUMMOND,MT,59832,
,CLAIRMONT RD,PABLO,MT,59855,
710,20TH ST S,GREAT FALLS,MT,59405,
24,MELTWATER RD,CHOTEAU,MT,59422,
1814,COUNTRYSIDE CT,MISSOULA,MT,59808,
1004,8TH AVE NE,POPLAR,MT,59255,
202,WEST C ST,SULA,MT,59871,
35,S MAIN ST,KALISPELL,MT,59901,
786,SKALKAHO HWY,HAMILTON,MT,59840,
4971,POTTER PARK LOOP,MISSOULA,MT,59808,
310,MILWAUKEE AVE,DEER LODGE,MT,59722,
3320,BUSCH ST,BUTTE,MT,59701,
211,MANSION HEIGHTS DR,MISSOULA,MT,59803,
2932,CONTENT RD,MALTA,MT,59538,
237,VIENNA ST,BUTTE,MT,59701,
1200,OLSON GULCH RD,ANACONDA,MT,59711,
705,FERN LN,LEWISTOWN,MT,59457,
1050,GRAND DR,BIGFORK,MT,59911,
3442,CASTLE PINES DR,BILLINGS,MT,59101,
20,YELLOWSTONE SPUR RD,BIG SKY,MT,59716,
1395,BEAVER CREEK RD,GALLATIN GATEWAY,MT,59730,
756,S CALIFORNIA ST,HELENA,MT,59601,
3369,SUN BASIN RD,MOCCASIN,MT,59462,
2421,3RD AVE S,GREAT FALLS,MT,59405,
119,BROADWAY ST,TOWNSEND,MT,59644,
391,RIDGEWAY LN,STANFORD,MT,59479,
1529,CLARK AVE,WORDEN,MT,59088,
202,BRAIG LN,COLUMBIA FALLS,MT,59912,
535,W MONROE AVE,CHESTER,MT,59522,
2630,KNIGHT ST,HELENA,MT,59601,
1336,PENNSYLVANIA AVE,LAUREL,MT,59044,
5070,WHITEFISH STAGE,WHITEFISH,MT,59937,
544,SADDLEHORN DR,BUTTE,MT,59701,
278,CAP DE VILLA,LOLO,MT,59847,
2331,CRAFTSMAN PL,MISSOULA,MT,59801,
700,DEEP CREEK RD,CHOTEAU,MT,59422,
316,MINERAL AVE,LIBBY,MT,59923,
1126,VERA CRUZ CIR,BILLINGS,MT,59105,
802,N 17TH AVE,BOZEMAN,MT,59715,36
21,SILVAS RD,BROWNING,MT,59417,
3,QUARTZ,CLANCY,MT,59634,
1113,S 5TH AVE,BOZEMAN,MT,59715,
470,BEAR ST,CORAM,MT,59913,
131,ANDREA DR,BELGRADE,MT,59714,24
1925,ALDERSON AVE,BILLINGS,MT,59102,
176,COLLIER LN,KALISPELL,MT,59901,
51,PERKINS RD,BYNUM,MT,59419,
25,RAILROAD ST,OLNEY,MT,59927,
368,LAKESIDE BLVD,LAKESIDE,MT,59922,
12,S VIRGINIA ST,CONRAD,MT,59425,
73258,LEMLAMA LN,ARLEE,MT,59821,
0,MORMON CREEK RD,LOLO,MT,59847,
5305,BROOKLYN CT,HELENA,MT,59602,
105,RIVER ST,FORSYTH,MT,59327,
208,COLUMBIA MEADOWS DR,COLUMBIA FALLS,MT,59912,
628,SAMUEL CT,BILLINGS,MT,59105,
1436,HEART BUTTE RD,BROWNING,MT,59417,
6818,CIMARRON DR,COLSTRIP,MT,59323,
2930,W COPPER RIDGE LOOP,BILLINGS,MT,59106,
29,SPRING RIDGE DR,GREAT FALLS,MT,59404,
2444,LATIGO DR,MISSOULA,MT,59808,
2700,LINCOLN AVE SE,SIDNEY,MT,59270,
406,COSTA LN,CROW AGENCY,MT,59022,
427,9TH AVE S,CUT BANK,MT,59427,
1231,HAUSER BLVD,HELENA,MT,59601,
515,S MOULTON AVE,WINNETT,MT,59087,
23,SAWMILL RD,ROUNDUP,MT,59072,
1408,WATSON PEAK RD,BILLINGS,MT,59105,
24,2ND ST E,MUSSELSHELL,MT,59059,
601,1ST AVE S,MARTIN CITY,MT,59926,
3754,TRAKKER TRAIL ST,BOZEMAN,MT,59718,
29,ADAMS ST,BILLINGS,MT,59101,
157,KOELZER RD,WEST YELLOWSTONE,MT,59758,
421,SMOKE RDG,KILA,MT,59920,
139,LAKESHORE DR,ANACONDA,MT,59711,
700,MAIN ST,MILES CITY,MT,59301,
12790,CLARKSTON RD,THREE FORKS,MT,59752,
102,MINGUS RD,WIBAUX,MT,59353,
610,4TH AVE SE,WHITE SULPHUR SPRINGS,MT,59645,
115,SW CEDAR ST,LEWISTOWN,MT,59457,
246,BURLINGTON AVE,BILLINGS,MT,59101,
1921,S MONTANA ST,BUTTE,MT,59701,
415,LITTLE CREEK RD,VIDA,MT,59274,
5,GILDRED LN,CAMERON ,MT,59720,
11,PONDEROSA,CLANCY,MT,59634,
6045,SHADY REST ST,MANHATTAN,MT,59741,
4777,HOOVER LN,STEVENSVILLE,MT,59870,
2,CREEKSIDE LN,TROUT CREEK,MT,59874,
31172,AGENCY RD,ARLEE,MT,59821,
173,SQUEQUE LN,ARLEE,MT,59821,
523,NE BROADWAY ST,LEWISTOWN,MT,59457,
105,8TH ST,BELGRADE,MT,59714,
110,ROAD 334,GLENDIVE,MT,59330,
1205,LINCOLN RD,MISSOULA,MT,59802,
2133,HIGHWAY 2 W,LIBBY,MT,59923,
2600,WILSON ST,MILES CITY,MT,59301,
352,ONE WAY,COLUMBIA FALLS,MT,59912,
421,25TH AVE NE,GREAT FALLS,MT,59404,
532,SPEELMON ST E,EKALAKA,MT,59324,
118,FLATHEAD AVE,HARLEM,MT,59526,
34786,COUNTY 120,SIDNEY,MT,59270,
1202,N LAKE AVE,MILES CITY,MT,59301,
486,TWO MILE DR,KALISPELL,MT,59901,
1318,LILLY CT,MISSOULA,MT,59802,
1413,WAVERLY ST,MISSOULA,MT,59802,
2703,EVANS AVE,BUTTE,MT,59701,
519,ELK MEADOWS LN,ANACONDA,MT,59711,
2306,RIVER ST,FORT BENTON,MT,59442,
1578,MT HIGHWAY 287,VIRGINIA CITY,MT,59755,
117,SNAPPER DR,FORSYTH,MT,59327,
123,S MAPLE ST,TOWNSEND,MT,59644,
59,STANDING ROCK CT,SUPERIOR,MT,59872,
911,2ND AVE W,KALISPELL,MT,59901,
1156,BABCOCK BLVD,BILLINGS,MT,59105,
5,LAZY SWAN LN,BIGFORK,MT,59911,
547,S BILLINGS BLVD,BILLINGS,MT,59101,
1590,EAGLE DR,KALISPELL,MT,59901,
3705,7TH AVE N,GREAT FALLS,MT,59401,
1637,RED CROW RD,VICTOR,MT,59875,
191,UPPER VIOLET RD,BOZEMAN,MT,59718,
13766,MT HIGHWAY 200,SUN RIVER,MT,59483,
2555,N 11TH RD,WORDEN,MT,59088,
1300,KIRWAN LN,BELGRADE,MT,59714,
213,FARM TO MARKET RD,LIBBY,MT,59923,
1454,MT HIGHWAY 434,WOLF CREEK,MT,59648,
2515,MAIN ST,MILES CITY,MT,59301,
750,REVOLUTION AVE,BILLINGS,MT,59105,
17621,BOOTLEGGER TRL,FLOWEREE,MT,59440,
901,13TH AVE E,POLSON,MT,59860,
256,HARVEST VIEW LN,KALISPELL,MT,59901,
1908,STILLMEADOW DR,BILLINGS,MT,59106,
309,N CENTRAL AVE,PLAINS,MT,59859,
321,HARKER RD,HERON,MT,59844,
921,TRUCK BYP,LEWISTOWN,MT,59457,
201,MAIN ST W,COOKE CITY,MT,59020,
505,F ST,TOWNSEND,MT,59644,
6116,CALLOWAY BLVD,BILLINGS,MT,59106,
1855,TRUMBLE CREEK RD,KALISPELL,MT,59901,
35260,COUNTY 121P,SIDNEY,MT,59270,
221,37TH AVE NE,GREAT FALLS,MT,59404,
46682,WALCHUCK LN,RONAN,MT,59864,
58,CHANDELLE PL,THREE FORKS,MT,59752,
200,CALIFORNIA AVE,LIBBY,MT,59923,
309,GALAXY DR,BUTTE,MT,59701,
1756,S 11TH ST W,MISSOULA,MT,59801,
560,SWINGLEY RD,LIVINGSTON,MT,59047,
742,US HIGHWAY 10 W,LIVINGSTON,MT,59047,
129,S SPRUCE ST,TOWNSEND,MT,59644,
931,HULBERT RD W,BOZEMAN,MT,59718,
721,2ND ST SE,PARK CITY,MT,59063,
2081,HIGHWAY 206,COLUMBIA FALLS,MT,59912,
224,3RD ST,CUSTER,MT,59024,
150,1ST ST,ZURICH,MT,59547,
4606,MITCHELL AVE,BILLINGS,MT,59101,
21,PERKINS LN,MILES CITY,MT,59301,
321,WHIPPS LN,LAKESIDE,MT,59922,
907,ROCHESTER DR,BILLINGS,MT,59101,
316,B ST,DIXON,MT,59831,
305,QUAWS BLVD,BELGRADE,MT,59714,
1203,N LAST CHANCE GULCH,HELENA,MT,59601,
3360,US HIGHWAY 93 N,STEVENSVILLE,MT,59870,
314,S 9TH ST,HAMILTON,MT,59840,
508,KUHLMAN DR,BILLINGS,MT,59105,
1343,ELDORADO DR,BILLINGS,MT,59101,
7094,MT HIGHWAY 24 S,GLASGOW,MT,59230,
132,JUDITH AVE,LEWISTOWN,MT,59457,
1010,E MAIN ST,BOZEMAN,MT,59715,
2401,HANSON DR,MISSOULA,MT,59804,
1025,TREELINE RD,KALISPELL,MT,59901,
114,2ND AVE SW,WIBAUX,MT,59353,
3573,MT HIGHWAY 200,TROUT CREEK,MT,59874,
900,MILWAUKEE AVE,DEER LODGE,MT,59722,
1215,VILLAGE WAY,MISSOULA,MT,59802,
65,MOUNTAIN VIEW DR,CHOTEAU,MT,59422,
2107,5TH AVE S,GREAT FALLS,MT,59405,
17,MAIN ST,EDGAR,MT,59026,
16160,WILLS LN,CLINTON,MT,59825,
2090,GLASSER PL,BILLINGS,MT,59102,
2519,MOULTON ST,BUTTE,MT,59701,
3047,S PARK CITY RD,LAUREL,MT,59044,
384,WILCOX LN,CORVALLIS,MT,59828,
428,RIVER BEND RD,SUPERIOR,MT,59872,
2465,HIGHWAY 93 S,KALISPELL,MT,59901,
625,1ST AVE N,FAIRFIELD,MT,59436,
1518,MONTANA AVE NE,BLACK EAGLE,MT,59414,
153,GLACIER VISTA DR,WEST GLACIER,MT,59936,
2271,DEERFIELD LN,HELENA,MT,59601,
103,LOGAN LN,WEST GLACIER,MT,59936,
3016,7TH AVE N,BILLINGS,MT,59101,
202,2ND ST,NOXON,MT,59853,
229,W FRONT ST,MISSOULA,MT,59802,
900,MONTANA ST,BELGRADE,MT,59714,
201,DRY CREEK RD,WIBAUX,MT,59353,
1225,HIGHWAY 41,DILLON,MT,59725,
1108,5TH AVE N,GREAT FALLS,MT,59401,
517,ALDER AVE,LAUREL,MT,59044,
808,MAIN ST,LINCOLN,MT,59639,
1306,EMERALD DR,GREAT FALLS,MT,59404,
12879,PORTSIDE LN,LOLO,MT,59847,
317,WEST HILLS WAY,HAMILTON,MT,59840,
9,LAZY RIVER LN,NOXON,MT,59853,
610,N 2ND ST W,MISSOULA,MT,59802,
810,AVENUE F,BILLINGS,MT,59102,
72,ROCKWOOD DR,BOX ELDER,MT,59521,
2055,NIXON GULCH RD,MANHATTAN,MT,59741,
80,HIGHWAY 359,CARDWELL,MT,59721,
4129,SEDGWICK PL,BILLINGS,MT,59106,
205,TAKIMA DR,MISSOULA,MT,59803,
165,GERSPACHER RD,SACO,MT,59261,
4735,ASHLEY LAKE RD,KILA,MT,59920,
130,MAVERICK VIEW DR,POLARIS,MT,59746,
1615,3RD AVE N,GREAT FALLS,MT,59401,
1010,BOULEVARD AVE,HAVRE,MT,59501,
522,S CENTRAL AVE,MALTA,MT,59538,
900,E FRONT ST,BUTTE,MT,59701,
1741,ELM ST,BUTTE,MT,59701,
901,N COOKE ST,HELENA,MT,59601,
211,SKYVIEW DR,LEWISTOWN,MT,59457,
972,GRIFFIN RD,TREGO,MT,59934,
7245,HIGHWAY 93 S,LAKESIDE,MT,59922,
1513,7TH ST E,POLSON,MT,59860,
516,21ST ST NE,BLACK EAGLE,MT,59414,
4544,UPPER HIGHWOOD CREEK RD,HIGHWOOD,MT,59450,
411,S 6TH ST,TROY,MT,59935,
1635,BIRCHWOOD LN,MISSOULA,MT,59804,
106,MICHEL CREEK RD,PLAINS,MT,59859,
2107,N 7TH AVE,BOZEMAN,MT,59715,
3160,MADRONA LN,BOZEMAN,MT,59715,
33,BUETTNER PARK DR,RED LODGE,MT,59068,
370,SCHOOL ADDITION RD,SOMERS,MT,59932,
4077,GRAND AVE,BILLINGS,MT,59106,
618,LOCUST ST,ANACONDA,MT,59711,
81,MOOSE CREEK RD,POLEBRIDGE,MT,59928,
11909,COUNTY 347M,SIDNEY,MT,59270,
29,S 6TH ST E,MALTA,MT,59538,
1440,FLATHEAD ST,BILLINGS,MT,59105,
,N WASHINGTON ST,DILLON,MT,59725,
706,S STREVELL AVE,MILES CITY,MT,59301,
100,DILLMAN RD,ROUNDUP,MT,59072,
605,MONROE,BOULDER,MT,59632,
5814,7UP LN,LINCOLN,MT,59639,
4677,MT HIGHWAY 200,WOLF CREEK,MT,59648,
3360,BIG FLAT RD,MISSOULA,MT,59804,
1028,STODDARD ST,MISSOULA,MT,59802,
95,WILLIAMS DR,DILLON,MT,59725,
925,3RD AVE SE,SIDNEY,MT,59270,
1150,WISCONSIN AVE,WHITEFISH,MT,59937,
8546,N DODSON RD,DODSON,MT,59524,
174,STATE ST,DEER LODGE,MT,59722,
2220,SOURDOUGH RD,BOZEMAN,MT,59715,
160,PEACEFUL LN,LAKESIDE,MT,59922,
216,H ST W,POPLAR,MT,59255,
3065,HIGHWAY 200 W,BROCKWAY,MT,59214,
120,10TH ST N,GREAT FALLS,MT,59401,
54,CLOVERVIEW DR,HELENA,MT,59601,
507,3RD AVE W,CULBERTSON,MT,59218,
607,RICHARD ST,BILLINGS,MT,59101,
467,ECHO RDG,STEVENSVILLE,MT,59870,
685,NORTHWOODS DR,WHITEFISH,MT,59937,
4090,WATER DANCE DR,HELENA,MT,59602,
422,2ND AVE S,FAIRFIELD,MT,59436,
207,D ST S,WIBAUX,MT,59353,
4108,6TH AVE S,GREAT FALLS,MT,59405,
252,JOHNNYS COAL RD,ROUNDUP,MT,59072,
1047,SHADE CREEK RD,WOLF POINT,MT,59201,
25745,ROSS POINT DR,BIGFORK,MT,59911,
5982,TONGUE RIVER RD,ASHLAND,MT,59003,
430,ANTELOPE TRL,WHITEFISH,MT,59937,
3285,CANYON DR,BILLINGS,MT,59102,
1716,DOWNY RD,LAUREL,MT,59044,
122,ERICKSON CT N,BILLINGS,MT,59105,
28,MEADOW CT,GLASGOW,MT,59230,
134,TAMPICO RD N,GLASGOW,MT,59230,
,CITY SERVICE RD,LIBBY,MT,59923,
128,34TH ST NW,GREAT FALLS,MT,59404,
4732,RICHLIE ST,MISSOULA,MT,59808,
4006,ELLA AVE,GREAT FALLS,MT,59405,
406,PARK ST E,EKALAKA,MT,59324,
36,SPRING HOLLOW CT,HELENA,MT,59601,
311,ALDERSON AVE,BILLINGS,MT,59101,
2642,WINNE AVE,HELENA,MT,59601,
717,EAST ROSEBUD RD,ROSCOE,MT,59071,
3425,SGT SANDERS ST,MISSOULA,MT,59804,
7842,SHEPHERD RD,SHEPHERD,MT,59079,
134,RATHS LN,ROUNDUP,MT,59072,
713,S MARYLAND ST,CONRAD,MT,59425,
821,MILES AVE,BILLINGS,MT,59101,
418,TABRIZ DR,BILLINGS,MT,59105,
17349,FISHING ROCK LN,BIGFORK,MT,59911,
3300,E GRAF ST,BOZEMAN,MT,59715,55
,GRANT ST,LIMA,MT,59739,
2474,N 9TH RD,WORDEN,MT,59088,
914,MOON VALLEY RD,BILLINGS,MT,59105,
6321,BUENA VISTA LOOP W,MISSOULA,MT,59808,
406,13TH AVE E,POPLAR,MT,59255,
175,MAIN ST,MARYSVILLE,MT,59640,
138,YANKEE CREEK RD,ANACONDA,MT,59711,
701,S WISCONSIN ST,CONRAD,MT,59425,
29272,WHITE SWAN RD,POLSON,MT,59860,
767,1ST AVE EN,KALISPELL,MT,59901,
742,SECORD ST,RAPELJE,MT,59067,
107,S EASY ST,MISSOULA,MT,59802,
1107,COUGAR LN,BUTTE,MT,59701,
0,COOL WATER LN,JOLIET,MT,59041,
4379,BROOKSIDE LN,BOZEMAN,MT,59718,
2540,OLD RANCH RD,MISSOULA,MT,59808,
719,WASHINGTON ST,MILES CITY,MT,59301,
2211,STOWER ST,MILES CITY,MT,59301,
14,SEMEM SPUR N,THOMPSON FALLS,MT,59873,
311,S 10TH ST,LIVINGSTON,MT,59047,
1318,HIGH ST,GREAT FALLS,MT,59405,
170,CARIBOU ST,CORAM,MT,59913,
274,NEVA LEE TRL,STEVENSVILLE,MT,59870,
414,RAINIER CT,MISSOULA,MT,59803,
204,19TH ST W,BILLINGS,MT,59102,
1055,RANCH LN,KALISPELL,MT,59901,
1208,N FRONTAGE RD,BILLINGS,MT,59101,
1,DAGMAR PL,FORSYTH,MT,59327,
530,LEXINGTON DR,BOZEMAN,MT,59715,
890,HIDDEN VALLEY RD,BOZEMAN,MT,59718,51
25,SHAY LN,KEVIN,MT,59454,
4,SIDEWINDER,CLANCY,MT,59634,
217,WESTVIEW DR,MISSOULA,MT,59803,
115,HEARTH CT,MISSOULA,MT,59803,
2718,W CENTRAL AVE,MISSOULA,MT,59804,
25,AUTO PLAZA DR,BOZEMAN,MT,59718,
925,NELSON RD,BOZEMAN,MT,59718,
11383,HIGHWAY 2 W,MARION,MT,59925,
127,PRAIRIE LN,KALISPELL,MT,59901,
46,RUSSELL LATERAL,FORT SHAW,MT,59443,
617,MAIN ST,FORT BENTON,MT,59442,
1251,LAKE POINTE DR,BIGFORK,MT,59911,
5180,CROWN BUTTE RD,LLOYD,MT,59535,
221,N CLARK ST,BUTTE,MT,59701,
2532,BURLINGTON AVE,BILLINGS,MT,59102,
505,PARK AVE,WHITEFISH,MT,59937,
34986,WHITE COYOTE RD,ARLEE,MT,59821,
1242,MILLER CREEK RD,TWO,MT,59085,
1820,PHILLIPS AVE,BUTTE,MT,59701,
42456,CANAL RD,RONAN,MT,59864,
523,EDGAR ST,WOLF POINT,MT,59201,0
610,LITTLE WOLF RD,BOZEMAN,MT,59715,
527,N HENRY AVE,BUTTE,MT,59701,
117,N PINE ST,TOWNSEND,MT,59644,
202,LINDHE AVE,EAST GLACIER PARK,MT,59434,
621,HIGHLAND PARK DR,MISSOULA,MT,59803,
208,E BROADWAY AVE,BRIDGER,MT,59014,
114,N 1ST ST E,CHESTER,MT,59522,
9545,HIGHWAY 2 E,MARTIN CITY,MT,59926,
48840,HIGHWAY 43,WISE RIVER,MT,59762,
1731,WARREN AVE,BUTTE,MT,59701,
203,WULF ST,FROID,MT,59226,
2340,W KENT AVE,MISSOULA,MT,59801,
22,FOOTHILL LN,PLAINS,MT,59859,
