NUMBER,STREET,CITY,STATE,POSTCODE,UNIT
4102.0,BITTERN COURT,SOUTHPORT,NC,28461,
218.0,CATFISH LAKE ROAD,NEW BERN,NC,28562,
314.0,SNOW GOOSE LANE,NEWPORT,NC,28570,
0.0,GADDY ROAD,SEMORA,NC,27343,
7019.0,TURTLE ROCK COURT,CHARLOTTE,NC,28277,
157.0,REGIMENTAL DRIVE,CAMERON,NC,28326,
4526.0,PINEBROOK COURT,GASTONIA,NC,28056,
224.0,TUMBLEWEED DRIVE,SALS,NC,28146,
302.0,AIRPORT ROAD,KANN,NC,28081,
812.0,WEST MAYNARD AVE,DURH,NC,27704,
2210.0,KENDRA DRIVE,KANN,NC,28081,
12723.0,MOSBY LANE,CHARLOTTE,NC,28273,
2320.0,GLEN COVE WAY, ,NC,27265,
6495.0,FAIRWAY DRIVE,GRIF,NC,28530,
4647.0,SCYTHE ROAD NORTH, ,NC,27283,
96.0,NORTH ISABELLA ST,COATS,NC,27521,
3461.0,62  EAST, ,NC,27298,
5721.0,ELECTRA LANE,CHARLOTTE,NC,28212,
103.0,NORTHWEST 21ST ST, OAK ISLAND,NC,28465,
3717.0,VIRIDIAN TRACE, ,NC,28562,
206.0,EL PASO AVE,DURH,NC,27703,
1700.0,AMHERST PLACE,CHARLOTTE,NC,28207,
10318.0,MCGOOGAN LANE,CHARLOTTE,NC,28277,
6597.0,WELLESLEY PLACE SOUTHWEST,OCEAN ISLE BEACH,NC,28469,
152.0,IREDELL AVE,TROUTMAN,NC,28166,
7535.0,FALLOW LANE,CHARLOTTE,NC,28273,
2002.0,LINDA ST,GASTONIA,NC,28054,
108.0,TARHEEL DRIVE,Hamlet,NC,28345,
142.0,BYRDS HILL TRAIL,DOBS,NC,27017,
1280.0,HALL ROAD,MTUL,NC,28125,
154.0,CANNON DRIVE,NEWPORT,NC,28570,
1153.0,DELANO ST,DURH,NC,27703,
6100.0,CUTLASS COURT,NEW BERN,NC,28560,
104.0,TREVINO LANE,NEW BERN,NC,28560,
260.0,DRAKE RIDGE LANE, ,NC,28904,
126.0,ERA ST,TROUTMAN,NC,28166,
4800.0,UNIVERSITY DRIVE,DURH,NC,27707,
1373.0,LEES CHAPEL ROAD, ,NC,27455,
278.0,SHELL HILL ROAD,SEA LEVEL,NC,28577,
21023.0,PINE RIDGE DRIVE,CORNELIUS,NC,28031,
148.0,DOWNEY LAKE ROAD,"DALLAS,GASTON",NC,28034,
5300.0,ADDISON DRIVE,CHARLOTTE,NC,28211,
10607.0,CASTLEHILL DRIVE,HUNTERSVILLE,NC,28078,
3120.0,HOLDEN BEACH ROAD SOUTHWEST,SUPPLY,NC,28462,
157.0,LENNIE ARNOLD LANE,ERWIN,NC,28339,
605.0,CLOVER DRIVE,COUNTRY CLUB HILLS SEC 1-B,NC,28546,
4711.0,MARENA PLACE,DURH,NC,27514,
3255.0,TEN MILE FORK ROAD,TRENTON,NC,28585,
67.0,EAST NORTH SHORE LANE,ARAPAHOE,NC,28510,
235.0,COMFORT ROAD,RICHLANDS,NC,28574,
12842.0,WEST HANES AVE,MIDDLESEX,NC,27557,
138.0,SCOTLAND ROAD, ,NC,27921,
796.0,MILL BRANCH,TABOR CITY,NC,28463,
2310.0,LATHROP LANE,CHARLOTTE,NC,28211,
205.0,LEEWARD LANE,BEAUFORT,NC,28516,
5333.0,MOUNTAIN POINT LANE,MECKLENBURG,NC,28216,
16.0,SEVENTH AVE,SOUTHERN SHORES,NC,27949,
14611.0,VAUGHAN DRIVE,CHARLOTTE,NC,28273,
3167.0,CRIBBTOWN ROAD,CHADBOURN,NC,28431,
0.0,D VICTOR MEEKINS ROAD,MANTEO OUT,NC,27954,
115.0,ZIRCON AVE,ZIRCONIA,NC,28790,
818.0,GLENDALE AVE,DURH,NC,27701,633.0
2315.0,BRENTWOOD ST, ,NC,27263,
3774.0,NORTH SHARON AMITY ROAD,CHARLOTTE,NC,28205,4.0
3400.0,SNEAD ST,MOREHEAD CITY,NC,28557,
246.0,FELLOWSHIP CHURCH ROAD,SILER CITY,NC,27344,
5016.0,LONGBROOK CIRCLE,WS,NC,27105,
1902.0,RICE ROAD, ,NC,27330,
210.0,EAST TRADE ST,CHARLOTTE,NC,28202,
154.0,CHARLOTTE COURT,WS,NC,27103,
316.0,HARTNESS ROAD,STATESVILLE,NC,28677,
241.0,PAGE ST EXPRESSWAY,Ellerbe,NC,28338,
800.0,WEST TRADE ST,CHARLOTTE,NC,28202,515.0
700.0,ROPER ROAD,FLAT ROCK,NC,28731,
2243.0,VERNON DRIVE,CHARLOTTE,NC,28211,
2020.0,CHATHAM AVE,CHARLOTTE,NC,28205,
4209.0,LONG BEACH ROAD,SOUTHPORT,NC,28461,
1625.0,NEUSE ROAD,KINSTON,NC,28501,
1310.0,VALLEYVIEW ST, ,NC,27405,
411.0,WEST BRANCH ST,SPRING HOPE,NC,27882,
5005.0,WINEBERRY DRIVE,DURH,NC,27713,
5505.0,BRIDGEWAY DRIVE, ,NC,27406,
275.0,SEVEN SPRINGS LOOP,STATESVILLE,NC,28625,
7000.0,TURNING POINT LANE,CHARLOTTE,NC,28277,
68.0,HARVEST LANE,PITTSBORO,NC,27312,
1222.0,SCOTTS CREEK ROAD,STATESVILLE,NC,28625,
1093.0,WIGHTMAN CHURCH ROAD,POLKTON,NC,28135,
105.0,CLAYMONT ROAD,LOU,NC,27549,
171.0,IOTLA CHURCH ROAD,FRANKLIN,NC,28734,
105.0,CHAUCER MANOR CIRCLE,KE,NC,27284,
1619.0,CRESTLAWN TRAIL,WS,NC,27040,
4019.0,HILDA ST,WS,NC,27101,
4409.0,LANDOVER ROAD, ,NC,27407,
7210.0,SOUTH VA DARE TRAIL,NAGS HEAD,NC,27959,
110.0,JESS COURT,MOORESVILLE,NC,28117,
204.0,STOWE ROAD,BELMONT,NC,28012,
4739.0,FAIRVISTA DRIVE,CHARLOTTE,NC,28269,
9600.0,EAST W T HARRIS BOULEVARD,CHARLOTTE,NC,28212,
203.0,AUTUMN CHASE,PITTSBORO,NC,27312,
4207.0,MORNINGSIDE DRIVE,WS,NC,27106,
1186.0,UNION ROAD,DELCO,NC,28436,
6929.0,FOLGER DRIVE,CHARLOTTE,NC,28270,
2844.0,GONEAWAY ROAD,CHARLOTTE,NC,28210,
585.0,YATES ROAD,SALS,NC,28146,
6846.0,SOCO ROAD,MAGGIE VALLEY,NC,28751,
1190.0,STICKS ROAD,WASH,NC,27889,
1111.0,ROSEDALE AVE,ROCKY MOUNT,NC,27804,
,SPINNAKER ARCH,COROLLA,NC,27927,
,HUNT CLUB DRIVE,COROLLA,NC,27927,
6305.0,PINE CHAPEL DRIVE,CHARLOTTE,NC,28273,
3332.0,RANDOLPH PARK CIRCLE,GASTONIA,NC,28056,
2718.0,CARYA POND LANE,CHARLOTTE,NC,28212,
4711.0,CHESTFIELD DRIVE, ,NC,27407,
1028.0,BRAEHILL TERRACE DRIVE,WS,NC,27104,
223.0,TIMBERLANE DRIVE,CRAMERTON,NC,28012,
22.0,HARTSFIELD COURT, ,NC,27407,
,4 CURT HOLLAND ROAD,STELLA,NC,28582,
134.0,HIGHLANDS SQUARE DRIVE,HENDERSONVILLE,NC,28792,
11632.0,KYRENE ROAD,CHARLOTTE,NC,28277,
2980.0,REYNOLDA ROAD,WS,NC,27106,17.0
220.0,NORTH MITCHELL ST,Ahoskie,NC,27910,
6614.0,BARTON CREEK DRIVE, ,NC,27377,
74.0,BLUE JAY DRIVE,FRANKLIN,NC,28734,
11520.0,ESSEX FELLS DRIVE,CHARLOTTE,NC,28277,
105.0,NORTH CLEVELAND AVE,WS,NC,27101,
301.0,CHERRY ST,OXFORD,NC,27565,
6210.0,ADEL LANE,CHARLOTTE,NC,28269,
1931.0,NEWELL ROAD, ,NC,28580,
2.0,HADEN DRIVE,SP,NC,27597,
731.0,POLLOCK ST, ,NC,28562,
936.0,SOUTH SUNSET DRIVE,WS,NC,27103,
,CARATOKE HWY,POWELLS POINT,NC,27966,
23.0,CROSSWINDS ESTATES DRIVE,PITTSBORO,NC,27312,
1385.0,ROBERTSON ROAD,SALS,NC,28146,
1021.0,OAKRIDGE FARM HWY,MOORESVILLE,NC,28115,
701.0,EAST E ST,ERWIN,NC,28339,
6144.0,PROSPERITY CHURCH ROAD,CHARLOTTE,NC,28269,
3009.0,SOURWOOD ROAD, ,NC,27408,
269.0,BEACHWOOD DRIVE NORTHWEST,CALABASH,NC,28467,
25.0,LOCUST ST,CANTON,NC,28716,
1812.0,PROSPECT DRIVE,CHARLOTTE,NC,28213,
607.0,EAST WASHINGTON DRIVE, ,NC,27260,
3707.0,BRANDING IRON DRIVE,GASTON,NC,28052,
607.0,CAMERON DRIVE,KINSTON,NC,28501,
40.0,TANNENBAUM CIRCLE, ,NC,27410,
197.0,SEABROOK ROAD,MOUN,NC,27030,
1010.0,PALMETTO ST, ,NC,27405,
1403.0,WOLF RIDGE ROAD, ,NC,28754,
1071.0,INDIAN HILL ROAD,HENDERSONVILLE,NC,28791,
8620.0,DEERWOOD ROAD,CHARLOTTE,NC,28214,
1033.0,SHIRLEY DRIVE,JACKSONVILLE,NC,28540,
130.0,EAST PLEASANT HILL DRIVE,ECTY,NC,28621,
438.0,OAK GROVE ROAD,FLAT ROCK,NC,28731,
2011.0,OCTOBER DRIVE,DURH,NC,27703,
3458.0,CHAGALL COURT,CHARLOTTE,NC,28205,
18335.0,STATESVILLE ROAD,CORNELIUS,NC,28031,
5311.0,HIGH POINT ROAD, ,NC,27407,
5803.0,HUNT CLUB ROAD, ,NC,27410,
3540.0,EDISTO AVE SOUTHWEST,SUPPLY,NC,28462,
7905.0,GRAND CANYON ROAD,KANN,NC,28081,
533.0,RIVERTREE LANE,WS,NC,27103,
8215.0,CARTER CREEK DRIVE,CHARLOTTE,NC,28227,102.0
130.0,GLORIA BROOK DRIVE,STATESVILLE,NC,28677,
6625.0,LONG ROAD,MECKLENBURG,NC,28227,
201.0,MCIVER ST, ,NC,27330,
3948.0,COTTINGTON DRIVE,WS,NC,27105,
316.0,RATTAN ST,NEWPORT,NC,28570,
1062.0,52  SOUTH,MOUN,NC,27030,
539.0,POWER PLANT CIRCLE,WS,NC,27101,547.0
2973.0,ELKS ROAD,GREE,NC,27858,
2466.0,111  SOUTH,PINETOPS,NC,27864,
109.0,VERONA DRIVE,HAVELOCK,NC,28532,
2301.0,MAPLE ST, ,NC,27405,
5016.0,PARKWAY PLAZA BOULEVARD,CHARLOTTE,NC,28217,125.0
122.0,RICHIE LANE,STATESVILLE,NC,28625,
195.0,UTOPIA DRIVE,NEWPORT,NC,28570,
620.0,MCLEOD ST, ,NC,28337,
173.0,SILVER MILL ROAD, ,NC,28753,
1293.0,343 HWY SOUTH, ,NC,27974,
10310.0,CAMELBACK CIRCLE,CHARLOTTE,NC,28226,
4599.0,VINTAGE ROAD,LILESVILLE,NC,28091,
707.0,TIDEWATER DRIVE, ,NC,27330,
402.0,EAST SIXTEENTH ST,WS,NC,27105,
3140.0,BONLEE CARBONTON ROAD,GOLDSTON,NC,27252,
4926.0,NORTH VA DARE TRAIL,KITTY HAWK,NC,27949,
111.0,BRANSON DRIVE,OLIN,NC,28660,
3117.0,HICKEY'S FORK ROAD, ,NC,28753,
528.0,CYPRESS CIRCLE SOUTHWEST,SHALLOTTE,NC,28470,
7820.0,ROCKLAND DRIVE,CHARLOTTE,NC,28213,
76.0,PARKERS DRIVE,EVERGREEN,NC,28438,
619.0,EAGLE FORK TRAIL, ,NC,28904,
312.0,SOUTH OAKLAND ST,GASTONIA,NC,28052,
2503.0,KERSEY ST, ,NC,27406,
795.0,EAST EIGHTH ST,WS,NC,27101,111.0
106.0,SPRUCETREE DRIVE, ,NC,27301,
104.0,UNION DRIVE,DURH,NC,27706,
113.0,UPPOWOC COURT,DUCK,NC,27949,
4015.0,LINWOOD ROAD,GASTONIA,NC,28052,
802.0,KEMP ROAD WEST, ,NC,27410,
1.0,BRITTANY POINTE TERRACE, ,NC,28904,
618.0,DUPREE ST,DURH,NC,27701,
2020.0,DEEP RIVER ROAD, ,NC,27265,
5809.0,CARDINAL WAY, ,NC,27410,
1055.0,REYNOLDS PRICE DRIVE,KE,NC,27284,
135.0,SYCAMORE LAKES DRIVE,WALLACE,NC,28466,
1495.0,MANLEY SMITH ROAD,NAKINA,NC,28455,
2024.0,124  WEST,MACCLESFIELD,NC,27852,
607.0,WEST LENOIR AVE,KINSTON,NC,28501,
1865.0,BRICES CREEK ROAD,NEW BERN,NC,28562,
2766.0,WYNTERCREST LANE,DURH,NC,27713,
623.0,NORTH HORNER BOULEVARD, ,NC,27330,
1620.0,IVY MEADOW DRIVE,CHARLOTTE,NC,28213,629.0
4118.0,MELISSA DRIVE,FARM,NC,27828,
1103.0,GUYER ST, ,NC,27262,
104.0,CASTLETON PLACE, ,NC,27282,
2440.0,CHAPEL HILL ROAD, ,NC,28753,
830.0,OVERHILL ST,GASTONIA,NC,28052,
182.0,CLUBHOUSE RD 1,SUNSET BEACH,NC,28468,1.0
5517.0,KINCROSS LANE,CHARLOTTE,NC,28277,
123.0,HOLLIES PINES ROAD,BROADWAY,NC,27505,
525.0,ACADEMY ST,FC,NC,27045,
1326.0,SOLES ROAD,WHITEVILLE,NC,28472,
978.0,CHERRY TOWN ROAD,HALLSBORO,NC,28442,
1904.0,STADIUM DRIVE,DURH,NC,27705,
5638.0,ALBEMARLE ROAD,CHARLOTTE,NC,28212,
8520.0,AUTUMNBROOK DRIVE,CHARLOTTE,NC,28212,
4.0,PINELAND DRIVE,Hamlet,NC,28345,
711.0,MILLBROOK AVE,DURH,NC,27707,
121.0,CLAIRMONT DRIVE,HENDERSONVILLE,NC,28791,
4520.0,CLEAR SPRINGS ROAD,FISHING CREEK,NC,27565,
467.0,BIG POPLAR COURT NORTHEAST,LELAND,NC,28451,
3414.0,FARM LAKE ST, ,NC,27282,
5122.0,MOCKINGBIRD ROAD, ,NC,27406,
,HILLTOP ROAD,COROLLA,NC,27927,
131.0,METHODIST DRIVE,WS,NC,27105,
1110.0,ANN ST,Rockingham,NC,28379,
534.0,FAIR BLUFF AVE,SALS,NC,28146,
4828.0,TOWER ROAD, ,NC,27410,
911.0,SCALEYBARK ROAD,CHARLOTTE,NC,28209,
1506.0,BOWMORE PLACE, ,NC,27301,
10011.0,COLEY DRIVE,HUNTERSVILLE,NC,28078,
3312.0,TUSQUITTEE ROAD, ,NC,28904,
139.0,SMALLWOOD ROAD,HUBERT,NC,28539,
14715.0,STATESVILLE ROAD,HUNTERSVILLE,NC,28078,
3009.0,AMAY JAMES AVE,CHARLOTTE,NC,28208,
703.0,DRY POND ROAD, ,NC,28753,
2713.0,WOODMONT DRIVE,DURH,NC,27705,
563.0,SANCTUARY POINT SOUTHWEST,SUPPLY,NC,28462,
2017.0,HOLDEN BEACH ROAD SOUTHWEST,SUPPLY,NC,28462,
212.0,CHINQUAPIN LANE,MTUL,NC,28125,
108.0,GLADEWOOD CIRCLE,NEW BERN,NC,28560,
2703.0,STONEWICK COURT, ,NC,27282,
389.0,WHITEHOUSE FORK ROAD,PELETIER,NC,28584,
855.0,64  EAST, ,NC,28904,
6316.0,TIARA LANE,CHARLOTTE,NC,28212,107.0
7045.0,WEST FRIENDLY AVE, ,NC,27410,
2020.0,66 SOUTH HWY,FC,NC,27284,
1754.0,MEADOWBROOK TERRACE,HENDERSONVILLE,NC,28791,
1049.0,AMBER COURT,CHGV,NC,28023,
430.0,WEST HEALTH CENTER DRIVE,NAGS HEAD,NC,27959,
1023.0,RIVER ST,JACKSONVILLE,NC,28540,
8620.0,64  EAST, ,NC,28904,
1607.0,ONTARIO ST, ,NC,27403,
721.0,ORANGE FACTORY ROAD,BAHA,NC,27503,
,EAST RIDGE ROAD,SHAWBORO,NC,27973,
1217.0,SUTTON DRIVE,KINSTON,NC,28501,
1012.0,FURIA DRIVE,SPRINGDALE ACRES SEC 4A,NC,28540,
7265.0,58  SOUTH,MAYSVILLE,NC,28555,
118.0,LAKEWOOD ROAD,CRAMERTON,NC,28012,
345.0,DAM ROAD,JACKSONVILLE,NC,28540,
452.0,LANES CREEK ROAD,PEACHLAND,NC,28133,
3923.0,LAWNDALE PLACE, ,NC,27455,
9811.0,NEWLAND ROAD,CRESWELL,NC,27928,
406.0,SOUTH TRENTON ST,GASTONIA,NC,28052,
4508.0,ALEXANDER VALLEY DRIVE,CHARLOTTE,NC,28270,105.0
2830.0,ODELL SCHOOL ROAD,MECKLENBURG,NC,28262,
9724.0,NATIONS FORD ROAD,CHARLOTTE,NC,28273,
1010.0,SOUTH MAIN ST,DOBS,NC,27017,
6247.0,STANBACK COURT, ,NC,27358,
11320.0,DIXIE GLEN DRIVE,CHARLOTTE,NC,28277,226.0
120.0,KNOB HILL LANE,PILO,NC,27041,
110.0,MAUNEY CIRCLE,GASTONIA,NC,28052,
17.0,BROWNING CIRCLE,COATS,NC,27521,
515.0,LIVE OAK DRIVE,SUNSET BEACH,NC,28468,
253.0,HIGHLAND DRIVE,MOUN,NC,27030,
13431.0,MAIN DRIVE,CHARLOTTE,NC,28262,
141.0,JUNEBUG LANE,BEAUFORT,NC,28516,
4742.0,SOUTH BOULEVARD,CHARLOTTE,NC,28217,
105.0,7TH ST, ,NC,28560,
9144.0,COUNTY LINE ROAD,ROCKY MOUNT,NC,27803,
828.0,MEADOW RIDGE COURT,WS,NC,27107,
3543.0,LYNHAVEN DRIVE, ,NC,27406,
4505.0,RANDOLPH ROAD,CHARLOTTE,NC,28211,
3321.0,ALDRIDGE STORE ROAD,LAGRANGE,NC,28551,
1250.0,ARBOR ROAD,WS,NC,27104,409.0
560.0,SNOW HILL ST,AYDE,NC,28513,
1631.0,DELANE AVE,CHARLOTTE,NC,28211,1.0
1452.0,561 HWY,LOU,NC,27549,
15012.0,CROOKED BRANCH LANE,MECKLENBURG,NC,28278,
1749.0,DIERCREST ST, ,NC,27310,
251.0,LAUREL CREEK LANE, ,NC,28904,
245.0,BEECHWOOD LANE,FRANKLIN,NC,28734,
4003.0,HIDDENWOOD COURT, ,NC,27407,
3124.0,EASTWAY DRIVE,CHARLOTTE,NC,28205,560.0
1302.0,HIGHLANDS MOUNTAIN CLUB,HIGHLANDS,NC,28741,
1311.0,EAST MAIN ST,Murfreesboro,NC,27855,
603.0,NORTH BOSTIAN ST,CHGV,NC,28023,
12988.0,SOUTH 581,BAILEY,NC,27807,
989.0,ABBOTT FARM ROAD,AYDE,NC,28513,
635.0,PACE ROAD,HENDERSONVILLE,NC,28792,
4309.0,CENTRAL AVE,CHARLOTTE,NC,28205,
158.0,STARCROFT DRIVE,FUQUAY VARINA,NC,27526,
100.0,STRATFORD LAKES DRIVE,DURH,NC,27713,122.0
1659.0,PIERCE ST SOUTHWEST,OCEAN ISLE BEACH,NC,28469,
76.0,STONERIDGE ROAD,DURH,NC,27705,
6003.0,96  NORTH,OXFORD,NC,27565,
1802.0,EAST LEXINGTON AVE, ,NC,27262,
60.0,EAST COLLINS ST,EAST FLAT ROCK,NC,28726,
768.0,EAST BLUEMONT ROAD,MCTY,NC,27030,
542.0,RANSDELL ROAD,LOU,NC,27549,
4030.0,BIG NECK ROAD NORTHWEST,ASH,NC,28420,
191.0,UNION CIRCLE,LILLINGTON,NC,27546,
345.0,SHELDON MILLER ROAD,FRANKLIN,NC,28734,
3514.0,LINCOLN LANE,GASTONIA,NC,28056,
214.0,CREEK BEND DRIVE,CL,NC,27103,
2741.0,SPRING GARDEN ROAD,WS,NC,27106,
143.0,CEDAR ST,MOORESVILLE,NC,28115,
8711.0,REEDY CREEK ROAD,MECKLENBURG,NC,28215,
45.0,LOOKING GLASS ROAD,ANDREWS,NC,28901,
2406.0,FARTHING ST,DURH,NC,27704,
6150.0,ELGYWOOD LANE,CHARLOTTE,NC,28213,
3721.0,43  NORTH,GREE,NC,27834,
510.0,BACON COURT, ,NC,27263,
9010.0,TARTAN RIDGE DRIVE,HUNTERSVILLE,NC,28078,
407.0,SOUTH CHESTER ST,GASTONIA,NC,28052,16.0
1233.0,HOLLY RIDGE DRIVE,MATTHEWS,NC,28105,
2400.0,ASHEVILLE HWY,HENDERSONVILLE,NC,28791,
1104.0,INN KEEPERS WAY,CORNELIUS,NC,28031,
4.0,SUMMERTREE LANE, ,NC,27406,
7636.0,HIDDEN CREEK DRIVE,CHARLOTTE,NC,28214,
3212.0,STONEBURG COURT, ,NC,27409,
8376.0,FAYETTEVILLE ROAD, ,NC,28441,
18050.0,JOE BROWN HWY,MURPHY,NC,28906,
1550.0,ROBERTS ROAD,NEWPORT,NC,28570,
2019.0,PINEBROOK CIRCLE,CHARLOTTE,NC,28208,
9266.0,NC 306 SOUTH HWY,ARAPAHOE,NC,28510,
711.0,EAST 52 BYPASS,PCTY,NC,27041,
10818.0,SLALOM HILL ROAD,CHARLOTTE,NC,28278,
489.0,MARSHALLBERG ROAD,SMYRNA,NC,28579,
3410.0,ANN FRANKLIN COURT,MECKLENBURG,NC,28216,
286.0,CRYSTAL HOLDER LANE,LILLINGTON,NC,27546,
2787.0,PINE LOG ROAD,WHITEVILLE,NC,28472,
2176.0,ROARING CREEK ROAD,NEWLAND,NC,28657,
1534.0,PHILADELPHIA CHURCH ROAD,GASTON,NC,28034,
2035.0,MILFORD ST,WS,NC,27107,
104.0,WEST MAIN ST,BEULAVILLE,NC,28518,
3609.0,MOUNTAIN BROOK CIRCLE,DURH,NC,27704,
4675.0,HACKBERRY GROVE CIRCLE,CHARLOTTE,NC,28269,1713.0
2635.0,HILL LANE,RANLO,NC,28054,
3621.0,DAISYFIELD DRIVE,CHARLOTTE,NC,28269,
1430.0,VENTURA WAY DRIVE,CHARLOTTE,NC,28213,8.0
6.0,LITTLE OAK ST,CANTON,NC,28716,
1028.0,WALKER ROAD,LINDEN,NC,28323,
3332.0,HIGHVIEW ROAD,CHARLOTTE,NC,28210,
227.0,WEST 1ST AVE,CHADBOURN,NC,28431,
905.0,SOUTH WESLEYAN BOULEVARD,ROCKY MOUNT,NC,27803,
6200.0,CAPE WEDGEWOOD CIRCLE, ,NC,27214,
7439.0,BALMORE DRIVE,SUNSET BEACH,NC,28468,
208.0,AVE,OXFORD,NC,27565,
1901.0,ASHWOOD COURT, ,NC,27455,
6927.0,RED MAPLE DRIVE,CHARLOTTE,NC,28277,
711.0,COOL SPRINGS ROAD,ERNUL,NC,28527,
227.0,BLACK ROCK SCHOOL ROAD,CHERRYVILLE,NC,28021,
2427.0,WILLIAMS AVE, ,NC,27262,
,6 CASTLE DRIVE,HUBERT,NC,28539,
509.0,LEX DRIVE,CHARLOTTE,NC,28262,
1485.0,MEWBORN CHURCH ROAD, ,NC,28580,
107.0,POLLARD DRIVE,JACKSONVILLE,NC,28540,
2816.0,SATER ST,DURH,NC,27703,
51.0,THE RED OX CIRCLE,MAGGIE VALLEY,NC,28751,
408.0,FARRIS DRIVE,CHERRYVILLE,NC,28021,
0.0,NEAL ROAD,REIDSVILLE,NC,27320,
1240.0,WINDBROOKE DRIVE,GRIM,NC,27837,
3406.0,ASHTON DRIVE,WS,NC,27101,
300.0,FIRST FLIGHT RUN,KITTY HAWK,NC,27949,
321.0,BARRINGTON PARK LANE,KE,NC,27284,
248.0,GRANT ROAD,STATESVILLE,NC,28625,
1037.0,KINGS MOUNTAIN LANE,RANLO,NC,28054,
507.0,WEST OAK ISLAND DRIVE, OAK ISLAND,NC,28465,
4307.0,SOUTH GREG ALLEN WAY,OXFORD,NC,27565,
519.0,LEATHERWOOD ROAD, ,NC,28904,
1503.0,EAST MOREHEAD ST,CHARLOTTE,NC,28207,
1049.0,SPARTANBURG HWY,HENDERSONVILLE,NC,28792,
609.0,NORTH DIXIE ST,CHERRYVILLE,NC,28021,
114.0,BARRY OAK ROAD,STATESVILLE,NC,28625,
1542.0,HIGH ST,CHARLOTTE,NC,28211,
18741.0,DAYMARK DRIVE,CORNELIUS,NC,28031,
4816.0,SIRUS LANE,CHARLOTTE,NC,28208,
134.0,LEYLAND DRIVE,GASTON,NC,28056,
5008.0,HARSTONE COURT,CRAMERTON,NC,28032,
237.0,CLINTON CARLYLE ROAD,ZEB,NC,27597,
137.0,ASKEW ST,WINTON,NC,27986,
180.0,PERSIMMON LANE,STAT,NC,28676,
1506.0,AIRPORT ROAD,KINSTON,NC,28504,
408.0,SNOW ST,KANN,NC,28081,
111.0,GULF STREAM DRIVE,EMERALD ISLE,NC,28594,
123.0,WEST MCDOWELL ST,MATTHEWS,NC,28105,
2940.0,THOMPSON ROAD,BUNNLEVEL,NC,28323,
67.0,CALABASH DRIVE,CALABASH,NC,28467,
3409.0,RICHARD COURT, ,NC,28560,
134.0,OXFORD COURT,BEULAVILLE,NC,28518,
3179.0,MOSS HAMMOCK WYND,SOUTHPORT,NC,28461,
96.0,BENNISON LANE,FLAT ROCK,NC,28731,
2611.0,BUCKLEIGH DRIVE,MECKLENBURG,NC,28215,
410.0,SWEET GUM WAY,NEW BERN,NC,28562,
10918.0,LEE MANOR LANE,CHARLOTTE,NC,28277,
2216.0,AUGUSTA ST,CHARLOTTE,NC,28216,
126.0,VINEWOOD DRIVE,STONY POINT,NC,28678,
2701.0,PICKETT ROAD,DURH,NC,27705,3009.0
153.0,WOODSIDE DRIVE,Rockingham,NC,28379,
105.0,OAK LANE,CHAPEL HILL,NC,27517,
1.0,MOSS RIDGE DRIVE, ,NC,28754,
20437.0,WILLOW POND ROAD,CORNELIUS,NC,28031,
524.0,RIDGEHAVEN CIRCLE,WS,NC,27104,
,5 GUM BRANCH ROAD,RICHLANDS,NC,28540,
4307.0,GRIFFINS GATE LANE, ,NC,27407,
2887.0,CRESCENT VIEW DRIVE,CHARLOTTE,NC,28269,
5001.0,SHARON ROAD,CHARLOTTE,NC,28210,
11.0,PARKWAY VIEW ROAD, ,NC,28754,
2037.0,MALLARD PINE COURT,CHARLOTTE,NC,28262,
917.0,WINGINA AVE,MANTEO OUT,NC,27954,
109.0,UTAH LANE,TROUTMAN,NC,28166,
9528.0,BRIGHTHAVEN LANE,CHARLOTTE,NC,28214,
6621.0,FAIRWAY POINT DRIVE,CHARLOTTE,NC,28269,
630.0,OLIN LOOP,OLIN,NC,28660,
618.0,SOUTH HAMPTON DRIVE,COTTAGE COVE,NC,28546,
,BAXTER GROVE,MOYOCK,NC,27958,
52.0,TRUDY ST,FRK,NC,27525,
150.0,PINECREST ST,SALS,NC,28147,
406.0,SHARON WAY,BRANCHWOOD SEC 3,NC,28546,
6.0,OAK GLEN COURT, ,NC,27408,
3006.0,FARMINGTON DRIVE, ,NC,27407,
3209.0,HICKORY RIDGE DRIVE,WS,NC,27127,
556.0,LIPPARD FARM ROAD,STATESVILLE,NC,28625,
130.0,DARROCH ROAD,BUNNLEVEL,NC,28323,
90.0,LIONHEART LANE,MAGGIE VALLEY,NC,28751,
7428.0,ICON WAY,CHARLOTTE,NC,28216,
104.0,BRIGHTWATER HEIGHTS DRIVE,HENDERSONVILLE,NC,28791,
2326.0,WINTHORP RIDGE ROAD,CHARLOTTE,NC,28270,
2810.0,SAINT CLAIRE ROAD,WS,NC,27106,
,POYNERS ROAD,MOYOCK,NC,27958,
1563.0,HOFFMAN ROAD,GASTONIA,NC,28054,
2730.0,BASSWOOD COURT,WS,NC,27106,
6183.0,OLDE FIELDS WAY,FC,NC,27040,
117.0,TEDDY BEAR LANE,HENDERSONVILLE,NC,28735,
8452.0,58  NORTH, ,NC,27883,
5650.0,FOSTER ROAD,WOOD,NC,27054,
6301.0,CHANNING ROAD, ,NC,27410,
142.0,WEST GRANDIFLORA DRIVE,WALLACE,NC,28466,
5549.0,GOOSE NECK ROAD NORTHEAST,REIGELWOOD,NC,28456,
7040.0,FERNWOOD DRIVE,CHARLOTTE,NC,28211,
162.0,LAMROC DRIVE,EMERALD ISLE,NC,28594,
916.0,WEST TRINITY AVE,DURH,NC,27701,17.0
1011.0,STANBURY ROAD SOUTHWEST,SUPPLY,NC,28462,
19231.0,SCHOOL ST,CORNELIUS,NC,28031,
1311.0,MORVEN ROAD,WADESBORO,NC,28170,
4542.0,JUNALUSKA ROAD,ANDREWS,NC,28901,
1810.0,BYWOOD ROAD, ,NC,27405,
380.0,BEECH TREE ROAD,MOORESVILLE,NC,28117,
404.0,PARK ST,CHGV,NC,28023,
2510.0,OLDE OAKS LANE, ,NC,27406,
1207.0,MILES ROAD,GASTON,NC,28034,
557.0,OSBORNE RIDGE ROAD,CANTON,NC,28716,
36.0,HOLLAND DRIVE,FRANKLIN,NC,28734,
3102.0,PHILLIPSBURG COURT, ,NC,27410,
2737.0,NORTH WESLEYAN BOULEVARD,ROCKY MOUNT,NC,27804,
911.0,BALSAM ROAD,WAYNESVILLE,NC,28786,
2860.0,HOPE CHURCH ROAD,FC,NC,27127,
3052.0,SUMMERFIELD RIDGE LANE,CHARLOTTE,NC,28105,
464.0,HECK LOVETTE ROAD,FAIR BLUFF,NC,28439,
1089.0,RACHEL LANE,SALS,NC,28147,
5585.0,WEST 64 HWY,MURPHY,NC,28906,
328.0,HICKORY KNOLL,HUBERT,NC,28539,
2347.0,BRITT DRIVE,FARM,NC,27828,
2866.0,MIDWAY DRIVE,WHITEVILLE,NC,28472,
3089.0,STAGE ROAD SOUTH,ERWIN,NC,28339,
5480.0,CARILLON DRIVE,FC,NC,27040,
2725.0,COWLES ROAD,CHARLOTTE,NC,28208,
7654.0,RIVERVIEW KNOLL COURT,CL,NC,27012,
2680.0,BETHABARA ROAD,WS,NC,27106,4.0
1101.0,WEST 1ST ST,CHARLOTTE,NC,28202,418.0
1621.0,CONRAD AVE,GASTONIA,NC,28052,
181.0,WILD PEAR LANE,FRANKLIN,NC,28734,
1008.0,WEST CATAWBA AVE,GASTON,NC,28120,
195.0,BIRCHWOOD ROAD,STATESVILLE,NC,28625,
108.0,LOOKOUT RIDGE,PITTSBORO,NC,27312,
3108.0,SHADY LAWN DRIVE, ,NC,27408,
265.0,WINDING RIDGE,SANFORD,NC,27332,
4720.0,PINE HALL ROAD,FC,NC,27051,
135.0,MOCKSVILLE AVE,SALS,NC,28144,
112.0,SOUTH ORION ST,KINSTON,NC,28501,
1601.0,WAYNE ST, ,NC,27330,
143.0,BOGUE FOREST DRIVE,NEWPORT,NC,28570,
2112.0,SOUTH MAIN ST, ,NC,27263,
312.0,FLEMING DRIVE,DURH,NC,27712,
3702.0,MCCONNELL ROAD, ,NC,27405,
1700.0,CAPPS ST,DURH,NC,27707,
7068.0,WOODSIDE FOREST CIRCLE,LE,NC,27023,
227.0,SOUTHWOODS LANE,JACKSONVILLE,NC,28540,
1321.0,FOREST PARK TERRACE,STATESVILLE,NC,28677,
3007.0,PICKETT ROAD,DURH,NC,27705,103.0
132.0,NELSON ST,HARKERS ISLAND,NC,28531,
109.0,BARON CIRCLE,YNG,NC,27596,
2850.0,SOUTH MAIN ST, ,NC,27263,107.0
2000.0,SOUTH BOULEVARD,CHARLOTTE,NC,28203,225.0
,SANDFIDDLER ROAD,COROLLA,NC,27927,
4671.0,SEDGE HAVEN LANE,FC,NC,27284,
1502.0,NEUSE ROAD,NEW BERN,NC,28560,
6202.0,OAK FOREST COURT, ,NC,27358,
283.0,N,MOORESVILLE,NC,28115,
4245.0,ASHLAND DRIVE, ,NC,27407,
10023.0,ELIZABETH CREST LANE,CHARLOTTE,NC,28277,
1634.0,DALLAS STANLEY HWY,GASTON,NC,28034,
241.0,NORTHPOINT AVE, ,NC,27262,
5900.0,GATE POST ROAD,CHARLOTTE,NC,28211,
6577.0,SUNSHINE ST NORTHWEST,OCEAN ISLE BEACH,NC,28470,
5.0,SIX MILL COURT,DURH,NC,27713,
191.0,SCARLETT RIDGE DRIVE, ,NC,28753,
330.0,GREEN SPRING DRIVE,SANFORD,NC,27332,
522.0,NORTH MAIN ST,TROUTMAN,NC,28166,
945.0,STOCKING HEAD ROAD,ROSE HILL,NC,28458,
213.0,WILTSHIRE COURT,JACKSONVILLE,NC,28546,
190.0,BENJAMIN TRIPP LANE,DUNN,NC,28334,
725.0,SOUTH SCIENTIFIC ST, ,NC,27260,
1541.0,SPRING GARDEN ST, ,NC,27403,
102.0,HICKS ST,CHERRYVILLE,NC,28021,
5900.0,HOLDER ROAD,CL,NC,27012,
1609.0,FOREST VALLEY ROAD, ,NC,27410,
527.0,MAUL SWAMP ROAD,VANCEBORO,NC,28586,
502.0,COVE HOLLOW DRIVE,DURH,NC,27703,
5905.0,KING CHARLES COURT,CL,NC,27012,
1025.0,YORKMONT RIDGE LANE,CHARLOTTE,NC,28217,731.0
107.0,DEREK ST,Rockingham,NC,28379,
10932.0,MIDDLESEX ROAD,MIDDLESEX,NC,27557,
10508.0,MISTY RIDGE LANE,CHARLOTTE,NC,28277,
247.0,CREEK VIEW DRIVE,SUNSET BEACH,NC,28468,
841.0,GLEN OAK DRIVE,SOUTHPORT,NC,28461,
1229.0,ZIGLAR ROAD,WS,NC,27105,
20.0,WHEELWRIGHT COURT, ,NC,27455,
1015.0,BAHAMA ROAD,BAHA,NC,27503,
4126.0,NEW CIRCLE DRIVE,AYDE,NC,28513,
4122.0,APPLEGATE ROAD,CHARLOTTE,NC,28209,
704.0,29TH ST,BUTNER,NC,27509,
1435.0,STATE CAMP ROAD,VANCEBORO,NC,28586,1.0
11951.0,CHEVIS COURT,CHARLOTTE,NC,28277,
6495.0,DORAL DRIVE,TO,NC,27045,
274.0,VALLEY VIEW ROAD,FRANKLIN,NC,28734,
354.0,NATMORE ROAD, ,NC,28448,
403.0,EAST OAK ST,LAKE WACCAMAW,NC,28450,
1052.0,EDMUND ROAD,EVERGREEN,NC,28438,
409.0,ARROLL COURT,CHARLOTTE,NC,28213,
14.0,SPRING FARM DRIVE,HORSE SHOE,NC,28742,
1605.0,EAST HARDSCRABBLE DRIVE,HILL,NC,27278,
1208.0,NEW GARDEN ROAD, ,NC,27410,238.0
1319.0,HADLEY MILL ROAD,PITTSBORO,NC,27312,
6096.0,LAKE ROAD,BOLTON,NC,28423,
9429.0,TURNING WHEEL DRIVE,CHARLOTTE,NC,28214,
,PORT WEST COURT,SWANSBORO,NC,28584,
2160.0,HOLLYHOCK LANE,DEEP RUN,NC,28525,
8005.0,CHESTNUT RIDGE DRIVE,CHARLOTTE,NC,28215,
311.0,TABERNA CIRCLE, ,NC,28562,
931.0,SOUTH MAIN ST,KE,NC,27284,
93.0,TREETOPS ROAD,CAMERON,NC,28326,
138.0,WINDMILL MHP LANE,ALBERTSON,NC,28365,
1323.0,BAHAMA ROAD,BAHA,NC,27503,
1040.0,PEA LANDING ROAD NORTHWEST,ASH,NC,28420,
8731.0,CHALLENGER DRIVE,CHARLOTTE,NC,28213,
8695.0,15  NORTH,BULLOCK,NC,27507,
2321.0,BELVEDERE AVE,CHARLOTTE,NC,28205,
1028.0,BOBS PLACE,WOOD,NC,27054,
545.0,C POWERS ROAD,WALLACE,NC,28466,
10400.0,JOHN PRICE ROAD,CHARLOTTE,NC,28273,91.0
1064.0,HAYSTACK ROAD,MOUN,NC,27030,
300.0,NORTH ELAM AVE, ,NC,27403,
2115.0,CANTERWOOD DRIVE,CHARLOTTE,NC,28213,10.0
11607.0,HILDA COURT,CHARLOTTE,NC,28226,
1448.0,CANDI LANE NORTHEAST,WINNABOW,NC,28479,
670.0,BARBER ROAD,ZIRCONIA,NC,28790,
1585.0,SATTERWHITE ROAD,OXFORD,NC,27565,
510.0,EAST MAIN ST,CLEV,NC,27013,
591.0,NEW HOPE CHURCH ROAD,BATTLEBORO,NC,27809,
111.0,FINLEY CIRCLE,WS,NC,27127,
303.0,PEBBLE CREEK COURT,JACKSONVILLE,NC,28546,
306.0,LAMROC DRIVE,EMERALD ISLE,NC,28594,
3142.0,WEST HILLIARDSTON ROAD,NASHVILLE,NC,27856,
14215.0,HIGHLAND MEADOW ROAD,CHARLOTTE,NC,28273,
980.0,BEAR POPLAR ROAD,CLEV,NC,27013,
5638.0,WEST MARKET ST, ,NC,27409,
1503.0,NORTH HAMILTON ST, ,NC,27262,
616.0,OAK ST,MOORESVILLE,NC,28115,
348.0,STONE MEADOW DRIVE,WS,NC,27284,
4021.0,AVERA AVE,WS,NC,27106,
2630.0,TODDLER PLACE DRIVE,WS,NC,27105,2.0
215.0,DAVIS PLANTATION ROAD,GASTON,NC,28016,
401.0,ARCHDALE DRIVE,DURH,NC,27707,104.0
111.0,DELORIS DRIVE,VANCEBORO,NC,28586,
1045.0,SARDIS COVE DRIVE,CHARLOTTE,NC,28270,
101.0,ORCHARD COURT,ROCKY MOUNT,NC,27804,
3214.0,BRASSFIELD ROAD, ,NC,27410,5.0
102.0,SPLIT OAK WAY, ,NC,28562,
4901.0,LAWNDALE DRIVE, ,NC,27455,519.0
226.0,JOE KNOX AVE,MOORESVILLE,NC,28117,303.0
3523.0,NORTH ROXBORO ST,DURH,NC,27704,
3900.0,COTSWOLD AVE, ,NC,27410,
342.0,BUFFALO SHOALS ROAD,STATESVILLE,NC,28677,
397.0,COLONIAL RIDGE DRIVE,PITTSBORO,NC,27312,
1936.0,OAKLAND DRIVE SOUTHWEST,OCEAN ISLE BEACH,NC,28469,
2121.0,CROSSING WAY, ,NC,27262,
391.0,101,BEAUFORT,NC,28516,
3809.0,HALLETT ST,KITTY HAWK,NC,27949,
23.0,RIVER DRIVE,ROCKY MOUNT,NC,27804,
5416.0,OAK DRIVE,CHARLOTTE,NC,28216,
539.0,EDGARWOOD WAY SOUTHWEST,SUPPLY,NC,28462,
240.0,FARMER DRIVE,MURPHY,NC,28906,
177.0,KEY ROAD,ARAR,NC,27007,
70.0,PERRY WAY,FRK,NC,27525,
10390.0,CALDWELL ROAD,MTUL,NC,28125,
3350.0,SILAS CREEK PARKWAY,WS,NC,27103,117.0
2303.0,LEDNUM ST,DURH,NC,27705,
329.0,EDGEGREEN DRIVE,CHARLOTTE,NC,28217,
211.0,NORTHPOINT AVE, ,NC,27262,
48.0,BUBBAS WAY,SANFORD,NC,27332,
334.0,42  WEST,Ahoskie,NC,27910,
727.0,A ST,BESSEMER CITY,NC,28016,
103.0,73  NORTH, ,NC,27409,
1609.0,WOOD RIDGE DRIVE, ,NC,27332,
3792.0,SUNSET HARBOR ROAD SOUTHEAST,BOLIVIA,NC,28422,
3450.0,HEALY DRIVE,WS,NC,27103,
6304.0,MOORESVILLE ROAD,SALS,NC,28147,
830.0,WEST MARKET ST, ,NC,27401,6.0
228.0,PATTYS CHAPEL ROAD,FLETCHER,NC,28732,
804.0,TOWNSEND AVE,GASTONIA,NC,28052,
115.0,LAMPLIGHTER CIRCLE,WS,NC,27104,
47.0,HODGES DRIVE,MILLS RIVER,NC,28759,
9409.0,STAWELL DRIVE,HUNTERSVILLE,NC,28078,
615.0,EARL DAVIS ROAD,ROSE HILL,NC,28458,
44.0,MINERAL SPRINGS MH PARK,MORVEN,NC,28119,
3634.0,MORRIS FARM DRIVE, ,NC,27409,
3912.0,NOTTAWAY ROAD,DURH,NC,27707,
1201.0,LATHAM ROAD, ,NC,27408,
134.0,MT ZION DRIVE,STATESVILLE,NC,28625,
7535.0,MALLARD CREEK ROAD,CHARLOTTE,NC,28269,7.0
56709.0,NASH,CHAPEL HILL,NC,27517,
261.0,FORSAKEN DRIVE,CHGV,NC,28023,
6517.0,WILD ORCHID COURT,CHARLOTTE,NC,28262,
8311.0,CLINTWOOD DRIVE, ,NC,27357,
106.0,PINEWOOD DRIVE,NEWPORT,NC,28570,
9244.0,LANCASTER STORE ROAD,CASTALIA,NC,27816,
105.0,BRIARWOOD PLACE,WF,NC,27587,
6221.0,MCINTYRE RIDGE DRIVE,CHARLOTTE,NC,28216,
170.0,BROKEN ARROW TRAIL,YNG,NC,27596,
520.0,CONCORD AVE,STATESVILLE,NC,28677,
2040.0,BETHANY TRACE LANE,WS,NC,27127,
1210.0,BAYVIEW COURT,FRANKLINTON,NC,27525,
4506.0,MT HOLLY-HUNTERSVILLE ROAD,CHARLOTTE,NC,28216,
711.0,WEST HARNETT ST,DUNN,NC,28334,
416.0,CUMMINGS ROAD,LILLINGTON,NC,27546,
3515.0,ARARAT ROAD,ARAR,NC,27007,
6300.0,BRANCH HILL CIRCLE,CHARLOTTE,NC,28213,
6932.0,WEST MOUNT DRIVE,ROCKY MOUNT,NC,27803,
1620.0,GOLEY HEWETT RD SE 405,BOLIVIA,NC,28422,405.0
110.0,CRESTWAY COURT,LE,NC,27023,
1300.0,REECE ROAD,CHARLOTTE,NC,28209,201.0
711.0,CHESTNUT HILL COURT, ,NC,27455,
150.0,GLOVER ROAD,SALS,NC,28146,
118.0,WEST MOUNTAIN ST,KE,NC,27284,
689.0,ASHLEY MEADOWS DRIVE,WINT,NC,28590,
6325.0,HIGHLAND COMMONS ROAD,CHARLOTTE,NC,28269,
491.0,208 HWY, ,NC,28753,
4.0,ALBERT COURT,DURH,NC,27713,
108.0,WHITEFIELD TRACE,MOORESVILLE,NC,28115,
2654.0,UNIVERSITY DRIVE,DURH,NC,27707,
200.0,AARON CIRCLE,DURH,NC,27713,7.0
788.0,NORTH TRADE ST,WS,NC,27101,
14.0,RESORT LANE, ,NC,28441,
1704.0,CHAMBERS DRIVE,MATTHEWS,NC,28105,23.0
1124.0,WARE AVE,GASTONIA,NC,28052,
5872.0,APPOMATTOX ROAD, ,NC,27313,
416.0,WATSON GRAVE YARD ROAD, ,NC,28433,
7013.0,WANDERING CREEK DRIVE,CHARLOTTE,NC,28216,
13807.0,HUNTERSVILLE-CONCORD ROAD,MECKLENBURG,NC,28078,
246.0,24,CAMERON,NC,28326,
1317.0,HEATHERS MIST AVE,CHARLOTTE,NC,28213,
608.0,SOUTH FULTON ST,SALS,NC,28144,
300.0,WEST 5TH ST,CHARLOTTE,NC,28202,134.0
732.0,RUTHERFORD ST,DURH,NC,27705,
2628.0,STRATFORD DRIVE, ,NC,27408,
138.0,TRESTLE ST,Hamlet,NC,28345,
406.0,SHARP MOUNTAIN ROAD,CANTON,NC,28716,
6604.0,ROCKWELL CHURCH ROAD,CHARLOTTE,NC,28269,
444.0,RICE COVE ROAD, ,NC,28753,
3923.0,HUNTER HILL LANE,MECKLENBURG,NC,28216,
800.0,SOUTH 705,SEAGROVE,NC,27341,
4050.0,FAIRFIELD COURT,YOUNGSVILLE,NC,27596,
7265.0,SEASHELL LN SW 506,OCEAN ISLE BEACH,NC,28469,506.0
479.0,FIRETOWER ROAD,BEAUFORT,NC,28516,
1101.0,EAST SHINE ST,KINSTON,NC,28501,
820.0,DUNNTOWN ROAD, ,NC,27249,
3409.0,SARGEANT DRIVE,CHARLOTTE,NC,28217,
310.0,EAST 4TH AVE,CHADBOURN,NC,28431,
9586.0,CORNWALL ROAD,BULLOCK,NC,27507,
122.0,CHERRYBARK DRIVE,JACKSONVILLE,NC,28540,
2319.0,BONAIRE LANE, ,NC,27405,
9848.0,NORTH TRYON ST,CHARLOTTE,NC,28262,
105.0,ELIZABETH COURT,COLINGTON,NC,27948,
10104.0,BAXTER CALDWELL DRIVE,CHARLOTTE,NC,28213,
222.0,EAST BLAND ST,CHARLOTTE,NC,28203,263.0
1205.0,SER J DRIVE,FRANKLINTON,NC,27525,
8808.0,SINGINGPINE ROAD,MECKLENBURG,NC,28214,
751.0,HOGAN ROAD, ,NC,27406,
896.0,TOMS CREEK,PILO,NC,27041,
207.0,SOUTH ROWAN AVE,SPEN,NC,28159,
501.0,NELSON ST,ROCKY MOUNT,NC,27803,
1210.0,HULL ROAD, ,NC,28580,
278.0,CORBETT FARM ROAD,MACCLESFIELD,NC,27852,
6.0,LYLE COURT,DURH,NC,27704,
4421.0,NOELL ROAD,ROCKY MOUNT,NC,27803,
106.0,EVERETT ST,Rockingham,NC,28379,
,LAUREL WOODS WAY,CURRITUCK,NC,27929,
19.0,RUDDER COURT,MANTEO IN,NC,27954,
3406.0,ERINBROOK LANE,CHARLOTTE,NC,28215,
1029.0,NUTALL OAK LANE,GASTON,NC,28012,
911.0,MASSEY AVE,DURH,NC,27701,
299.0,DEW OIL PLANT ROAD,DELCO,NC,28436,
3393.0,CHERRYBROOK DRIVE, ,NC,27282,
1994.0,KIPPEN DRIVE,KE,NC,27284,
2015.0,BUCKMINSTER DRIVE, ,NC,27377,
125.0,DEER HAVEN DRIVE,STATESVILLE,NC,28625,
2115.0,HAMPTON MEADOWS LANE,CRAMERTON,NC,28032,
16529.0,RED BUCKBOARD LANE,MECKLENBURG,NC,28278,
9767.0,210  NORTH,ANGIER,NC,27501,
7519.0,SHALLOWFORD ROAD,FC,NC,27023,
7672.0,74,EVERGREEN,NC,28438,
71.0,CHESTNUT LANE,HENDERSONVILLE,NC,28792,
34.0,COFFEE TREE LANE,FRANKLIN,NC,28734,
375.0,HOLLY HILL FARM ROAD, ,NC,28754,
602.0,E,NASHVILLE,NC,27856,
1909.0,HICKORY GROVE ROAD,GASTON,NC,28120,
5110.0,CHAPEL HILL ROAD,DURH,NC,27707,1238.0
78.0,WINDSOR CIRCLE SOUTHWEST,OCEAN ISLE BEACH,NC,28469,
13918.0,IDLEWILD ROAD,MATTHEWS,NC,28105,
2100.0,ZION HILL ROAD SOUTHEAST,BOLIVIA,NC,28422,
8600.0,SAM FURR ROAD,HUNTERSVILLE,NC,28078,150.0
165.0,POSTELL ROAD,MURPHY,NC,28906,
61.0,WHITE OAK LANE,PLYMOUTH,NC,27962,
15730.0,AGINCOURT DRIVE,HUNTERSVILLE,NC,28078,
4955.0,PARK ROAD,CHARLOTTE,NC,28209,
4086.0,75,STEM,NC,27581,
310.0,ELIZABETH ST,WALLACE,NC,28466,
671.0,MOUNTAIN ROAD,STATESVILLE,NC,28677,
9824.0,MARY ALEXANDER ROAD,CHARLOTTE,NC,28262,
2261.0,MILLS ROAD,GREE,NC,27858,
,TEAL ROAD,COROLLA,NC,27927,
2708.0,ERNEST ST, ,NC,27263,
917.0,COTTAGE GROVE AVE,SILER CITY,NC,27344,
17.0,SPRUCE ST,CANTON,NC,28716,
455.0,NEWPORT ST,KINSTON,NC,28504,
5420.0,BAKER DRIVE,CHARLOTTE,NC,28210,
1503.0,SEMINOLE DRIVE, ,NC,27408,
576.0,SWEETWATER DRIVE,CANTON,NC,28716,
104.0,CREEKSIDE DRIVE, ,NC,27282,
3757.0,FRONTENAC AVE,CHARLOTTE,NC,28215,
4530.0,PINEBROOK COURT,GASTONIA,NC,28056,
2504.0,EAST BESSEMER AVE, ,NC,27405,
3041.0,ELIZA ROAD SOUTHEAST,BOLIVIA,NC,28422,
610.0,BINGHAM COURT NORTHWEST,CALABASH,NC,28467,
6139.0,CHAMBERLAIN PLACE,CL,NC,27103,101.0
430.0,NORTH CHIMNEY ROCK ROAD, ,NC,27410,
103.0,HOFMANN DRIVE,JACKSONVILLE,NC,28546,
807.0,KNOX ROAD, ,NC,27301,
8505.0,QUAIL CREEK DRIVE, ,NC,27235,
186.0,WALLACE SPRINGS ROAD,STATESVILLE,NC,28677,
17010.0,HUGH TORANCE PARKWAY,HUNTERSVILLE,NC,28078,
215.0,EAST SIR WALTER RALEIGH DRIVE,COLINGTON,NC,27948,
176.0,WHITE OAK DRIVE, ,NC,28909,
110.0,NEW MOON LANE,GASTON,NC,28016,
301.0,LORD GRANVILLE DRIVE,MOREHEAD CITY,NC,28557,
914.0,PAULINE LANE,WINT,NC,28590,
304.0,WINSTON ST, ,NC,27401,
2519.0,ROSEVIEW LANE,CHARLOTTE,NC,28205,
707.0,EAST SHERATON PARK ROAD, ,NC,27313,
77.0,ROCKHILL LANE,CANTON,NC,28716,
121.0,MONDAY AVE,MOUN,NC,27030,
610.0,MASSEY AVE,DURH,NC,27701,
408.0,EAST FRANKLIN ST,Rockingham,NC,28379,
297.0,OLIVE ST,NASHVILLE,NC,27856,
4111.0,SOUTH ALSTON AVE,DURH,NC,27713,
1817.0,WHITES MILL ROAD, ,NC,27265,
304.0,GALLOP COURT,STEM,NC,27581,
511.0,DOCKERY ROAD,Rockingham,NC,28379,
3608.0,NORTH TRYON ST,CHARLOTTE,NC,28206,
2021.0,ARDSLEY ST,WS,NC,27103,
1002.0,N, ,NC,27405,102.0
2753.0,COTTAGE PLACE, ,NC,27455,
196.0,KESLER FARM DRIVE,SALS,NC,28146,
610.0,EAST CASTALIA ROAD,NASHVILLE,NC,27856,
53.0,NORTH BENTWOOD LANE,FRANKLIN,NC,28734,
6110.0,STYERS FERRY ROAD,LE,NC,27012,
9708.0,SPRING PARK DRIVE,CHARLOTTE,NC,28269,
2115.0,TURQUOISE LANE,FRANKLINTON,NC,27525,
1055.0,METROPOLITAN AVE,CHARLOTTE,NC,28204,
7089.0,STOKESTOWN ST JOHNS ROAD,AYDE,NC,28513,
1015.0,WATERSHED ROAD, ,NC,28754,
1706.0,AFTONSHIRE DRIVE, ,NC,27410,
511.0,SMITH ST, ,NC,27260,
,SOLO LANE,KNOTTS ISLAND,NC,27950,
1908.0,BAILIFF ST, ,NC,27403,
616.0,CANDLER LANE,CHARLOTTE,NC,28217,
500.0,PARK RIDGE COURT,WS,NC,27104,
701.0,SIMMONS ST, ,NC,28562,
4451.0,PLATINUM DRIVE, ,NC,27409,
1505.0,LATHROP ST,DURH,NC,27703,
317.0,WEST 12TH ST,KANN,NC,28081,
302.0,CONCORD ST, ,NC,27406,
3131.0,EAST GEER ST,DURH,NC,27704,
2170.0,FISHER DRIVE SOUTHEAST,WINNABOW,NC,28479,
625.0,SOUTH TAYLOR ST,ROCKY MOUNT,NC,27803,
2872.0,211 HWY EAST, ,NC,28433,
13267.0,HAYNES LENNON HWY,EVERGREEN,NC,28438,
4110.0,MEADOW OAK DRIVE,CHARLOTTE,NC,28208,
4774.0,CHAMPION COURT, ,NC,27410,
850.0,COBBLESTONE DRIVE,WAYNESVILLE,NC,28786,
201.0,WEST 16TH ST,KANN,NC,28081,
8101.0,STRAWBERRY POINT DRIVE,CHARLOTTE,NC,28215,
403.0,BRANCHWOOD ROAD,STATESVILLE,NC,28625,
8325.0,CARTER CREEK DRIVE,CHARLOTTE,NC,28227,207.0
2205.0,NEW GARDEN ROAD, ,NC,27410,3416.0
305.0,FIRST POST ROAD,JACKSONVILLE,NC,28544,
2720.0,SOUTH BOULEVARD,CHARLOTTE,NC,28209,389.0
3389.0,HANGING DOG ROAD,MURPHY,NC,28906,
7344.0,CARLON ROAD NORTHWEST,LONGWOOD,NC,28452,
2619.0,WEST COURT ST, ,NC,27407,
100.0,LARCH COURT,HUBERT,NC,28539,
4440.0,SWEET BAY DRIVE SOUTHEAST,SOUTHPORT,NC,28461,
605.0,IRELAND ST, ,NC,27406,
310.0,NORTH CLINTON AVE,DUNN,NC,28334,
2903.0,ROANOKE AVE, ,NC,28562,
3677.0,TAYLORS STORE ROAD,NASHVILLE,NC,27856,
3905.0,WALKER AVE, ,NC,27403,
521.0,WEST THOMAS ST,ROCKY MOUNT,NC,27804,
142.0,BLUE RIDGE TRAIL,MOORESVILLE,NC,28117,
5660.0,CREEK ROAD,GRIFTON,NC,28530,
939.0,BELLA BRIDGE ROAD,BROADWAY,NC,27505,
127.0,DAN KNOB OVRL, ,NC,28904,
1275.0,BRADFORD HEIGHTS ROAD,GASTONIA,NC,28054,
,WEDGEWOOD DRIVE,MOYOCK,NC,27958,
12602.0,KEMERTON LANE,HUNTERSVILLE,NC,28078,
255.0,PGW DRIVE,ECTY,NC,28621,
1350.0,OAK GROVE ROAD,MURPHY,NC,28906,
304.0,CALLANDALE LANE,DURH,NC,27703,
1574.0,GRANDIFLORA DRIVE,LELAND,NC,28451,
279.0,CEDAR FORK ROAD,BEULAVILLE,NC,28518,
9209.0,ISLAND PARK CIRCLE,CHARLOTTE,NC,28262,
9144.0,96  NORTH,OXFORD,NC,27565,
920.0,GREENFIELD ROAD,CHGV,NC,28023,
1710.0,BEACH DRIVE SOUTHWEST,CALABASH,NC,28467,
4529.0,DENFIELD ST,DURH,NC,27704,
127.0,MARION AVE,MOUN,NC,27030,
1208.0,ARGONNE BOULEVARD,WS,NC,27107,
567.0,LUNE COURT SOUTHEAST,LELAND,NC,28451,
282.0,PINEY GROVE ROAD,POLLOCKSVILLE,NC,28573,
14225.0,PLANTATION PARK BOULEVARD,CHARLOTTE,NC,28277,938.0
131.0,CHATHAM ST, ,NC,27330,
9066.0,PLEASANT GROVE,SPRING HOPE,NC,27882,
325.0,LANTZ AVE,SALS,NC,28144,
114.0,SEA ISLE NORTH DRIVE,INDIAN BEACH,NC,28512,
700.0,MERCER MILL ROAD, ,NC,28337,
900.0,OXFORD ROAD,DURH,NC,27704,
123.0,GARRETT DRIVE,ZEB,NC,27597,
619.0,SILK HOPE LIBERTY ROAD,SILER CITY,NC,27344,
521.0,POLO ROAD,WS,NC,27106,
5832.0,MILLER ROAD,TABOR CITY,NC,28463,
319.0,DOWD ST,DURH,NC,27701,
111.0,RILEY ROAD,GASTON,NC,28034,
1292.0,GOLDFINCH PLACE SOUTHWEST,SHALLOTTE,NC,28470,
223.0,WHITEHILL ROAD,LELAND,NC,28451,
105.0,ALBEMARLE DRIVE,PLYMOUTH,NC,27962,
651.0,EAST 10TH ST,CHARLOTTE,NC,28202,
430.0,DEANNA LANE,CHARLOTTE,NC,28217,
2749.0,MALLARD COVE ROAD, ,NC,27330,
918.0,ELM ST, ,NC,28560,
429.0,RABBIT HILL LANE,NEWLAND,NC,28657,
103.0,JULIAN POND LANE,KE,NC,27284,
1603.0,WEST A ST,KANN,NC,28081,
223.0,SOUTH TORRENCE ST,CHARLOTTE,NC,28204,15.0
4251.0,MECUM PLACE ROAD,FC,NC,27051,
271.0,GOLDFINCH LANE,MURPHY,NC,28906,
6166.0,63 HWY, ,NC,28748,
1630.0,BLUE CREEK ROAD,JACKSONVILLE,NC,28540,
111.0,SOUTH PALM DRIVE,WINNABOW,NC,28479,
408.0,ANNA ST,LILLINGTON,NC,27546,
29.0,SOURWOOD LANE,PITTSBORO,NC,27312,
4949.0,WRIGHT ROAD,TABOR CITY,NC,28463,
64.0,PISGAH DRIVE,WAYNESVILLE,NC,28786,
165.0,RALEIGH AVE,SPRING LAKE,NC,28390,
1154.0,ROBERTS LANE, ,NC,27260,
3020.0,BROADBAY DRIVE,WS,NC,27107,
2.0,MEADOW CROSSING COURT, ,NC,27410,
171.0,SILVER PINE ROAD,STATESVILLE,NC,28625,
6331.0,CHERRYCREST LANE,CHARLOTTE,NC,28217,
1427.0,VENTURA WAY DRIVE,CHARLOTTE,NC,28213,7.0
5886.0,LAKE JOEL DRIVE SOUTHWEST,OCEAN ISLE BEACH,NC,28469,
107.0,WEBB ST,SWANSBORO,NC,28584,
718.0,EAST INSTITUTE ST,CHADBOURN,NC,28431,
1580.0,FALLING BROOK DRIVE,CREEDMOOR,NC,27522,
4958.0,WYNGATE VILLAGE DRIVE,WS,NC,27103,
280.0,BROOKFALL DAIRY ROAD,ELKI,NC,28676,
123.0,MORNINGSIDE DRIVE,DURH,NC,27713,
1330.0,PECAN AVE,CHARLOTTE,NC,28205,1.0
3029.0,WAUGHTOWN ST,WS,NC,27107,146.0
2356.0,REGES STORE ROAD,NASHVILLE,NC,27856,
2511.0,BATTLEGROUND AVE, ,NC,27408,
3242.0,MEADOW DRIVE,FARM,NC,27828,
1.0,DALTON COURT,RICHLANDS,NC,28574,
4901.0,WATER OAK ROAD,CHARLOTTE,NC,28211,4.0
45.0,PAUL GOSNELL ROAD, ,NC,28753,
16905.0,LAUREATE ROAD,HUNTERSVILLE,NC,28078,
935.0,MEADOW OAK DRIVE, ,NC,27406,209.0
5180.0,742  SOUTH,WADESBORO,NC,28170,
39.0,HICKORY TRAIL,SOUTHERN SHORES,NC,27949,
1005.0,MOCKSVILLE AVE,SALS,NC,28144,
5563.0,CHURCH ST, ,NC,27455,
162.0,DELLINGER DRIVE,STATESVILLE,NC,28625,
104.0,FAIR BLUFF ROAD,TABOR CITY,NC,28463,
9612.0,VERONICA DRIVE,CHARLOTTE,NC,28215,
2282.0,TALLULAH ROAD,ROBBINSVILLE,NC,28771,
3115.0,CEDAR ST,GASTON,NC,28054,
2351.0,WELLINGTON DRIVE,GASTONIA,NC,28054,
3314.0,WEST HILLIARDSTON ROAD,NASHVILLE,NC,27856,
1627.0,AMERICAN ST,GASTONIA,NC,28052,
606.0,LYNN DRIVE,GASTON,NC,28034,
320.0,SKYVIEW CIRCLE,SALS,NC,28147,
3472.0,FORESTBROOK DRIVE,CHARLOTTE,NC,28208,
390.0,EDWARDS ROAD,BEULAVILLE,NC,28518,
840.0,BRICKWOOD COURT,WS,NC,27127,
170.0,STEVE BASNIGHT ROAD,MANTEO OUT,NC,27954,
2936.0,IRON GATE LANE,CHARLOTTE,NC,28212,
5318.0,GREYFIELD BOULEVARD,DURH,NC,27713,
3835.0,VENICE DRIVE,CL,NC,27012,
107.0,FOXCROFT DRIVE,MOUN,NC,27030,
1302.0,SKEET CLUB ROAD, ,NC,27265,
109.0,HUNTERS POINTE DRIVE,GASTON,NC,28034,
1028.0,MCARTHUR AVE,CHARLOTTE,NC,28206,
31.0,LATTIMORE ROAD,CAMERON,NC,28326,
3315.0,DUNN COMMONS PARKWAY,MECKLENBURG,NC,28216,
2415.0,PHILADELPHIA LAKE COURT, ,NC,27408,
657.0,LIBERTY HILL ROAD,STONY POINT,NC,28678,
1109.0,MRS TATES ROAD,WHITEVILLE,NC,28472,
2055.0,CROSSWAY CIRCLE,RANLO,NC,28054,
55.0,HARDY DRIVE, ,NC,28580,
9100.0,LACKEY RD NE 1,LELAND,NC,28451,1.0
7902.0,GROVE HALL AVE,MINT HILL,NC,28227,
808.0,LAKECREST AVE, ,NC,27265,1201.0
7171.0,MARLIN ST,CRAMERTON,NC,28056,
294.0,SPRUILL TOWN ROAD EAST,CRESWELL,NC,27928,
920.0,HOLLAND ST,WS,NC,27101,
3267.0,MISTY PINES ROAD,GREE,NC,27858,
958.0,NORTHWEST US 25-70 HWY, ,NC,28743,
,AUGUSTA DRIVE,GRANDY,NC,27939,
5711.0,KINGLET LANE,CHARLOTTE,NC,28269,
104.0,WEST THIRD ST,CHERRYVILLE,NC,28021,
175.0,CARROLL ST,Hamlet,NC,28345,
501.0,COMPASS COURT,SNEADS FERRY,NC,28460,
8076.0,LASATER ROAD,CL,NC,27012,
1043.0,MICAHS WAY NORTH,SPRING LAKE,NC,28390,
3830.0,MIZELL ROAD, ,NC,27405,
408.0,GLENWOOD DRIVE,MOORESVILLE,NC,28115,
2565.0,LOWGAP ROAD,LOWG,NC,27024,
5073.0,EASTERN PINES ROAD,GREE,NC,27858,
7265.0,SEASHELL LN SW 307,OCEAN ISLE BEACH,NC,28469,307.0
495.0,RICHARDS ROAD,MOUN,NC,27030,
6810.0,EDGEMONT ROAD,COLLETSVILLE,NC,28611,
103.0,VERMONT DRIVE,STANLEY,NC,28164,
82.0,MARQUETTE LANE,HENDERSONVILLE,NC,28739,
16.0,DUVALL LOOP,CLYDE,NC,28721,
415.0,N,CHARLOTTE,NC,28202,313.0
105.0,HYANNIS COURT,JACKSONVILLE,NC,28540,
,MEADOW RIDGE LANE,COINJOCK,NC,27923,
2149.0,JENKINS DAIRY ROAD,GASTONIA,NC,28052,
922.0,MCALWAY ROAD,CHARLOTTE,NC,28211,
4814.0,MISTLETOE LANE,DURH,NC,27703,
8736.0,FOX CHASE LANE,CHARLOTTE,NC,28269,
1905.0,COLORADO ST NORTHEAST,LELAND,NC,28451,
126.0,DOGWOOD TRAIL,MANTEO OUT,NC,27954,
810.0,DALE DRIVE,SHARPSBURG,NC,27878,
1201.0,LOLLY LANE, ,NC,27405,
1252.0,OVERWOOD DRIVE,MATTHEWS,NC,28105,
2308.0,FALA ST, ,NC,27260,
724.0,LYNN DEE DRIVE,WS,NC,27106,
2106.0,STARBROOK DRIVE,CHARLOTTE,NC,28210,
