NUMBER,STREET,CITY,STATE,POSTCODE,UNIT
101.0,W EDMONTON DR,BISMARCK,ND,58503,
637.0,12 1/2 AVE E,WEST FARGO,ND,58078,
1723.0,9TH ST S,Fargo,ND,58103,
3378.0,PRIMROSE CT,GRAND FORKS,ND,58201,
1119.0,UNIVERSITY DR,BISMARCK,ND,58504,310.0
524.0,11TH ST W,WILLISTON,ND,58801,
1216.0,CHERRY ST,GRAND FORKS,ND,58201,
5451.0,138TH AVE NW,WILLISTON,ND,58801,
431.0,9TH ST E,WILLISTON,ND,58801,
4110.0,14TH AVE N,Fargo,ND,58102,12.0
1921.0,16TH ST S,Fargo,ND,58103,
1400.0,32ND AVE N,Fargo,ND,58102,159.0
2810.0,GATEWAY AVE,BISMARCK,ND,58503,207.0
801.0,S 19TH ST,GRAND FORKS,ND,58201,
4961.0,44TH AVE S,Fargo,ND,58104,105.0
415.0,WALNUT ST,GRAND FORKS,ND,58201,
5792.0,COTTONWOOD ST,GRAND FORKS,ND,58201,
5023.0,COPPER GATE DR,GRAND FORKS,ND,58203,
3670.0,4TH ST E,WEST FARGO,ND,58078,
4778.0,TOWNSITE PL S,Fargo,ND,58104,
4273.0,COVENTRY DR S,Fargo,ND,58104,
2712.0,OLIVE ST,GRAND FORKS,ND,58201,
1600.0,MAPLETON AVE,BISMARCK,ND,58503,103.0
66.0,EAST LYNMAR  N,Fargo,ND,58102,
330.0,GEORGE LN,HARWOOD,ND,58042,
919.0,S 7TH ST,BISMARCK,ND,58504,403.0
3055.0,40TH AVE S,Fargo,ND,58104,
504.0,E BROADWAY AVE,BISMARCK,ND,58501,
5200.0,11TH AVE S,GRAND FORKS,ND,58201,
5497.0,133RD AVE NW,WILLISTON,ND,58801,
3865.0,13TH AVE S,GRAND FORKS,ND,58201,
4610.0,SAGEBRUSH DR,BISMARCK,ND,58504,
331.0,KENYON AVE,GRANDIN,ND,58038,
2826.0,5TH ST W,WEST FARGO,ND,58078,
408.0,P51 BLVD E,KINDRED,ND,58051,
5445.0,48TH AVE S,Fargo,ND,58104,
2800.0,BERNELL DR,BISMARCK,ND,58503,
4466.0,47TH ST S,Fargo,ND,58104,103.0
4430.0,DENALI PL,BISMARCK,ND,58503,
3688.0,FILLMORE ST S,Fargo,ND,58104,
116.0,5TH ST NW,TIOGA,ND,58852,
2946.0,5TH ST W,WEST FARGO,ND,58078,
2707.0,32ND ST S,Fargo,ND,58103,
311.0,11TH AVE S,Fargo,ND,58103,203.0
665.0,32ND AVE E,WEST FARGO,ND,58078,
740.0,AIRPORT RD,BISMARCK,ND,58504,
900.0,HIGHLAND DR,WILLISTON,ND,58801,
4844.0,38TH AVE S,Fargo,ND,58104,
4701.0,17TH AVE S,Fargo,ND,58103,103.0
4730.0,TIMBER PKWY S,Fargo,ND,58104,102.0
4949.0,16TH AVE S,Fargo,ND,58103,117.0
2120.0,S 12TH ST,BISMARCK,ND,58504,117.0
724.0,5TH AVE S,GRAND FORKS,ND,58201,
600.0,S 9TH ST,BISMARCK,ND,58504,64.0
312.0,TRENT JONES DR,OXBOW,ND,58047,
1929.0,N WASHINGTON ST,BISMARCK,ND,58501,
4426.0,OVERLAND RD,BISMARCK,ND,58503,
628.0,10TH AVE N,Fargo,ND,58102,
941.0,MADISON LN,BISMARCK,ND,58503,
438.0,22ND ST S,Fargo,ND,58103,
1571.0,18TH AVE E,WEST FARGO,ND,58078,
1414.0,35TH ST S,Fargo,ND,58103,110.0
901.0,3RD ST E,WEST FARGO,ND,58078,
1119.0,UNIVERSITY DR,BISMARCK,ND,58504,1615.0
3553.0,47TH AVE S,Fargo,ND,58104,
1522.0,E BOWEN AVE,BISMARCK,ND,58501,
2518.0,13TH AVE W,WILLISTON,ND,58801,
207.0,MAIN ST W,Ramsey,ND,58338,
4628.0,BUNKER DR,BISMARCK,ND,58503,
1448.0,3RD AVE S,Fargo,ND,58103,
725.0,21ST ST N,Fargo,ND,58102,
2607.0,COBBLESTONE CT S,Fargo,ND,58103,
4256.0,COVENTRY DR S,Fargo,ND,58104,
1715.0,N 7TH ST,BISMARCK,ND,58501,
5537.0,43RD ST S,Fargo,ND,58104,
832.0,49TH AVE S,GRAND FORKS,ND,58201,
1420.0,N 19TH ST,BISMARCK,ND,58501,
1002.0,18TH ST N,Fargo,ND,58102,12.0
603.0,COUNTRYSIDE TRAILER CT S,Fargo,ND,58103,
241.0,SPRUCE ST,KINDRED,ND,58051,
4189.0,SUN CIR,GRAND FORKS,ND,58201,
3344.0,44TH AVE S,GRAND FORKS,ND,58201,
2520.0,CENTENNIAL RD,BISMARCK,ND,58503,607.0
1045.0,TACOMA AVE,BISMARCK,ND,58504,103.0
3120.0,33RD ST S,Fargo,ND,58103,208.0
4006.0,AVONDALE DR,BISMARCK,ND,58503,
3789.0,LUCKE LN W,GRAND FORKS,ND,58201,
1602.0,47TH ST S,Fargo,ND,58103,313.0
516.0,N BELL ST,BISMARCK,ND,58501,
317.0,W BOULEVARD AVE,BISMARCK,ND,58501,
2906.0,MORRISON AVE,BISMARCK,ND,58504,
3570.0,49TH ST S,Fargo,ND,58104,
1911.0,5TH AVE N,GRAND FORKS,ND,58203,
19551.0,SE 62ND AVE,MENOKEN,ND,58558,
1225.0,N 11TH ST,BISMARCK,ND,58501,
5200.0,44TH AVE S,Fargo,ND,58104,103.0
3802.0,CHERRY ST,GRAND FORKS,ND,58201,
1523.0,S 19TH ST,GRAND FORKS,ND,58201,
4251.0,28TH AVE S,Fargo,ND,58104,
4236.0,PINE PKWY S,Fargo,ND,58104,
3400.0,E CALGARY AVE,BISMARCK,ND,58503,
1750.0,49TH ST S,Fargo,ND,58103,106.0
1700.0,N COLUMBIA RD,GRAND FORKS,ND,58203,
2028.0,ASSUMPTION DR,BISMARCK,ND,58503,
2382.0,55TH ST S,Fargo,ND,58104,209.0
815.0,141K 40TH AVE S,GRAND FORKS,ND,58201,
1001.0,3RD AVE E,WILLISTON,ND,58801,
1426.0,COLUMBIA DR,BISMARCK,ND,58504,
420.0,4TH AVE NE,Ramsey,ND,58301,
1917.0,BISON DR,WILLISTON,ND,58801,
4374.0,WOODHAVEN ST S,Fargo,ND,58104,
725.0,S 12TH ST,BISMARCK,ND,58504,236.0
801.0,N 10TH ST,BISMARCK,ND,58501,
1014.0,DARWIN DR,GRAND FORKS,ND,58203,
1163.0,WESTPORT BEACH WAY,WEST FARGO,ND,58078,
556.0,23RD ST E,WEST FARGO,ND,58078,201.0
4802.0,15TH AVE S,Fargo,ND,58103,311.0
1010.0,22ND AVE S,GRAND FORKS,ND,58201,
4500.0,TURNBOW LN,BISMARCK,ND,58503,
4784.0,19TH AVE S,Fargo,ND,58103,
2454.0,ESTABROOK DR,GRAND FORKS,ND,58201,
918.0,9TH AVE W,WILLISTON,ND,58801,
2029.0,CATHERINE DR,BISMARCK,ND,58503,
725.0,S 12TH ST,BISMARCK,ND,58504,317.0
3250.0,15TH AVE S,Fargo,ND,58103,27.0
10745.0,63RD ST NE,Ramsey,ND,58345,
2126.0,N WASHINGTON ST,BISMARCK,ND,58501,2.0
478.0,BURDICK CT,GRAND FORKS,ND,58203,
823.0,S 23RD ST,GRAND FORKS,ND,58201,
12551.0,SE 22ND AVE,MENOKEN,ND,58558,
215.0,2ND ST E,WILLISTON,ND,58801,
112.0,N 5TH ST,BISMARCK,ND,58501,304.0
221.0,LANGER AVE S,CASSELTON,ND,58012,
1601.0,34TH ST S,Fargo,ND,58103,14.0
2525.0,BROADWAY  N,Fargo,ND,58102,611.0
4355.0,10TH AVE S,Fargo,ND,58103,210.0
1430.0,34TH ST S,Fargo,ND,58103,303.0
308.0,MAIN ST,HARWOOD,ND,58042,
1455.0,59TH AVE S,GRAND FORKS,ND,58201,
707.0,HARWOOD DR S,Fargo,ND,58104,
4951.0,44TH AVE S,Fargo,ND,58104,301.0
5338.0,CIRCLE DR N,GRAND FORKS,ND,58203,
545.0,NW 327TH AVE,WILTON,ND,58579,
4840.0,35TH AVE S,Fargo,ND,58104,
1505.0,4TH AVE W,WILLISTON,ND,58801,
2310.0,2ND AVE N,GRAND FORKS,ND,58203,
1847.0,35TH ST S,Fargo,ND,58103,102.0
330.0,FRAINE BARRACKS DR,BISMARCK,ND,58503,
731.0,SIGNAL RD W,TIOGA,ND,58852,
5942.0,LARIAT LOOP,BISMARCK,ND,58503,
1100.0,N 55TH ST,GRAND FORKS,ND,58203,
310.0,15TH AVE S,Fargo,ND,58103,
4633.0,ORAM RD,Ramsey,ND,58301,
1195.0,35TH ST N,Fargo,ND,58102,202.0
37.0,CARLIN DR,BISMARCK,ND,58504,
4055.0,50TH AVE S,Fargo,ND,58104,
11300.0,CREEK TOP RD,MENOKEN,ND,58558,
5050.0,40TH AVE S,Fargo,ND,58104,210.0
1710.0,158TH AVE SE,HUNTER,ND,58048,
13693.0,KAREN ST,WILLISTON,ND,58801,
760.0,14 1/2 AVE E,WEST FARGO,ND,58078,
15.0,CONKLIN AVE,GRAND FORKS,ND,58203,
1024.0,N 14TH ST,BISMARCK,ND,58501,
5086.0,MARION ST S,Fargo,ND,58104,
1119.0,MEMORIAL HWY,BISMARCK,ND,58504,8.0
428.0,E BRANDON DR,BISMARCK,ND,58503,
4905.0,AMBERGLOW DR,BISMARCK,ND,58503,
218.0,35TH AVE N,Fargo,ND,58102,
1119.0,9TH ST N,Fargo,ND,58102,
21.0,32ND AVE NE,Fargo,ND,58102,
111.0,N 3RD ST,GRAND FORKS,ND,58203,2013.0
111.0,12TH ST N,Fargo,ND,58102,
1575.0,17TH AVE S,GRAND FORKS,ND,58201,
923.0,COUNTRYSIDE TRAILER CT S,Fargo,ND,58103,
1136.0,10TH ST N,Fargo,ND,58102,104.0
738.0,ASTER LN,BISMARCK,ND,58501,
805.0,S 21ST ST,GRAND FORKS,ND,58201,
2209.0,37TH TER,WILLISTON,ND,58801,
3221.0,6TH AVE N,GRAND FORKS,ND,58203,
1549.0,14 1/2 ST S,Fargo,ND,58103,
5089.0,COPPER GATE DR,GRAND FORKS,ND,58203,
78.0,CUSTER DR,BISMARCK,ND,58504,
408.0,19TH AVE W,WEST FARGO,ND,58078,
1129.0,22ND ST S,Fargo,ND,58103,
317.0,1ST ST E,HUNTER,ND,58048,
1727.0,NORTH GRANDVIEW LN,BISMARCK,ND,58503,215.0
614.0,25TH AVE S,GRAND FORKS,ND,58201,
12167.0,58TH ST NW,EPPING,ND,58849,
1531.0,16TH ST S,Fargo,ND,58103,201.0
3060.0,33RD ST S,Fargo,ND,58103,202.0
401.0,6TH AVE N,Fargo,ND,58102,306.0
826.0,N 5TH ST,GRAND FORKS,ND,58203,
6375.0,SE 28TH AVE,BISMARCK,ND,58504,
1422.0,S 17TH ST,GRAND FORKS,ND,58201,
3730.0,NORMAN CT S,Fargo,ND,58104,
1820.0,40TH ST S,Fargo,ND,58103,305.0
5411.0,UNIVERSITY DR S,Fargo,ND,58104,
3214.0,43RD AVE S,Fargo,ND,58104,
124.0,1ST AVE N,LEONARD,ND,58052,
816.0,N 39TH ST,GRAND FORKS,ND,58203,
5325.0,UNIVERSITY DR S,Fargo,ND,58104,
1100.0,E BROADWAY AVE,BISMARCK,ND,58501,2.0
1497.0,NORCHIP CIR,GRAND FORKS,ND,58201,
1426.0,S 16TH ST,GRAND FORKS,ND,58201,
2201.0,12TH AVE N,GRAND FORKS,ND,58203,
1119.0,UNIVERSITY DR,BISMARCK,ND,58504,511.0
3802.0,CHERRY ST,GRAND FORKS,ND,58201,
2920.0,35TH AVE S,Fargo,ND,58104,
2503.0,CHESTNUT ST,GRAND FORKS,ND,58201,
1902.0,9TH AVE N,GRAND FORKS,ND,58203,
516.0,20TH ST N,Fargo,ND,58102,
4406.0,DANIEL ST,BISMARCK,ND,58504,
2006.0,OAKWOOD AVE,GRAND FORKS,ND,58201,
417.0,S WASHINGTON ST,BISMARCK,ND,58504,208.0
6338.0,13TH ST N,FARGO,ND,58102,
420.0,BROWNING AVE,BISMARCK,ND,58503,
222.0,LINDA ST,TIOGA,ND,58852,
1329.0,5TH ST N,Fargo,ND,58102,
640.0,POTATO RD S,NORTHWOOD,ND,58267,
5601.0,34TH AVE S,Fargo,ND,58104,215.0
4251.0,9 AVENUE CIR S,Fargo,ND,58103,108.0
5893.0,58TH AVE S,Fargo,ND,58104,
2968.0,SOUTHGATE DR S,Fargo,ND,58103,
2480.0,NW 305TH AVE,WILTON,ND,58579,
1523.0,1ST AVE S,Fargo,ND,58103,
3419.0,HAMILTON ST,BISMARCK,ND,58503,10.0
7461.0,BRYNLEY BLVD,HORACE,ND,58047,
5701.0,24TH ST S,Fargo,ND,58104,
306.0,12TH AVE W,RAY,ND,58849,
1412.0,HARMON AVE,BISMARCK,ND,58501,
3720.0,K-41 CHERRY ST,GRAND FORKS,ND,58201,
2038.0,PRAIRIE ROSE CT,GRAND FORKS,ND,58201,
1744.0,57TH ST N,FARGO,ND,58078,
512.0,NELSON PL,BISMARCK,ND,58503,
3642.0,MERIDIAN DR,BISMARCK,ND,58504,
4721.0,KITES LN,BISMARCK,ND,58503,
4610.0,33RD AVE S,Fargo,ND,58104,211.0
630.0,BELMONT RD,GRAND FORKS,ND,58201,
3802.0,15TH ST S,Fargo,ND,58104,
3125.0,EDGEWOOD DR N,Fargo,ND,58102,
1436.0,17TH AVE S,Fargo,ND,58103,
114.0,E INTERSTATE AVE,BISMARCK,ND,58503,
5652.0,26TH ST S,Fargo,ND,58104,301.0
1321.0,COMMANDER DR W,WEST FARGO,ND,58078,
4751.0,46TH ST S,Fargo,ND,58104,109.0
4817.0,BLUEBELL LOOP S,Fargo,ND,58104,
2901.0,GARNET DR,BISMARCK,ND,58503,
239.0,8TH AVE W,WEST FARGO,ND,58078,
1119.0,UNIVERSITY DR,BISMARCK,ND,58504,1316.0
314.0,2ND AVE SE,Ramsey,ND,58301,
3261.0,166TH AVE SE,HARWOOD,ND,58042,
829.0,S 25TH ST,GRAND FORKS,ND,58201,
110.0,2ND AVE E,WEST FARGO,ND,58078,
519.0,LANSING LN,BISMARCK,ND,58504,
4890.0,43RD ST S,Fargo,ND,58104,
7350.0,18TH ST S,Fargo,ND,58104,
2525.0,BROADWAY  N,Fargo,ND,58102,403.0
1534.0,CREEKSIDE DR W,WILLISTON,ND,58801,
3608.0,9TH AVE N,GRAND FORKS,ND,58203,
228.0,20TH ST E,WILLISTON,ND,58801,
5069.0,77TH AVE NE,Ramsey,ND,58301,
4925.0,DRIFTWOOD LN,BISMARCK,ND,58503,
310.0,COOLEY ST,WILDROSE,ND,58795,
226.0,10TH AVE W,WEST FARGO,ND,58078,
1798.0,PRINCETON LN,WEST FARGO,ND,58078,
6200.0,TIFFANY DR,BISMARCK,ND,58504,
374.0,MAIN ST N,HORACE,ND,58047,
2075.0,WESTMINSTER CT,GRAND FORKS,ND,58201,
2011.0,LAFOREST AVE,BISMARCK,ND,58501,
701.0,15TH AVE W,WILLISTON,ND,58801,
615.0,NORTHWESTERN DR,GRAND FORKS,ND,58203,
1222.0,MORNINGSIDE ST,BISMARCK,ND,58501,
5400.0,42ND ST S,Fargo,ND,58104,306.0
504.0,S 13TH ST,BISMARCK,ND,58504,
1815.0,212 21ST AVE S,GRAND FORKS,ND,58201,
307.0,ELM ST,HICKSON,ND,58047,
5963.0,HWY 85,WILLISTON,ND,58801,
3200.0,11TH ST S,Fargo,ND,58104,117.0
206.0,5TH AVE E,WEST FARGO,ND,58078,
2625.0,PACIFIC DR S,Fargo,ND,58103,6.0
2945.0,3RD ST N,Fargo,ND,58102,
2020.0,SCHAFER ST,BISMARCK,ND,58503,
4090.0,ACORN CT,GRAND FORKS,ND,58201,
1400.0,32ND AVE N,Fargo,ND,58102,124.0
639.0,33RD AVE W,WEST FARGO,ND,58078,326.0
104.0,HANCOCK AVE W,EMERADO,ND,58228,
1900.0,S 3RD ST,BISMARCK,ND,58504,
1819.0,32ND AVE S,Fargo,ND,58103,
3839.0,30TH AVE S,Fargo,ND,58104,105.0
26.0,ROBERTS ST N,Fargo,ND,58102,525.0
1707.0,42ND ST S,Fargo,ND,58103,
401.0,6TH AVE N,Fargo,ND,58102,313.0
905.0,13TH AVE S,GRAND FORKS,ND,58201,
3731.0,RENEE DR,BISMARCK,ND,58503,
5631.0,NIAGARA DR,BISMARCK,ND,58501,
737.0,21ST ST N,Fargo,ND,58102,
1924.0,7TH AVE N,GRAND FORKS,ND,58203,
1871.0,REVERE DR,BISMARCK,ND,58501,
902.0,17TH ST S,Fargo,ND,58103,
2101.0,9TH ST N,Fargo,ND,58102,
1473.0,E LASALLE DR,BISMARCK,ND,58503,
14105.0,47TH LN NW,WILLISTON,ND,58801,
1425.0,66TH AVE S,Fargo,ND,58104,
2406.0,W FALLCREEK CT,GRAND FORKS,ND,58201,
919.0,16TH ST N,Fargo,ND,58102,
3100.0,WILDERNESS COVE RD,BISMARCK,ND,58503,
1863.0,HUNTINGTON CT,WEST FARGO,ND,58078,
1308.0,VILLAGE GREEN CT,Ramsey,ND,58301,
3806.0,ENDEAVOR PL,BISMARCK,ND,58504,
104.0,LAKEVIEW DR,Ramsey,ND,58301,
4915.0,28TH AVE S,Fargo,ND,58104,307.0
3309.0,2ND ST N,Fargo,ND,58102,
1318.0,S 12TH ST,GRAND FORKS,ND,58201,
3413.0,DOWNING ST,BISMARCK,ND,58504,
5352.0,GRAYLAND DR S,Fargo,ND,58104,
1327.0,COLUMBIA DR,BISMARCK,ND,58504,
1820.0,27TH AVE S,GRAND FORKS,ND,58201,
103.0,BRITT AVE,Ramsey,ND,58301,
5743.0,NE 106TH ST,BISMARCK,ND,58503,
1104.0,SUMMIT BLVD,BISMARCK,ND,58504,1.0
2777.0,47TH ST S,Fargo,ND,58104,118.0
9201.0,SE 119TH ST,BISMARCK,ND,58504,
4685.0,49TH AVE S,Fargo,ND,58104,209.0
1500.0,42ND ST W,WILLISTON,ND,58801,
3131.0,34TH AVE S,Fargo,ND,58104,104.0
723.0,N 14TH ST,GRAND FORKS,ND,58203,
4844.0,CURRAN CT,GRAND FORKS,ND,58201,
1404.0,PORTER AVE,BISMARCK,ND,58501,
1423.0,S 19TH ST,GRAND FORKS,ND,58201,
5250.0,32ND AVE S,Fargo,ND,58104,4007.0
414.0,11TH ST N,Fargo,ND,58102,308.0
5170.0,AMBER VALLEY PKWY S,Fargo,ND,58104,238.0
616.0,COTTONWOOD DR,CASSELTON,ND,58012,
825.0,ALBERT DR W,WEST FARGO,ND,58078,
202.0,SOUTHWOOD DR,HORACE,ND,58047,
1807.0,50TH ST S,Fargo,ND,58103,
1629.0,EAST OMAHA DR,BISMARCK,ND,58504,
300.0,NAPA LOOP,BISMARCK,ND,58504,
101.0,2ND ST S,Fargo,ND,58103,1604.0
802.0,14TH ST N,Fargo,ND,58102,
4450.0,30TH AVE S,Fargo,ND,58104,
4155.0,23RD AVE S,Fargo,ND,58104,
793.0,EVERGREEN DR,GRAND FORKS,ND,58201,
4375.0,10TH AVE S,Fargo,ND,58103,104.0
208.0,COTTONWOOD ST,GRAND FORKS,ND,58201,
4802.0,70TH AVE N,GRAND FORKS,ND,58203,
1316.0,RIVERWOOD DR,BISMARCK,ND,58504,
1012.0,50TH AVE W,WEST FARGO,ND,58078,
6.0,11TH ST S,Fargo,ND,58103,3.0
2531.0,11TH AVE S,GRAND FORKS,ND,58201,
614.0,25TH AVE S,GRAND FORKS,ND,58201,
311.0,E THAYER AVE,BISMARCK,ND,58501,113.0
1020.0,1ST AVE S,Fargo,ND,58103,
713.0,N 3RD ST,GRAND FORKS,ND,58203,
307.0,N 50TH ST,GRAND FORKS,ND,58203,
3538.0,44TH AVE S,Fargo,ND,58104,
930.0,FRONT ST,CASSELTON,ND,58012,7.0
4520.0,16TH AVE S,Fargo,ND,58103,208.0
1713.0,N BELL ST,BISMARCK,ND,58501,
6918.0,MAJESTIC PL,BISMARCK,ND,58504,
424.0,WESTERN AVE,GILBY,ND,58235,
204.0,42ND ST S,Fargo,ND,58103,
1930.0,49TH ST S,Fargo,ND,58103,7.0
725.0,42ND ST S,Fargo,ND,58103,212.0
1506.0,BROADWAY  N,Fargo,ND,58102,
1444.0,171ST AVE SE,GARDNER,ND,58036,
1838.0,16 1/2 ST S,Fargo,ND,58103,
108.0,NORTH WOODCREST DR N,Fargo,ND,58102,
619.0,2ND ST W,WILLISTON,ND,58801,
3900.0,NORTH VALLEY LOOP,BISMARCK,ND,58503,
1804.0,SE 80TH ST,BISMARCK,ND,58504,
1145.0,BROADWAY  N,Fargo,ND,58102,
15071.0,46TH ST SE,LEONARD,ND,58052,
430.0,SUNSET PL,BISMARCK,ND,58503,
7.0,N 19TH ST,GRAND FORKS,ND,58203,
8333.0,HARVEST HILLS DR,BISMARCK,ND,58503,
5301.0,27TH ST S,Fargo,ND,58104,320.0
414.0,N 18TH ST,BISMARCK,ND,58501,
2600.0,UNIVERSITY AVE,WILLISTON,ND,58801,
4796.0,CHESTNUT ST,GRAND FORKS,ND,58201,
3539.0,6TH ST E,WEST FARGO,ND,58078,
3151.0,25TH AVE S,Fargo,ND,58103,
627.0,31ST ST NE,NORTHWOOD,ND,58267,
1305.0,MOHAWK ST,BISMARCK,ND,58501,
2140.0,XAVIER ST,BISMARCK,ND,58503,207.0
,PRAIRIEWOOD DR S,Fargo,ND,58103,306.0
3309.0,17TH AVE S,Fargo,ND,58103,201.0
3600.0,STATE ST,BISMARCK,ND,58503,
4755.0,52ND AVE N,HARWOOD,ND,58042,
517.0,N 7TH ST,BISMARCK,ND,58501,1.0
2517.0,9TH AVE N,GRAND FORKS,ND,58203,
1605.0,OAKLAND DR,BISMARCK,ND,58504,
8349.0,HWY 2,Ramsey,ND,58301,
1504.0,7TH AVE W,WILLISTON,ND,58801,
3110.0,BELMONT RD,GRAND FORKS,ND,58201,
2201.0,33RD AVE S,Fargo,ND,58104,308.0
2301.0,UNIVERSITY DR,BISMARCK,ND,58504,53.0
2303.0,27TH AVE S,GRAND FORKS,ND,58201,
5001.0,AMBER VALLEY PKWY S,Fargo,ND,58104,111.0
4390.0,46TH AVE S,Fargo,ND,58104,
2747.0,WHEATLAND DR S,Fargo,ND,58103,
2525.0,15TH ST S,Fargo,ND,58103,
818.0,15TH AVE W,WILLISTON,ND,58801,
1104.0,WILLIAM ST,WHEATLAND,ND,58079,
1544.0,5TH AVE S,Fargo,ND,58103,
114.0,9TH AVE E,WEST FARGO,ND,58078,
1318.0,COUNT CIR,GRAND FORKS,ND,58201,
156.0,NORTHWEST DR,BISMARCK,ND,58504,
605.0,18TH ST E,WILLISTON,ND,58801,
7000.0,RIDGEMONT LN,BISMARCK,ND,58504,
2217.0,28TH ST W,WILLISTON,ND,58801,
2701.0,32ND ST S,Fargo,ND,58103,
2922.0,5TH ST W,WEST FARGO,ND,58078,
3782.0,DOROTHEA CT S,Fargo,ND,58104,
4970.0,HWY 85,WILLISTON,ND,58801,
907.0,MAPLE RIVER CT,MAPLETON,ND,58059,
1736.0,10TH ST N,Fargo,ND,58102,182.0
456.0,P51 BLVD E,KINDRED,ND,58051,
2801.0,23RD AVE S,Fargo,ND,58103,124.0
917.0,30TH ST N,Fargo,ND,58102,
1231.0,CIMARRON BLVD,WEST FARGO,ND,58078,
1112.0,22ND ST S,Fargo,ND,58103,106.0
4310.0,1ST AVE E,WILLISTON,ND,58801,
402.0,14TH ST NW,Ramsey,ND,58301,
5909.0,59TH AVE S,Fargo,ND,58104,
1115.0,1ST AVE E,WILLISTON,ND,58801,
6.0,WEST LYNMAR  N,Fargo,ND,58102,
611.0,58TH ST W,WILLISTON,ND,58801,
404.0,SEQUOIA DR,MAPLETON,ND,58059,
212.0,FENTON AVE,GRAND FORKS,ND,58203,
1708.0,COLOGNE DR,BISMARCK,ND,58504,
5050.0,40TH AVE S,Fargo,ND,58104,313.0
4101.0,51ST WAY S,Fargo,ND,58104,
2825.0,9 1/2 ST N,Fargo,ND,58102,
3754.0,6TH ST E,WEST FARGO,ND,58078,
4974.0,SPENCER LN S,Fargo,ND,58104,
4095.0,34TH AVE S,Fargo,ND,58104,310.0
3004.0,BENNETT ST,BISMARCK,ND,58504,
714.0,SOUTHWOOD DR S,Fargo,ND,58103,
610.0,2ND ST,THOMPSON,ND,58278,
3092.0,23RD ST S,Fargo,ND,58103,
220.0,10TH ST N,Fargo,ND,58102,2211.0
3510.0,28TH ST S,Fargo,ND,58104,203.0
4725.0,RIDGEWOOD LN,GRAND FORKS,ND,58201,
1208.0,10TH AVE S,GRAND FORKS,ND,58201,
5151.0,VETERANS BLVD S,Fargo,ND,58104,
1529.0,27TH AVE S,Fargo,ND,58103,203.0
919.0,11TH ST SE,Ramsey,ND,58301,
5527.0,20TH ST S,Fargo,ND,58104,
3901.0,30TH AVE S,Fargo,ND,58104,313.0
5451.0,138TH AVE NW,WILLISTON,ND,58801,
1442.0,6TH ST S,Fargo,ND,58103,
3947.0,33RD AVE NE,FORDVILLE,ND,58231,
813.0,10TH AVE E,WEST FARGO,ND,58078,
566.0,42ND ST S,Fargo,ND,58103,371.0
1856.0,N 22ND ST,BISMARCK,ND,58501,
153.0,ANNIE'S WAY,MAPLETON,ND,58059,
1515.0,11TH AVE N,Fargo,ND,58102,427.0
185.0,FILLMORE AVE,GRAND FORKS,ND,58201,
294.0,GRASSY HILLS LN,GRAND FORKS,ND,58201,
4140.0,4TH AVE S,Fargo,ND,58103,1206.0
1421.0,6TH AVE NE,THOMPSON,ND,58278,
1225.0,BROADWAY  N,Fargo,ND,58102,101.0
2890.0,SAFFRON DR S,Fargo,ND,58104,5000.0
1861.0,39TH ST S,Fargo,ND,58103,103.0
101.0,2ND ST S,Fargo,ND,58103,2112.0
301.0,6TH CIR,WILLISTON,ND,58801,
3002.0,10TH ST N,Fargo,ND,58102,
750.0,BLDG 1 S 43RD ST,GRAND FORKS,ND,58201,
518.0,N 8TH ST,BISMARCK,ND,58501,
1325.0,10TH AVE N,Fargo,ND,58102,
119.0,LIBBY RD,BISMARCK,ND,58504,
2200.0,S 29TH ST,GRAND FORKS,ND,58201,
2611.0,CHERRY ST,GRAND FORKS,ND,58201,
1801.0,5TH AVE N,GRAND FORKS,ND,58203,
1707.0,N 4TH ST,GRAND FORKS,ND,58203,
123.0,NORTH SHORE LANE,Ramsey,ND,58301,
3238.0,39TH AVE S,Fargo,ND,58104,
2641.0,14TH AVE NE,EMERADO,ND,58228,
4925.0,RIDGE DR,WILLISTON,ND,58801,
341.0,6TH AVE N,CASSELTON,ND,58012,
719.0,N 15TH ST,BISMARCK,ND,58501,
125.0,FAIRWAY CT,BISMARCK,ND,58501,
1309.0,11TH ST N,Fargo,ND,58102,1.0
1614.0,7TH AVE NE,THOMPSON,ND,58278,
1600.0,HICKAM DR,GRAND FORKS AFB,ND,58204,
2211.0,11TH AVE S,Fargo,ND,58103,106.0
4811.0,SILVER GATE DR,GRAND FORKS,ND,58203,
220.0,WEST CREEL LANE,Ramsey,ND,58301,
15715.0,41ST ST SE,MAPLETON,ND,58059,
1095.0,LEGION LN W,WEST FARGO,ND,58078,
4949.0,16TH AVE S,Fargo,ND,58103,129.0
1005.0,35TH ST N,Fargo,ND,58102,316.0
93.0,BENTEEN DR,BISMARCK,ND,58504,
511.0,40TH ST S,Fargo,ND,58103,106.0
1002.0,43 1/2 ST S,Fargo,ND,58103,307.0
402.0,HARVARD ST,GRAND FORKS,ND,58203,
1155.0,17TH AVE N,Fargo,ND,58102,311.0
1150.0,43 1/2 ST S,Fargo,ND,58103,
5001.0,AMBER VALLEY PKWY S,Fargo,ND,58104,304.0
9485.0,SE 33RD ST,BISMARCK,ND,58504,
2930.0,LEGEND LN,GRAND FORKS,ND,58201,
1439.0,35TH ST S,Fargo,ND,58103,106.0
1824.0,56TH AVE S,Fargo,ND,58104,
508.0,MAIN ST,HORACE,ND,58047,
1519.0,23RD AVE S,Fargo,ND,58103,
8631.0,SAGE DR,BISMARCK,ND,58503,
1515.0,4TH AVE E,WILLISTON,ND,58801,
4220.0,17TH AVE S,Fargo,ND,58103,5.0
901.0,42ND ST S,Fargo,ND,58103,102.0
235.0,W BROADWAY AVE,BISMARCK,ND,58501,
2522.0,9TH AVE N,GRAND FORKS,ND,58203,
1902.0,E DIVIDE AVE,BISMARCK,ND,58501,
2649.0,COBBLESTONE CT S,Fargo,ND,58103,
6121.0,125TH AVE NW,EPPING,ND,58843,
1112.0,VOYAGER DR,BISMARCK,ND,58504,
412.0,RIDGEWOOD RD,Ramsey,ND,58301,
2100.0,BOSTON DR,BISMARCK,ND,58504,
1114.0,MAIN AVE AVE,Fargo,ND,58103,6.0
406.0,W ARBOR AVE,BISMARCK,ND,58504,12.0
1002.0,18TH ST N,Fargo,ND,58102,11.0
4777.0,23RD AVE S,Fargo,ND,58104,
26.0,ROBERTS ST N,Fargo,ND,58102,320.0
822.0,ELMWOOD PL,WEST FARGO,ND,58078,
502.0,ROBERTS ST N,Fargo,ND,58102,
2426.0,N 8TH ST,BISMARCK,ND,58503,
420.0,6TH AVE S,Fargo,ND,58103,301.0
9.0,BRIARWOOD PL,FARGO,ND,58104,
1782.0,S 34TH ST,GRAND FORKS,ND,58201,
5280.0,28TH AVE S,Fargo,ND,58104,201.0
3131.0,27TH ST S,Fargo,ND,58103,206.0
4946.0,AVERY LN S,Fargo,ND,58104,
1720.0,NORTH GRANDVIEW LN,BISMARCK,ND,58503,
408.0,7TH ST W,WEST FARGO,ND,58078,
400.0,1ST ST SE,MAPLETON,ND,58059,
1837.0,UNIVERSITY DR N,Fargo,ND,58102,122.0
3511.0,30TH AVE S,Fargo,ND,58103,15.0
402.0,PEARL ST N,BUFFALO,ND,58011,
718.0,SE BARSTON LN,BISMARCK,ND,58501,
4920.0,15TH AVE S,Fargo,ND,58103,205.0
1831.0,NDSU RESEARCH PARK DR N,Fargo,ND,58102,
117.0,SEWARD AVE,GRAND FORKS,ND,58203,
504.0,3RD AVE NW,WEST FARGO,ND,58078,
1723.0,6TH ST E,WEST FARGO,ND,58078,
5050.0,40TH AVE S,Fargo,ND,58104,130.0
4550.0,47TH ST S,Fargo,ND,58104,309.0
3671.0,PIERCE ST S,Fargo,ND,58104,
8644.0,PLEASANTVIEW RD,BISMARCK,ND,58504,
1308.0,144TH AVE SE,GALESBURG,ND,58035,
1402.0,EAST GATEWAY CIR S,Fargo,ND,58103,
715.0,22ND AVE S,GRAND FORKS,ND,58201,
3039.0,1ST ST E,WEST FARGO,ND,58078,
2601.0,PACIFIC DR S,Fargo,ND,58103,22.0
2256.0,LA CORTE LOOP,BISMARCK,ND,58503,
400.0,EMERY AVE E,EMERADO,ND,58228,
2938.0,7TH ST W,WEST FARGO,ND,58078,206.0
5455.0,33RD AVE S,Fargo,ND,58104,124.0
209.0,N 11TH ST,BISMARCK,ND,58501,2.0
225.0,ASPEN AVE,BISMARCK,ND,58503,
2542.0,W FALLCREEK CT,GRAND FORKS,ND,58201,
114.0,32ND AVE S,GRAND FORKS,ND,58201,
436.0,CIRCLE DR E,GRAND FORKS,ND,58203,
411.0,BELMONT RD,GRAND FORKS,ND,58201,
1026.0,LAKE AVE,BISMARCK,ND,58501,4.0
1631.0,N 52ND ST,GRAND FORKS,ND,58203,
6822.0,CROFTON LN S,Fargo,ND,58104,
915.0,1ST AVE S,Fargo,ND,58103,
1125.0,27TH ST N,Fargo,ND,58102,
735.0,W SWEET AVE,BISMARCK,ND,58504,
14560.0,PANIOLO WAY,BISMARCK,ND,58503,
1502.0,DAKOTA DR N,Fargo,ND,58102,
630.0,1ST AVE N,Fargo,ND,58102,309.0
1610.0,1ST ST N,Fargo,ND,58102,
1240.0,9TH AVE W,WILLISTON,ND,58801,
2000.0,21ST AVE S,Fargo,ND,58103,213.0
402.0,23RD AVE N,Fargo,ND,58102,
1219.0,TERRITORY DR,BISMARCK,ND,58503,
10835.0,58TH ST NW,TIOGA,ND,58852,
210.0,9TH AVE W,WEST FARGO,ND,58078,
209.0,9 1/2 AVE W,WEST FARGO,ND,58078,
3415.0,HAMILTON ST,BISMARCK,ND,58503,3.0
320.0,30TH AVE N,Fargo,ND,58102,6.0
219.0,4TH AVE E,WEST FARGO,ND,58078,
607.0,7TH ST S,Fargo,ND,58103,13.0
207.0,TOURIA LN,Ramsey,ND,58301,
4420.0,37TH AVE S,Fargo,ND,58104,907.0
528.0,13TH AVE NW,WEST FARGO,ND,58078,
1951.0,DAKOTA DR N,Fargo,ND,58102,310.0
425.0,COTTONWOOD ST,GRAND FORKS,ND,58201,
4268.0,39TH AVE S,Fargo,ND,58104,
606.0,S 16TH ST,BISMARCK,ND,58504,
220.0,10TH ST N,Fargo,ND,58102,2203.0
900.0,E TURNPIKE AVE,BISMARCK,ND,58503,
3626.0,12TH AVE N,GRAND FORKS,ND,58203,
2465.0,S 36TH ST,GRAND FORKS,ND,58201,
1317.0,7TH AVE S,Fargo,ND,58103,4.0
1542.0,6TH AVE S,Fargo,ND,58103,
935.0,SOUTHPORT LOOP,BISMARCK,ND,58504,
5112.0,16TH AVE W,WILLISTON,ND,58801,
4913.0,SHELBURNE ST,BISMARCK,ND,58503,8.0
826.0,W TURNPIKE AVE,BISMARCK,ND,58503,
419.0,ROBERTS ST N,Fargo,ND,58102,1.0
1050.0,FRONT ST,CASSELTON,ND,58012,4.0
1050.0,N 28TH ST,BISMARCK,ND,58501,111.0
215.0,6TH AVE,ARTHUR,ND,58006,
912.0,ALMONTE AVE,GRAND FORKS,ND,58201,
7416.0,15TH ST S,Fargo,ND,58104,
4974.0,30TH AVE S,Fargo,ND,58104,102.0
1920.0,DAKOTA DR N,Fargo,ND,58102,207.0
5357.0,27TH ST S,Fargo,ND,58104,211.0
621.0,8TH AVE S,CASSELTON,ND,58012,
610.0,3RD ST,THOMPSON,ND,58278,
1518.0,4TH AVE N,Fargo,ND,58102,
5634.0,FALCONER DR,BISMARCK,ND,58504,
425.0,2ND ST E,HUNTER,ND,58048,
101.0,MAIDEN LN,TOWER CITY,ND,58071,
420.0,N 14TH ST,BISMARCK,ND,58501,3.0
1823.0,S 20TH ST,GRAND FORKS,ND,58201,
3710.0,SIMONVIEW CT,GRAND FORKS,ND,58201,
628.0,18TH AVE E,WEST FARGO,ND,58078,
426.0,ASPEN AVE,BISMARCK,ND,58503,
232.0,CIRCLE HILLS DR,GRAND FORKS,ND,58201,
4700.0,EARHART LN,BISMARCK,ND,58504,
4906.0,BOULDER RIDGE RD,BISMARCK,ND,58503,
5714.0,KAYLEY DR,BISMARCK,ND,58504,
4810.0,16TH AVE S,Fargo,ND,58103,101.0
601.0,2ND AVE E,WEST FARGO,ND,58078,1.0
6325.0,15TH ST N,FARGO,ND,58102,
2206.0,EASY ST,WILLISTON,ND,58801,
2073.0,PRAIRIE ROSE CT,GRAND FORKS,ND,58201,
727.0,WALNUT ST,GRAND FORKS,ND,58201,
2427.0,ESTABROOK DR,GRAND FORKS,ND,58201,
1930.0,49TH ST S,Fargo,ND,58103,11.0
2024.0,NORTH GRANDVIEW LN,BISMARCK,ND,58503,
2610.0,VALLEY VIEW AVE,BISMARCK,ND,58501,
620.0,5TH ST SE,Ramsey,ND,58301,
725.0,S 12TH ST,BISMARCK,ND,58504,74.0
700.0,ST LOUIS PL,BISMARCK,ND,58504,
1710.0,NE 52ND ST,BISMARCK,ND,58501,
1016.0,N 28TH ST,BISMARCK,ND,58501,407.0
214.0,THUE CT,HORACE,ND,58047,
751.0,PROMENADE CT,GRAND FORKS,ND,58203,
408.0,N 2ND ST,BISMARCK,ND,58501,7.0
5392.0,6TH AVE N,GRAND FORKS,ND,58203,
4733.0,AMBERGLOW DR,BISMARCK,ND,58503,
3839.0,56TH AVE S,Fargo,ND,58104,210.0
709.0,8TH AVE S,GRAND FORKS,ND,58201,
318.0,31ST AVE N,Fargo,ND,58102,205.0
14971.0,52ND ST NW,WILLISTON,ND,58801,
2401.0,N 43RD ST,GRAND FORKS,ND,58203,
5050.0,AMBER VALLEY PKWY S,Fargo,ND,58104,306.0
3694.0,BALSAM CIR,GRAND FORKS,ND,58201,
2202.0,3RD AVE N,Fargo,ND,58102,
2508.0,GRANT DR,BISMARCK,ND,58501,
412.0,E CENTRAL AVE,BISMARCK,ND,58501,
5233.0,7TH AVE N,GRAND FORKS,ND,58203,
7421.0,18TH ST S,Fargo,ND,58104,
3353.0,15TH AVE S,Fargo,ND,58103,203.0
13.0,MCGINNIS WAY,BISMARCK,ND,58504,
3340.0,42ND ST S,Fargo,ND,58104,203.0
439.0,W CENTURY AVE,BISMARCK,ND,58503,103.0
409.0,MAIN ST,Ramsey,ND,58377,
4037.0,MAIN AVE,Fargo,ND,58103,
3327.0,15TH AVE S,Fargo,ND,58103,
4919.0,DRIFTWOOD LN,BISMARCK,ND,58503,
413.0,MORRISON ST,WEST FARGO,ND,58078,1.0
24.0,LUKENS LN,WILTON,ND,58579,
407.0,ARGUS AVE,PAGE,ND,58064,
1445.0,RIDGEDALE PL,BISMARCK,ND,58503,
816.0,8TH AVE N,Fargo,ND,58102,
226.0,45TH ST NE,NORTHWOOD,ND,58267,
3907.0,30TH AVE S,Fargo,ND,58104,
1062.0,WESTWOOD ST,BISMARCK,ND,58504,
2024.0,ST BENEDICT DR,BISMARCK,ND,58503,
611.0,FRONT ST W,LARIMORE,ND,58251,
1452.0,69TH AVE S,Fargo,ND,58104,
2503.0,MCLEOD DR E,WEST FARGO,ND,58078,
1601.0,W CENTURY AVE,BISMARCK,ND,58503,
1815.0,7TH AVE N,GRAND FORKS,ND,58203,
4550.0,47TH ST S,Fargo,ND,58104,311.0
3307.0,11TH AVE E,WILLISTON,ND,58801,
913.0,17TH AVE W,WILLISTON,ND,58801,
411.0,16TH ST N,Fargo,ND,58102,
4628.0,HWY 1804,WILLISTON,ND,58801,
3402.0,BOHNET BLVD N,Fargo,ND,58102,
1005.0,N 11TH ST,BISMARCK,ND,58501,
925.0,16TH AVE W,WILLISTON,ND,58801,
3110.0,S 10TH ST,GRAND FORKS,ND,58201,
2825.0,28TH ST W,WILLISTON,ND,58801,
3008.0,3RD ST E,WEST FARGO,ND,58078,
1323.0,5TH AVE N,GRAND FORKS,ND,58203,
17950.0,LINCOLN RD,MENOKEN,ND,58558,
1327.0,BROOKSIDE LN,BISMARCK,ND,58503,
6887.0,151ST AVE NW,WILLISTON,ND,58801,
1014.0,6TH ST NE,Ramsey,ND,58301,
311.0,13TH AVE N,CASSELTON,ND,58012,
2300.0,S 22ND ST,GRAND FORKS,ND,58201,
2908.0,MORRISON AVE,BISMARCK,ND,58504,3.0
820.0,PAGE DR S,Fargo,ND,58103,
1431.0,OAK MANOR AVE S,Fargo,ND,58103,108.0
4930.0,HWY 85,WILLISTON,ND,58801,
311.0,S 14TH ST,BISMARCK,ND,58501,
1023.0,46TH AVE W,WEST FARGO,ND,58078,
4430.0,9 AVENUE CIR S,Fargo,ND,58103,209.0
108.0,MARYLAND ST,BISMARCK,ND,58504,
513.0,1ST ST W,HUNTER,ND,58048,
1442.0,S 17TH ST,GRAND FORKS,ND,58201,
3302.0,2ND ST N,Fargo,ND,58102,
9101.0,PAIGE DR,BISMARCK,ND,58503,
2413.0,164TH AVE SE,ARGUSVILLE,ND,58005,
2900.0,34TH AVE S,Fargo,ND,58104,1245.0
1708.0,23RD ST S,Fargo,ND,58103,
5591.0,36TH AVE S,Fargo,ND,58104,
717.0,WILLIAMS ST,BISMARCK,ND,58501,
10003.0,6TH ST S,FARGO,ND,58104,
2621.0,14TH ST S,Fargo,ND,58103,7.0
1406.0,S 11TH ST,GRAND FORKS,ND,58201,
3524.0,28TH AVE S,Fargo,ND,58103,107.0
518.0,N 2ND ST,BISMARCK,ND,58501,
3872.0,RESERVE DR E,WEST FARGO,ND,58078,
725.0,S 12TH ST,BISMARCK,ND,58504,9.0
2914.0,7TH ST N,Fargo,ND,58102,4.0
4839.0,38TH ST S,Fargo,ND,58104,210.0
3134.0,MANITOBA LN,BISMARCK,ND,58503,
1027.0,W HIGHLAND ACRES RD,BISMARCK,ND,58501,
3687.0,143RD AVE SE,BUFFALO,ND,58011,
307.0,12TH ST E,WEST FARGO,ND,58078,
1700.0,NE 52ND ST,BISMARCK,ND,58501,
138.0,REDSTONE DR,BISMARCK,ND,58503,
4065.0,LARK CIR,GRAND FORKS,ND,58201,
5577.0,TUSCAN CT S,Fargo,ND,58104,
2106.0,LINCOLN AVE NE,Ramsey,ND,58301,
414.0,11TH ST N,Fargo,ND,58102,310.0
6160.0,EDGERLY LN,BISMARCK,ND,58504,
307.0,RIVERTREE BLVD,HARWOOD,ND,58042,
512.0,N 7TH ST,BISMARCK,ND,58501,
1102.0,23RD ST S,Fargo,ND,58103,
401.0,PARK AVE,GRAND FORKS,ND,58203,
3540.0,N 19TH ST,BISMARCK,ND,58503,17.0
425.0,2ND ST SE,TIOGA,ND,58852,
3220.0,OAK RIDGE  LOOP E,WEST FARGO,ND,58078,
752.0,ASHLEY LN NE,THOMPSON,ND,58278,
7814.0,SUNSET DR,HORACE,ND,58047,
913.0,N 4TH ST,GRAND FORKS,ND,58203,
710.0,HERITAGE CIR,FARGO,ND,58104,
1468.0,48TH AVE S,GRAND FORKS,ND,58201,
830.0,LONGHORN DR,BISMARCK,ND,58503,
4500.0,SANDY RIVER DR,BISMARCK,ND,58503,
6943.0,54TH ST NE,Ramsey,ND,58362,
3514.0,KINGSFORD DR,BISMARCK,ND,58504,
4730.0,TIMBER PKWY S,Fargo,ND,58104,112.0
1119.0,UNIVERSITY DR,BISMARCK,ND,58504,1001.0
501.0,PARKER RANCH RD,BISMARCK,ND,58503,
3201.0,35 1/2 COURT AVE S,Fargo,ND,58104,
515.0,EAGLE BEND DR,Ramsey,ND,58301,
3040.0,10TH ST N,Fargo,ND,58102,203.0
759.0,PROMENADE CT,GRAND FORKS,ND,58203,
1792.0,INDIANA ST,GRAND FORKS AFB,ND,58204,
420.0,E MAIN AVE,BISMARCK,ND,58501,1003.0
5476.0,SWEET CLOVER LN,WILLISTON,ND,58801,
301.0,S MONTANA ST,TIOGA,ND,58852,
110.0,VILLAGE PK,EMERADO,ND,58228,
1901.0,33 24TH AVE S,GRAND FORKS,ND,58201,
411.0,ELM ST,KINDRED,ND,58051,
1111.0,32ND AVE N,Fargo,ND,58102,401.0
210.0,N 8TH ST,BISMARCK,ND,58501,
1314.0,MEREDITH DR,BISMARCK,ND,58501,
1117.0,3RD AVE S,Fargo,ND,58103,
1318.0,6TH ST E,WEST FARGO,ND,58078,11.0
8127.0,HAWKTREE DR,BISMARCK,ND,58503,
501.0,INTERSTATE AVE,BISMARCK,ND,58503,
3401.0,28TH ST S,Fargo,ND,58104,108.0
2410.0,BELMONT RD,GRAND FORKS,ND,58201,
514.0,28TH AVE S,GRAND FORKS,ND,58201,
1025.0,2ND ST N,Fargo,ND,58102,1.0
21.0,8TH ST N,Fargo,ND,58102,510.0
1221.0,PARK PL,WILLISTON,ND,58801,
310.0,E A AVE,BISMARCK,ND,58501,
650.0,2ND AVE NW,WEST FARGO,ND,58078,
1092.0,THAMES CT,GRAND FORKS,ND,58203,
3250.0,ROCK ISLAND PL,BISMARCK,ND,58501,5.0
507.0,11TH ST S,Fargo,ND,58103,208.0
2574.0,HUNTINGTON PARK DR,GRAND FORKS,ND,58201,
1723.0,DREES DR,GRAND FORKS,ND,58201,
1603.0,RIDER RD,GRAND FORKS,ND,58201,
209.0,N 19TH ST,BISMARCK,ND,58501,4.0
203.0,RIVERS EDGE DR,GRAND FORKS,ND,58201,
6331.0,13TH ST N,FARGO,ND,58102,
913.0,N 35TH ST,BISMARCK,ND,58501,
1507.0,14TH ST S,Fargo,ND,58103,
4111.0,COTTONWOOD ST,GRAND FORKS,ND,58201,
4202.0,HAGEN AVE,BISMARCK,ND,58504,
3719.0,CALGARY CT,BISMARCK,ND,58503,
1449.0,NORCHIP CIR,GRAND FORKS,ND,58201,
1691.0,26TH AVE NE,MANVEL,ND,58256,
6275.0,19TH ST S,Fargo,ND,58104,
360.0,MORRISON AVE,THOMPSON,ND,58278,
613.0,W INTERSTATE AVE,BISMARCK,ND,58503,
125.0,BOISE AVE,Bismarck,ND,58504,
16681.0,40TH ST SE,WEST FARGO,ND,58078,
1107.0,BREMNER AVE,BISMARCK,ND,58503,
4201.0,33RD AVE S,Fargo,ND,58104,307.0
14707.0,44TH LN NW,WILLISTON,ND,58801,
1811.0,ALLISON DR,BISMARCK,ND,58501,5.0
5357.0,27TH ST S,Fargo,ND,58104,104.0
202.0,7TH ST NE,Ramsey,ND,58301,
901.0,10TH AVE W,WEST FARGO,ND,58078,4.0
507.0,S 8TH ST,BISMARCK,ND,58504,11.0
8615.0,RIDGELAND DR,BISMARCK,ND,58503,
1420.0,EAST GATEWAY CIR S,Fargo,ND,58103,310.0
635.0,7TH AVE S,GRAND FORKS,ND,58201,
3615.0,19TH AVE S,GRAND FORKS,ND,58201,
1010.0,16TH ST N,Fargo,ND,58102,24.0
4830.0,GRANITE DR,BISMARCK,ND,58503,
312.0,S 3RD ST,BISMARCK,ND,58501,
4601.0,N 19TH ST,BISMARCK,ND,58503,
402.0,7TH AVE E,WEST FARGO,ND,58078,
5686.0,BISHOPS BLVD S,Fargo,ND,58104,
1122.0,WALNUT ST,GRAND FORKS,ND,58201,
4000.0,58TH AVE S,Fargo,ND,58104,
7313.0,KEEPSAKE LN,BISMARCK,ND,58501,
5424.0,11TH ST S,Fargo,ND,58104,
1610.0,N 23RD ST,BISMARCK,ND,58501,24.0
3407.0,DAYTONA DR,BISMARCK,ND,58503,
2312.0,55TH ST S,Fargo,ND,58104,105.0
4734.0,119TH RD NW,EPPING,ND,58843,
4303.0,9TH AVENUE CIR S,Fargo,ND,58103,103.0
4749.0,AMBER VALLEY PKWY S,Fargo,ND,58104,
1437.0,EASTWOOD ST,BISMARCK,ND,58504,
1020.0,N 12TH ST,BISMARCK,ND,58501,
551.0,4TH AVE NW,WEST FARGO,ND,58078,
1048.0,LINDSEY LN,GRAND FORKS,ND,58201,
200.0,8TH ST S,Fargo,ND,58103,405.0
15566.0,42ND ST SE,MAPLETON,ND,58059,
2103.0,DANIELS DR,Ramsey,ND,58301,
5627.0,KAYLEY DR,BISMARCK,ND,58504,
1882.0,I ST,GRAND FORKS AFB,ND,58204,
3213.0,NEBRASKA DR,BISMARCK,ND,58503,3.0
4101.0,19TH AVE S,Fargo,ND,58103,309.0
12119.0,COUNTRY MEADOWS DR,MENOKEN,ND,58558,
4847.0,38TH ST S,Fargo,ND,58104,109.0
13725.0,KRISTINA ST,WILLISTON,ND,58801,
1367.0,LIBRARY CIR,GRAND FORKS,ND,58201,
1880.0,CENTENNIAL BLVD N,Fargo,ND,58102,
1120.0,SUMMIT BLVD,BISMARCK,ND,58504,2.0
1401.0,SHARLOH LOOP,Bismarck,ND,58501,9.0
3301.0,17TH AVE S,Fargo,ND,58103,104.0
202.0,OXBOW CIR,OXBOW,ND,58047,
1742.0,37TH ST NE,LARIMORE,ND,58251,
5202.0,9TH AVE N,GRAND FORKS,ND,58203,
7324.0,YUKON DR,BISMARCK,ND,58503,1.0
6435.0,NE 17TH AVE,BISMARCK,ND,58501,
4819.0,BOULDER RIDGE RD,BISMARCK,ND,58503,
515.0,18TH AVE S,GRAND FORKS,ND,58201,
3702.0,MONREO DR,BISMARCK,ND,58503,
1514.0,WALNUT ST,GRAND FORKS,ND,58201,
853.0,12TH AVE W,WEST FARGO,ND,58078,
17135.0,25TH ST SE,ARGUSVILLE,ND,58005,
120.0,1ST AVE E,HUNTER,ND,58048,
306.0,NOVA DR,BISMARCK,ND,58503,
111.0,MAIN ST S,LEONARD,ND,58052,
4757.0,AGASSIZ XING S,Fargo,ND,58104,210.0
725.0,S 12TH ST,BISMARCK,ND,58504,
4965.0,SOUTH PINES CT,GRAND FORKS,ND,58201,
1116.0,29TH AVE S,GRAND FORKS,ND,58201,
1310.0,14 1/2 ST S,Fargo,ND,58103,
1840.0,N GRIFFIN ST,BISMARCK,ND,58501,
2900.0,S COLUMBIA RD,GRAND FORKS,ND,58201,
2310.0,SUNSET ST NE,MEKINOCK,ND,58258,
229.0,8TH AVE W,WEST FARGO,ND,58078,
1918.0,1ST AVE W,WILLISTON,ND,58801,
7410.0,RIDGELAND DR,BISMARCK,ND,58503,
5486.0,JUSTICE DR S,Fargo,ND,58104,
1510.0,9TH AVE N,GRAND FORKS,ND,58203,
5601.0,34TH AVE S,Fargo,ND,58104,204.0
525.0,1ST AVE E,WEST FARGO,ND,58078,17.0
1920.0,21ST AVE S,Fargo,ND,58103,303.0
5055.0,TIMBER PKWY S,Fargo,ND,58104,
3401.0,28TH ST S,Fargo,ND,58104,203.0
143.0,BLACKTAIL DR,WILLISTON,ND,58801,
618.0,YORKSHIRE LN,BISMARCK,ND,58504,
1763.0,LILAC LN,BISMARCK,ND,58501,
3402.0,36TH ST S,Fargo,ND,58104,
3837.0,20TH ST N,Fargo,ND,58102,
902.0,OAK ST N,Fargo,ND,58102,5.0
2023.0,5TH AVE N,GRAND FORKS,ND,58203,
148.0,DESIREE DR,GRAND FORKS,ND,58201,
314.0,4TH ST W,WILLISTON,ND,58801,
4333.0,15TH AVE S,Fargo,ND,58103,136.0
401.0,13TH ST NE,TIOGA,ND,58852,
2900.0,34TH AVE S,Fargo,ND,58104,1153.0
2326.0,20TH AVE S,Fargo,ND,58103,4.0
4263.0,41ST AVE S,Fargo,ND,58104,
915.0,BROADWAY  N,Fargo,ND,58102,3.0
8736.0,MIRAGE PL,BISMARCK,ND,58503,
1021.0,UNIVERSITY AVE,GRAND FORKS,ND,58203,
13835.0,SADLER ST NW,WILLISTON,ND,58801,
3133.0,23RD AVE S,Fargo,ND,58103,
1011.0,18TH ST E,WILLISTON,ND,58801,
823.0,BELMONT RD,GRAND FORKS,ND,58201,
2308.0,18TH ST S,Fargo,ND,58103,
3720.0,L-45 CHERRY ST,GRAND FORKS,ND,58201,
3742.0,HIDDEN CIR,WEST FARGO,ND,58078,
3527.0,KELLY ST N,Fargo,ND,58102,
3640.0,42ND ST S,Fargo,ND,58104,309.0
6781.0,21ST ST S,Fargo,ND,58104,
6108.0,MISTY WATERS DR,BISMARCK,ND,58503,
650.0,COUNTRYSIDE TRAILER CT S,Fargo,ND,58103,
202.0,4TH AVE SE,MAPLETON,ND,58059,
1444.0,32ND ST S,Fargo,ND,58103,104.0
3050.0,GREENWOOD DR,BISMARCK,ND,58503,
3501.0,20TH AVE W,WILLISTON,ND,58801,
15137.0,66TH ST NW,WILLISTON,ND,58801,
155.0,STUTTGART DR,BISMARCK,ND,58504,2.0
4311.0,15TH AVE S,Fargo,ND,58103,306.0
21.0,SEWARD AVE,GRAND FORKS,ND,58203,
4033.0,PIONEER DR,GRAND FORKS,ND,58201,
1415.0,14TH AVE E,WEST FARGO,ND,58078,24.0
1506.0,9TH ST N,Fargo,ND,58102,
1212.0,MORNINGSIDE DR,CASSELTON,ND,58012,
4510.0,16TH AVE S,Fargo,ND,58103,104.0
1407.0,SPRUCE DR,GRAND FORKS AFB,ND,58204,
1128.0,31ST AVE W,WEST FARGO,ND,58078,
335.0,CONTINENTAL AVE,BISMARCK,ND,58504,
1085.0,17TH AVE N,Fargo,ND,58102,118.0
2729.0,11TH AVE W,WILLISTON,ND,58801,
3330.0,TYNDALE DR,Bismarck,ND,58503,
312.0,9TH AVE S,GRAND FORKS,ND,58201,
2766.0,41ST ST S,Fargo,ND,58104,308.0
3001.0,OHIO ST,BISMARCK,ND,58503,23.0
2126.0,E CAPITOL AVE,BISMARCK,ND,58503,
817.0,N 10TH ST,BISMARCK,ND,58501,
1219.0,14TH ST SE,Ramsey,ND,58301,
4825.0,172ND AVE SE,HORACE,ND,58047,
801.0,N 6TH ST,GRAND FORKS,ND,58203,
4426.0,OAKCREEK DR S,Fargo,ND,58104,
725.0,42ND ST S,Fargo,ND,58103,333.0
2202.0,17TH ST S,Fargo,ND,58103,302.0
212.0,KAMROSE DR,BISMARCK,ND,58504,
439.0,W CENTURY AVE,BISMARCK,ND,58503,304.0
307.0,6TH ST NW,WEST FARGO,ND,58078,
505.0,17TH AVE W,WILLISTON,ND,58801,
326.0,7TH ST W,WEST FARGO,ND,58078,
1941.0,ST BENEDICT DR,BISMARCK,ND,58501,
4116.0,3RD AVE E,WILLISTON,ND,58801,
1532.0,27TH AVE S,Fargo,ND,58103,302.0
1010.0,WALNUT ST E,Ramsey,ND,58301,
3216.0,KING PL,GRAND FORKS,ND,58201,
300.0,MAIN AVE,Fargo,ND,58103,200.0
325.0,W CUSTER PARK ST,BISMARCK,ND,58501,
3660.0,42ND ST S,Fargo,ND,58104,103.0
2102.0,CATHERINE DR,BISMARCK,ND,58503,
5528.0,BISHOPS BLVD S,Fargo,ND,58104,
120.0,W SANTEE RD,BISMARCK,ND,58504,1.0
2549.0,15TH ST S,Fargo,ND,58103,
613.0,FAIRWAY DR,CASSELTON,ND,58012,
1827.0,CREST ST,WILLISTON,ND,58801,
301.0,MAIN ST S,Ramsey,ND,58330,
4214.0,9TH AVE S,Fargo,ND,58103,107.0
4807.0,BAKERS LN N,REILES ACRES,ND,58102,
5267.0,5TH AVE N,GRAND FORKS,ND,58203,
7494.0,21ST ST S,Fargo,ND,58104,
116.0,BISMARCK AVE,WILTON,ND,58579,
503.0,7TH ST NE,Ramsey,ND,58301,
3322.0,31ST AVE S,Fargo,ND,58103,23.0
602.0,MAIN ST,WILLISTON,ND,58801,
4643.0,119TH RD NW,EPPING,ND,58843,
14099.0,52ND ST SE,ENDERLIN,ND,58027,
3130.0,CHISHOLM TRL,BISMARCK,ND,58503,
3950.0,13TH AVE S,Fargo,ND,58103,
1181.0,PRAIRIE PKWY,WEST FARGO,ND,58078,101.0
1806.0,S 17TH ST,GRAND FORKS,ND,58201,
220.0,8TH ST S,Fargo,ND,58103,
1826.0,31ST ST W,WILLISTON,ND,58801,
1760.0,10TH ST N,Fargo,ND,58102,213.0
1110.0,BELMONT RD,GRAND FORKS,ND,58201,
3205.0,BITTEROOT AVE,BISMARCK,ND,58501,
203.0,E EDMONTON DR,BISMARCK,ND,58503,
801.0,6TH AVE N,Fargo,ND,58102,
1507.0,68TH AVE S,Fargo,ND,58104,
625.0,WACO LN S,Fargo,ND,58103,
408.0,ROBERTS ST N,Fargo,ND,58102,405.0
1200.0,HARWOOD DR S,Fargo,ND,58104,252.0
1901.0,16TH ST S,Fargo,ND,58103,
1741.0,42ND ST S,Fargo,ND,58103,3.0
1301.0,S 38TH ST,GRAND FORKS,ND,58201,
408.0,5TH AVE E,WEST FARGO,ND,58078,311.0
4700.0,16TH AVE S,Fargo,ND,58103,108.0
732.0,40TH ST N,Fargo,ND,58102,
1606.0,N 20TH ST,BISMARCK,ND,58501,
609.0,N 7TH ST,BISMARCK,ND,58501,
1607.0,HAROLDSON LN,MENOKEN,ND,58558,
4668.0,33RD AVE S,Fargo,ND,58104,202.0
6236.0,14TH ST S,Fargo,ND,58104,
4875.0,34TH AVE S,Fargo,ND,58104,
3806.0,50TH AVE S,Fargo,ND,58104,
2506.0,W FALLCREEK CT,GRAND FORKS,ND,58201,
2107.0,KENNEDY AVE,BISMARCK,ND,58501,
6901.0,TJ LN,BISMARCK,ND,58503,
819.0,W CAPITOL AVE,BISMARCK,ND,58501,
