NUMBER,STREET,CITY,STATE,POSTCODE,UNIT
8120,EAST POINTE RD,LINCOLN,NE,68506,
2118,S 34th St,Omaha,NE,68105,
11011,Weber St,Douglas County,NE,68142,
9462,Jackson Cir,Omaha,NE,68114,
651,BROADVIEW DR,LINCOLN,NE,68505,
230,ANNIN ST,CRAWFORD,NE,69339,
136,ASH ST,CRAWFORD,NE,69339,
115,W Charles St,Valley,NE,68064,
8623,Orchard Ave,Omaha,NE,68127,
437,NW 14TH ST,LINCOLN,NE,68528,
3231,W ST,LINCOLN,NE,68503,
16641,Ames Ave,Omaha,NE,68116,
3488,Grant St,Omaha,NE,68111,
940,N 66TH ST,LINCOLN,NE,68505,
2207,W TODD LN,LINCOLN,NE,68528,
6904,N 16th St,Omaha,NE,68112,
6438,S 120th Plz,Omaha,NE,68137,
3830,N 22nd St,Omaha,NE,68110,
6130,Frederick St,Omaha,NE,68106,
1640,SW 25TH ST,LINCOLN,NE,68522,
1221,S 92nd Cir,Omaha,NE,68124,
2920,T ST,LINCOLN,NE,68503,
1256,FALL CREEK RD,LINCOLN,NE,68510,
12011,S 148TH ST,BENNET,NE,68317,
4967,S 155th St,Omaha,NE,68137,
4213,N 20th St,Omaha,NE,68110,
5424,N 33rd Ave,Omaha,NE,68111,
8515,Broadmoor Dr,Omaha,NE,68114,
14818,Queens Dr,Omaha,NE,68116,
8324,Webster St,Omaha,NE,68114,
4041,S 1ST ST,LINCOLN,NE,68502,
2023,N 65th Ave,Omaha,NE,68104,
2910,S 53RD ST,LINCOLN,NE,68506,
6634,B St,Omaha,NE,68106,
17516,Bay Wood Cir,Omaha,NE,68130,
6417,S 145th St,Omaha,NE,68137,
6408,TANGLEWOOD LN,LINCOLN,NE,68516,
1520,E MANOR DR,LINCOLN,NE,68506,
2513,S 25th St,Omaha,NE,68105,
5012,S 165th St,Omaha,NE,68135,
3520,Burt St,Omaha,NE,68131,
3319,S 40th St,Omaha,NE,68105,
15940,Lake St,Omaha,NE,68116,
7221,GREENWOOD CT,LINCOLN,NE,68507,
4706,N 14th Ave,Omaha,NE,68110,
4835,S 24th St,Omaha,NE,68107,
11801,A ST,WALTON,NE,68461,
7207,N 126th Ave,Douglas County,NE,68142,
12272,Signal Dr,Omaha,NE,68137,
10913,Girard St,Douglas County,NE,68142,
19614,T St,Douglas County,NE,68135,
1002,J E George Blvd,Omaha,NE,68132,
417,ELM ST,CRAWFORD,NE,69339,
600,N 100TH ST,LINCOLN,NE,68527,
701,Caniglia Plz,Omaha,NE,68108,
41,Ginger Woods Rd,Valley,NE,68064,
6318,SEWARD AVE,LINCOLN,NE,68507,
12711,Gold St,Omaha,NE,68144,
1701,Ridgewood Ave,Omaha,NE,68124,
2930,N 5TH ST,LINCOLN,NE,68521,
520,W KEATING CIR,LINCOLN,NE,68521,
1506,S 90th St,Omaha,NE,68124,
2811,SHADOWBROOK DR,LINCOLN,NE,68516,
917,SANTA MONICA AVE,LINCOLN,NE,68504,
5521,N 160th Ave,Douglas County,NE,68116,
7628,Sherman Dr,Omaha,NE,68134,
12305,Erskine Cir,Omaha,NE,68164,
2731,Saratoga St,Omaha,NE,68111,
2107,S 10th St,Omaha,NE,68108,
5345,N 28th Ave,Omaha,NE,68111,
341,CAPITOL BEACH BLVD,LINCOLN,NE,68528,
8129,Hanover St,Omaha,NE,68122,
6920,ADAMS ST,LINCOLN,NE,68507,
2010,BOSTON DR,LINCOLN,NE,68521,
4470,Hillsdale Ave,Omaha,NE,68107,
1920,S 51ST ST,LINCOLN,NE,68506,
1102,N 18th St,Omaha,NE,68102,
16265,Emmet Plz,Omaha,NE,68116,
4618,N 131st St,Omaha,NE,68164,
2560,N 27TH ST,LINCOLN,NE,68521,
8805,US HIGHWAY 6,LINCOLN,NE,68507,
4739,S 96th St,Omaha,NE,68127,
5030,RENTWORTH CT,LINCOLN,NE,68516,
629,S 32nd Ave,Omaha,NE,68105,
721,S 72nd St,Omaha,NE,68106,
7449,Schuyler Dr,Omaha,NE,68114,
15379,Holmes Plz,Omaha,NE,68137,
6000,RANDOLPH ST,LINCOLN,NE,68510,
2019,P ST,LINCOLN,NE,68503,
8007,Vernon Ave,Omaha,NE,68134,
5731,NW 4TH ST,LINCOLN,NE,68521,
4616,Redman Ave,Omaha,NE,68111,
9615,S 71ST ST,LINCOLN,NE,68516,
6116,S 28TH ST,LINCOLN,NE,68516,
2110,S 67th St,Omaha,NE,68106,
7500,SOUTH ST,LINCOLN,NE,68506,
3105,S 123rd St,Omaha,NE,68144,
46,Ginger Cove Rd,Valley,NE,68064,
5052,Arcadia Ave,Omaha,NE,68104,
6610,S 168th St,Omaha,NE,68135,
6119,LAROCHE RD,LINCOLN,NE,68526,
4112,S 23rd St,Omaha,NE,68107,
6152,NW 12TH ST,LINCOLN,NE,68521,
5713,ELKCREST DR,LINCOLN,NE,68516,
3007,N 161st St,Omaha,NE,68116,
5810,S 96th Ct,Omaha,NE,68127,
8030,PRAIRIE FLOWER DR,ROCA,NE,68430,
9239,BERG DR,LINCOLN,NE,68505,
4311,Boyd St,Omaha,NE,68111,
19507,Pierce St,Omaha,NE,68130,
16177,BRANCHED OAK RD,WAVERLY,NE,68462,
7733,BRUMMOND DR,LINCOLN,NE,68516,
13919,Wyoming St,Douglas County,NE,68142,
6806,S 91ST ST,LINCOLN,NE,68526,
1222,Marcy Plz,Omaha,NE,68108,
2034,N 70th St,Omaha,NE,68104,
2412,S 164th Ave,Omaha,NE,68130,
7206,N 52nd St,Omaha,NE,68152,
9901,S 73RD ST,LINCOLN,NE,68516,
6207,Dorcas Plz,Omaha,NE,68106,
4423,R St,Omaha,NE,68107,
13029,West Center Rd,Omaha,NE,68144,
1531,S ST,LINCOLN,NE,68508,
15265,Wirt St,Omaha,NE,68116,
8017,N 60th Ct,Omaha,NE,68152,
5112,W SUPERIOR ST,LINCOLN,NE,68524,
4943,N 36th St,Omaha,NE,68111,
7514,WHITLOCK PL,LINCOLN,NE,68516,
2334,N 120th Avenue Cir,Omaha,NE,68164,
5110,GREENWOOD ST,LINCOLN,NE,68504,
4109,Orchard Ave,Omaha,NE,68107,
5120,MEREDETH ST,LINCOLN,NE,68506,
1545,C ST,LINCOLN,NE,68502,
19270,Orchard Ave,Douglas County,NE,68135,
6907,N 52nd St,Omaha,NE,68152,
16315,Webster St,Omaha,NE,68118,
4712,N 120th St,Omaha,NE,68164,
2609,N 102nd Ave,Omaha,NE,68134,
12235,Farnam St,Omaha,NE,68154,
3833,NORTH PARK RD,LINCOLN,NE,68524,
22401,Wright St,Douglas County,NE,68022,
7811,Raven Oaks Dr,Omaha,NE,68152,
3905,S 181st St,Omaha,NE,68130,
3819,Monroe St,Omaha,NE,68107,
311,N 50th St,Omaha,NE,68132,
917,S 27th St,Omaha,NE,68105,
3445,P ST,LINCOLN,NE,68503,
3412,S 126th Ave,Omaha,NE,68144,
333,N 56TH ST,LINCOLN,NE,68504,
3608,S 61st Avenue Cir,Omaha,NE,68106,
2424,S 19TH ST,LINCOLN,NE,68502,
5424,S 28th Ave,Omaha,NE,68107,
2608,S 36th St,Omaha,NE,68105,
5611,Leavenworth St,Omaha,NE,68106,
7808,Lake St,Omaha,NE,68134,
12755,W HOLDREGE ST,LINCOLN,NE,68528,
901,S 41st St,Omaha,NE,68105,
4519,Huntington Ave,Omaha,NE,68152,
501,BROOKSIDE DR,LINCOLN,NE,68528,
3826,N 265th Ct,Valley,NE,68064,
7760,Oakwood St,Ralston,NE,68127,
11331,Franklin Plz,Omaha,NE,68154,
2570,Evans St,Omaha,NE,68111,
6100,SUNRISE RD,LINCOLN,NE,68510,
11284,Lake Forest Dr,Omaha,NE,68164,
1430,S 7TH ST,LINCOLN,NE,68502,
15039,S 150th Plz,Omaha,NE,68144,
1044,S 35th Ave,Omaha,NE,68105,
10632,Grand Ave,Omaha,NE,68134,
5401,REBEL DR,LINCOLN,NE,68516,
519,N 35TH ST,LINCOLN,NE,68503,
9717,Cady Ave,Omaha,NE,68134,
3740,WILLIAMSBURG DR,LINCOLN,NE,68516,
2614,D St,Omaha,NE,68107,
1037,N 78th St,Omaha,NE,68114,
6344,WATERS EDGE DR,LINCOLN,NE,68526,
7136,CUMING ST,LINCOLN,NE,68507,
4315,Frances St,Omaha,NE,68105,
4216,Pacific St,Omaha,NE,68105,
2711,N 58th St,Omaha,NE,68104,
308,ANNIN ST,CRAWFORD,NE,69339,
9010,Westridge Dr,Omaha,NE,68124,
3326,S 188th Ave,Omaha,NE,68130,
9325,Dutch Hall Rd,Douglas County,NE,68122,
450,N MOREHEAD ST,CHADRON,NE,69337,
14919,Fowler Ave,Omaha,NE,68116,
5836,PAWNEE ST,LINCOLN,NE,68506,
3236,FAIR ST,LINCOLN,NE,68503,
4117,N 38th St,Omaha,NE,68111,
11121,Jones St,Omaha,NE,68154,
5140,GOLDENROD LN,LINCOLN,NE,68512,
8139,BEECHWOOD DR,LINCOLN,NE,68510,
3720,N 50th St,Omaha,NE,68104,
12914,Nebraska Ave,Douglas County,NE,68164,
15834,Decatur St,Omaha,NE,68118,
2037,S 141st Cir,Omaha,NE,68144,
5501,HILLS DALE DR,LINCOLN,NE,68504,
7611,S 41ST ST,LINCOLN,NE,68516,
8029,Manderson Cir,Omaha,NE,68134,
6200,FRONTIER RD,LINCOLN,NE,68516,
920,S 153rd Ct,Omaha,NE,68154,
5639,S 48th Ave,Omaha,NE,68117,
2445,DEVOE DR,LINCOLN,NE,68506,
15532,Lloyd St,Omaha,NE,68144,
3082,Martin Ave,Omaha,NE,68112,
11311,Queens Dr,Omaha,NE,68164,
8930,S 28TH ST,LINCOLN,NE,68516,
48,Ginger Cove Rd,Valley,NE,68064,
8010,Ontario St,Omaha,NE,68124,
12216,N 36th St,Douglas County,NE,68112,
6600,MARCUS RD,LINCOLN,NE,68516,
20248,Pinkney St,Omaha,NE,68022,
814,LYNCREST DR,LINCOLN,NE,68510,
7440,Cass St,Omaha,NE,68114,
13572,V Cir,Omaha,NE,68137,
1511,N 162nd St,Omaha,NE,68118,
3310,W ST,LINCOLN,NE,68503,
14818,Drexel St,Omaha,NE,68137,
,N MOREHEAD ST,CHADRON,NE,69337,
177,LAKE ST,CHADRON,NE,69337,
5911,ROBIN CT,LINCOLN,NE,68516,
9010,S 74TH ST,LINCOLN,NE,68516,
4238,N PARK BLVD,LINCOLN,NE,68521,
7317,Washington St,Ralston,NE,68127,
5613,S 49th St,Omaha,NE,68117,
2348,N 61st St,Omaha,NE,68104,
5432,HILLS DALE DR,LINCOLN,NE,68504,
7021,STONEBROOK PKWY,LINCOLN,NE,68521,
1315,S 163rd St,Omaha,NE,68130,
6127,Emmet St,Omaha,NE,68104,
501,LAMONT CIR,LINCOLN,NE,68528,
410,N 40th St,Omaha,NE,68131,
4609,N 134th Ave,Douglas County,NE,68164,
501,GLENHAVEN DR,LINCOLN,NE,68505,
2735,S 41st St,Omaha,NE,68105,
15015,Wirt Cir,Omaha,NE,68116,
1010,PIEDMONT RD,LINCOLN,NE,68510,
740,W FAIRFIELD ST,LINCOLN,NE,68521,
5103,Cass St,Omaha,NE,68132,
13527,Jefferson Cir,Omaha,NE,68137,
7828,N 152nd Ave,Douglas County,NE,68007,
15327,Hillsdale Ave,Omaha,NE,68137,
1740,N 175th Ct,Douglas County,NE,68118,
7536,Polk St,Ralston,NE,68127,
2208,N 38th Ave,Omaha,NE,68111,
9319,NORTHERN SKY RD,LINCOLN,NE,68505,
4310,S 24th St,Omaha,NE,68107,
5115,S 90TH ST,LINCOLN,NE,68526,
3101,S 14TH ST,LINCOLN,NE,68502,
6333,ROCK CREEK RD,CERESCO,NE,68017,
4362,S 87th St,Omaha,NE,68127,
5801,HAVELOCK AVE,LINCOLN,NE,68507,
11318,Davenport St,Omaha,NE,68154,
3001,W COVERED BRIDGE DR,LINCOLN,NE,68523,
6026,Spaulding St,Omaha,NE,68104,
1812,S 52ND ST,LINCOLN,NE,68506,
3031,S 38th Ave,Omaha,NE,68105,
18531,Trailridge Cir,Omaha,NE,68135,
3165,MAYFLOWER AVE,LINCOLN,NE,68502,
7300,SOUTH ST,LINCOLN,NE,68506,
11664,Camden Ave,Omaha,NE,68164,
2320,Country Club Ave,Omaha,NE,68104,
28005,BROOKIE PL,FIRTH,NE,68358,
2901,S 89TH ST,LINCOLN,NE,68520,
17155,SW 72ND ST,CRETE,NE,68333,
14460,Tibbles St,Omaha,NE,68116,
12902,Hartman Ave,Omaha,NE,68164,
3927,W St,Omaha,NE,68107,
7047,N GRAND LAKE DR,LINCOLN,NE,68521,
2524,N 137th St,Douglas County,NE,68164,
5128,Q St,Omaha,NE,68117,
5331,WILSHIRE BLVD,LINCOLN,NE,68504,
6610,N 31st Ave,Omaha,NE,68112,
1403,Farnam St,Omaha,NE,68102,
21200,SW 14TH ST,MARTELL,NE,68404,
6707,Ogden St,Omaha,NE,68104,
3461,S 14th St,Omaha,NE,68108,
1816,N 130th Cir,Omaha,NE,68154,
8108,JONES AVE,LINCOLN,NE,68516,
1828,RIVIERA DR,LINCOLN,NE,68506,
2810,S 11TH ST,LINCOLN,NE,68502,
5215,HYDE PARK CT,LINCOLN,NE,68516,
9101,MOHAVE DR,LINCOLN,NE,68516,
8530,Hamilton St,Omaha,NE,68114,
16306,Oak Cir,Omaha,NE,68130,
3363,N 125th St,Omaha,NE,68164,
7407,N 170th St,Douglas County,NE,68007,
5018,W SUPERIOR ST,LINCOLN,NE,68524,
1240,LIBRA DR,LINCOLN,NE,68512,
2325,SCOTT AVE,LINCOLN,NE,68506,
3909,N 187th Ave,Douglas County,NE,68022,
4831,W WINNERS CIR,LINCOLN,NE,68524,
2405,N 153rd Ave,Omaha,NE,68116,
4920,N 25TH ST,LINCOLN,NE,68521,
1156,N 109th Plz,Omaha,NE,68154,
2406,N 58th St,Omaha,NE,68104,
7071,N 87th St,Douglas County,NE,68122,
2710,N 191st Ave,Douglas County,NE,68022,
1327,N 25TH ST,LINCOLN,NE,68503,
7437,Valley St,Omaha,NE,68124,
6605,NW 42ND ST,LINCOLN,NE,68524,
6119,Pacific St,Omaha,NE,68106,
902,S 38th Ave,Omaha,NE,68105,
5500,PRESCOTT AVE,LINCOLN,NE,68506,
4273,Binney St,Omaha,NE,68111,
3625,S 52nd St,Omaha,NE,68106,
6229,S 103rd St,Omaha,NE,68127,
419,Skyline Dr,Omaha,NE,68022,
8011,S 63RD ST,LINCOLN,NE,68516,
16277,Holmes St,Omaha,NE,68135,
521,BRIDGER RD,LINCOLN,NE,68521,
8211,N 30th St,Omaha,NE,68112,
3921,SANTA ROSA LN,LINCOLN,NE,68516,
13006,Cady Ave,Omaha,NE,68164,
11921,Shirley St,Omaha,NE,68144,
1700,J ST,LINCOLN,NE,68508,
6635,Western Ave,Omaha,NE,68132,
5656,ENTERPRISE DR,LINCOLN,NE,68521,
2428,Bristol St,Omaha,NE,68111,
7716,S 81ST ST,LINCOLN,NE,68516,
6612,N 118th Ave,Omaha,NE,68164,
3016,S 15th St,Omaha,NE,68108,
4335,Binney St,Omaha,NE,68111,
8606,Madison Plz,Omaha,NE,68127,
5820,GILLAN RD,LINCOLN,NE,68505,
3940,A ST,LINCOLN,NE,68510,
15701,Pacific St,Omaha,NE,68130,
5411,S 190th Ter,Douglas County,NE,68135,
5345,FRANKLIN ST,LINCOLN,NE,68506,
5801,S 234th St,Douglas County,NE,68022,
8175,Browne St,Omaha,NE,68134,
6424,FREMONT ST,LINCOLN,NE,68507,
2135,S 49th Ave,Omaha,NE,68106,
12612,Burt St,Omaha,NE,68154,
4317,N 62ND ST,LINCOLN,NE,68507,
3826,EVERETT ST,LINCOLN,NE,68506,
1423,O ST,LINCOLN,NE,68508,
2638,N 123rd Cir,Omaha,NE,68164,
1240,N 55TH ST,LINCOLN,NE,68504,
13497,Oak St,Omaha,NE,68144,
2719,S 20th St,Omaha,NE,68108,
6463,N 113th Cir,Omaha,NE,68164,
3839,Franklin St,Omaha,NE,68111,
6626,Evans St,Omaha,NE,68104,
2412,Florence Blvd,Omaha,NE,68110,
5224,Pratt St,Omaha,NE,68104,
2348,Q ST,LINCOLN,NE,68503,
9601,THORNWOOD CIR,LINCOLN,NE,68512,
8106,Bowie Dr,Omaha,NE,68114,
5634,S 139th St,Omaha,NE,68137,
11741,Camden Ave,Omaha,NE,68164,
222,SPRUCE ST,CHADRON,NE,69337,
1818,N 72nd St,Omaha,NE,68114,
6325,N 104th St,Omaha,NE,68122,
902,C ST,LINCOLN,NE,68502,
6920,Y ST,LINCOLN,NE,68505,
7565,KENTWELL LN,LINCOLN,NE,68516,
5101,Nicholas St,Omaha,NE,68132,
1101,BIG TREE CIR,LINCOLN,NE,68522,
12619,Ruggles Plz,Omaha,NE,68164,
13927,Iowa St,Douglas County,NE,68142,
5516,N 63rd St,Omaha,NE,68104,
3321,CROWN POINTE RD,LINCOLN,NE,68506,
2623,S 38th St,Omaha,NE,68105,
4406,Pacific St,Omaha,NE,68105,
7006,N 87th Ave,Douglas County,NE,68122,
4823,S 106th Cir,Omaha,NE,68127,
1011,Dorcas St,Omaha,NE,68108,
3640,Valley St,Omaha,NE,68105,
14829,L St,Omaha,NE,68137,
1507,IRVING ST,LINCOLN,NE,68521,
1319,Madison St,Omaha,NE,68107,
11247,Patrick Ave,Omaha,NE,68164,
6125,Bancroft St,Omaha,NE,68106,
1105,S 36th St,Omaha,NE,68105,
2505,COUNTY DOWN CT,LINCOLN,NE,68512,
2615,SW 14TH ST,LINCOLN,NE,68522,
4913,Q St,Omaha,NE,68117,
7200,COLFAX AVE,LINCOLN,NE,68507,
6341,N 33rd Ave,Omaha,NE,68111,
3433,N 89TH ST,LINCOLN,NE,68507,
334,B ST,LINCOLN,NE,68502,
2303,S 24th St,Omaha,NE,68108,
14749,Sprague St,Omaha,NE,68116,
4727,COOPER AVE,LINCOLN,NE,68506,
19603,Laci St,Douglas County,NE,68135,
4047,Kristy Plz,Douglas County,NE,68112,
4011,S 173rd Cir,Omaha,NE,68130,
1868,N 152nd Plz,Omaha,NE,68154,
610,N 85th St,Omaha,NE,68114,
7640,COLBY ST,LINCOLN,NE,68505,
4324,BEL-RIDGE DR,LINCOLN,NE,68521,
1224,BELMONT AVE,LINCOLN,NE,68521,
2515,Hanscom Blvd,Omaha,NE,68105,
3200,O ST,LINCOLN,NE,68510,
315,H ST,LINCOLN,NE,68508,
1820,N 203rd st,Omaha,NE,68022,
1229,N 146th Plz,Omaha,NE,68154,
9202,F St,Omaha,NE,68127,
4122,SOUTH GATE BLVD,LINCOLN,NE,68506,
1530,SW 32ND ST,LINCOLN,NE,68522,
2644,N 202nd Ave,Douglas County,NE,68022,
5407,N 155th St,Douglas County,NE,68116,
6314,Taylor Cir,Omaha,NE,68104,
12305,Gail Ave,Omaha,NE,68137,
3626,S 51st St,Omaha,NE,68106,
426,S 28TH ST,LINCOLN,NE,68510,
12516,Eagle Run Dr,Omaha,NE,68164,
3166,Kansas Ave,Omaha,NE,68111,
8129,Burdette St,Omaha,NE,68134,
2715,N 55th St,Omaha,NE,68104,
12547,Bartels Dr,Omaha,NE,68137,
20701,D St,Douglas County,NE,68022,
5309,STARLING CT,LINCOLN,NE,68516,
21,TABLE RD,CRAWFORD,NE,69339,
3144,T ST,LINCOLN,NE,68503,
2146,S 113th Ave,Omaha,NE,68144,
943,GARFIELD ST,LINCOLN,NE,68502,
7311,N 107th St,Douglas County,NE,68122,
1730,PRAIRIE LN,LINCOLN,NE,68521,
6409,BENTON ST,LINCOLN,NE,68507,
11207,Hanover St,Douglas County,NE,68142,
9435,Fowler Ave,Omaha,NE,68134,
4414,Vernon Ave,Omaha,NE,68111,
2718,S 16th St,Omaha,NE,68108,
3201,Farnam St,Omaha,NE,68131,
8824,GREY HAWK CT,LINCOLN,NE,68526,
3000,LAREDO DR,LINCOLN,NE,68516,
2750,WASHINGTON ST,LINCOLN,NE,68502,
4731,LARKWOOD RD,LINCOLN,NE,68516,
6404,S 135th St,Omaha,NE,68137,
4619,N 145th Cir,Omaha,NE,68116,
4208,S 16th St,Omaha,NE,68107,
6509,N 293rd St,Valley,NE,68064,
6140,LUANN LN,LINCOLN,NE,68516,
5602,S 161st St,Omaha,NE,68135,
16523,Burdette St,Douglas County,NE,68116,
2335,S 60TH ST,LINCOLN,NE,68506,
2220,S 10th St,Omaha,NE,68108,
3609,N 18th St,Omaha,NE,68110,
1135,Park Ave,Omaha,NE,68105,
14476,Tibbles St,Omaha,NE,68116,
15512,Marcy Cir,Omaha,NE,68154,
5106,WILSHIRE BLVD,LINCOLN,NE,68504,
3115,S 1st St,Omaha,NE,68108,
2508,N 65th St,Omaha,NE,68104,
5911,ABIGAIL DR,LINCOLN,NE,68516,
6681,GRAYS PEAK CT,LINCOLN,NE,68521,
20975,Bonanza Blvd,Omaha,NE,68022,
7001,STEVENS RIDGE RD,LINCOLN,NE,68516,
16016,Evans St,Omaha,NE,68116,
3814,N 75th St,Omaha,NE,68134,
2207,Maple St,Omaha,NE,68110,
3304,Drexel St,Omaha,NE,68107,
6795,Bedford Ave,Omaha,NE,68104,
26829,Blondo Ct,Douglas County,NE,68069,
16554,HWY 385,CHADRON,NE,69337,
9150,Frances St,Omaha,NE,68124,
1525,WHITTIER ST,LINCOLN,NE,68503,
555,S 184th St,Douglas County,NE,68022,
108,S 36th St,Omaha,NE,68131,
3108,S 38th Ave,Omaha,NE,68105,
1622,OLD GLORY RD,LINCOLN,NE,68521,
4712,N 62nd St,Omaha,NE,68104,
13918,Arbor St,Omaha,NE,68144,
408,N Front St,Waterloo,NE,68069,
13444,W BLUFF RD,MALCOLM,NE,68402,
1832,N 176th Plz,Douglas County,NE,68118,
15757,Howell Cir,Douglas County,NE,68007,
7311,Ames Cir,Omaha,NE,68134,
11621,Jefferson Cir,Omaha,NE,68137,
17118,Clay St,Douglas County,NE,68007,
18101,Nina St,Omaha,NE,68130,
1902,Davenport St,Omaha,NE,68102,
9129,O St,Omaha,NE,68127,
15333,T St,Omaha,NE,68137,
3717,S 148TH ST,WALTON,NE,68461,
3210,S 38th Ave,Omaha,NE,68105,
3315,Franklin St,Omaha,NE,68111,
152,&201 MARTENS RD,CHADRON,NE,69337,
1114,S 51st St,Omaha,NE,68106,
6706,S 52nd Avenue Cir,Omaha,NE,68117,
14630,Holmes St,Omaha,NE,68137,
8041,MAPLEWOOD DR,LINCOLN,NE,68510,
8204,Vernon Ave,Omaha,NE,68134,
5316,N ST,LINCOLN,NE,68510,
17176,Manderson St,Douglas County,NE,68116,
1311,SW KELSEY CIR,LINCOLN,NE,68522,
16711,Hickory St,Omaha,NE,68130,
35,COUNTRY CLUB RD,CHADRON,NE,69337,
1521,Pacific St,Omaha,NE,68108,
14408,Cedar Cir,Omaha,NE,68144,
5745,Tucker Cir,Omaha,NE,68152,
5919,L ST,LINCOLN,NE,68510,
16561,Hascall St,Omaha,NE,68130,
2526,WOODSDALE BLVD,LINCOLN,NE,68502,
4963,Decatur St,Omaha,NE,68104,
6753,S 90TH ST,LINCOLN,NE,68526,
124,Cedar St,Omaha,NE,68108,
6601,S 108th Ct,Omaha,NE,68137,
2325,DODGE ST,LINCOLN,NE,68521,
5627,S 20th St,Omaha,NE,68107,
7320,N 90th St,Douglas County,NE,68122,
651,N 114th St,Omaha,NE,68154,
4034,MADISON AVE,LINCOLN,NE,68504,
1202,P ST,LINCOLN,NE,68508,
17323,Woolworth Ave,Omaha,NE,68130,
5332,NW 7TH ST,LINCOLN,NE,68521,
12442,Evans St,Omaha,NE,68164,
3233,S 68th Ct,Omaha,NE,68106,
8008,Grand Ave,Omaha,NE,68134,
6023,N 110th Cir,Omaha,NE,68164,
5715,Mason St,Omaha,NE,68106,
5908,S 152nd St,Omaha,NE,68137,
11407,Corby Plz,Omaha,NE,68164,
16413,Weir St,Omaha,NE,68135,
23283,Agee Ln,Waterloo,NE,68069,
4805,Burt St,Omaha,NE,68132,
8320,S 33RD ST,LINCOLN,NE,68516,
4805,N 31st Ave,Omaha,NE,68111,
2808,N 74TH ST,LINCOLN,NE,68507,
2707,N 118th St,Omaha,NE,68164,
15131,Ohio St,Omaha,NE,68116,
8291,W PANAMA RD,HALLAM,NE,68368,
4661,A St,Omaha,NE,68106,
3611,Belvedere Blvd,Omaha,NE,68111,
3107,ALDEN AVE,LINCOLN,NE,68502,
3303,N 58th St,Omaha,NE,68104,
9619,SAINT MATTHEW DR,LINCOLN,NE,68526,
25555,S 82ND ST,FIRTH,NE,68358,
5332,PRESCOTT AVE,LINCOLN,NE,68506,
128,LINN ST,CRAWFORD,NE,69339,
2820,N 16th St,Omaha,NE,68110,
348,S 28TH ST,LINCOLN,NE,68510,
7805,Raven Oaks Dr,Omaha,NE,68152,
5521,Camden Ave,Omaha,NE,68104,
3929,Florence Blvd,Omaha,NE,68110,
16520,M St,Omaha,NE,68135,
4926,OLD CREEK RD,LINCOLN,NE,68516,
5220,S 16TH ST,LINCOLN,NE,68512,
4720,N 39th St,Omaha,NE,68111,
4622,S 23rd St,Omaha,NE,68107,
25000,S 82ND ST,FIRTH,NE,68358,
1138,N 37TH ST,LINCOLN,NE,68503,
7809,Military Ave,Omaha,NE,68134,
9812,O Cir,Omaha,NE,68127,
19264,Williams St,Omaha,NE,68130,
1135,IDYLWILD DR,LINCOLN,NE,68503,
7929,GARLAND ST,LINCOLN,NE,68505,
1935,SEWELL ST,LINCOLN,NE,68502,
3315,N 161st Ter,Omaha,NE,68116,
3107,N 179th St,Douglas County,NE,68116,
6173,Bancroft St,Omaha,NE,68106,
8827,Spaulding Cir,Omaha,NE,68134,
10730,Pacific St,Omaha,NE,68114,
5854,S 107th St,Omaha,NE,68127,
5200,LEXINGTON AVE,LINCOLN,NE,68504,
1641,S 186th Cir,Omaha,NE,68130,
5718,S 104th St,Omaha,NE,68127,
,S 10th St,Omaha,NE,68108,
5133,CONSTITUTION AVE,LINCOLN,NE,68521,
6702,Parkview Ln,Omaha,NE,68104,
1438,W 8TH ST,CHADRON,NE,69337,
1931,W APRICOT LN,LINCOLN,NE,68522,
3333,CANYON RD,LINCOLN,NE,68516,
5206,Clay Cir,Omaha,NE,68152,
4219,N 171st Ave,Douglas County,NE,68116,
5312,N 117th Ct,Omaha,NE,68164,
818,N 149th Ave,Omaha,NE,68154,
1518,S 93rd St,Omaha,NE,68124,
5510,N 7th St,Omaha,NE,68110,
2587,Manderson St,Omaha,NE,68111,
1604,S 193rd St,Omaha,NE,68130,
637,C ST,LINCOLN,NE,68502,
727,W JENNIFER DR,LINCOLN,NE,68521,
6235,N 15TH ST,LINCOLN,NE,68521,
9447,J St,Omaha,NE,68127,
724,Dorcas St,Omaha,NE,68108,
8911,GARLAND ST,LINCOLN,NE,68505,
1616,Cuming St,Omaha,NE,68102,
6720,FREMONT ST,LINCOLN,NE,68507,
20233,Pearl Cir,Omaha,NE,68022,
4546,N 41st St,Omaha,NE,68111,
1927,S 26TH ST,LINCOLN,NE,68502,
2104,S 211th St,Douglas County,NE,68022,
16501,Grand Ave,Douglas County,NE,68116,
4993,S 190th Ave,Douglas County,NE,68135,
529,FLETCHER AVE,LINCOLN,NE,68521,
1611,CHLOE LN,LINCOLN,NE,68512,
1348,S 51st Ave,Omaha,NE,68106,
111,Maher Dr,Boys Town,NE,68010,
7526,Girard St,Omaha,NE,68122,
1717,S 139th St,Omaha,NE,68144,
13924,Gold Cir,Omaha,NE,68144,
13800,S 120TH ST,BENNET,NE,68317,
1708,Sahler St,Omaha,NE,68110,
4911,LARKWOOD RD,LINCOLN,NE,68516,
2606,N 130th St,Omaha,NE,68164,
8719,Grand Ave,Omaha,NE,68134,
12971,Larimore Cir,Omaha,NE,68164,
330,S 30TH ST,LINCOLN,NE,68510,
9820,N 148th St,Douglas County,NE,68007,
833,S 23rd St,Omaha,NE,68108,
1511,SAWYER CT,LINCOLN,NE,68505,
5015,Raven Oaks Dr,Omaha,NE,68152,
5100,PATMORE RD,LINCOLN,NE,68516,
2221,N 53RD ST,LINCOLN,NE,68504,
6301,S 44TH ST,LINCOLN,NE,68516,
3600,W VAN DORN ST,LINCOLN,NE,68522,
5207,N 126th St,Omaha,NE,68164,
16412,Mason St,Omaha,NE,68118,
3105,S 46th Ave,Omaha,NE,68106,
422,DALE DR,LINCOLN,NE,68510,
3535,PAWNEE ST,LINCOLN,NE,68506,
5114,N 38th St,Omaha,NE,68111,
15775,Ida St,Douglas County,NE,68116,
2411,S 13TH ST,LINCOLN,NE,68502,
3520,Patrick Ave,Omaha,NE,68111,
314,S 54th St,Omaha,NE,68132,
3132,MORRITT ST,ROCA,NE,68430,
4001,S 80TH ST,LINCOLN,NE,68506,
10005,Harney Pkwy-S,Omaha,NE,68114,
1748,S 179th Ave,Omaha,NE,68130,
16350,Chicago Cir,Omaha,NE,68118,
4211,N 66th St,Omaha,NE,68104,
2841,TENNYSON ST,LINCOLN,NE,68516,
4516,Shirley St,Omaha,NE,68106,
7610,N 86th Ave,Douglas County,NE,68122,
509,BEECH ST,CHADRON,NE,69337,
503,S 67th Ave,Omaha,NE,68106,
11400,WENZEL DR,LINCOLN,NE,68527,
2441,RAMSEY RD,LINCOLN,NE,68524,
19625,Adams St,Douglas County,NE,68135,
17401,PANAMA RD,PANAMA,NE,68419,
12306,Erskine Cir,Omaha,NE,68164,
11210,Potter St,Douglas County,NE,68142,
17009,Sprague St,Douglas County,NE,68116,
3400,COOPER AVE,LINCOLN,NE,68506,
835,MORAINE DR,LINCOLN,NE,68510,
915,S 41ST ST,LINCOLN,NE,68510,
1314,N 42ND ST,LINCOLN,NE,68503,
301,S East St,Valley,NE,68064,
4887,F St,Omaha,NE,68117,
6103,Blondo St,Omaha,NE,68104,
4853,S 167th Avenue Cir,Omaha,NE,68135,
232,S 37TH ST,LINCOLN,NE,68510,
2520,S 92nd Plz,Omaha,NE,68124,
4029,Saratoga St,Omaha,NE,68111,
,ELKHORN ST,WHITNEY,NE,69367,
8411,Hamilton St,Omaha,NE,68114,
1800,MIRANDA CT,LINCOLN,NE,68512,
6334,SEWARD AVE,LINCOLN,NE,68507,
1155,NELSON ST,LINCOLN,NE,68521,
3310,Bedford Ave,Omaha,NE,68111,
537,Riverfront Plz,Omaha,NE,68102,
5010,S 56TH ST,LINCOLN,NE,68516,
3766,Fort St,Omaha,NE,68111,
6500,S 86TH ST,LINCOLN,NE,68526,
4700,N 70TH ST,LINCOLN,NE,68507,
3316,Corby St,Omaha,NE,68111,
1312,Harrison St,Omaha,NE,68107,
3352,T St,Omaha,NE,68107,
16578,Hascall St,Omaha,NE,68130,
1132,N 52ND ST,LINCOLN,NE,68504,
2820,S 72ND ST,LINCOLN,NE,68506,
3425,S 89th St,Omaha,NE,68124,
13116,Southdale Cir,Omaha,NE,68137,
8807,Westridge Dr,Omaha,NE,68124,
15520,Leeman Cir,Douglas County,NE,68007,
3838,RANDOLPH ST,LINCOLN,NE,68510,
5105,N 6th Ave,Omaha,NE,68110,
16311,Westfield Cir,Omaha,NE,68130,
2333,NANCY DR,LINCOLN,NE,68507,
9126,Adams St,Omaha,NE,68127,
6611,CLEVELAND AVE,LINCOLN,NE,68507,
1928,S 48th St,Omaha,NE,68106,
17240,Seward St,Douglas County,NE,68118,
3601,N 19th St,Omaha,NE,68110,
1406,N 113th Plz,Omaha,NE,68154,
1819,SW 32ND ST,LINCOLN,NE,68522,
2048,N 48th Ave,Omaha,NE,68104,
1405,N 102nd Ave,Omaha,NE,68114,
4101,Gibson Rd,Omaha,NE,68107,
13517,Hascall St,Omaha,NE,68144,
1626,S 94th St,Omaha,NE,68124,
5625,Ohio St,Omaha,NE,68104,
5750,Dodge St,Omaha,NE,68132,
12755,N 70TH ST,LINCOLN,NE,68517,
6810,MORRILL AVE,LINCOLN,NE,68507,
2901,S 179th Plz,Omaha,NE,68130,
2956,Harris St,Omaha,NE,68105,
7120,S 40TH ST,LINCOLN,NE,68516,
1530,FLETCHER AVE,LINCOLN,NE,68521,
500,SYCAMORE DR,LINCOLN,NE,68510,
8300,EAST POINTE RD,LINCOLN,NE,68506,
15767,C W Hadan Dr,Bennington,NE,68007,
1625,DEWEESE DR,LINCOLN,NE,68504,
12217,Izard St,Omaha,NE,68154,
16422,Ames Ave,Omaha,NE,68116,
7300,W O ST,LINCOLN,NE,68528,
4630,S 34th St,Omaha,NE,68107,
7230,S 30TH PL,LINCOLN,NE,68516,
1686,S 153rd St,Omaha,NE,68144,
6223,William St,Omaha,NE,68106,
5120,Maple St,Omaha,NE,68104,
818,N 133rd St,Omaha,NE,68154,
3645,SALTILLO RD,ROCA,NE,68430,
2817,S 74th St,Omaha,NE,68124,
7900,ADAMS ST,LINCOLN,NE,68507,
2701,N COTNER BLVD,LINCOLN,NE,68507,
9630,FIRETHORN LN,LINCOLN,NE,68520,
4500,STARR ST,LINCOLN,NE,68503,
13905,SALTILLO RD,BENNET,NE,68317,
3145,N 93RD ST,LINCOLN,NE,68507,
3531,C ST,LINCOLN,NE,68510,
4323,S 38th St,Omaha,NE,68107,
6222,Country Club Rd,Omaha,NE,68152,
7301,Valley St,Omaha,NE,68124,
6316,N 155th Avenue Cir,Douglas County,NE,68116,
15458,Spencer St,Omaha,NE,68116,
8814,N 157th St,Douglas County,NE,68007,
6310,Lafayette Ave,Omaha,NE,68132,
9206,Ruggles St,Omaha,NE,68134,
1232,B ST,LINCOLN,NE,68502,
11166,Weber St,Douglas County,NE,68142,
8818,Keystone Dr,Omaha,NE,68134,
1631,MANATT ST,LINCOLN,NE,68521,
2560,ARLENE AVE,LINCOLN,NE,68502,
510,S 40th St,Omaha,NE,68105,
2708,N 45th St,Omaha,NE,68104,
6727,NORTHRIDGE RD,LINCOLN,NE,68516,
7270,HELEN WITT DR,LINCOLN,NE,68512,
4619,GREENWOOD ST,LINCOLN,NE,68504,
17663,Browne Cir,Douglas County,NE,68116,
466,N 105TH ST,LINCOLN,NE,68527,
1851,FAIRFIELD ST,LINCOLN,NE,68521,
8624,Monroe St,Ralston,NE,68127,
5850,CLEAR CREEK DR,LINCOLN,NE,68516,
2856,Binney St,Omaha,NE,68111,
16313,Browne St,Douglas County,NE,68116,
3417,A ST,LINCOLN,NE,68510,
7003,NW 19TH ST,LINCOLN,NE,68521,
1907,GARFIELD ST,LINCOLN,NE,68502,
2860,Ruggles St,Omaha,NE,68111,
8017,Evans St,Omaha,NE,68134,
1335,N 148th Plz,Omaha,NE,68154,
12116,Ohio Cir,Omaha,NE,68164,
741,CHADRON AVE,CHADRON,NE,69337,
2900,SHERIDAN BLVD,LINCOLN,NE,68502,
6701,S 33RD ST,LINCOLN,NE,68516,
521,BIRCHWOOD DR,LINCOLN,NE,68510,
6301,ARTISAN CT,LINCOLN,NE,68516,
4709,N 36th Ave,Omaha,NE,68111,
5415,S 91st St,Omaha,NE,68127,
606,S 94th Ave,Omaha,NE,68114,
6919,OLD POST PL,LINCOLN,NE,68506,
6245,HWY 20,CHADRON,NE,69337,
525,B ST,LINCOLN,NE,68502,
4018,N 70TH ST,LINCOLN,NE,68507,
15504,Charles St,Omaha,NE,68154,
4113,Drexel St,Omaha,NE,68107,
5824,S 159th St,Omaha,NE,68135,
147,S 91ST ST,LINCOLN,NE,68520,
2705,N 125th Ave,Omaha,NE,68164,
3809,Burdette St,Omaha,NE,68111,
4020,Maple St,Omaha,NE,68111,
10861,Crown Point Ave,Omaha,NE,68164,
4512,Hickory St,Omaha,NE,68106,
7910,Grover St,Omaha,NE,68124,
6247,S 100th St,Omaha,NE,68127,
5609,S 159th Ave,Omaha,NE,68135,
7075,Izard St,Omaha,NE,68132,
1622,N 23RD ST,LINCOLN,NE,68503,
942,N 131st Ct,Omaha,NE,68154,
14441,Dupont Ct,Omaha,NE,68144,
5636,Grant St,Omaha,NE,68104,
5848,Grant St,Omaha,NE,68104,
14455,Browne St,Omaha,NE,68116,
8314,N 123rd Cir,Douglas County,NE,68142,
3352,N 57th St,Omaha,NE,68104,
1511,N 145th St,Omaha,NE,68154,
5901,W YANKEE LAKE RD,DENTON,NE,68339,
7021,N STEAMBOAT DR,LINCOLN,NE,68521,
7318,N 41st St,Omaha,NE,68112,
3345,ORCHARD ST,LINCOLN,NE,68503,
824,S 21st St,Omaha,NE,68108,
19106,Lake St,Douglas County,NE,68022,
1704,PEPPER AVE,LINCOLN,NE,68502,
1419,S 217th Ave,Omaha,NE,68022,
20540,Cumberland Dr,Omaha,NE,68022,
7925,S 96TH BAY,LINCOLN,NE,68526,
8726,Read St,Douglas County,NE,68122,
4309,Corby St,Omaha,NE,68111,
1659,S 152nd St,Omaha,NE,68144,
1838,S 15TH ST,LINCOLN,NE,68502,
11074,V St,Omaha,NE,68137,
4744,S 194th Ave,Douglas County,NE,68135,
5835,SAYLOR ST,LINCOLN,NE,68506,
15366,Mormon St,Douglas County,NE,68007,
2524,N 76TH ST,LINCOLN,NE,68507,
11522,Read Cir,Douglas County,NE,68142,
3815,Davenport St,Omaha,NE,68131,
14738,Grover St,Omaha,NE,68144,
2716,N 115th Ct,Omaha,NE,68164,
16905,Orchard Ave,Omaha,NE,68135,
1506,B ST,LINCOLN,NE,68502,
15519,Binney St,Omaha,NE,68116,
1845,PERKINS BLVD,LINCOLN,NE,68502,
6633,LEIGHTON AVE,LINCOLN,NE,68507,
4611,NW 39TH ST,LINCOLN,NE,68524,
14513,Meredith Ave,Omaha,NE,68116,
1816,C ST,LINCOLN,NE,68502,
5003,Burt St,Omaha,NE,68132,
5019,Grand Ave,Omaha,NE,68104,
10227,N 185th Cir,Douglas County,NE,68007,
7314,N 106th Ave,Douglas County,NE,68122,
2717,N 62nd St,Omaha,NE,68104,
5702,N 16th St,Omaha,NE,68110,
3410,N 75TH ST,LINCOLN,NE,68507,
2020,ATLAS AVE,LINCOLN,NE,68521,
19341,G St,Douglas County,NE,68135,
9007,Hanover St,Douglas County,NE,68122,
6322,S 118th St,Omaha,NE,68137,
15251,GARDEN ST,BENNET,NE,68317,
6153,Military Ave,Omaha,NE,68104,
2865,Lothrop St,Omaha,NE,68111,
5703,S 163rd Ave,Omaha,NE,68135,
5915,N 163rd St,Douglas County,NE,68116,
3319,N 60TH ST,LINCOLN,NE,68507,
1460,S 118TH ST,WALTON,NE,68461,
5404,Boyd St,Omaha,NE,68104,
1016,CLAREMONT ST,LINCOLN,NE,68508,
20020,Manderson St,Douglas County,NE,68022,
2945,S 27TH ST,LINCOLN,NE,68502,
2118,S 58th St,Omaha,NE,68106,
3010,Y ST,LINCOLN,NE,68503,
15505,Spaulding Plz,Omaha,NE,68116,
5305,S 93RD PL,LINCOLN,NE,68526,
4129,S 39th Ave,Omaha,NE,68107,
1011,Ellison Ave,Omaha,NE,68110,
2842,S ST,LINCOLN,NE,68503,
7030,O ST,LINCOLN,NE,68510,
2222,Ogden St,Omaha,NE,68110,
12125,West Center Rd,Omaha,NE,68144,
19609,Dewey Ave,Omaha,NE,68022,
1902,N 28th St,Omaha,NE,68111,
151,BARTLETT RD,CHADRON,NE,69337,
4715,N 62nd St,Omaha,NE,68104,
5901,ROLLING HILLS BLVD,LINCOLN,NE,68512,
3261,N 20th Ct,Omaha,NE,68110,
3701,W PELLA RD,HALLAM,NE,68368,
2341,S 35th Ave,Omaha,NE,68105,
2401,S 37TH ST,LINCOLN,NE,68506,
2702,N 62nd St,Omaha,NE,68104,
4122,N 176th Ave,Omaha,NE,68116,
1245,VAN DORN ST,LINCOLN,NE,68502,
4601,Dodge St,Omaha,NE,68132,
3531,DOONBEG RD,LINCOLN,NE,68520,
4817,N 93rd St,Omaha,NE,68134,
504,TRAIL RIDGE CIR,LINCOLN,NE,68505,
4409,R St,Omaha,NE,68107,
5224,N 84th St,Omaha,NE,68134,
7234,MORRILL AVE,LINCOLN,NE,68507,
2007,Poppleton Ave,Omaha,NE,68108,
3158,ALDEN AVE,LINCOLN,NE,68502,
2504,S 40th St,Omaha,NE,68105,
3747,N 44th St,Omaha,NE,68111,
1315,W PLUM ST,LINCOLN,NE,68522,
22909,West Q Rd,Douglas County,NE,68022,
1473,Wirt St,Omaha,NE,68110,
3331,RIDGE PARK DR,LINCOLN,NE,68504,
13023,Frances St,Omaha,NE,68144,
5304,Mary St,Omaha,NE,68152,
4900,S 78th Ave,Ralston,NE,68127,
19514,W St,Douglas County,NE,68135,
4311,ELK RIDGE RD,LINCOLN,NE,68516,
5351,N 28th Ave,Omaha,NE,68111,
2725,S 19th St,Omaha,NE,68108,
2704,N 150th Ave,Omaha,NE,68116,
4667,Redick Ave,Omaha,NE,68104,
111,S 53rd St,Omaha,NE,68132,
3510,S 90th St,Omaha,NE,68124,
435,W DILIN ST,LINCOLN,NE,68521,
18039,Pierce Plz,Omaha,NE,68130,
5425,S 52nd St,Omaha,NE,68117,
6166,Shirley St,Omaha,NE,68106,
3625,S 149th St,Omaha,NE,68144,
3319,Miami St,Omaha,NE,68111,
912,S 45th St,Omaha,NE,68106,
8934,BUCKSHOT RD,LINCOLN,NE,68507,
16942,Browne St,Douglas County,NE,68116,
9838,Fowler Ave,Omaha,NE,68134,
3940,TOUZALIN AVE,LINCOLN,NE,68507,
6718,PLATTE AVE,LINCOLN,NE,68507,
21185,Bonanza Blvd,Omaha,NE,68022,
2156,S 35th Ave,Omaha,NE,68105,
6200,PRINCESS MARGARET DR,LINCOLN,NE,68516,
2702,S 4th St,Omaha,NE,68108,
7749,N 88th Ave,Douglas County,NE,68122,
5240,W SAINT PAUL AVE,LINCOLN,NE,68524,
2006,N 23rd St,Omaha,NE,68110,
5101,NW 9TH ST,LINCOLN,NE,68521,
11639,Burt St,Omaha,NE,68154,
901,PARRY DR,CHADRON,NE,69337,
1737,E MANOR DR,LINCOLN,NE,68506,
5010,S 171st Ave,Omaha,NE,68135,
6918,N 39th St,Omaha,NE,68112,
4814,S 49th St,Omaha,NE,68117,
2515,S 3rd Plz,Omaha,NE,68108,
4420,Izard St,Omaha,NE,68131,
1704,S 52nd St,Omaha,NE,68106,
1617,Cole Creek Dr,Omaha,NE,68114,
1835,SUMNER ST,LINCOLN,NE,68502,
9134,Black St,Douglas County,NE,68122,
5607,NW 11TH CIR,LINCOLN,NE,68521,
9947,S Plz,Omaha,NE,68127,
906,S 131st St,Omaha,NE,68154,
3240,WESTPARK CIR,LINCOLN,NE,68504,
7616,N 101st Plz,Douglas County,NE,68122,
7621,STEINWAY RD,LINCOLN,NE,68505,
3359,N 40th St,Omaha,NE,68111,
1620,NW 52ND ST,LINCOLN,NE,68528,
1180,Capitol Ave,Omaha,NE,68102,
3528,Hascall St,Omaha,NE,68105,
3121,MORRITT ST,ROCA,NE,68430,
15906,Military Rd,Douglas County,NE,68007,
2935,S 26TH ST,LINCOLN,NE,68502,
235,TAYLOR PARK DR,LINCOLN,NE,68510,
13017,Westwood Ln,Omaha,NE,68144,
7502,CRYSTAL CT,LINCOLN,NE,68506,
7120,N 151st Ave,Douglas County,NE,68007,
12984,NW 40TH ST,RAYMOND,NE,68428,
2930,S 24TH ST,LINCOLN,NE,68502,
325,NW 14TH ST,LINCOLN,NE,68528,
7153,N 50th St,Omaha,NE,68152,
14005,Shirley St,Omaha,NE,68144,
5752,S 137th St,Omaha,NE,68137,
3711,Seward St,Omaha,NE,68111,
5352,N 33rd St,Omaha,NE,68111,
10933,Whitmore Ct,Douglas County,NE,68142,
1251,S 26TH ST,LINCOLN,NE,68502,
1110,S 30th Ave,Omaha,NE,68105,
3311,N 93rd Ave,Omaha,NE,68134,
4610,Hascall St,Omaha,NE,68106,
725,Riverfront Dr,Omaha,NE,68102,
3401,N 207th St,Omaha,NE,68022,
2507,N 76TH ST,LINCOLN,NE,68507,
1441,B ST,LINCOLN,NE,68502,
2410,Florence Blvd,Omaha,NE,68110,
5917,BRANFORD PL,LINCOLN,NE,68512,
1534,N 57TH ST,LINCOLN,NE,68505,
6001,A ST,LINCOLN,NE,68510,
9616,N 34th St,Omaha,NE,68112,
6541,CASCADE DR,LINCOLN,NE,68504,
14722,Black St,Douglas County,NE,68007,
8616,Nicholas St,Omaha,NE,68114,
2538,N 18th St,Omaha,NE,68110,
4713,N 150th St,Omaha,NE,68116,
1918,N 31ST ST,LINCOLN,NE,68503,
1907,Harney St,Omaha,NE,68102,
5101,S 77th Ave,Ralston,NE,68127,
5306,S 107th St,Omaha,NE,68127,
15224,Adams St,Omaha,NE,68137,
5279,W THATCHER LN,LINCOLN,NE,68528,
3138,N 47th Ave,Omaha,NE,68104,
1320,N 76th St,Omaha,NE,68114,
8716,Orchard Ave,Omaha,NE,68127,
3330,N 204th St,Omaha,NE,68022,
4925,Hickory St,Omaha,NE,68106,
20556,Wirt St,Omaha,NE,68022,
2434,RYONS ST,LINCOLN,NE,68502,
3564,Howard St,Omaha,NE,68105,
3136,S 1st St,Omaha,NE,68108,
3201,X St,Omaha,NE,68107,
504,S 50th Ave,Omaha,NE,68106,
14820,Seward Plz,Omaha,NE,68154,
6418,BALDWIN AVE,LINCOLN,NE,68507,
750,LAMONT DR,LINCOLN,NE,68528,
2812,NW 6TH ST,LINCOLN,NE,68521,
2401,NW 84TH ST,LINCOLN,NE,68524,
7333,HUSKER CIR,LINCOLN,NE,68504,
15331,T St,Omaha,NE,68137,
4115,N 55th Ave,Omaha,NE,68104,
4182,Wakeley St,Omaha,NE,68131,
3710,W ROSE ST,LINCOLN,NE,68522,
14475,Leeman St,Douglas County,NE,68007,
15414,Hillsdale Ave,Omaha,NE,68137,
4805,Douglas St,Omaha,NE,68132,
2132,S 192nd Ave,Douglas County,NE,68130,
3030,Evans St,Omaha,NE,68111,
6124,FLEETWOOD DR,LINCOLN,NE,68516,
6511,AIDEN CIR,LINCOLN,NE,68516,
2624,N 96th Dr,Omaha,NE,68134,
5034,S 208th Plz,Douglas County,NE,68022,
4922,Q St,Omaha,NE,68117,
4831,S 50th St,Omaha,NE,68117,
1116,N 168th Ave,Douglas County,NE,68118,
16310,L St,Omaha,NE,68135,
2556,Jaynes St,Omaha,NE,68111,
1613,E ST,LINCOLN,NE,68508,
