NUMBER,STREET,CITY,STATE,POSTCODE,UNIT
75.0,CROY PATH,HAMPSTEAD,NH,03841,
30.0,SAWMILL LN,HAMPSTEAD,NH,03841,
38.0,MORGEN DRIVE,AUBURN,NH,03032,
,EMERSON AVE,HAMPSTEAD,NH,03841,
11.0,PHEASANT LN,HAMPSTEAD,NH,03841,
10.0,GROVE COURT,AUBURN,NH,03032,
58.0,TEWKSBURY RD,HAMPSTEAD,NH,03841,
551.0,PINGREE HILL ROAD,AUBURN,NH,03032,
285.0,STAGE RD,HAMPSTEAD,NH,03841,
193.0,RATTLESNAKE HILL RD,AUBURN,NH,03032,
390.0,EAST RD,HAMPSTEAD,NH,03841,
90.0,PICADILLY RD,HAMPSTEAD,NH,03841,
392.0,SPOFFORD ROAD,AUBURN,NH,03032,
268.0,WILSON'S CROSSING RD,AUBURN,NH,03032,
32.0,HAVEN DRIVE,AUBURN,NH,03032,
22.0,GEISSER LN,HAMPSTEAD,NH,03841,
25.0,RACQUET RD,TENANTS HARBOR,NH,04860,
256.0,E MAIN ST,EAST HAMPSTEAD,NH,03826,
56.0,LEXINGTON DR,HAMPSTEAD,NH,03841,
44.0,GRANITE CIRCLE,HAMPSTEAD,NH,03841,
114.0,RAYMOND ROAD,AUBURN,NH,03032,
60.0,HARPER RIDGE RD,E. HAMPSTEAD,NH,03826,
,KENT FARM RD,ATKINSON,NH,03811,
95.0,BUTTRICK RD,HAMPSTEAD,NH,03841,
15.0,MASSABESIC DRIVE,AUBURN,NH,03032,
30.0,OWENS CT,DANVILLE,NH,03819,
,ROUTE 101,CONCORD,NH,03302,
21.0,BLUEBERRY CIR,HAMPSTEAD,NH,03841,
12.0,FIELDSTONE DR,HAMPSTEAD,NH,03841,
463.0,PINGREE HILL ROAD,AUBURN,NH,03032,
,LOVERS LANE,LONDONDERRY,NH,03053,
65.0,LAURA LN,HAMPSTEAD,NH,03841,
184.0,RATTLESNAKE HILL RD,AUBURN,NH,03032,
14.0,WILLOW COURT,AUBURN,NH,03032,
2.0,SHORE DR,HAMPSTEAD,NH,03841,
36.0,PITMAN RD,E. HAMPSTEAD,NH,03826,
706.0,CHESTER ROAD,AUBURN,NH,03032,
417.0,MAIN ST,HAMPSTEAD,NH,03841,
631.0,MAIN ST,HAMPSTEAD,NH,03841,
70.0,HAWTHORNE DRIVE,AUBURN,NH,03032,
30.0,OAKTREE ROAD,AUBURN,NH,03032,
32.0,BARTHELMESS LN,HAMPSTEAD,NH,03841,
9.0,MEADOW LANE,AUBURN,NH,03032,
318.0,WILSON'S CROSSING RD,AUBURN,NH,03032,
58.0,WOOD HILL DRIVE,AUBURN,NH,03032,
33.0,MAIN ST,HAMPSTEAD,NH,03841,
729.0,CHESTER ROAD,AUBURN,NH,03032,
187.0,EAST RD,CONCORD,NH,03301,
460.0,MANCHESTER ROAD,AUBURN,NH,03032,
26.0,CORTLAND RD,E. HAMPSTEAD,NH,03826,
50.0,PARTRIDGE LN,E. HAMPSTEAD,NH,03826,
5.0,BEACH RD,HAMPSTEAD,NH,03841,
165.0,ROCKINGHAM ROAD,AUBURN,NH,03032,
50.0,MUNROE DR,E. HAMPSTEAD,NH,03826,
2.0,WILLOW LANE,HAMPSTEAD,NH,03841,
120.0,HEATHER CIRCLE,AUBURN,NH,03032,
323.0,EMERSON AVE,HAMPSTEAD,NH,03841,
16.0,BAYWOOD DR,HAMPSTEAD,NH,03841,
23.0,LILAK DRIVE,AUBURN,NH,03032,
335.0,SANDOWN RD,E HAMPSTEAD,NH,03826,
34.0,HARVARD AVENUE,AUBURN,NH,03032,
32.0,PAGE LN,HAMPSTEAD,NH,03841,
30.0,ADELINE ST,HAMPSTEAD,NH,03841,
50.0,MARILYN PARK DR,HAMPSTEAD,NH,03841,
34.0,CEDAR CREST LANE,AUBURN,NH,03032,
18.0,EDMUND MEADOW LN,HAMPSTEAD,NH,03841,
75.0,STEAM MILL ROAD,AUBURN,NH,03032,
117.0,HUNTING ROAD,AUBURN,NH,03032,
589.0,CHESTER ROAD,AUBURN,NH,03032,
493.0,DEARBORN ROAD,AUBURN,NH,03032,
54.0,TEWKSBURY RD,HAMPSTEAD,NH,03841,
4.0,OWENS CT,HAMPSTEAD,NH,03841,
31.0,SHORE DR,HAMPSTEAD,NH,03841,
103.0,STEAM MILL ROAD,AUBURN,NH,03032,
74.0,HILLS ROAD,AUBURN,NH,03032,
68.0,MAVERICK DRIVE,AUBURN,NH,03032,
24.0,PAGE LN,HAMPSTEAD,NH,03841,
15.0,OAK HILL DR,HAMPSTEAD,NH,03841,
5.0,JOHNSON MEADOW RD,HAMPSTEAD,NH,03841,
64.0,COLLETTE DR,HAMPSTEAD,NH,03841,
130.0,COLEMAN ROAD,AUBURN,NH,03032,
772.0,HOOKSETT ROAD,AUBURN,NH,03032,
78.0,MASSABESIC DRIVE,AUBURN,NH,03032,
115.0,EMERSON AVE,HAMPSTEAD,NH,03841,
,CENTRAL ST REAR,HAMPSTEAD,NH,03841,
29.0,CAMBRIDGE RD,HAMPSTEAD,NH,03841,
10.0,COLONIAL DRIVE,AUBURN,NH,03032,
34.0,LAURA LN,HAMPSTEAD,NH,03841,
,ROUTE 111,HAMPSTEAD,NH,03841,
357.0,KENT FARM RD,HAMPSTEAD,NH,03841,
210.0,KENT FARM RD,HAMPSTEAD,NH,03841,
188.0,E MAIN ST,SANDOWN,NH,03873,
53.0,PITMAN RD,E. HAMPSTEAD,NH,03826,
47.0,MORGEN DRIVE,AUBURN,NH,03032,
64.0,SHORE DR,BEVERLY,NH,01915,
35.0,GRANITE CIRCLE,HAMPSTEAD,NH,03841,
49.0,MINER ROAD,AUBURN,NH,03032,
107.0,BUNKER HILL ROAD,AUBURN,NH,03032,
648.0,MAIN ST,HAMPSTEAD,NH,03841,
,LOVERS LANE,AUBURN,NH,03032,
6.0,BROOKLYN'S WAY,HAMPSTEAD,NH,03841,
659.0,PINGREE HILL ROAD,AUBURN,NH,03032,
,ALLEN AVENUE,MANCHESTER,NH,03103,
,OFF BUNKER HILL ROAD,AUBURN,NH,03032,
529.0,CHESTER ROAD,AUBURN,NH,03032,
235.0,RATTLESNAKE HILL RD,AUBURN,NH,03032,
7.0,WILLOW LANE,HAMPSTEAD,NH,03841,
56.0,TIMBERLANE RD,HAMPSTEAD,NH,03841,
68.0,WOODRIDGE RD,E. HAMPSTEAD,NH,03826,
122.0,WASH POND RD,HAMPSTEAD,NH,03841,
26.0,TEWKSBURY RD,HAMPSTEAD,NH,03841,
31.0,BROWN HILL RD,E HAMPSTEAD,NH,03826,
32.0,EMMERT DR,HAMPSTEAD,NH,03841,
,LEWIS LN,ATKINSON,NH,03811,
190.0,E MAIN ST,E. HAMPSTEAD,NH,03826,
37.0,MEADOW LANE,AUBURN,NH,03032,
45.0,DANVILLE RD,WINDHAM,NH,03087,
140.0,ROCKINGHAM ROAD,AUBURN,NH,03032,
5.0,CALEF ROAD,AUBURN,NH,03032,
15.0,WINTERS WAY,AUBURN,NH,03032,
6.0,GRACE WAY,HAMPSTEAD,NH,03841,
67.0,NORFOLK ST UNIT 1,HAMPSTEAD,NH,03841,
134.0,ROUTE 111,WARD HILL,NH,01835,
77.0,EMERSON AVE,HAMPSTEAD,NH,03841,
,CEMETERY RD,SANDOWN,NH,03873,
462.0,MANCHESTER ROAD,AUBURN,NH,03032,
5.0,BUTTONWOOD DRIVE,AUBURN,NH,03032,
322.0,RATTLESNAKE HILL RD,AUBURN,NH,03032,
52.0,DESCHENES ROAD,AUBURN,NH,03032,
19.0,JOHNSON MEADOW RD,HAMPSTEAD,NH,03841,
31.0,CALEF ROAD,AUBURN,NH,03032,
241.0,EAST RD,HAMPSTEAD,NH,03841,
18.0,WOOD HILL DRIVE,AUBURN,NH,03032,
55.0,ELLS RD,GROVELAND,NH,01834,
24.0,SHIRLEY ST,HAMPSTEAD,NH,03841,
15.0,BAILEY SHORE RD,E. HAMPSTEAD,NH,03826,
97.0,BRICKETTS MILL RD,HAMPSTEAD,NH,03841,
15.0,COHAS DRIVE,AUBURN,NH,03032,
547.0,LONDONDERRY TURNPIKE,AUBURN,NH,03032,
14.0,DANVILLE RD,E HAMPSTEAD,NH,03826,
,ROCKWOOD TERRACE,MANCHESTER,NH,03104,
563.0,LONDONDERRY TURNPIKE,AUBURN,NH,03032,
56.0,CENTRAL ST,E. HAMPSTEAD,NH,03826,
339.0,EAST RD,HAMPSTEAD,NH,03841,
11.0,WINCHESTER WAY,AUBURN,NH,03032,
14.0,SUNSET AVE,HAMPSTEAD,NH,03841,
34.0,CAMBRIDGE DRIVE,AUBURN,NH,03032,
26.0,DANVILLE RD,E HAMPSTEAD,NH,03826,
331.0,MAIN ST,HAMPSTEAD,NH,03841,
567.0,MAIN ST,HAMPSTEAD,NH,03841,
107.0,BEVERLY DR,HAMPSTEAD,NH,03841,
31.0,APPLETON LN,HAMPSTEAD,NH,03841,
987.0,LONDONDERRY TURNPIKE,AUBURN,NH,03032,
62.0,PITMAN RD,E. HAMPSTEAD,NH,03826,
43.0,LEPPERT WAY,AUBURN,NH,03032,
658.0,MAIN ST,HAMPSTEAD,NH,03841,
2.0,TEWKSBURY RD,HAMPSTEAD,NH,03841,
19.0,WOOD HILL DRIVE,AUBURN,NH,03032,
39.0,STAGE RD,BEDFORD,NH,03110,
30.0,ROCKINGHAM ROAD,AUBURN,NH,03032,
4.0,PARTRIDGE LN,E. HAMPSTEAD,NH,03826,
4.0,EDMUND MEADOW LN,HAMPSTEAD,NH,03841,
43.0,AUBURNDALE LANE,AUBURN,NH,03032,
9.0,BAILEY SHORE RD,HAMPSTEAD,NH,03841,
44.0,SCOTT DR,HAMPSTEAD,NH,03841,
6.0,MEADOW LANE,AUBURN,NH,03032,
34.0,WILLOW COURT,AUBURN,NH,03032,
51.0,SHORE ROAD,AUBURN,NH,03032,
170.0,BUTTONWOOD DRIVE,AUBURN,NH,03032,
84.0,WINCHESTER WAY,AUBURN,NH,03032,
262.0,BUNKER HILL ROAD,AUBURN,NH,03032,
,DEPOT RD,HAMPSTEAD,NH,03841,
24.0,COUNTRY CIRCLE,AUBURN,NH,03032,
60.0,ELLYSON AVE,E HAMPSTEAD,NH,03826,
89.0,HOOKSETT ROAD,AUBURN,NH,03032,
316.0,MAIN ST,HAMPSTEAD,NH,03841,
7.0,MEREDITH DR,HAMPSTEAD,NH,03841,
134.0,EAST RD,HAMPSTEAD,NH,03841,
108.0,SPRUCE LANE,AUBURN,NH,03032,
34.0,NICOLE CIR,E HAMPSTEAD,NH,03826,
46.0,ROCKINGHAM ROAD,AUBURN,NH,03032,
38.0,JENNIFER LANE,AUBURN,NH,03032,
57.0,SQUIRE RIDGE RD,HAMPSTEAD,NH,03841,
14.0,WEBBER RD,E. HAMPSTEAD,NH,03826,
19.0,ORCUTT DR,WALTHAM,NH,02154,
90.0,HOLIDAY LN,HAMPSTEAD,NH,03841,
378.0,CHESTER TURNPIKE,AUBURN,NH,03032,
26.0,HAVEN DRIVE,AUBURN,NH,03032,
30.0,WESTMINSTER LANE,AUBURN,NH,03032,
15.0,AMY LN,HAMPSTEAD,NH,03841,
53.0,STAGE RD,HAMPSTEAD,NH,03841,
122.0,LEDGEWOOD DR,HAMPSTEAD,NH,03841,
121.0,LEDGEWOOD DR,HAMPSTEAD,NH,03841,
12.0,ORCUTT DR,HAMPSTEAD,NH,03841,
247.0,MAIN ST,HAMPSTEAD,NH,03841,
,AUBURNDALE & RT 101,CONCORD,NH,03302,
40.0,SEAVEY DRIVE,AUBURN,NH,03032,
4.0,ORCUTT DR,MELROSE,NH,02176,
515.0,MAIN ST,HAMPSTEAD,NH,03841,
20.0,CHAMBERLAIN AVE,E HAMPSTEAD,NH,03826,
20.0,SAWMILL LN,HAMPSTEAD,NH,03841,
20.0,WOODRIDGE RD,E. HAMPSTEAD,NH,03826,
51.0,MARGATE DRIVE,AUBURN,NH,03032,
,LONDONDERRY TURNPIKE,NORTH STONINGTON,NH,06359,
578.0,HOOKSETT ROAD,AUBURN,NH,03032,
,BUTTRICK RD,KINGSTON,NH,03848,
969.0,LONDONDERRY TURNPIKE,AUBURN,NH,03032,
30.0,WILLOW COURT,AUBURN,NH,03032,
79.0,WASH POND RD,HAMPSTEAD,NH,03841,
12.0,POND VIEW DRIVE,AUBURN,NH,03032,
30.0,WOOD HILL DRIVE,AUBURN,NH,03032,
65.0,NUTT ROAD,AUBURN,NH,03032,
55.0,WILSON'S CROSSING RD,AUBURN,NH,03032,
1.0,TEWKSBURY RD,HAMPSTEAD,NH,03841,
65.0,CHESTER ROAD,AUBURN,NH,03032,
54.0,MARGATE DRIVE,AUBURN,NH,03032,
45.0,STONY RIDGE RD,HAMPSTEAD,NH,03841,
15.0,ROSEWOOD CIR,E HAMPSTEAD,NH,03826,
21.0,GRANITE CIRCLE,HAMPSTEAD,NH,03841,
65.0,ELLYSON AVE,E HAMPSTEAD,NH,03826,
494.0,PINGREE HILL ROAD,AUBURN,NH,03032,
3.0,SARAH'S WAY,HAMPSTEAD,NH,03841,
356.0,MAIN ST,HAMPSTEAD,NH,03841,
19.0,SUNSET AVE,HAMPSTEAD,NH,03841,
225.0,DEPOT RD,HAMPSTEAD,NH,03841,
16.0,JENNIFER LANE,AUBURN,NH,03032,
11.0,CORTNEY LN,HAMPSTEAD,NH,03841,
19.0,STARWOOD DR,HAMPSTEAD,NH,03841,
184.0,DEPOT ROAD,AUBURN,NH,03032,
613.0,BUNKER HILL ROAD,AUBURN,NH,03032,
18.0,RUSSET LN,E HAMPSTEAD,NH,03826,
47.0,GEISSER LN,HAMPSTEAD,NH,03841,
357.0,RATTLESNAKE HILL RD,AUBURN,NH,03032,
499.0,MAIN ST,NO HAMPTON,NH,03862,
11.0,PARKLANE RD,HAMPSTEAD,NH,03841,
0.0,BUNKER HILL ROAD,AUBURN,NH,03032,
27.0,BUTTONWOOD DRIVE,AUBURN,NH,03032,
60.0,MARILYN PARK DR,HAMPSTEAD,NH,03841,
9.0,ALLEN AVENUE,AUBURN,NH,03032,
6.0,GABRIEL CT,HAMPSTEAD,NH,03841,
28.0,KRISTOPHER DR,HAMPSTEAD,NH,03841,
55.0,WILLOW COURT,AUBURN,NH,03032,
94.0,MAIN ST,HAMPSTEAD,NH,03841,
245.0,KENT FARM RD,HAMPSTEAD,NH,03841,
,CARRIAGE LN,HAMPSTEAD,NH,03841,
128.0,ROCKINGHAM ROAD,AUBURN,NH,03032,
10.0,CATHERINE AVE,E HAMPSTEAD,NH,03826,
41.0,RUSSET LN,SEBRING,NH,33872,
158.0,E MAIN ST,E HAMPSTEAD,NH,03826,
34.0,NORFOLK ST UNIT 4,HAMPSTEAD,NH,03841,
,ROUTE 111,ATKINSON,NH,03811,
11.0,SONYA DRIVE,AUBURN,NH,03032,
62.0,HOLIDAY LN,HAMPSTEAD,NH,03841,
156.0,WASH POND RD,HAMPSTEAD,NH,03841,
31.0,OAK HILL DR,HAMPSTEAD,NH,03841,
4.0,COLONIAL DR,E HAMPSTEAD,NH,03826,
143.0,SPRUCE LANE,AUBURN,NH,03032,
518.0,MANCHESTER ROAD,EXETER,NH,03833,
348.0,CHESTER TURNPIKE,AUBURN,NH,03032,
,HOOKSETT ROAD,HOOKSETT,NH,03106,
,RACCOON RUN,LACONIA,NH,03246,
33.0,JENNIFER LANE,AUBURN,NH,03032,
52.0,SPRUCE LANE,AUBURN,NH,03032,
44.0,WESTMINSTER LANE,AUBURN,NH,03032,
15.0,ADELINE ST,HAMPSTEAD,NH,03841,
7.0,BLOODY BROOK RD,HAMPSTEAD,NH,03841,
247.0,KENT FARM RD,HAMPSTEAD,NH,03841,
50.0,BLOODY BROOK RD,HAMPSTEAD,NH,03841,
371.0,CHESTER TURNPIKE,AUBURN,NH,03032,
85.0,INDIAN RIDGE RD,E HAMPSTEAD,NH,03826,
398.0,WILSON'S CROSSING RD,AUBURN,NH,03032,
2.0,HILLTOP LN,HAMPSTEAD,NH,03841,
12.0,MOUNTAIN ROAD,AUBURN,NH,03032,
78.0,CALEF ROAD,AUBURN,NH,03032,
16.0,BARTLETT RD,HAMPSTEAD,NH,03841,
110.0,FOREST DRIVE,AUBURN,NH,03032,
5.0,STAGE RD,HAMPSTEAD,NH,03841,
356.0,SANDOWN RD,E. HAMPSTEAD,NH,03826,
305.0,DEARBORN ROAD,AUBURN,NH,03032,
16.0,MOULTON DR,E. HAMPSTEAD,NH,03826,
45.0,HILLS ROAD,AUBURN,NH,03032,
75.0,ELLYSON AVE,E HAMPSTEAD,NH,03826,
15.0,SPRING BROOK DR,HAMPSTEAD,NH,03841,
86.0,ELLYSON AVE,E. HAMPSTEAD,NH,03826,
96.0,POND VIEW DRIVE,AUBURN,NH,03032,
,WEST RD,REXVILLE,NH,14877,
46.0,HARPER RIDGE RD,WOBURN,NH,01801,
7.0,MADISON DR,HAMPSTEAD,NH,03841,
547.0,CHESTER ROAD,AUBURN,NH,03032,
40.0,PENTUCKET DR,E. HAMPSTEAD,NH,03826,
412.0,EAST RD,HAMPSTEAD,NH,03841,
23.0,SHERRY LN,HAMPSTEAD,NH,03841,
169.0,CENTRAL ST,FREMONT,NH,03044,
149.0,WINDSOR DRIVE,AUBURN,NH,03032,
21.0,TEWKSBURY RD,HAMPSTEAD,NH,03841,
50.0,LEXINGTON DR,HAMPSTEAD,NH,03841,
35.0,PEACHTREE ROAD,AUBURN,NH,03032,
,ROUTE 111,HAMPSTEAD,NH,03841,
179.0,WINDSOR DRIVE,AUBURN,NH,03032,
588.0,CHESTER ROAD,AUBURN,NH,03032,
5.0,IAN'S PATH,HAMPSTEAD,NH,03841,
50.0,NOLL'S FARM ROAD,AUBURN,NH,03032,
42.0,HAVEN DRIVE,AUBURN,NH,03032,
,EAGLE RD,HAMPSTEAD,NH,03841,
49.0,EMERSON AVE,HAMPSTEAD,NH,03841,
120.0,STAGE RD,NORTH SALEM,NH,03073,
34.0,GRANITE CIRCLE,HAMPSTEAD,NH,03841,
33.0,ORCUTT DR,HAMPSTEAD,NH,03841,
185.0,BROWN HILL RD,E HAMPSTEAD,NH,03826,
85.0,PRISCILLA LANE,MANCHESTER,NH,03101,
260.0,PINGREE HILL ROAD,AUBURN,NH,03032,
239.0,OLD CANDIA ROAD,AUBURN,NH,03032,
20.0,HARVARD AVENUE,AUBURN,NH,03032,
522.0,MAIN ST,HAMPSTEAD,NH,03841,
44.0,E MAIN ST,E HAMPSTEAD,NH,03826,
31.0,REGIMENT DR,E HAMPSTEAD,NH,03826,
28.0,STONEY BROOK LANE,AUBURN,NH,03032,
30.0,RAYMOND ROAD,AUBURN,NH,03032,
17.0,VALLEY RD,CAMBRIDGE,NH,02139,
54.0,GOLDEN MEADOW RD,HAMPSTEAD,NH,03841,
441.0,CHESTER TURNPIKE,AUBURN,NH,03032,
9.0,WELLESLEY CIRCLE,AUBURN,NH,03032,
506.0,MANCHESTER ROAD,AUBURN,NH,03032,
70.0,MAIN ST,HAMPSTEAD,NH,03841,
6.0,HUNTING ROAD,AUBURN,NH,03032,
18.0,JODY LN,HAMPSTEAD,NH,03841,
13.0,MORGEN DRIVE,AUBURN,NH,03032,
25.0,WEBBER RD,E. HAMPSTEAD,NH,03826,
75.0,HARVARD AVENUE,AUBURN,NH,03032,
,FIRELANE #1,GRAFTON,NH,01519,
229.0,E MAIN ST,E HAMPSTEAD,NH,03826,
,TANGLEWOOD DR,HAMPSTEAD,NH,03841,
17.0,DONALD DRIVE,AUBURN,NH,03032,
275.0,APPLETREE ROAD,AUBURN,NH,03032,
239.0,KENT FARM RD,HAMPSTEAD,NH,03841,
641.0,PINGREE HILL ROAD,AUBURN,NH,03032,
183.0,ROCKINGHAM ROAD,AUBURN,NH,03032,
24.0,NATHANIEL WAY,MANCHESTER,NH,03109,
26.0,WEBBER RD,E. HAMPSTEAD,NH,03826,
476.0,WILSON'S CROSSING RD,AUBURN,NH,03032,
27.0,SHERRY LN,HAMPSTEAD,NH,03841,
199.0,WILSON'S CROSSING RD,AUBURN,NH,03032,
22.0,EMMERT DR,NO SALEM,NH,03073,
13.0,LABRADOR LN,HAMPSTEAD,NH,03841,
22.0,KELLY BROOK LN,E. HAMPSTEAD,NH,03826,
298.0,BUNKER HILL ROAD,AUBURN,NH,03032,
14.0,EASTMAN DR,HAMPSTEAD,NH,03841,
6.0,IAN'S PATH, BRADENTON,NH,34203,
31.0,GRANITE CIRCLE,HAMPSTEAD,NH,03841,
63.0,SPRUCE LANE,AUBURN,NH,03032,
28.0,KIMBERLY RD,HAMPSTEAD,NH,03841,
27.0,BLUEBERRY CIR,HAMPSTEAD,NH,03841,
7.0,SHAKER LN,HAMPSTEAD,NH,03841,
85.0,MAPLE AVE,HAMPSTEAD,NH,03841,
136.0,WINDSOR DRIVE,AUBURN,NH,03032,
41.0,MINER ROAD,AUBURN,NH,03032,
35.0,BLUEBERRY CIR,HAMPSTEAD,NH,03841,
34.0,HOLIDAY LN,HAMPSTEAD,NH,03841,
67.0,ROCKINGHAM ROAD,AUBURN,NH,03032,
40.0,OLDE TOWNE ROAD,AUBURN,NH,03032,
23.0,GALLANT DR,HAMPSTEAD,NH,03841,
46.0,SPRUCE LANE,AUBURN,NH,03032,
15.0,DANVILLE RD,E HAMPSTEAD,NH,03826,
156.0,HUNT RD,E. HAMPSTEAD,NH,03826,
8.0,DEPOT RD,RALEIGH,NH,27616,
29.0,KINGS POND RD,HAMPSTEAD,NH,03841,
10.0,ROSEWOOD CIR,PHOENIX,NH,85045,
63.0,COLLETTE DR,HAMPSTEAD,NH,03841,
8.0,ODDFELLOWS RD,E HAMPSTEAD,NH,03826,
564.0,MANCHESTER ROAD,AUBURN,NH,03032,
7.0,KNOX LN,HAMPSTEAD,NH,03841,
6.0,LAKE AVE,HAMPSTEAD,NH,03841,
513.0,HOOKSETT ROAD,AUBURN,NH,03032,
,SILVER HILL ROAD,DEERFIELD,NH,03037,
132.0,WASH POND RD,HAMPSTEAD,NH,03841,
70.0,WASH POND RD,HAMPSTEAD,NH,03841,
29.0,BONNIES WAY,HAMPSTEAD,NH,03841,
18.0,LEDGEWOOD DRIVE,LONDONDERRY,NH,03053,
40.0,BEVERLY DR,HAMPSTEAD,NH,03841,
36.0,PASTURE ROAD,AUBURN,NH,03032,
,DEPOT RD,HAMPSTEAD,NH,03841,
315.0,WEST RD,HAMPSTEAD,NH,03841,
223.0,MAIN ST,HAMPSTEAD,NH,03841,
60.0,WHEELWRIGHT RD,HAMPSTEAD,NH,03841,
,CEMETERY RD,HAMPSTEAD,NH,03841,
20.0,CHARLESTON RIDGE RD,HAMPSTEAD,NH,03841,
580.0,CHESTER ROAD,AUBURN,NH,03032,
,STEAM MILL ROAD,AUBURN,NH,03032,
56.0,EAST RD,HAMPSTEAD,NH,03841,
58.0,HOLIDAY LN,HAMPSTEAD,NH,03841,
390.0,EAST RD,HAMPSTEAD,NH,03841,
21.0,MAPLE FARM ROAD,AUBURN,NH,03032,
31.0,PICADILLY RD,HAMPSTEAD,NH,03841,
20.0,LEDGEWOOD DRIVE,LONDONDERRY,NH,03053,
172.0,KENT FARM RD,HAMPSTEAD,NH,03841,
45.0,BLUEBERRY CIR,HAMPSTEAD,NH,03841,
26.0,RUSSET LN,E HAMPSTEAD,NH,03826,
48.0,SANDY KNOLL DRIVE,AUBURN,NH,03032,
37.0,NORTH READING STREET,MANCHESTER,NH,03104,
84.0,INDIAN RIDGE RD,E. HAMPSTEAD,NH,03826,
550.0,ROUTE 111,E HAMPSTEAD,NH,03826,
7.0,GLEN DR,HAMPSTEAD,NH,03841,
65.0,BLOODY BROOK RD,HAMPSTEAD,NH,03841,
259.0,MAIN ST,HAMPSTEAD,NH,03841,
42.0,CRICKET LANE,AUBURN,NH,03032,
30.0,CALEF ROAD,AUBURN,NH,03032,
23.0,CEDAR CREST LANE,AUBURN,NH,03032,
27.0,RAYMOND ROAD,AUBURN,NH,03032,
7.0,HOLLIS DR,HAMPSTEAD,NH,03841,
,ROUTE 111,E. HAMPSTEAD,NH,03826,
44.0,BUNKER HILL ROAD,AUBURN,NH,03032,
,ANGLE POND,HAMPSTEAD,NH,03841,
9.0,BONNIES WAY,HAMPSTEAD,NH,03841,
149.0,BUTTRICK RD,HAMPSTEAD,NH,03841,
317.0,ROCKINGHAM ROAD,AUBURN,NH,03032,
41.0,MASSABESIC DRIVE,AUBURN,NH,03032,
232.0,E MAIN ST,E HAMPSTEAD,NH,03826,
,DEARBORN ROAD,CANDIA,NH,03034,
46.0,SHAKER LN,HAMPSTEAD,NH,03841,
573.0,HOOKSETT ROAD,AUBURN,NH,03032,
466.0,WILSON'S CROSSING RD,AUBURN,NH,03032,
707.0,MAIN ST,HAMPSTEAD,NH,03741,
,LONDONDERRY TURNPIKE,AUBURN,NH,03032,
490.0,WILSON'S CROSSING RD,AUBURN,NH,03032,
,HOOKSETT ROAD,AUBURN,NH,03032,
109.0,HUNT RD,EAST HAMPSTEAD,NH,03826,
,BEAVER BROOK ROAD,DERRY,NH,03038,
,PILGRIM CIR,E. HAMPSTEAD,NH,03826,
74.0,MAPLE FARM ROAD,AUBURN,NH,03032,
330.0,SANDOWN RD,E. HAMPSTEAD,NH,03826,
42.0,SADDLE HILL DRIVE,AUBURN,NH,03032,
19.0,CROY PATH,HAMPSTEAD,NH,03841,
14.0,WESTWOOD RD,HAMPSTEAD,NH,03841,
398.0,BUNKER HILL ROAD,AUBURN,NH,03032,
40.0,SAWYER RD,HAMPSTEAD,NH,03841,
55.0,INDIAN RIDGE RD,E. HAMPSTEAD,NH,03826,
32.0,MEREDITH DR,HAMPSTEAD,NH,03841,
942.0,LONDONDERRY TURNPIKE,MANCHESTER,NH,03104,
,LONDONDERRY TURNPIKE,AUBURN,NH,03032,
70.0,BONNIES WAY,HAMPSTEAD,NH,03841,
120.0,LEDGEWOOD DR,HAMPSTEAD,NH,03841,
14.0,SCHOOL ST,HAMPSTEAD,NH,03841,
24.0,BOXWOOD DRIVE,AUBURN,NH,03032,
6.0,TOWER HILL ROAD,AUBURN,NH,03032,
119.0,EAST RD,HAMPSTEAD,NH,03841,
20.0,WESTFORD DRIVE,AUBURN,NH,03032,
13.0,RUSSET LN,E. HAMPSTEAD,NH,03826,
149.0,MILLS SHORE DR,HAMPSTEAD,NH,03841,
0.0,WILLOW COURT,LONDONDERRY,NH,03053,
697.0,CHESTER ROAD,AUBURN,NH,03032,
,SANDOWN RD,E HAMPSTEAD,NH,03826,
40.0,RUSSET LN,E. HAMPSTEAD,NH,03826,
39.0,SPOFFORD ROAD,AUBURN,NH,03032,
19.0,SILVER HILL ROAD,AUBURN,NH,03032,
20.0,HORSESHOE LN,SHARON,NH,02067,
140.0,HEATHER LANE,HAMPSTEAD,NH,03841,
135.0,MAIN ST,HAMPSTEAD,NH,03841,
,HOOKSETT ROAD,AUBURN,NH,03032,
1.0,SHAKER LN,HAMPSTEAD,NH,03841,
,EATON HILL ROAD,BRANDON,NH,57005,
44.0,CAMBRIDGE DRIVE,AUBURN,NH,03032,
190.0,MAIN ST,HAMPSTEAD,NH,03841,
29.0,KIMBERLY RD,HAMPSTEAD,NH,03841,
113.0,COLEMAN ROAD,AUBURN,NH,03032,
58.0,SADDLE HILL DRIVE,AUBURN,NH,03032,
40.0,MORGEN DRIVE,AUBURN,NH,03032,
10.0,PEACHTREE ROAD,AUBURN,NH,03032,
196.0,RATTLESNAKE HILL RD,AUBURN,NH,03032,
47.0,NORTH READING STREET,MANCHESTER,NH,03104,
47.0,BEVERLY DR,HAMPSTEAD,NH,03841,
3.0,COLONIAL DR,E. HAMPSTEAD,NH,03826,
3.0,AMY LN,HAMPSTEAD,NH,03841,
357.0,DEARBORN ROAD,AUBURN,NH,03032,
338.0,BUNKER HILL ROAD,AUBURN,NH,03032,
,SANBORN SHORE,HAMPSTEAD,NH,03841,
102.0,MAIN ST,HAMPSTEAD,NH,03841,
10.0,EDGEWATER LN,BEVERLY,NH,01915,
32.0,DONALD DRIVE,AUBURN,NH,03032,
640.0,PINGREE HILL ROAD,AUBURN,NH,03032,
32.0,ANNE DR,HAMPSTEAD,NH,03841,
162.0,EATON HILL ROAD,AUBURN,NH,03032,
22.0,STAR CIRCLE,AUBURN,NH,03032,
54.0,FOREST DRIVE,AUBURN,NH,03032,
43.0,HIGHWOOD DRIVE,AUBURN,NH,03032,
68.0,POND VIEW DRIVE,AUBURN,NH,03032,
3.0,PITMAN RD,E. HAMPSTEAD,NH,03826,
41.0,TEWKSBURY RD,HAMPSTEAD,NH,03841,
,ROUTE 111,HAMPSTEAD,NH,03841,
320.0,SANDOWN RD,HAMPSTEAD,NH,03841,
,HARPER RIDGE RD,HAMPSTEAD,NH,03841,
16.0,OAK HILL DR,HAMPSTEAD,NH,03841,
85.0,NATHANIEL WAY,AUBURN,NH,03032,
43.0,SHORE DR,HAMPSTEAD,NH,03841,
14.0,CHESTER TURNPIKE,AUBURN,NH,03032,
,MANCHESTER ROAD,MANCHESTER,NH,03103,
10.0,CHECKERBERRY RD,E HAMPSTEAD,NH,03826,
15.0,ATWOOD DR,E. HAMPSTEAD,NH,03826,
79.0,BUNKER HILL ROAD,AUBURN,NH,03032,
59.0,BONNIES WAY,HAMPSTEAD,NH,03841,
132.0,MAIN ST,HAMPSTEAD,NH,03841,
88.0,COLEMAN ROAD,AUBURN,NH,03032,
7.0,DUSTON RIDGE RD,HAMPSTEAD,NH,03841,
10.0,HARVARD AVENUE,AUBURN,NH,03032,
31.0,MAYFLOWER DR,E. HAMPSTEAD,NH,03826,
22.0,ADELINE ST,HAMPSTEAD,NH,03841,
,CHESTER ROAD,METHUEN,NH,01844,
5.0,ASHFORD RD,HAMPSTEAD,NH,03841,
91.0,ELLYSON AVE,E HAMPSTEAD,NH,03826,
,BEACH RD,NEEDHAM,NH,02492,
172.0,BUTTRICK RD,HAMPSTEAD,NH,03841,
8.0,FREEDOM HILL RD,HAMPSTEAD,NH,03841,
10.0,MATTHEWS DR,HAMPSTEAD,NH,03841,
,LAURA LN,HAMPSTEAD,NH,03841,
205.0,MAIN ST,HAMPSTEAD,NH,03841,
43.0,BARTHELMESS LN,HAMPSTEAD,NH,03841,
47.0,STAR CIRCLE,AUBURN,NH,03032,
45.0,PITMAN RD,E. HAMPSTEAD,NH,03826,
4.0,BROOKLYN'S WAY,HAMPSTEAD,NH,03841,
,DEPOT RD,HAMPSTEAD,NH,03841,
248.0,OLD CANDIA ROAD,CANDIA,NH,03034,
304.0,SANDOWN RD,HAMPSTEAD,NH,03841,
87.0,MC EVOY DRIVE,AUBURN,NH,03032,
18.0,BLUE HERON AVE,HAMPSTEAD,NH,03841,
14.0,COUNTRY RD,E HAMPSTEAD,NH,03826,
107.0,MAIN ST,HAMPSTEAD,NH,03841,
392.0,MANCHESTER ROAD,AUBURN,NH,03032,
26.0,MORGEN DRIVE,AUBURN,NH,03032,
55.0,AUDUBON WAY,AUBURN,NH,03032,
12.0,WILLOW LANE,HAMPSTEAD,NH,03841,
39.0,WILLOW COURT,AUBURN,NH,03032,
119.0,WEST RD,HAMPSTEAD,NH,03841,
0.0,HAWTHORNE DRIVE,AUBURN,NH,03032,
102.0,MORGEN DRIVE,AUBURN,NH,03032,
75.0,RAYMOND ROAD,AUBURN,NH,03032,
,BACKLAND,HAMPSTEAD,NH,03841,
200.0,STAGE RD,HAMPSTEAD,NH,03841,
13.0,LAKE AVE,HAMPSTEAD,NH,03841,
30.0,BROWN HILL RD,E HAMPSTEAD,NH,03826,
109.0,LEDGEWOOD DR,HAMPSTEAD,NH,03841,
,KENT FARM RD,HAMPSTEAD,NH,03841,
414.0,MAIN ST,HAMPSTEAD,NH,03841,
188.0,COLEMAN ROAD,AUBURN,NH,03032,
68.0,CATHERINE AVE,E. HAMPSTEAD,NH,03826,
,ROCKWOOD TERRACE,MANCHESTER,NH,03104,
272.0,CHESTER ROAD,AUBURN,NH,03032,
31.0,MORGEN DRIVE,AUBURN,NH,03032,
152.0,FOREST DRIVE,AUBURN,NH,03032,
159.0,EMERSON AVE,HAMPSTEAD,NH,03841,
143.0,BUTTRICK RD,HAMPSTEAD,NH,03841,
21.0,MEADOW LANE,AUBURN,NH,03032,
9.0,WINDSOR DRIVE,MANCHESTER,NH,03109,
95.0,MILLS SHORE DR,HAMPSTEAD,NH,03841,
130.0,WHEELWRIGHT RD,HAMPSTEAD,NH,03841,
39.0,REDCOAT DR,HAMPSTEAD,NH,03841,
39.0,SQUIRE RIDGE RD,HAMPSTEAD,NH,03841,
,ROCKINGHAM ROAD,MANCHESTER,NH,03103,
104.0,LEDGEWOOD DR,HAMPSTEAD,NH,03841,
20.0,LAKEVIEW WAY,AUBURN,NH,03032,
53.0,LILAK DRIVE,AUBURN,NH,03032,
123.0,FOREST DRIVE,AUBURN,NH,03032,
180.0,EMERSON AVE,HAMPSTEAD,NH,03841,
405.0,MAIN ST,HAMPSTEAD,NH,03841,
50.0,TIMBERLANE RD,HAMPSTEAD,NH,03841,
32.0,HOUSTON'S WAY,HAMPSTEAD,NH,03841,
22.0,WELLESLEY CIRCLE,AUBURN,NH,03032,
42.0,WASH POND RD,HAMPSTEAD,NH,03841,
79.0,BEVERLY DR,HAMPSTEAD,NH,03841,
16.0,LIGHTHOUSE LN,ELBURN,NH,60119,
477.0,MAIN ST,HAMPSTEAD,NH,03841,
74.0,LAURA LN,HAMPSTEAD,NH,03841,
90.0,CEDAR CREST LANE,NASHUA,NH,03062,
59.0,HARPER RIDGE RD,E. HAMPSTEAD,NH,03826,
20.0,SUMMER ST,GEORGETOWN,NH,01833,
47.0,SADDLE HILL DRIVE,AUBURN,NH,03032,
156.0,WHEELWRIGHT RD,HAMPSTEAD,NH,03841,
151.0,MILLS SHORE DR,HAMPSTEAD,NH,03841,
405.0,DEARBORN ROAD,AUBURN,NH,03032,
,MAIN ST,CONCORD,NH,03302,
43.0,HUNTING ROAD,BOSCAWEN,NH,03303,
33.0,NICOLE CIR,E. HAMPSTEAD,NH,03826,
9.0,CORTLAND RD,E HAMPSTEAD,NH,03826,
,CHESTER ROAD,MANCHESTER,NH,03103,
27.0,SHANNON RD,HAMPSTEAD,NH,03841,
,BIRCHWOOD DR,HAMPSTEAD,NH,03841,
52.0,SCOTT DR,HAMPSTEAD,NH,03841,
43.0,PARKLANE RD,HAMPSTEAD,NH,03841,
15.0,STONEGATE LANE,HAMPSTEAD,NH,03841,
229.0,ROCKINGHAM ROAD,AUBURN,NH,03032,
8.0,PRISCILLA LANE,AUBURN,NH,03032,
93.0,FAITH DR,HAMPSTEAD,NH,03841,
5.0,COUNTRY RD,E. HAMPSTEAD,NH,03826,
78.0,WHITETAIL CROSSING,AUBURN,NH,03032,
340.0,PINGREE HILL ROAD,AUBURN,NH,03032,
66.0,HOOKSETT ROAD,AUBURN,NH,03032,
69.0,WASH POND RD,HAMPSTEAD,NH,03841,
15.0,VICTORIA LN,E HAMPSTEAD,NH,03826,
22.0,RATTLESNAKE HILL RD,AUBURN,NH,03032,
121.0,PINGREE HILL ROAD,AUBURN,NH,03032,
78.0,WILSON'S CROSSING RD,AUBURN,NH,03032,
713.0,CHESTER ROAD,AUBURN,NH,03032,
264.0,WASH POND RD,HAMPSTEAD,NH,03841,
21.0,ST JOHN LN,HAMPSTEAD,NH,00384,
95.0,LAURA LN,HAMPSTEAD,NH,03841,
21.0,OAK HILL DR,HAMPSTEAD,NH,03841,
,LONDONDERRY TURNPIKE,BEDFORD,NH,03110,
45.0,BUTTONWOOD DRIVE,AUBURN,NH,03032,
190.0,WHEELWRIGHT RD,HAMPSTEAD,NH,03841,
15.0,CHARLESTON RIDGE RD,HAMPSTEAD,NH,03841,
60.0,GEISSER LN,HAMPSTEAD,NH,03841,
143.0,MILLS SHORE DR,WILMINGTON,NH,28412,
43.0,KELLY BROOK LN,E. HAMPSTEAD,NH,03826,
25.0,MOUNTAIN ROAD,AUBURN,NH,03032,
24.0,JAMES DRIVE,AUBURN,NH,03032,
177.0,CHESTER TURNPIKE,AUBURN,NH,03032,
5.0,WEBBER RD,E. HAMPSTEAD,NH,03826,
41.0,GRANITE CIRCLE,HAMPSTEAD,NH,03841,
29.0,HIGHWOOD DRIVE,AUBURN,NH,03032,
15.0,HOOD RD,E. HAMPSTEAD,NH,03826,
62.0,CHESTER TURNPIKE,AUBURN,NH,03032,
55.0,LAURA LN,HAMPSTEAD,NH,03841,
38.0,KINGS POND RD,HAMPSTEAD,NH,03841,
17.0,WEBBER RD,HAMPSTEAD,NH,03841,
146.0,EMERSON AVE,HAMPSTEAD,NH,03841,
246.0,STEAM MILL ROAD,AUBURN,NH,03032,
647.0,MAIN ST,WASHINGTON,NH,20011,
,ROCKWOOD TERRACE,AUBURN,NH,03032,
185.0,HARPER RIDGE RD,E. HAMPSTEAD,NH,03826,
200.0,ROCKINGHAM ROAD,AUBURN,NH,03032,
,DERRY TOWN LINE,DERRY,NH,03038,
124.0,MAIN ST,HAMPSTEAD,NH,03841,
17.0,BAILEY SHORE RD,NO ANDOVER,NH,01845,
71.0,COLEMAN ROAD,AUBURN,NH,03032,
22.0,MERRYFIELD LN,E HAMPSTEAD,NH,03826,
98.0,DANVILLE RD,E HAMPSTEAD,NH,03826,
338.0,WILSON'S CROSSING RD,AUBURN,NH,03032,
39.0,WEST RD,HAMPSTEAD,NH,03841,
30.0,PARTRIDGE LN,E. HAMPSTEAD,NH,03826,
46.0,SADDLE HILL DRIVE,LONDONDERRY,NH,03053,
36.0,OAK HILL DR,HAMPSTEAD,NH,03841,
165.0,MILLS SHORE DR,HAMPSTEAD,NH,03841,
33.0,APPLETON LN,HAMPSTEAD,NH,03841,
13.0,COPLEY COURT,MANCHESTER,NH,03109,
28.0,OLDHAM RD,HAMPSTEAD,NH,03841,
18.0,HICKORY RD,HAMPSTEAD,NH,03841,
,DEPOT RD,HAMPSTEAD,NH,03841,
,ROUTE 111,ATKINSON,NH,03811,
481.0,CHESTER ROAD,AUBURN,NH,03032,
8.0,WESTMINSTER LANE,AUBURN,NH,03032,
66.0,LAURA LN,HAMPSTEAD,NH,03841,
30.0,PALOMINO DRIVE,AUBURN,NH,03032,
,KENT FARM RD,HAMPSTEAD,NH,03841,
641.0,MAIN ST,HAMPSTEAD,NH,03841,
22.0,JACK RABBIT RUN,HAMPSTEAD,NH,03841,
45.0,MASSABESIC DRIVE,AUBURN,NH,03032,
36.0,NOLL'S FARM ROAD,AUBURN,NH,03032,
151.0,BIRCH ROAD,AUBURN,NH,03032,
60.0,FREEDOM HILL RD,HAMPSTEAD,NH,03841,
48.0,LEXINGTON DR,HAMPSTEAD,NH,03841,
21.0,CORTLAND RD,E. HAMPSTEAD,NH,03826,
60.0,SHORE DR,HAMPSTEAD,NH,03841,
4.0,HICKORY RD,HAMPSTEAD,NH,03841,
179.0,HARPER RIDGE RD,E. HAMPSTEAD,NH,03826,
6.0,JOHNSON MEADOW RD,HAMPSTEAD,NH,03841,
138.0,HARPER RIDGE RD,E. HAMPSTEAD,NH,03826,
11.0,ST JOHN LN,HAMPSTEAD,NH,03841,
31.0,GROVE DR,HAMPSTEAD,NH,03841,
80.0,WHEELWRIGHT RD,HAMPSTEAD,NH,03841,
17.0,LOVERS LANE,AUBURN,NH,03032,
331.0,DEARBORN ROAD,AUBURN,NH,03032,
354.0,SPOFFORD ROAD,AUBURN,NH,03032,
131.0,HUNTING ROAD,AUBURN,NH,03032,
156.0,HUNT RD,E. HAMPSTEAD,NH,03826,
654.0,MAIN ST,HAMPSTEAD,NH,03841,
15.0,GINGERBREAD LN,HAMPSTEAD,NH,03841,
12.0,COTTAGE AVENUE,AUBURN,NH,03032,
31.0,ORCUTT DR,KISSIMMEE,NH,34741,
543.0,MANCHESTER ROAD,AUBURN,NH,03032,
41.0,LEXINGTON DR,HAMPSTEAD,NH,03841,
60.0,BEVERLY DR,HAMPSTEAD,NH,03841,
65.0,MILLS SHORE DR,HAMPSTEAD,NH,03841,
41.0,NORTH READING STREET,MANCHESTER,NH,03104,
,CHESTER ROAD,MANCHESTER,NH,03103,
10.0,LINCOLN RD,HAMPSTEAD,NH,03841,
100.0,APPLETREE ROAD,CARBONDALE,NH,81623,
124.0,BUTTRICK RD,HAMPSTEAD,NH,03841,
328.0,SPOFFORD ROAD,AUBURN,NH,03032,
27.0,LAKEVIEW WAY,AUBURN,NH,03032,
757.0,HOOKSETT ROAD,AUBURN,NH,03032,
4.0,QUARRY COURT,AUBURN,NH,03032,
7.0,LANCASTER RD,HAMPSTEAD,NH,03841,
200.0,WILSON'S CROSSING RD,AUBURN,NH,03032,
29.0,SAGHARBOR DRIVE,AUBURN,NH,03032,
16.0,PEASLEE CT,HAMPSTEAD,NH,03841,
20.0,RIDGE COURT,AUBURN,NH,03032,
236.0,COLEMAN ROAD,AUBURN,NH,03032,
4.0,FLAG COURT,AUBURN,NH,03032,
39.0,PILGRIM CIR,E. HAMPSTEAD,NH,03826,
16.0,RATTLESNAKE HILL RD,AUBURN,NH,03032,
29.0,HUNTING ROAD,AUBURN,NH,03032,
66.0,MAPLE AVE,HAMPSTEAD,NH,03841,
248.0,KENT FARM RD,HAMPSTEAD,NH,03841,
4.0,IAN'S PATH,HAMPSTEAD,NH,03841,
38.0,COUNTRY RD,E. HAMPSTEAD,NH,03826,
9.0,WELLINGTON DR,HAMPSTEAD,NH,03841,
10.0,SAGHARBOR DRIVE,AUBURN,NH,03032,
79.0,MILLS SHORE DR,HAMPSTEAD,NH,03841,
39.0,APPLETON LN,HAMPSTEAD,NH,03841,
25.0,RUSSET LN,E HAMPSTEAD,NH,03826,
15.0,RANDALL LN,HAMPSTEAD,NH,03841,
132.0,WILSON'S CROSSING RD,AUBURN,NH,03032,
269.0,ROCKINGHAM ROAD,MANCHESTER,NH,03102,
73.0,SQUIRE RIDGE RD,HAMPSTEAD,NH,03841,
71.0,HILLS ROAD,AUBURN,NH,03032,
477.0,LONDONDERRY TURNPIKE,AUBURN,NH,03032,
7.0,ISLAND POND RD,HAMPSTEAD,NH,03841,
19.0,CRAINE RD,TUCSON,NH,85716,
23.0,COLEMAN ROAD,AUBURN,NH,03032,
33.0,PITMAN RD,E HAMPSTEAD,NH,03826,
,GIGANTE DR,HAMPSTEAD,NH,03841,
25.0,MERRYFIELD LN,E HAMPSTEAD,NH,03826,
6.0,HOLLIS DR,HAMPSTEAD,NH,03841,
,SPOFFORD ROAD,AUBURN,NH,03032,
323.0,SANDOWN RD,E. HAMPSTEAD,NH,03826,
21.0,FREEDOM HILL RD,HAMPSTEAD,NH,03841,
195.0,STAGE RD,HAMPSTEAD,NH,03841,
13.0,PARKLANE RD,HAMPSTEAD,NH,03841,
265.0,EAST RD,HAMPSTEAD,NH,03841,
25.0,HARRIS AVE,HAMPSTEAD,NH,03841,
156.0,MILLS SHORE DR,HAMPSTEAD,NH,03841,
15.0,TIMBERLANE RD,HAMPSTEAD,NH,03841,
39.0,MEREDITH DR,HAMPSTEAD,NH,03841,
42.0,RYAN ROAD,AUBURN,NH,03032,
8.0,GLEN DR,HAMPSTEAD,NH,03841,
5.0,AGAWAM AVE,HAMPSTEAD,NH,03841,
10.0,AGAWAM AVE,HAMPSTEAD,NH,03841,
28.0,MERRYFIELD LN,E. HAMPSTEAD,NH,03826,
112.0,HOOKSETT ROAD,AUBURN,NH,03032,
498.0,MAIN ST,HAMPSTEAD,NH,03841,
235.0,SPOFFORD ROAD,AUBURN,NH,03032,
127.0,BUTTRICK RD,HAMPSTEAD,NH,03841,
10.0,HOOD RD,HAMPSTEAD,NH,03841,
,ORCUTT DR,WALTHAM,NH,02154,
25.0,STAGE RD,HAMPSTEAD,NH,03841,
30.0,COLLINS DR,E. HAMPSTEAD,NH,03826,
18.0,ARUDA RD,E HAMPSTEAD,NH,03826,
66.0,NOLL'S FARM ROAD,AUBURN,NH,03032,
2.0,COUNTRY RD,E HAMPSTEAD,NH,03826,
298.0,RATTLESNAKE HILL RD,MANCHESTER,NH,03103,
217.0,WILSON'S CROSSING RD,AUBURN,NH,03032,
8.0,GLORIAS WAY,E HAMPSTEAD,NH,03826,
18.0,ROLLING HILL RD,HAMPSTEAD,NH,03841,
2.0,TEWKSBURY RD,HAMPSTEAD,NH,03841,
126.0,FOREST DRIVE,AUBURN,NH,03032,
,GOVERNORS ISLAND RD,NEW LONDON,NH,03257,
44.0,MAIN ST,HAMPSTEAD,NH,03841,
134.0,RATTLESNAKE HILL RD,AUBURN,NH,03032,
,WELLINGTON DR,HAMPSTEAD,NH,03841,
11.0,MADISON DR,HAMPSTEAD,NH,03841,
301.0,SPOFFORD ROAD,MANCHESTER,NH,03104,
183.0,APPLETREE ROAD,AUBURN,NH,03032,
102.0,LEDGEWOOD DR,HAMPSTEAD,NH,03841,
12.0,PARKER WAY,AUBURN,NH,03032,
63.0,WILSON'S CROSSING RD,AUBURN,NH,03032,
89.0,BERRY PATCH LANE,AUBURN,NH,03032,
39.0,HUNTING ROAD,AUBURN,NH,03032,
80.0,MAPLE FARM ROAD,AUBURN,NH,03032,
,RAYMOND ROAD,VALDOSTA,NH,31602,
,EATON HILL ROAD,AUBURN,NH,03032,
40.0,ISLAND POND RD,HAMPSTEAD,NH,03841,
40.0,ROCKWOOD TERRACE,AUBURN,NH,03032,
89.0,BEVERLY DR,HAMPSTEAD,NH,03841,
,OLD CANDIA ROAD,HOOKSETT,NH,03106,
110.0,LAURA LN,HAMPSTEAD,NH,03841,
124.0,FREEDOM HILL RD,HAMPSTEAD,NH,03841,
28.0,STARWOOD DR,HAMPSTEAD,NH,03841,
30.0,MC EVOY DRIVE,AUBURN,NH,03032,
44.0,PENTUCKET DR,E. HAMPSTEAD,NH,03826,
655.0,MAIN ST,HAMPSTEAD,NH,03841,
45.0,BUNKER HILL ROAD,AUBURN,NH,03032,
27.0,WENTWORTH LN,HAMPSTEAD,NH,03841,
56.0,ELLS RD,SCARSDALE,NH,10583,
990.0,LONDONDERRY TURNPIKE,AUBURN,NH,03032,
6.0,HOOK ROAD,AUBURN,NH,03032,
5.0,HAZEL DR,HAMPSTEAD,NH,03841,
40.0,ROLLING HILL RD,HAMPSTEAD,NH,03841,
136.0,APPLETREE ROAD,AUBURN,NH,03032,
47.0,NUTT ROAD,AUBURN,NH,03032,
33.0,ROCKWOOD TERRACE,AUBURN,NH,03032,
78.0,RATTLESNAKE HILL RD,AUBURN,NH,03032,
116.0,LAURA LN,HAMPSTEAD,NH,03841,
2.0,MAPLE AVE,HAMPSTEAD,NH,03841,
10.0,FINCH LANE,MANCHESTER,NH,03104,
243.0,BUNKER HILL ROAD,AUBURN,NH,03032,
355.0,RATTLESNAKE HILL RD,AUBURN,NH,03032,
,DEPOT RD,HAMPSTEAD,NH,03841,
288.0,BUNKER HILL ROAD,AUBURN,NH,03032,
200.0,OLD CANDIA ROAD,AUBURN,NH,03032,
140.0,MAIN ST,HAMPSTEAD,NH,03841,
21.0,EMERSON AVE,PLAISTOW,NH,03865,
55.0,WOODRIDGE RD,E. HAMPSTEAD,NH,03826,
41.0,SCOTT DR,WINDHAM,NH,03087,
6.0,CHAMBERLAIN AVE,E HAMPSTEAD,NH,03826,
205.0,MILLS SHORE DR,HAMPSTEAD,NH,03841,
21.0,BEVERLY DR,HAMPSTEAD,NH,03841,
23.0,CHECKERBERRY RD,E. HAMPSTEAD,NH,03826,
59.0,CAMBRIDGE RD,HAMPSTEAD,NH,03841,
34.0,NORFOLK ST UNIT 2,HAMPSTEAD,NH,03841,
10.0,VICTORIA LN,E HAMPSTEAD,NH,03826,
24.0,STARWOOD DR,HAMPSTEAD,NH,03841,
20.0,REDCOAT DR,HAMPSTEAD,NH,03841,
42.0,TIMBERLANE RD,GEORGETOWN,NH,01830,
,WASH POND RD,HAMPSTEAD,NH,03841,
12.0,TANGLEWOOD DRIVE,MANCHESTER,NH,03104,
48.0,BUTTRICK RD,HAMPSTEAD,NH,03841,
44.0,BLUEBERRY CIR,HAMPSTEAD,NH,03841,
11.0,BAILEY SHORE RD,HAMPSTEAD,NH,03841,
54.0,ANDERSON WAY,MANCHESTER,NH,03108,
14.0,SYLVESTER LN,HAMPSTEAD,NH,03841,
46.0,BONNIES WAY,HAMPSTEAD,NH,03841,
18.0,HAVEN DRIVE,AUBURN,NH,03032,
11.0,LAURA LN,HAMPSTEAD,NH,03841,
165.0,COLEMAN ROAD,AUBURN,NH,03032,
27.0,PEACHTREE ROAD,AUBURN,NH,03032,
184.0,MAIN ST,HAMPSTEAD,NH,03841,
25.0,MAVERICK DRIVE,AUBURN,NH,03032,
,ESTEE RD,BRADFORD,NH,01835,
38.0,VILLAGE GREEN RD,LONDONDERRY,NH,03053,
153.0,ROCKINGHAM ROAD,AUBURN,NH,03032,
332.0,CHESTER TURNPIKE,AUBURN,NH,03032,
6.0,ANDERSON WAY,MANCHESTER,NH,03108,
38.0,CHESTER TURNPIKE,AUBURN,NH,03032,
17.0,EAST RD,HAMPSTEAD,NH,03841,
43.0,ST JOHN LN,HAMPSTEAD,NH,03841,
49.0,SANDY KNOLL DRIVE,AUBURN,NH,03032,
305.0,SANDOWN RD,WINDHAM,NH,03087,
,LONDONDERRY TURNPIKE,MANCHESTER,NH,03103,
5.0,PEASLEE CT,HAMPSTEAD,NH,03841,
41.0,MAPLE AVE,ATKINSON,NH,03811,
29.0,ELLS RD,ATKINSON,NH,03811,
8.0,GRACE WAY,HAMPSTEAD,NH,03841,
26.0,CALEF ROAD,AUBURN,NH,03032,
83.0,ELLYSON AVE,MILFORD,NH,06451,
272.0,MAIN ST,HAMPSTEAD,NH,03841,
0.0,CHESTER TURNPIKE,HOOKSETT,NH,03106,
4.0,FREEDOM HILL RD,HAMPSTEAD,NH,03841,
1.0,BIRCHWOOD DR,HAMPSTEAD,NH,03841,
6.0,LEXINGTON DR,HAMPSTEAD,NH,03841,
,ROCKINGHAM ROAD,MANCHESTER,NH,03103,
,NEWBURY DR,HAMPSTEAD,NH,03841,
23.0,HOLTS POINT RD,HAMPSTEAD,NH,03841,
196.0,STAGE RD,HAMPSTEAD,NH,03841,
81.0,MAIN ST,HAMPSTEAD,NH,03841,
72.0,CENTRAL ST,E HAMPSTEAD,NH,03826,
147.0,WASH POND RD,HAMPSTEAD,NH,03841,
620.0,PINGREE HILL ROAD,AUBURN,NH,03032,
29.0,GRANITE CIRCLE,HAMPSTEAD,NH,03841,
112.0,BUTTRICK RD,HAMPSTEAD,NH,03841,
5.0,WESTWOOD RD,HAMPSTEAD,NH,03841,
,COLLETTE DR,HAMPSTEAD,NH,03841,
,GOLD LEDGE AVENUE,GARDINER,NH,04345,
51.0,READING STREET,MANCHESTER,NH,03104,
5.0,RIDGE COURT,AUBURN,NH,03032,
19.0,MAVERICK DRIVE,AUBURN,NH,03032,
166.0,BUTTRICK RD,HAMPSTEAD,NH,03841,
43.0,ADELINE ST,HAMPSTEAD,NH,03841,
30.0,JAMES DRIVE,AUBURN,NH,03032,
10.0,SADDLE HILL DRIVE,AUBURN,NH,03032,
342.0,SANDOWN RD,E. HAMPSTEAD,NH,03826,
32.0,SQUIRREL DRIVE,AUBURN,NH,03032,
81.0,MILLS SHORE DR,HAMPSTEAD,NH,03841,
202.0,MAIN ST,HAMPSTEAD,NH,03841,
448.0,BUNKER HILL ROAD,AUBURN,NH,03032,
403.0,SPOFFORD ROAD,AUBURN,NH,03032,
,CENTRAL ST REAR,HAMPSTEAD,NH,03841,
62.0,WASH POND RD,HAMPSTEAD,NH,03841,
10.0,BARTHELMESS LN,HAMPSTEAD,NH,03841,
29.0,SQUIRREL DRIVE,AUBURN,NH,03032,
28.0,LEWIS LN,ATKINSON,NH,03811,
212.0,APPLETREE ROAD,AUBURN,NH,03032,
,CENTRAL ST REAR,HAMPSTEAD,NH,03841,
17.0,STAGE RD,HAMPSTEAD,NH,03841,
235.0,CHESTER ROAD,AUBURN,NH,03032,
,CRICKET LANE,AUBURN,NH,03032,
10.0,MERRYFIELD LN,E HAMPSTEAD,NH,03826,
727.0,HOOKSETT ROAD,AUBURN,NH,03032,
805.0,HOOKSETT ROAD,AUBURN,NH,03032,
8.0,HOLLIS DR,HAMPSTEAD,NH,03841,
128.0,BUNKER HILL ROAD,AUBURN,NH,03032,
22.0,CORTLAND RD,E HAMPSTEAD,NH,03826,
227.0,RATTLESNAKE HILL RD,AUBURN,NH,03032,
27.0,MASSABESIC DRIVE,AUBURN,NH,03032,
25.0,WEST RD,HAMPSTEAD,NH,03841,
34.0,NORFOLK ST UNIT 1,HAMPSTEAD,NH,03841,
32.0,TANGLEWOOD DRIVE,AUBURN,NH,03032,
,CHESTER TURNPIKE,MANCHESTER,NH,03103,
16.0,LEWIS LN,ATKINSON,NH,03811,
14.0,BLUE HERON AVE,HAMPSTEAD,NH,03841,
270.0,WEST RD,HAMPSTEAD,NH,03841,
20.0,GINGERBREAD LN,HAMPSTEAD,NH,03841,
38.0,WESTFORD DRIVE,AUBURN,NH,03032,
,BEACH RD,DERRY,NH,03038,
,CHESTER TURNPIKE,CANDIA,NH,03034,
239.0,RATTLESNAKE HILL RD,AUBURN,NH,03032,
25.0,PITMAN RD,E. HAMPSTEAD,NH,03826,
8.0,WOODRIDGE RD,E. HAMPSTEAD,NH,03826,
216.0,EATON HILL ROAD,AUBURN,NH,03032,
77.0,SQUIRE RIDGE RD,HAMPSTEAD,NH,03841,
35.0,ELLYSON AVE,E HAMPSTEAD,NH,03826,
47.0,ELLS RD,NASHUA,NH,03063,
26.0,EMERSON AVE,HAMPSTEAD,NH,03841,
221.0,WASH POND RD,HAMPSTEAD,NH,03841,
76.0,PITMAN RD,E. HAMPSTEAD,NH,03826,
83.0,ELLYSON AVE,MILFORD,NH,06451,
53.0,SCOTT DR,HAMPSTEAD,NH,03841,
,HOOKSETT ROAD,MANCHESTER,NH,03103,
102.0,PINGREE HILL ROAD,AUBURN,NH,03032,
,MILLS SHORE DR,HAMPSTEAD,NH,03841,
2.0,LABRADOR LN,HAMPSTEAD,NH,03841,
183.0,DEPOT ROAD,AUBURN,NH,03032,
55.0,COLLETTE DR,HAMPSTEAD,NH,03841,
25.0,PICADILLY RD,HAMPSTEAD,NH,03841,
,BROWN'S ISLAND,MANCHESTER,NH,03103,
537.0,BUNKER HILL ROAD,AUBURN,NH,03032,
28.0,CAMBRIDGE DRIVE,AUBURN,NH,03032,
95.0,MAPLE FARM ROAD,AUBURN,NH,03032,
42.0,HAWTHORNE DRIVE,AUBURN,NH,03032,
30.0,WHEELWRIGHT RD,HAMPSTEAD,NH,03841,
2.0,GRACE WAY,HAMPSTEAD,NH,03841,
15.0,PRESTON WAY,AUBURN,NH,03032,
228.0,EATON HILL ROAD,AUBURN,NH,03032,
5.0,WESTFORD DRIVE,AUBURN,NH,03032,
598.0,MAIN ST,HAMPSTEAD,NH,03841,
33.0,ST JOHN LN,HAMPSTEAD,NH,03841,
556.0,MAIN ST,HAMPSTEAD,NH,03841,
240.0,APPLETREE ROAD,AUBURN,NH,03032,
25.0,LONGVIEW DR,HAMPSTEAD,NH,03841,
22.0,MARILYN PARK DR,HAMPSTEAD,NH,03841,
43.0,CENTRAL ST,EAST HAMPSTEAD,NH,03826,
80.0,BUTTRICK RD,HAMPSTEAD,NH,03841,
1.0,YORK RD,HAMPSTEAD,NH,03841,
,WEST RD,HAMPSTEAD,NH,03841,
26.0,WEST RD,HAMPSTEAD,NH,03841,
242.0,MAIN ST,HAMPSTEAD,NH,03841,
18.0,CORLISS WAY,HAMPSTEAD,NH,03841,
198.0,KENT FARM RD,HAMPSTEAD,NH,03841,
3.0,COMMERCE PARK DR,E. HAMPSTEAD,NH,03826,
25.0,MARILYN PARK DR,HAMPSTEAD,NH,03841,
183.0,CENTRAL ST,E HAMPSTEAD,NH,03826,
44.0,MAVERICK DRIVE,AUBURN,NH,03032,
71.0,BUTTONWOOD DRIVE,AUBURN,NH,03032,
16.0,PEACHTREE ROAD,AUBURN,NH,03032,
371.0,MAIN ST,HAMPSTEAD,NH,03841,
37.0,RUSSET LN,E HAMPSTEAD,NH,03826,
215.0,E MAIN ST,SALEM,NH,03079,
67.0,ELLS RD,HAMPSTEAD,NH,03841,
33.0,BUNKER HILL ROAD,AUBURN,NH,03032,
44.0,ISLAND POND RD,MELROSE,NH,02176,
47.0,GARDNER ROAD,AUBURN,NH,03032,
22.0,MAPLE AVE,HAMPSTEAD,NH,03841,
85.0,DOLLARD ROAD,AUBURN,NH,03032,
67.0,TANGLEWOOD DRIVE,AUBURN,NH,03032,
10.0,BLOODY BROOK RD,HAMPSTEAD,NH,03841,
102.0,RATTLESNAKE HILL RD,AUBURN,NH,03032,
42.0,CHESTER TURNPIKE,AUBURN,NH,03032,
,PINGREE HILL ROAD,LONDONDERRY,NH,03053,
94.0,CENTRAL ST,E HAMPSTEAD,NH,03826,
629.0,HOOKSETT ROAD,AUBURN,NH,03032,
232.0,MAIN ST,HAMPSTEAD,NH,03841,
76.0,PICADILLY RD,HAMPSTEAD,NH,03841,
,WEST RD,REXVILLE,NH,14877,
381.0,CHESTER ROAD,AUBURN,NH,03032,
13.0,PINEWOOD DR,HAMPSTEAD,NH,03841,
,NORTH SALEM RD,HAMPSTEAD,NH,03841,
61.0,INDIAN RIDGE RD,E. HAMPSTEAD,NH,03826,
27.0,WELLINGTON DR,HAMPSTEAD,NH,03841,
24.0,SCHOOL ST,HAMPSTEAD,NH,03841,
,PILGRIM CIR,E. HAMPSTEAD,NH,03826,
63.0,STAGE RD,HAMPSTEAD,NH,03841,
3.0,TABOR RD,HAMPSTEAD,NH,03841,
104.0,HILLS ROAD,AUBURN,NH,03032,
507.0,CHESTER ROAD,AUBURN,NH,03032,
,SHORE DR,HAMPSTEAD,NH,03841,
,ROUTE 111,E HAMSTEAD,NH,03826,
220.0,E MAIN ST,E HAMPSTEAD,NH,03826,
392.0,WILSON'S CROSSING RD,AUBURN,NH,03032,
67.0,HAWTHORNE DRIVE,AUBURN,NH,03032,
43.0,PARKLANE RD,HAMPSTEAD,NH,03841,
298.0,WASH POND RD,OKLAHOMA CITY,NH,73107,
,DEPOT ROAD,MANCHESTER,NH,03103,
25.0,ATWOOD DR,E. HAMPSTEAD,NH,03826,
19.0,MADISON DR,HAMPSTEAD,NH,03841,
7.0,MCQUESTON DRIVE,AUBURN,NH,03032,
1.0,OSPREY FORK,LONGMONT,NH,80503,
22.0,TEWKSBURY RD,HAMPSTEAD,NH,03841,
8.0,LIBERTY LN,HAMPSTEAD,NH,03841,
33.0,COTTAGE LANE,E HAMPSTEAD,NH,03826,
2.0,AMY LN,HAMPSTEAD,NH,03841,
19.0,RANDALL LN,HAMPSTEAD,NH,03841,
52.0,GRANITE CIRCLE,HAMPSTEAD,NH,03841,
126.0,BROWN HILL RD,E HAMPSTEAD,NH,03826,
