NUMBER,STREET,CITY,STATE,POSTCODE,UNIT
6,Clement Place,FANWOOD,NJ,07023,
8,Penn Street,PENNSVILLE,NJ,08070,
443,2nd Street,JERSEY CITY,NJ,07302,
467,Manalapan Road,SPOTSWOOD,NJ,08884,
432,Rushmore Avenue,PISCATAWAY,NJ,08854,
23,Vermont Drive,PARAMUS,NJ,07652,
18,Central Avenue,NEW BRUNSWICK,NJ,08901,
304,8th Street,RIVERTON,NJ,08077,
39,Bridge Street,FRENCHTOWN,NJ,08825,
16,Bayberry Drive,WARETOWN,NJ,08758,
44,North   Montgomery Avenue,ATLANTIC CITY,NJ,08401,
33,Ellis Road,WEST CALDWELL,NJ,07006,
2,Abaco Street,TOMS RIVER,NJ,08757,
19,Driftwood Drive,SOMERSET,NJ,08873,
253,Myrtle Avenue,NEW MILFORD,NJ,07646,
31,Fairchild Lane,SUSSEX,NJ,07461,
1539,Tanner Avenue,MANASQUAN,NJ,08736,
312,Brighton Avenue,NEPTUNE,NJ,07753,
66,Pheasant Brook Court,BEDMINSTER,NJ,07921,
621,Lakefront Circle,GALLOWAY,NJ,08205,
10,Strowbridge Avenue,MOUNT TABOR,NJ,07878,
32,Alabama Avenue,PATERSON,NJ,07503,
203,South   10th Street,NEWARK,NJ,07107,
456,Norwood Street,EAST ORANGE,NJ,07018,
4807,Battle Lane,MILLVILLE,NJ,08332,
131,Market Street,NEWARK,NJ,07102,
23,Daniel Drive,CEDAR GROVE,NJ,07009,
34,Marlboro Street,MORGANVILLE,NJ,07751,
370,Northern Parkway,RIDGEWOOD,NJ,07450,
22,Windmere Drive,LUMBERTON,NJ,08048,
12,Hillside Avenue,NUTLEY,NJ,07110,
36,Lenox Avenue,PATERSON,NJ,07502,
90,Woolman Road,ELMER,NJ,08318,
22,Guadeloupe Drive,TOMS RIVER,NJ,08757,
3,Island Avenue,SEASIDE PARK,NJ,08752,
23,James Street,SOUTH RIVER,NJ,08882,
2,Ardsley Road,GLEN RIDGE,NJ,07028,
405,East   Stiger Street,HACKETTSTOWN,NJ,07840,
473,Lower Alden Drive,RAHWAY,NJ,07065,
114,Roosevelt Avenue,BELLEVILLE,NJ,07109,
3,Decker Avenue,BUTLER,NJ,07405,
928,14th Street,HAMMONTON,NJ,08037,
15,River Street,LODI,NJ,07644,
25,Summer Avenue,DOVER,NJ,07801,
1017,Warren Avenue,UNION,NJ,07083,
266,Georgetown Road,PENNS GROVE,NJ,08069,
121,Chatham Avenue,PATERSON,NJ,07502,
227,Columbus Drive,JERSEY CITY,NJ,07302,
563,Marc Drive,LAKEWOOD,NJ,08701,
471,Kaplan Avenue,HACKENSACK,NJ,07601,
59,5th Street,FLAGTOWN,NJ,08821,
267,Vista Court,SICKLERVILLE,NJ,08081,
233,Falcon Drive,LITTLE EGG HARBOR TWP,NJ,08087,
269,Prospect Plains Road,CRANBURY,NJ,08512,
1,Esterbrook Lane,CHERRY HILL,NJ,08003,
440,Edgar Road,ELIZABETH,NJ,07202,
34,North   California Avenue,ATLANTIC CITY,NJ,08401,
2,Colonial Square,MIDDLETOWN,NJ,07748,
616,Summit Avenue,WESTVILLE,NJ,08093,
128,Leah Court,DAYTON,NJ,08810,
51,Sunny Hill Road,DOVER,NJ,07801,
615,15th Avenue,NEWARK,NJ,07103,
62,Hackensack Street,WOOD RIDGE,NJ,07075,
10,Ashland Road,MADISON,NJ,07940,
30,Dawn Drive,PORT READING,NJ,07064,
3,Laurel Woods Drive,BERLIN,NJ,08009,
1075,Milton Avenue,WEST DEPTFORD,NJ,08093,
141,Garden Terrace,EDISON,NJ,08817,
1470,Center Street,HILLSIDE,NJ,07205,
1616,Redwood Avenue,MILLVILLE,NJ,08332,
1,East   Passaic Avenue,RUTHERFORD,NJ,07070,
551,Coolidge Avenue,TOMS RIVER,NJ,08753,
53,North   Murray Avenue,RIDGEWOOD,NJ,07450,
253,Carr Avenue,KEANSBURG,NJ,07734,
18,Walnut Street,EDISON,NJ,08817,
4310,Palisade Avenue,UNION CITY,NJ,07087,
57,Columbia Avenue,JERSEY CITY,NJ,07307,
118,West   Swordfish Way,LAVALLETTE,NJ,08735,
565,Park Street,MONTCLAIR,NJ,07043,
72,Brinkerhoff Terrace,PALISADES PARK,NJ,07650,
2256,Albert Court,ATCO,NJ,08004,
50,North   16th Avenue,MANVILLE,NJ,08835,
277,Hirliman Road,ENGLEWOOD,NJ,07631,
1005,State Highway  70,BRICK,NJ,08724,
2,Jefferson Road,CRANBURY,NJ,08512,
67,Apple Avenue,BELLMAWR,NJ,08031,
324,Lincoln Avenue,VINELAND,NJ,08360,
109,Winters Street,PORT MURRAY,NJ,07865,
816,Halliard Avenue,BEACHWOOD,NJ,08722,
37,Shadowstone Lane,EAST WINDSOR,NJ,08520,
5,Ravine Road,VERONA,NJ,07044,
17,Sheffield Street,JERSEY CITY,NJ,07305,
127,Woodland Avenue,MULLICA HILL,NJ,08062,
228,New Road,MONTAGUE,NJ,07827,
97,Kingsley Way,FREEHOLD,NJ,07728,
6,Springwood Drive,MONROE TOWNSHIP,NJ,08831,
6,Woodland Court,KINNELON,NJ,07405,
231,3Rd Avenue,LONG BRANCH,NJ,07740,
17,East   10th Street,BAYONNE,NJ,07002,
14,Ridgewood Avenue,NEWTON,NJ,07860,
287,Newton-Swartswood Road,HAMPTON,NJ,08827,
344,Lunar Road,PISCATAWAY,NJ,08854,
8,Shetland Drive,CRANFORD,NJ,07016,
33,Loantaka Lane North,MORRISTOWN,NJ,07960,
104,Church Street,KEYPORT,NJ,07735,
716,Pacific Avenue,CAPE MAY,NJ,08204,
56,Franklin Avenue,HAZLET TOWNSHIP,NJ,07734,
1,Barbara Drive,SUCCASUNNA,NJ,07876,
628,Ocean Avenue,SEA BRIGHT,NJ,07760,
40,Southgate Drive,ANNANDALE,NJ,08801,
13,Shinnecock Court,MONROE TOWNSHIP,NJ,08831,
46,Daffodil Drive,TUCKERTON,NJ,08087,
409,Church Street,HACKETTSTOWN,NJ,07840,
164,Meadowbrook Road,ENGLEWOOD,NJ,07631,
17,East   Main Street,HAMPTON,NJ,08827,
37,Intrepid Place,JERSEY CITY,NJ,07305,
515,Main Street,CHATHAM,NJ,07928,
1094,Dell Street,TOMS RIVER,NJ,08755,
337,Spruce Street,CAMDEN,NJ,08103,
443,Monticello Lane,LAKEWOOD,NJ,08701,
785,Green Street,ISELIN,NJ,08830,
57,Dillingham Place,ENGLEWOOD CLIFFS,NJ,07632,
8,Mccutcheon Court,MIDDLETOWN,NJ,07748,
18,East   Munsell Avenue,LINDEN,NJ,07036,
32,Sweetwood Court,WEST CALDWELL,NJ,07006,
49,Neil Avenue,BRICK,NJ,08724,
777,Knoll Road,LAKE HIAWATHA,NJ,07034,
4,Point Drive,LONGPORT,NJ,08403,
19,Morgan Drive,CLAYTON,NJ,08312,
119,Burnside Avenue,CRANFORD,NJ,07016,
123,Mapletree Road,TOMS RIVER,NJ,08753,
187,Washburn Avenue,WASHINGTON,NJ,07882,
207,Trebing Place,UNION,NJ,07083,
4,Littlefield Court,HAWORTH,NJ,07641,
,Greenbrook Road,GREEN BROOK,NJ,08812,
37,Major Road,MONMOUTH JUNCTION,NJ,08852,
22,Federal Key,COLTS NECK,NJ,07722,
191,Miller Street,NEWARK,NJ,07114,
150,Forest Street,KEARNY,NJ,07032,
9,White Oaks Drive,SAYREVILLE,NJ,08872,
5378,Lake Road,NEWFIELD,NJ,08344,
104,Heath Drive,HACKETTSTOWN,NJ,07840,
303,Ege Avenue,JERSEY CITY,NJ,07304,
418,2nd Street,DUNELLEN,NJ,08812,
302,Note Boom Avenue,BROWNS MILLS,NJ,08015,
449,Ward Avenue,TRENTON,NJ,08619,
581,South   Beverwyck Road,PARSIPPANY,NJ,07054,
16,Beech Place,DENVILLE,NJ,07834,
813,Central Avenue,SPRING LAKE,NJ,07762,
62,Kresson Road,CHERRY HILL,NJ,08034,
359,South   Girard Street,WOODBURY,NJ,08096,
1210,Haddon Avenue,CAMDEN,NJ,08103,
132,West   Franklin Street,BOUND BROOK,NJ,08805,
107,Niagara Lane,WILLINGBORO,NJ,08046,
315,Lasalle Avenue,HASBROUCK HEIGHTS,NJ,07604,
82,Union Avenue,IRVINGTON,NJ,07111,
48,Bell Street,ORANGE,NJ,07050,
418,Genesee Street,TRENTON,NJ,08611,
134,Old Bloomfield Avenue,PARSIPPANY,NJ,07054,
67,Maple Avenue,WEST ORANGE,NJ,07052,
211,1st Street,HOBOKEN,NJ,07030,
16,Fireside Court,WILLINGBORO,NJ,08046,
335,Chestnut Place,PISCATAWAY,NJ,08854,
318,Howard Avenue,FAIR LAWN,NJ,07410,
13,Colasurdo Court,EDISON,NJ,08820,
209,Squankum Road,FARMINGDALE,NJ,07727,
2606,Gates Court,MORRIS PLAINS,NJ,07950,
109,Wood Street,WYCKOFF,NJ,07481,
10,Tynemouth Court,TRENTON,NJ,08691,
457,Westminster Place,LODI,NJ,07644,
8,Shenandoah Crescent,WHARTON,NJ,07885,
38,Sally Harden Road,SUSSEX,NJ,07461,
109,West   Rosedale Avenue,NORTHFIELD,NJ,08225,
110,11th Avenue,PINE HILL,NJ,08021,
13,4th Avenue,ROEBLING,NJ,08554,
597,Brookside Place,CRANFORD,NJ,07016,
47,Lodi Street,HACKENSACK,NJ,07601,
120,Park Place,IRVINGTON,NJ,07111,
84,North   14th Street,PROSPECT PARK,NJ,07508,
307,Burlington Avenue,DELANCO,NJ,08075,
12,Elberon Avenue,ALLENHURST,NJ,07711,
11,Betony Court,NEWTON,NJ,07860,
1,Claridge Drive,VERONA,NJ,07044,
23,Lasalle Avenue,HASBROUCK HEIGHTS,NJ,07604,
321,Delaware Avenue,ROEBLING,NJ,08554,
286,Crestwood Drive,MILLTOWN,NJ,08850,
1252,Ohio Avenue,CAPE MAY,NJ,08204,
20,Monmouth Road,MONROE TOWNSHIP,NJ,08831,
23,Pine Street,VERNON,NJ,07462,
36,Bristel Road,HOLMDEL,NJ,07733,
106,Snake Den Road,RINGWOOD,NJ,07456,
25,Pilgrim Court,MORRISTOWN,NJ,07960,
43,Pierhead Drive,BARNEGAT,NJ,08005,
67,Partridge Hill,UPPER SADDLE RIVER,NJ,07458,
336,Rancocas Drive,BRICK,NJ,08724,
24,Macedulski Terrace,SOUTH AMBOY,NJ,08879,
9,Gail Drive,FLANDERS,NJ,07836,
228,Levis Drive,MOUNT HOLLY,NJ,08060,
904,Jefferson Street,HOBOKEN,NJ,07030,
128,Hampton Drive,BERKELEY HEIGHTS,NJ,07922,
62,Ables Run Drive,ABSECON,NJ,08201,
115,East   Kings Highway,MAPLE SHADE,NJ,08052,
812,Blue Spring Road,PRINCETON,NJ,08540,
608,Woodland Avenue,AVON BY THE SEA,NJ,07717,
120,Melville Avenue,LAKEWOOD,NJ,08701,
39,Empire Lane,LAKEWOOD,NJ,08701,
26,Weber Avenue,EWING,NJ,08638,
33,Ray Court,BEDMINSTER,NJ,07921,
343,Brunswick Avenue,TRENTON,NJ,08618,
973,Martha Boulevard,ATCO,NJ,08004,
7,Tory Lane,MARLTON,NJ,08053,
37,Woodlake Drive,MARLTON,NJ,08053,
411,River Styx Road,HOPATCONG,NJ,07843,
86,Cedar Lane,PRINCETON,NJ,08540,
20,County Road,TENAFLY,NJ,07670,
65,Dukes Street,KEARNY,NJ,07032,
200,Madison Avenue,LUMBERTON,NJ,08048,
147,Ramsey Avenue,MARLTON,NJ,08053,
1246,Salem Avenue,HILLSIDE,NJ,07205,
27,Parsons Road,EAST BRUNSWICK,NJ,08816,
150,Swamp Road,CHATHAM,NJ,07928,
127,Lehigh Avenue,NEWARK,NJ,07112,
28,Joyce Kilmer Avenue,NEW BRUNSWICK,NJ,08901,
904,Bergen Place,SEA GIRT,NJ,08750,
111,Roff Avenue,PALISADES PARK,NJ,07650,
1450,Palisade Avenue,FORT LEE,NJ,07024,
5105,White Horse Pike,EGG HARBOR CITY,NJ,08215,
1162,Atlantic Avenue,CAMDEN,NJ,08104,
424,Long Hill Road,HILLSBOROUGH,NJ,08844,
106,Coon Den Road,VERNON,NJ,07462,
35,Nichols Street,BRIDGETON,NJ,08302,
35,West   18th Street,OCEAN CITY,NJ,08226,
32,Bromley Road,MONTVILLE,NJ,07045,
82,Winay Terrace,LONG VALLEY,NJ,07853,
29,Trenton Terrace,WAYNE,NJ,07470,
38,West   Lincoln Avenue,ROCKAWAY,NJ,07866,
11,Inglewood Lane,MATAWAN,NJ,07747,
15,Stagg Street,JERSEY CITY,NJ,07306,
215,North   8th Avenue,MANVILLE,NJ,08835,
3,Timber Ridge Drive,WARREN,NJ,07059,
10,Westbrook Drive,CHERRY HILL,NJ,08003,
53,Vicari Way,LITTLE EGG HARBOR TWP,NJ,08087,
752,Centre Street,TRENTON,NJ,08611,
11,Dukoff Drive,TRENTON,NJ,08690,
77,Hudson Street,JERSEY CITY,NJ,07302,
1876,Little Drive,WOODBURY,NJ,08096,
42,Norman Avenue,RIVERSIDE,NJ,08075,
115,Atkins Avenue,Asbury Park,NJ,07712,
8721,Brittany Drive,WAYNE,NJ,07470,
4,Woodhampton Drive,EWING,NJ,08638,
18,Hillcrest Avenue,WASHINGTON,NJ,07882,
357,Park Avenue,FREEHOLD,NJ,07728,
25,Amber Drive,OLD BRIDGE,NJ,08857,
5,Kingsland Road,BOONTON,NJ,07005,
33,Highfield Lane,NUTLEY,NJ,07110,
1119,River Road,NEW MILFORD,NJ,07646,
54,Cedar Brook Road,HEWITT,NJ,07421,
73,Moonlight Court,TOMS RIVER,NJ,08753,
30,Alpine Drive,LINCOLN PARK,NJ,07035,
586,Delancey Street,NEWARK,NJ,07105,
1421,Tristram Circle,MANTUA,NJ,08051,
1209,Lansdowne Avenue,CAMDEN,NJ,08104,
431,Springfield Avenue,NEWARK,NJ,07103,
146,Chestnut Street,RED BANK,NJ,07701,
737,Roseland Place,NORTH BRUNSWICK,NJ,08902,
11,Meadow Lakes,HAMBURG,NJ,07419,
129,Ogden Avenue,JERSEY CITY,NJ,07307,
72,Ave C,LODI,NJ,07644,
235,Highland Avenue,KEARNY,NJ,07032,
0,William Street,MANVILLE,NJ,08835,
110,Woody Road,FREEHOLD,NJ,07728,
1118,Harker Avenue,WEST DEPTFORD,NJ,08096,
157,Greenwood Avenue,EAST ORANGE,NJ,07017,
610,St Andrews Place,MANALAPAN,NJ,07726,
8,Hopkinson Court,MARLBORO,NJ,07746,
2251,Elizabeth Avenue,SCOTCH PLAINS,NJ,07076,
43,Lillian Place,GLENDORA,NJ,08029,
,Salix Plaza,MONROE TOWNSHIP,NJ,08831,
1,Cedar Crest Village Drive,POMPTON PLAINS,NJ,07444,
22,Bergen Avenue,WALDWICK,NJ,07463,
2700,Kennedy Boulevard,JERSEY CITY,NJ,07306,
1382,Crown Point Road,WEST DEPTFORD,NJ,08093,
86,Lester Street,WALLINGTON,NJ,07057,
75,Central Avenue,HILLSDALE,NJ,07642,
631,Fulton Street,ELIZABETHPORT,NJ,07206,
646,Lehigh Avenue,UNION,NJ,07083,
17,Ingraham Place,NEWARK,NJ,07108,
2,Sagebrush Lane,SICKLERVILLE,NJ,08081,
151,Huddy Drive,TOMS RIVER,NJ,08755,
3,Hilltop Place,HAZLET,NJ,07730,
343,Jackson Mills Road,FREEHOLD,NJ,07728,
1346,Ventura Drive,LAKEWOOD,NJ,08701,
43,Washington Street,WEST ORANGE,NJ,07052,
201,Grove Street,ROSELLE,NJ,07203,
2603,Davies Avenue,PENNSAUKEN,NJ,08109,
35,Stryker Court,BRIDGEWATER,NJ,08807,
2963,Wilson Avenue,VINELAND,NJ,08360,
10,Troy Drive,LIVINGSTON,NJ,07039,
216,Nariticong Avenue,HOPATCONG,NJ,07843,
125,Broad Street,EATONTOWN,NJ,07724,
139,Broad Avenue,LEONIA,NJ,07605,
203,Bittlewood Avenue,BERLIN,NJ,08009,
128,Cedar Grove Road,BRANCHBURG,NJ,08876,
114,Rutgers Lane,PARSIPPANY,NJ,07054,
6,Beacon Drive,HOWELL,NJ,07731,
23,Adirondack Boulevard,TRENTON,NJ,08619,
496,Princeton Avenue,BRICK,NJ,08724,
419,Longwood Drive,HADDONFIELD,NJ,08033,
569,Burke Road,JACKSON,NJ,08527,
713,Hunterdon Street,NEWARK,NJ,07108,
32,Mountain Avenue,HAWTHORNE,NJ,07506,
11,Cayuga Way,SHORT HILLS,NJ,07078,
317,Taylor Avenue,OAKLYN,NJ,08107,
5,Caldwell Avenue,MARLTON,NJ,08053,
754,East   Front Street,PLAINFIELD,NJ,07062,
1763,Linvale Harbourton Road,LAMBERTVILLE,NJ,08530,
51,Hiering Avenue,SEASIDE HEIGHTS,NJ,08751,
,Cambridge Circle,MANCHESTER,NJ,08759,
1069,Woodland Avenue,ORADELL,NJ,07649,
227,Port Avenue,ELIZABETHPORT,NJ,07206,
30,Butler Boulevard,BAYVILLE,NJ,08721,
6500,Black Horse Pike,EGG HARBOR TOWNSHIP,NJ,08234,
209,Oakshade Road,TABERNACLE,NJ,08088,
24,Renner Avenue,NUTLEY,NJ,07110,
66,Seminole Avenue,OAKLAND,NJ,07436,
794,Nassau Street,NORTH BRUNSWICK,NJ,08902,
62,Cheshire Drive,GALLOWAY,NJ,08205,
12,New York Avenue,LAVALLETTE,NJ,08735,
2515,East   Evesham Road,CHERRY HILL,NJ,08003,
111,Michele Way,LAKEWOOD,NJ,08701,
710,Washington Street,HACKETTSTOWN,NJ,07840,
125,East   Chestnut Avenue,WILDWOOD,NJ,08260,
3404,Shoreline Drive,Farmingdale,NJ,07727,
16,Forest Place,TOWACO,NJ,07082,
51,Carpenter Street,MILFORD,NJ,08848,
7,John Street,MONTVALE,NJ,07645,
,Bay Avenue,OCEAN CITY,NJ,08226,
1222,Steeplechase Court,TOMS RIVER,NJ,08755,
3,Cobbler Court,MEDFORD,NJ,08055,
17,Poppy Road,EGG HARBOR TOWNSHIP,NJ,08234,
5,Merritt Terrace,MATAWAN,NJ,07747,
221,Coryell Road,LAMBERTVILLE,NJ,08530,
85,Harrison Street,HOBOKEN,NJ,07030,
9,Rydal Road,PRINCETON,NJ,08540,
710,Rt 23  South,POMPTON PLAINS,NJ,07444,
1305,Valley Road,MONTCLAIR,NJ,07043,
36,Woodland Road,BAYVILLE,NJ,08721,
12,Church Landing Road,PENNSVILLE,NJ,08070,
223,High Street,PERTH AMBOY,NJ,08861,
6,Labaw Drive,CRANBURY,NJ,08512,
6184,Eagle Drive,MAYS LANDING,NJ,08330,
308,Brakeley Avenue,PHILLIPSBURG,NJ,08865,
235,Crescent Avenue,WEST DEPTFORD,NJ,08096,
531,Morton Avenue,BRIDGETON,NJ,08302,
3,Wayside Place,RIVERDALE,NJ,07457,
98,Lotus Lane,PARAMUS,NJ,07652,
111,Lincoln Avenue,NORTH ARLINGTON,NJ,07031,
432,Valley Road,MONTCLAIR,NJ,07043,
10,Valley View Drive,RAMSEY,NJ,07446,
44,Genesse Avenue,OCEANPORT,NJ,07757,
28,Piedmont Drive,OLD BRIDGE,NJ,08857,
148,West   Forest Avenue,TEANECK,NJ,07666,
17,Cambridge Avenue,DENVILLE,NJ,07834,
86,Maple Street,RUTHERFORD,NJ,07070,
339,Ewing Street,PRINCETON,NJ,08540,
407,Bradford Court,HILLSBOROUGH,NJ,08844,
1037,Fairview Place,HILLSIDE,NJ,07205,
331,Duff Avenue,WENONAH,NJ,08090,
5,Alcor Road,RANDOLPH,NJ,07869,
413,Terhune Avenue,PARAMUS,NJ,07652,
3915,Winchester Avenue,ATLANTIC CITY,NJ,08401,
1154,Red Bank Avenue,WEST DEPTFORD,NJ,08086,
,Harwood Court,MOUNT LAUREL,NJ,08054,
167,Orchard Avenue,SOUTH AMBOY,NJ,08879,
,Rutherford Hayes Drive,MONROE TOWNSHIP,NJ,08831,
65,Hampshire Way,MEDFORD,NJ,08055,
104,Ilford Avenue,NORTH ARLINGTON,NJ,07031,
78,East   Van Ness Avenue,RUTHERFORD,NJ,07070,
105,Lake Drive East,WAYNE,NJ,07470,
86,Biddle Way,MOUNT LAUREL,NJ,08054,
13,Sawmill Road,MEDFORD,NJ,08055,
922,Kilsyth Road,ELIZABETH,NJ,07208,
12,Floyd Road,VERONA,NJ,07044,
40,Tillinghast Street,NEWARK,NJ,07108,
11,Nassau Avenue,WEST DEPTFORD,NJ,08096,
63,Elsie Drive,PLAINSBORO,NJ,08536,
,Thornbury Lane,MANCHESTER,NJ,08759,
1090,Orchard Street,NORTH BRUNSWICK,NJ,08902,
85,East   Laurel Street,CARTERET,NJ,07008,
10,Powder Horn Drive,MORRISTOWN,NJ,07960,
6,Indian Spring Trail,DENVILLE,NJ,07834,
6,Van Marter Court,PRINCETON,NJ,08540,
7,Condit Court,ROSELAND,NJ,07068,
40,South   Harrisburg Avenue,ATLANTIC CITY,NJ,08401,
46,Hampshire Court,NEW EGYPT,NJ,08533,
217,Norfolk Street,NEWARK,NJ,07103,
16,Vivian Plaza,ANDOVER,NJ,07821,
213,West   Franklin Street,BOUND BROOK,NJ,08805,
40,Summit Avenue,CEDAR GROVE,NJ,07009,
326,Byron Street,CAMDEN,NJ,08102,
1811,Verona Avenue,LINDEN,NJ,07036,
62,Stein Avenue,WALLINGTON,NJ,07057,
52,Central Avenue,SEWAREN,NJ,07077,
136,East   Pierrepont Avenue,RUTHERFORD,NJ,07070,
26,Bianculli Drive,SOUTH PLAINFIELD,NJ,07080,
129,Browning Avenue,EWING,NJ,08638,
289,Varick Street,JERSEY CITY,NJ,07302,
261,Bellair Road,RIDGEWOOD,NJ,07450,
84,George Avenue,EDISON,NJ,08820,
1134,Rogers Avenue,VINELAND,NJ,08361,
14,Lilac Street,EDISON,NJ,08817,
212,High Crest Drive,WEST MILFORD,NJ,07480,
423,New Orleans Avenue,EGG HARBOR CITY,NJ,08215,
602,Mt Laurel Road,HAINESPORT,NJ,08036,
516,Moravian Avenue,DELRAN,NJ,08075,
22,Hidden Harbor,POINT PLEASANT BORO,NJ,08742,
1203,Wildwood Avenue,MANASQUAN,NJ,08736,
1520,Yacht Avenue,CAPE MAY,NJ,08204,
535,South   Clinton Avenue,TRENTON,NJ,08611,
475,East   Bay Avenue,BARNEGAT,NJ,08005,
3,Almark Terrace,ASBURY PARK,NJ,07712,
24,Evergreen Lane,BURLINGTON,NJ,08016,
61,Silvermeade Drive,FREEHOLD,NJ,07728,
118,Hancock Drive,LITTLE EGG HARBOR TWP,NJ,08087,
153,Mcgregor Avenue,MOUNT ARLINGTON,NJ,07856,
425,Hollywood Avenue,HILLSIDE,NJ,07205,
788,5th Avenue,RIVER EDGE,NJ,07661,
138,Columbia Street,HIGHLAND PARK,NJ,08904,
1147,Church Street,HILLSIDE,NJ,07205,
148,South   Leswing Avenue,SADDLE BROOK,NJ,07663,
44,Irvington Road,PARSIPPANY,NJ,07054,
605,Crown Point Road,WESTVILLE,NJ,08093,
10,Yale Court,LIVINGSTON,NJ,07039,
19,Fieldstone Drive,CLINTON,NJ,08809,
11,Delwood Road,CHESTER,NJ,07930,
71,Hackensack Street,EAST RUTHERFORD,NJ,07073,
43,Horseshoe Court,TINTON FALLS,NJ,07753,
14,Byron Place,LIVINGSTON,NJ,07039,
27,Robert Street,PATERSON,NJ,07503,
141,Tansboro Road,BERLIN,NJ,08009,
151,Seeley Avenue,KEARNY,NJ,07032,
56,Freedom Road,SEWELL,NJ,08080,
473,Arbor Place,NEW MILFORD,NJ,07646,
169,Ridgedale Avenue,MORRISTOWN,NJ,07960,
764,East   Clark Circle,ORANGE,NJ,07050,
421,Magnolia Avenue,SOMERDALE,NJ,08083,
176,Washington Avenue,CLIFTON,NJ,07011,
70,Sanford Avenue,BELLEVILLE,NJ,07109,
118,Washington Street,LONG BRANCH,NJ,07740,
436,Herrick Drive,DOVER,NJ,07801,
24,South   Oak Avenue,FORDS,NJ,08863,
700,Park Avenue,LAKEWOOD,NJ,08701,
473,Eagle Pass,BRICK,NJ,08723,
160,White Road,Shrewsbury,NJ,07702,
68,Delaware Avenue,LAMBERTVILLE,NJ,08530,
75,Brighten Drive,TRENTON,NJ,08619,
319,New Brunswick Avenue,EAST BRUNSWICK,NJ,08816,
254,Spruce Court,FLEMINGTON,NJ,08822,
120,Raleigh Avenue,CAPE MAY COURT HOUSE,NJ,08210,
325,Lafayette Avenue,WENONAH,NJ,08090,
21,Tradition Circle,EGG HARBOR TOWNSHIP,NJ,08234,
40,Laura Drive,GILLETTE,NJ,07933,
9,Johnson Place,OAK RIDGE,NJ,07438,
11,Lawrence Road,BRIDGETON,NJ,08302,
32,Broad Terrace,BLOOMFIELD,NJ,07003,
49,Hillcrest Avenue,WASHINGTON,NJ,07882,
50,Chadwick Place,GLEN ROCK,NJ,07452,
15,8th Street,NORTH ARLINGTON,NJ,07031,
205,North   Mansfield Avenue,MARGATE CITY,NJ,08402,
2731,Woodbridge Avenue,EDISON,NJ,08817,
144,Front Street,NORTH ARLINGTON,NJ,07031,
104,Harborage Place,BARNEGAT,NJ,08005,
38,Horseshoe Drive,OAK RIDGE,NJ,07438,
25,Hyacinth Lane,SICKLERVILLE,NJ,08081,
1112,Market Street,BELLMAWR,NJ,08031,
6201,Battle Lane,MILLVILLE,NJ,08332,
1326,Oxford Street,MAHWAH,NJ,07430,
563,North   Laurel Street,BRIDGETON,NJ,08302,
77,Parmalee Avenue,HAWTHORNE,NJ,07506,
257,Tulip Lane,FREEHOLD,NJ,07728,
13,Harrison Street,RED BANK,NJ,07701,
14,Alpine Road,HOLMDEL,NJ,07733,
506,Princeton Avenue,LAKEWOOD,NJ,08701,
30,Buttonbush Lane,WILLINGBORO,NJ,08046,
124,Lincoln Boulevard,MIDDLESEX,NJ,08846,
34,Farnham Square,PARLIN,NJ,08859,
43,Herman Thau Road,ANNANDALE,NJ,08801,
1084,Elizabeth Avenue,ELIZABETH,NJ,07201,
23,Sweetmans Lane,MANALAPAN,NJ,07726,
28,Church Street,KEANSBURG,NJ,07734,
62,Delaware Avenue,PATERSON,NJ,07503,
1019,Cooper Street,BEVERLY,NJ,08010,
271,East   19th Street,PATERSON,NJ,07524,
269,Longwood Court,SOMERSET,NJ,08873,
179,Ridge Street,NEWARK,NJ,07104,
106,Thomas Place,EDISON,NJ,08837,
380,20th Avenue,BRICK,NJ,08724,
17,John Circle,NORWOOD,NJ,07648,
310,Perry Road,WOODBINE,NJ,08270,
1,Briar Lane,BLACKWOOD,NJ,08012,
107,Hemlock Drive,NEPTUNE,NJ,07753,
841,Beatty Street,TRENTON,NJ,08611,
429,7th Avenue,ROSELLE,NJ,07203,
27,Sartori Avenue,MOUNT EPHRAIM,NJ,08059,
1857,Forest Grove Road,VINELAND,NJ,08360,
83,Pine Street,BRIDGEWATER,NJ,08807,
110,Westview Road,SHORT HILLS,NJ,07078,
209,Richdale Road,COLTS NECK,NJ,07722,
17,Loomis Street,ELIZABETHPORT,NJ,07206,
936,Elberon Avenue,LONG BRANCH,NJ,07740,
293,River Road,MONTAGUE,NJ,07827,
21,Turret Drive,MONROE TOWNSHIP,NJ,08831,
18,Dahlia Court,PISCATAWAY,NJ,08854,
421,West   Holly Avenue,PITMAN,NJ,08071,
12,Dana Drive,WALDWICK,NJ,07463,
3,Mackenzie Court,FREEHOLD,NJ,07728,
61,Cottonwood Street,JERSEY CITY,NJ,07305,
405,Mountain Avenue,GILLETTE,NJ,07933,
172,Garner Avenue,BLOOMFIELD,NJ,07003,
4,Redding Place,TOWACO,NJ,07082,
953,Walnut Street,ELIZABETH,NJ,07201,
33,Haverford Road,PRINCETON JUNCTION,NJ,08550,
1,Pine Lakes Circle,JACKSON,NJ,08527,
112,Hillside Avenue,NUTLEY,NJ,07110,
29,Lindsley Place,EAST ORANGE,NJ,07018,
7,Overbrook Place,NEPTUNE,NJ,07753,
182,Speedwell Avenue,MORRISTOWN,NJ,07960,
158,West   20th Street,BAYONNE,NJ,07002,
24,Homer Street,PARSIPPANY,NJ,07054,
1036,Collings Road,CAMDEN,NJ,08104,
703,Brook Hollow Drive,WHIPPANY,NJ,07981,
347,Genesee Street,TRENTON,NJ,08611,
116,West   Clearview Avenue,PINE HILL,NJ,08021,
,Terrace Drive,CHATHAM,NJ,07928,
500,East   St Paul Avenue,WILDWOOD,NJ,08260,
40,Minerva Avenue,HAWTHORNE,NJ,07506,
65,Honeysuckle Drive,MANAHAWKIN,NJ,08050,
40,Chester Road,GLADSTONE,NJ,07934,
31,West   Hudson Drive,LITTLE EGG HARBOR TWP,NJ,08087,
34,Kate Lane,METUCHEN,NJ,08840,
858,Main Street,BELFORD,NJ,07718,
45,Nassau Road,LUMBERTON,NJ,08048,
4,White Stone Court,MOUNT LAUREL,NJ,08054,
514,Broad Street,BEVERLY,NJ,08010,
1006,Bradford,MULLICA HILL,NJ,08062,
117,Cindy Street,OLD BRIDGE,NJ,08857,
1,Fir Court,FLEMINGTON,NJ,08822,
452,Stuyvesant Avenue,IRVINGTON,NJ,07111,
327,Maria Drive,TOMS RIVER,NJ,08753,
19,Van Lieus Road,RINGOES,NJ,08551,
5020,Lexington Avenue,PENNSAUKEN,NJ,08109,
9,Coriander Drive,LUMBERTON,NJ,08048,
258,Paper Mill Road,WOODBINE,NJ,08270,
853,Edge Park Drive,HADDONFIELD,NJ,08033,
1,Ridge Road,GREEN BROOK,NJ,08812,
2,Pelle Court,FLORENCE,NJ,08518,
4,Braintree Court,FLEMINGTON,NJ,08822,
113,Carmel Drive,LAVALLETTE,NJ,08735,
110,Stonehurst Boulevard,FREEHOLD,NJ,07728,
13,Thomas Road,VOORHEES,NJ,08043,
4,Wind Meadow,HAMBURG,NJ,07419,
163,South   Parkway,CLIFTON,NJ,07014,
32,Milton Avenue,HOPATCONG,NJ,07843,
607,Ramapo Avenue,POMPTON LAKES,NJ,07442,
1,Towpath Court,PRINCETON,NJ,08540,
37,Juniper Street,JERSEY CITY,NJ,07305,
56,Sylvester Street,TRENTON,NJ,08638,
1308,Morris Avenue,UNION,NJ,07083,
216,Linden Place,NEW MILFORD,NJ,07646,
717,Mountain Avenue,SPRINGFIELD,NJ,07081,
400,North   Black Horse Pike,RUNNEMEDE,NJ,08078,
146,Fillmore Street,PHILLIPSBURG,NJ,08865,
331,North   Hook Road,PENNSVILLE,NJ,08070,
106,Lindale Avenue,WILLIAMSTOWN,NJ,08094,
233,Howell Street,TRENTON,NJ,08610,
39,Mill Street,BELLEVILLE,NJ,07109,
5,Windsor Road,MORRIS PLAINS,NJ,07950,
25,Robin Road,DEMAREST,NJ,07627,
135,Freeman Avenue,EAST ORANGE,NJ,07018,
16,Oak Circle,ABSECON,NJ,08201,
149,Essex Street,JERSEY CITY,NJ,07302,
337,Elm Street,NEWARK,NJ,07105,
126,Kings Village,BUDD LAKE,NJ,07828,
2,Mozart Avenue,WASHINGTON,NJ,07882,
26,Nancy Terrace,HACKETTSTOWN,NJ,07840,
913,5th Street,CAMDEN,NJ,08102,
19,Daniel Road,FAIRFIELD,NJ,07004,
1537,Rose Terrace,UNION,NJ,07083,
138,East   Sherman Avenue,VINELAND,NJ,08360,
19,Crossland Avenue,SALEM,NJ,08079,
3,Rector Place,BLOOMFIELD,NJ,07003,
404,Island Road,COLUMBUS,NJ,08022,
208,River Place,BUTLER,NJ,07405,
23,Victory Place,EAST BRUNSWICK,NJ,08816,
3106,Revere Boulevard,BRIGANTINE,NJ,08203,
11,Tanglewood Lane,BASKING RIDGE,NJ,07920,
1295,Red Bank Avenue,WEST DEPTFORD,NJ,08086,
14,Memory Lane,RANDOLPH,NJ,07869,
106,Hilltop Lane,WYCKOFF,NJ,07481,
9,Eliot Road,MANALAPAN,NJ,07726,
24,Chrissy Way,SICKLERVILLE,NJ,08081,
710,Rugby Road,PHILLIPSBURG,NJ,08865,
410,Hancock Drive,MULLICA HILL,NJ,08062,
414,1st Avenue,ROSELLE,NJ,07203,
63,Iowa Avenue,LAKE HOPATCONG,NJ,07849,
207,Cumberland Street,GLOUCESTER CITY,NJ,08030,
115,East   Crocus Road,WILDWOOD,NJ,08260,
6,Payne Court,EDISON,NJ,08820,
620,Lafayette Avenue,TRENTON,NJ,08610,
653,Westfield Avenue,WESTFIELD,NJ,07090,
733,Pembroke Lane,RIDGEFIELD,NJ,07657,
206,Howell Street,TRENTON,NJ,08610,
482,Cutler Avenue,MAPLE SHADE,NJ,08052,
75,Berkeley Avenue,BLOOMFIELD,NJ,07003,
,Zacatin Road,FREEHOLD,NJ,07728,
606,Corliss Court,BRANCHBURG,NJ,08876,
483,Parker Street,NEWARK,NJ,07104,
61,Rona Lane,MANAHAWKIN,NJ,08050,
380,South   Lenola Road,MAPLE SHADE,NJ,08052,
895,McBride Avenue,WOODLAND PARK,NJ,07424,
177,Woodcliff Boulevard,MORGANVILLE,NJ,07751,
78,Scarlet Drive,PARLIN,NJ,08859,
7,Taylor Lane,BARNEGAT,NJ,08005,
25,Hawthorne Place,SUMMIT,NJ,07901,
18,Wordsworth Court,EAST WINDSOR,NJ,08520,
829,Atlantic Avenue,OCEAN CITY,NJ,08226,
2,Derby Lane,TOMS RIVER,NJ,08757,
119,40th Street,SEA ISLE CITY,NJ,08243,
3573,Bay Avenue,OCEAN CITY,NJ,08226,
11,East   10th Street,LINDEN,NJ,07036,
67,Suffolk Way,MARLBORO,NJ,07746,
488,South   18th Street,NEWARK,NJ,07103,
883,Anna Street,ELIZABETH,NJ,07201,
48,Nairn Place,NEWARK,NJ,07108,
270,Cory Lane,ELMWOOD PARK,NJ,07407,
120,Harvard Avenue,BRIDGETON,NJ,08302,
16,Hamilton Avenue,CRANFORD,NJ,07016,
465,Avenue A,BAYONNE,NJ,07002,
364,Elmwood Avenue,MAPLEWOOD,NJ,07040,
50,Maddaket Village,SCOTCH PLAINS,NJ,07076,
245,West   Commercial Avenue,MOONACHIE,NJ,07074,
310,Sandford Avenue,NEWARK,NJ,07106,
122,Dumont Avenue,CLIFTON,NJ,07013,
8,Jimmy Court,SOMERSET,NJ,08873,
77,Howard Street,PERTH AMBOY,NJ,08861,
16,Lincoln Place,WALDWICK,NJ,07463,
20,South   Midland Avenue,KEARNY,NJ,07032,
2,Patterson Street,HILLSDALE,NJ,07642,
6,Southview Road,RANDOLPH,NJ,07869,
70,West   Woodbridge Avenue,ISELIN,NJ,08830,
202,Sorrentino Way,MAYS LANDING,NJ,08330,
110,Allen Street,SWEDESBORO,NJ,08085,
123,Taft Drive,BRICK,NJ,08724,
639,Linden Street,PARAMUS,NJ,07652,
5,Cardinal Road,HACKETTSTOWN,NJ,07840,
17,Winston Drive,SOMERSET,NJ,08873,
29,West   Shore Trail,STOCKHOLM,NJ,07460,
1043,Linda Lane,VINELAND,NJ,08360,
1,Euclid Avenue,NEWARK,NJ,07105,
438,Moore Boulevard,CLAYTON,NJ,08312,
8,Oswego Avenue,LAKE HIAWATHA,NJ,07034,
325,Erie Street,CAMDEN,NJ,08102,
4102,Remington Avenue,PENNSAUKEN,NJ,08110,
96,East Avenue,ATLANTIC HIGHLANDS,NJ,07716,49
1104,Beechwood Drive,ATCO,NJ,08004,
390,Morris Avenue,SUMMIT,NJ,07901,
1596,Chestnut Avenue,TRENTON,NJ,08611,
2,North   Lakeside Drive West,MEDFORD,NJ,08055,
335,Warren Street,PHILLIPSBURG,NJ,08865,
2,Canterbury Court,WARREN,NJ,07059,
1000,West   Oak Road,VINELAND,NJ,08360,
2105,Bayshore Road,VILLAS,NJ,08251,
32,Willet Street,BLOOMFIELD,NJ,07003,
228,Devon Road,ESSEX FELLS,NJ,07021,
76,Heritage Pt Boulevard,BARNEGAT,NJ,08005,
818,8th Street,CAMDEN,NJ,08103,
40,Sanford Avenue,EMERSON,NJ,07630,
33,North     Rochdale Avenue,ROOSEVELT,NJ,08555,
20,Laurel Avenue,TOMS RIVER,NJ,08753,
6,Lincoln Avenue,COLLINGSWOOD,NJ,08108,
10,Edgren Way,MONTVALE,NJ,07645,
146,Hazelwood Circle,WILLINGBORO,NJ,08046,
216,Messina Avenue,HAMMONTON,NJ,08037,
37,Flanders Way,BRIDGEWATER,NJ,08807,
22,Curtis Street,DOVER,NJ,07801,
364,Stuart Place,NEW MILFORD,NJ,07646,
126,Lawrence Avenue,BARRINGTON,NJ,08007,
10,North   11th Street,PATERSON,NJ,07522,
63,Beaumont Court,TINTON FALLS,NJ,07724,
295,Fairway Avenue,BELLEVILLE,NJ,07109,
1783,Main Street,PORT NORRIS,NJ,08349,
34,Legion Place,WHIPPANY,NJ,07981,
217,Fort Avenue,SEASIDE HEIGHTS,NJ,08751,
1905,Parkside Drive,FORKED RIVER,NJ,08731,
48,Day Street,BLOOMFIELD,NJ,07003,
84,Zachary Way,MOUNT ARLINGTON,NJ,07856,
20,Caroline Foster Court,MORRISTOWN,NJ,07960,
6507,Hana Road,EDISON,NJ,08817,
725,Eagle Rock Avenue,WEST ORANGE,NJ,07052,
5,High Point Way,PISCATAWAY,NJ,08854,
511,Salem Avenue,FRANKLINVILLE,NJ,08322,
3207,Brighton Avenue,WALL TOWNSHIP,NJ,07719,
,Oxford Place,WHITING,NJ,08759,
124,Norman Road,NEWARK,NJ,07106,
236,Stephens Street,BELLEVILLE,NJ,07109,
23,Dailey Drive,TRENTON,NJ,08620,
717,South   15th Street,NEWARK,NJ,07103,
201,Orchard Street,CRANFORD,NJ,07016,
135,Melissa Court,LAKEWOOD,NJ,08701,
327,Byron Street,CAMDEN,NJ,08102,
87,Oxford Place,GLEN ROCK,NJ,07452,
1700,Macarthur Boulevard,MAHWAH,NJ,07430,
201,Sherman Street,LINDEN,NJ,07036,
1222,Ohio Avenue,CAPE MAY,NJ,08204,
1460,North   West Avenue,VINELAND,NJ,08360,
4,Errickson Court,JOBSTOWN,NJ,08041,
1621,Main Street,BARNEGAT,NJ,08005,
65,Glenn Drive,BRICK,NJ,08723,
139,55th Street North,SEA ISLE CITY,NJ,08243,
201,Elberon Avenue,PATERSON,NJ,07502,
67,Fisher Drive,FRANKLIN PARK,NJ,08823,
16,Orange Heights Avenue,WEST ORANGE,NJ,07052,
1011,Pitt Street,SOUTH PLAINFIELD,NJ,07080,
427,Delair Avenue,PENNSAUKEN,NJ,08110,
1505,Indiana Avenue,LAWRENCE TOWNSHIP,NJ,08648,
2107,Bayshore Road,VILLAS,NJ,08251,
7,Delaware Avenue,PENNS GROVE,NJ,08069,
56,Dunham Avenue,TOMS RIVER,NJ,08753,
89,Maple Avenue,KEANSBURG,NJ,07734,
86,Stockton Court,MORRIS PLAINS,NJ,07950,
613,Crozier Avenue,NATIONAL PARK,NJ,08063,
40,Fisher Place,RED BANK,NJ,07701,
207,Hillside Avenue,TEANECK,NJ,07666,
312,Brandywine Drive,WILLIAMSTOWN,NJ,08094,
29,Lardner Road,BURLINGTON,NJ,08016,
85,Hoagland Avenue,ROCKAWAY,NJ,07866,
25,Monroe Drive,MARLBORO,NJ,07746,
7,Wolverton Lane,HILLSBOROUGH,NJ,08844,
27,Barbara Way,WAYNE,NJ,07470,
24,New Street,EAST ORANGE,NJ,07017,
20,Blue Ridge Circle,SCOTCH PLAINS,NJ,07076,
195,Fairview Avenue,ENGLEWOOD CLIFFS,NJ,07632,
115,Hawthorne Street,NEPTUNE,NJ,07753,
78,Mckinley Drive,OCEAN,NJ,07712,
309,Stockton Avenue,ROSELLE,NJ,07203,
132,Country Club Drive,MOORESTOWN,NJ,08057,
281,Stratford Place,MORGANVILLE,NJ,07751,
230,Union Street,JERSEY CITY,NJ,07304,
1062,Anna Street,ELIZABETH,NJ,07201,
1166,Aaron Road,NORTH BRUNSWICK,NJ,08902,
520,Ellis Place,SOUTH PLAINFIELD,NJ,07080,
509,3rd Street,LYNDHURST,NJ,07071,
159,Rosenhayn Avenue,BRIDGETON,NJ,08302,
45,2Nd Street,FAIR HAVEN,NJ,07704,
1109,Rowand Court,VOORHEES,NJ,08043,
6106,Salkind Lane,DOVER,NJ,07801,
2681,Bay Drive,VILLAS,NJ,08251,
1203,Cypress Lane,EAST BRUNSWICK,NJ,08816,
38,Newman Street,METUCHEN,NJ,08840,
2245,Beltane Road,TOMS RIVER,NJ,08755,
3,Saratoga Way,OLD BRIDGE,NJ,08857,
345,Blanketflower Lane,PRINCETON JUNCTION,NJ,08550,
32,Mitchell Road,HACKETTSTOWN,NJ,07840,
66,Kuhlthau Avenue,MILLTOWN,NJ,08850,
43,Sparta Avenue,NEWTON,NJ,07860,
28,Taunton Road,MEDFORD,NJ,08055,
614,Jefferson Street,ELIZABETH,NJ,07201,
102,Makin Avenue,POINT PLEASANT BEACH,NJ,08742,
3,Spruce Lane,VERONA,NJ,07044,
38,Mount Pleasant Road,COLUMBIA,NJ,07832,
38,Sinclair Road,EDISON,NJ,08820,
123,Netherwood Avenue,PISCATAWAY,NJ,08854,
277,Lincoln Avenue,ELMWOOD PARK,NJ,07407,
421,Argyle Road,BLACKWOOD,NJ,08012,
2,Iowa Court,JACKSON,NJ,08527,
6,Norfolk Drive,TOMS RIVER,NJ,08757,
241,B Street,PENNS GROVE,NJ,08069,
24,Harrigan Street,EDISON,NJ,08817,
55,Lorraine Drive,CLIFTON,NJ,07012,
967,Lily Court,MORGANVILLE,NJ,07751,
2,Meadow Lane,EAST WINDSOR,NJ,08520,
3105,Hurley Pond Road,WALL TOWNSHIP,NJ,07719,
40,Huron Drive,CHATHAM,NJ,07928,
73,Hillside Drive,BLOOMINGDALE,NJ,07403,
147,Brewster Avenue,PISCATAWAY,NJ,08854,
9,Tuxedo Road,GLEN RIDGE,NJ,07028,
1001,Clinton Street,HOBOKEN,NJ,07030,
74,Hillcrest Road,WARREN,NJ,07059,
44,Park Lane,TRENTON,NJ,08609,
51,Lehigh Avenue,PATERSON,NJ,07503,
8916,Sunset Drive,STONE HARBOR,NJ,08247,
21,Buffa Drive,SOMERSET,NJ,08873,
73,Amsterdam Drive,FREEHOLD,NJ,07728,
42,Washington Street,TRENTON,NJ,08611,
23,Sweetgum Lane,MONMOUTH JUNCTION,NJ,08852,
7675,Blueberry Road,HAMMONTON,NJ,08037,
109,Fowlers Court,OCEAN CITY,NJ,08226,
316,South   Park Street,ELIZABETHPORT,NJ,07206,
42,Elizabeth Drive,OCEANPORT,NJ,07757,
33,Churchill Road,TENAFLY,NJ,07670,
175,Redwood Court,RAMSEY,NJ,07446,
35,Seven Oaks Circle,MADISON,NJ,07940,
1732,I Street,WALL TOWNSHIP,NJ,07719,
55,Lee Avenue,HAWTHORNE,NJ,07506,
2,Douglas Court,VERNON,NJ,07462,
198,Stratford Place,LAKEWOOD,NJ,08701,
305,Glen Avenue,SHORT HILLS,NJ,07078,
234,Madison Road,PARSIPPANY,NJ,07054,
80,Falmouth Road,TRENTON,NJ,08620,
109,Richey Avenue,OAKLYN,NJ,08107,
341,West     Main Street,FREEHOLD,NJ,07728,
501,Creek Road,DELANCO,NJ,08075,
85,Hillside Avenue,GLEN RIDGE,NJ,07028,
52,Red Valley Road,MILLSTONE TOWNSHIP,NJ,08510,
26,Hewetson Road,DENVILLE,NJ,07834,
516,Madison Avenue,ATLANTIC CITY,NJ,08401,
305,Stevens  Street,CAMDEN,NJ,08103,
715,Cedar Point Court,TOMS RIVER,NJ,08753,
3101,Main Road,FRANKLINVILLE,NJ,08322,
59,Sherbrooke Drive,FLORHAM PARK,NJ,07932,
415,Bridgeboro Street,RIVERSIDE,NJ,08075,
50,Bay Laurel Drive,BRICK,NJ,08723,
969,Haran Avenue,MANVILLE,NJ,08835,
26,Fox Hill Road,FAIRFIELD,NJ,07004,
156,West   Park Drive,NEW MILFORD,NJ,07646,
867,Mill Street,PHILLIPSBURG,NJ,08865,
24,Eaton Circle,CLEMENTON,NJ,08021,
11,Tallyho Lane,ANDOVER,NJ,07821,
35,Hope Terrace,LINCOLN PARK,NJ,07035,
1,Wood Thrush Avenue,SICKLERVILLE,NJ,08081,
402,Elmwood Terrace,LINDEN,NJ,07036,
292,Frelinghuysen Avenue,NEWARK,NJ,07114,
15,Howard Boulevard,MOUNT ARLINGTON,NJ,07856,
11,Garden Street,LINCOLN PARK,NJ,07035,
120,Mac Arthur Drive,EDISON,NJ,08837,
1,Franklin Court,MONTVILLE,NJ,07045,
1481,Ocean Drive,AVALON,NJ,08202,
47,Holly Boulevard,SOUTHAMPTON,NJ,08088,
38,Fieldstone Drive,MORRISTOWN,NJ,07960,
11,Billingsley Drive,LIVINGSTON,NJ,07039,
107,Lake Avenue,METUCHEN,NJ,08840,
58,Village Road,NEW VERNON,NJ,07976,
339,Comley Avenue,OAKLYN,NJ,08107,
51,Cherry Street,Eatontown,NJ,07724,
4,Catherine Avenue,SADDLE BROOK,NJ,07663,
32,Silver Hill Road,BLOOMSBURY,NJ,08804,
18,Garden Way,HOWELL,NJ,07731,
23,Buttermilk Bridge Road,WASHINGTON,NJ,07882,
9,Stanley Lane,VILLAS,NJ,08251,
219,Weequahic Avenue,NEWARK,NJ,07112,
806,Allaire Road,SPRING LAKE,NJ,07762,
267,Clipper Road,MANAHAWKIN,NJ,08050,
8,Orchard Street,GARFIELD,NJ,07026,
11,Aberdeen Road,CHATHAM,NJ,07928,
29,North   Eastfield Avenue,TRENTON,NJ,08618,
626,Prospect Avenue,PINE BEACH,NJ,08741,
4,Todd Terrace,WAYNE,NJ,07470,
6,Whitman Avenue,JERSEY CITY,NJ,07306,
7,Turner Place,PISCATAWAY,NJ,08854,
17,Hunters Lane,SOUTHAMPTON,NJ,08088,
42,Buckley Avenue,OXFORD,NJ,07863,
54,Cherryville Road,FLEMINGTON,NJ,08822,
271,Ridge Road,NORTH ARLINGTON,NJ,07031,
341,Three Bridges Road,HILLSBOROUGH,NJ,08844,
1,Goldenrod Court,TRENTON,NJ,08690,
234,Osborne Avenue,BAY HEAD,NJ,08742,
529,Sheridan Avenue,CAPE MAY,NJ,08204,
1034,Grandview Avenue,UNION,NJ,07083,
618,Dakota Trail,FRANKLIN LAKES,NJ,07417,
807,Raws Avenue,SOMERDALE,NJ,08083,
1277,Galveston Avenue,MAYS LANDING,NJ,08330,
621,Edwards Road,PARSIPPANY,NJ,07054,
5,Lyndon Drive,HILLSBOROUGH,NJ,08844,
688,Loretta Terrace,PLAINFIELD,NJ,07062,
1505,Lincoln Avenue,WALL TOWNSHIP,NJ,07719,
5111,West Avenue,LONG BEACH TOWNSHIP,NJ,08008,
427,Delaware Avenue,EGG HARBOR TOWNSHIP,NJ,08234,
,Baldwin Avenue,JERSEY CITY,NJ,07306,
8,Seattle Court,Freehold,NJ,07728,5
315,Clendenny Avenue,JERSEY CITY,NJ,07304,
160,Farragut Avenue,MIDDLESEX,NJ,08846,
86,Whitney Street,NEWARK,NJ,07106,
602,Menantica Drive,MILLVILLE,NJ,08332,
156,School House Road,EGG HARBOR TOWNSHIP,NJ,08234,
,Cambridge Court,LAKEWOOD,NJ,08701,
64,Dellwood Avenue,CHATHAM,NJ,07928,
383,Lancaster Court,PISCATAWAY,NJ,08854,
101,Snowdrop Lane,PENNS GROVE,NJ,08069,
18,Badger Drive,LIVINGSTON,NJ,07039,
125,North   Wissahickon Avenue,VENTNOR CITY,NJ,08406,
1119,Georgian Drive,LINDEN,NJ,07036,
247,Columbus Drive,FRANKLIN PARK,NJ,08823,
11,Terhune Road,ANDOVER,NJ,07821,
5285,Berkshire Valley Road,OAK RIDGE,NJ,07438,
18,Hummel Drive,TOMS RIVER,NJ,08757,
262,Heckman Street,PHILLIPSBURG,NJ,08865,
301,Hilltop Road,MENDHAM,NJ,07945,
8,Bolfmar Avenue,PRINCETON JUNCTION,NJ,08550,
42,Adams Street,NEWARK,NJ,07105,
63,Meckes Street,SPRINGFIELD,NJ,07081,
122,Walnut Drive,SPRING LAKE,NJ,07762,
20,Desmond Run,SICKLERVILLE,NJ,08081,
602,Riverside Avenue,TRENTON,NJ,08618,
881,Tudor Drive,TOMS RIVER,NJ,08753,
130,Wichser Lane West,WARREN,NJ,07059,
500,Communipaw Avenue,JERSEY CITY,NJ,07304,
518,Ryerson Road,LANDING,NJ,07850,
221,North   Main Street,WHARTON,NJ,07885,
105,Buena Vista Avenue,HAWTHORNE,NJ,07506,
36,Annie Drive,MATAWAN,NJ,07747,
5,Porcaro Drive,LITTLE FERRY,NJ,07643,
21,South   Weymouth Avenue,VENTNOR CITY,NJ,08406,
154,Steuben Street,JERSEY CITY,NJ,07302,
318,Elmwood Drive,PARAMUS,NJ,07652,
267,Rose Street,METUCHEN,NJ,08840,
1501,Ocean Avenue,ASBURY PARK,NJ,07712,1301
827,Broadway Turnpike,CAMDEN,NJ,08103,
17,Purnell Street,TOMS RIVER,NJ,08757,
511,Antwerp Avenue,EGG HARBOR CITY,NJ,08215,
44,Harriet Street,WEST ORANGE,NJ,07052,
226,Lincoln Street,HACKENSACK,NJ,07601,
164,Kristine Avenue,MANAHAWKIN,NJ,08050,
945,Cincinnati Avenue,EGG HARBOR CITY,NJ,08215,
453,Mechanic Street,CAMDEN,NJ,08104,
347,Kenyon Avenue,MILLVILLE,NJ,08332,
1,Carriage City Plaza,RAHWAY,NJ,07065,
11,Pomona Boulevard,KEYPORT,NJ,07735,
2851,Alberic Street,VINELAND,NJ,08360,
1226,Cattus Island Boulevard,TOMS RIVER,NJ,08753,
91,Cedar Lake East,DENVILLE,NJ,07834,
367,Alvine Road,PITTSGROVE,NJ,08318,
1900,Boardwalk,WILDWOOD,NJ,08260,
15,Pearl Road,CLOSTER,NJ,07624,
99,Burlington Avenue,LEONARDO,NJ,07737,
29,Kingsberry Avenue,WESTWOOD,NJ,07675,
129,Nottingham Lane,NEWFIELD,NJ,08344,
206,Charlotte Avenue,SOUTH BOUND BROOK,NJ,08880,
214,Hurffville Road,SEWELL,NJ,08080,
103,Fisher Road,MAHWAH,NJ,07430,
27,Saxton Drive,HACKETTSTOWN,NJ,07840,
24,Lake Street,PATERSON,NJ,07501,
509,Sassafras Street,MILLVILLE,NJ,08332,
280,Ocean Avenue North,LONG BRANCH,NJ,07740,
121,Centre Street,METUCHEN,NJ,08840,
2303,East   Evesham Road,VOORHEES,NJ,08043,
1200,Lincoln Avenue,PLEASANTVILLE,NJ,08232,
474,Sairs Avenue,LONG BRANCH,NJ,07740,
20,Walnut Street,TRENTON,NJ,08610,
5,Kingsley Road,KENDALL PARK,NJ,08824,
53,Lotz Hill Road,CLIFTON,NJ,07013,
65,Westport Drive,TOMS RIVER,NJ,08757,
140,East   Central Avenue,MOORESTOWN,NJ,08057,
81,Inlet Drive,POINT PLEASANT BEACH,NJ,08742,
82,Terrace Avenue,WEST ORANGE,NJ,07052,
58,Vail Road,COLUMBIA,NJ,07832,
330,Libourel Road,SOUTH PLAINFIELD,NJ,07080,
1,Daryl Court,GLEN ROCK,NJ,07452,
4,Island Court,BRICK,NJ,08724,
551,Winsor Street,BOUND BROOK,NJ,08805,
27,Surrey Road,CLARK,NJ,07066,
147,West   Passaic Avenue,BLOOMFIELD,NJ,07003,
96,Middletown Road,HOLMDEL,NJ,07733,
225,Hillcrest Avenue,SOMERSET,NJ,08873,
237,North   Broadway,GLOUCESTER CITY,NJ,08030,
20,Walton Street,TOMS RIVER,NJ,08753,
487,Rivervale Avenue,NORWOOD,NJ,07648,
1052,Summit Lane,MOUNTAINSIDE,NJ,07092,
153,Nichol Avenue,NEW BRUNSWICK,NJ,08901,
42,Liberty Place,ROCKAWAY,NJ,07866,
24,Barkentine Court,ATLANTIC CITY,NJ,08401,
205,Thomas Street,CRANFORD,NJ,07016,
311,Berkshire Court,CHERRY HILL,NJ,08002,
2368,Fire Lane South,SOUTHAMPTON,NJ,08088,
525,Main Street,CHATHAM,NJ,07928,
6,Polonia Court,MONROE TOWNSHIP,NJ,08831,
29,Ellen Court,HILLSDALE,NJ,07642,
13,Pearl Street,PATERSON,NJ,07501,
9,Crassas Street,SOUTH AMBOY,NJ,08879,
25,Knickerbocker Lane,OLD TAPPAN,NJ,07675,
422,Walnut Avenue,TRENTON,NJ,08609,
2181,Civil War Road,VINELAND,NJ,08361,
170,Mallory Avenue,JERSEY CITY,NJ,07304,
1900,State Highway   35,OAKHURST,NJ,07755,
17,Greenbrook Drive,MATAWAN,NJ,07747,
3,Post Road,NETCONG,NJ,07857,
308,Cozzens Court,EAST BRUNSWICK,NJ,08816,
38,Victoria Circle,JACKSON,NJ,08527,
122,Perry Street,TRENTON,NJ,08618,
593,Schuyler Avenue,NORTH ARLINGTON,NJ,07031,
2,Thomas Place,OGDENSBURG,NJ,07439,
225,3rd Street,PALMYRA,NJ,08065,
523,Grant Avenue,WATERFORD WORKS,NJ,08089,
36,Hialeah Court,HOWELL,NJ,07731,
705,Grand Street,HOBOKEN,NJ,07030,
7,Woodcott Drive,HAMBURG,NJ,07419,
21136,West View,WHARTON,NJ,07885,
810,North   Forklanding Road,MAPLE SHADE,NJ,08052,
4455,Burwood Avenue,PENNSAUKEN,NJ,08109,
54,West   Franklin Street,BOUND BROOK,NJ,08805,
,Glen Road,MONROE TOWNSHIP,NJ,08831,
