NUMBER,STREET,CITY,STATE,POSTCODE,UNIT
117.0,LA LOMA ST,TAOS,NM,87571,
2205.0,SMITH LN,FARMINGTON,NM,87401,
607.0,HYDRO PLANT RD,FARMINGTON,NM,87401,
802.0,9TH ST,LOS ALAMOS,NM,87544,
400.0,CAMINO DON MIGUEL,Santa Fe,NM,87505,
55.0,ROAD 5479,FARMINGTON,NM,87401,
588.0,CENTRAL AVE,LOS ALAMOS,NM,87544,
524.0,ALTO ST,Santa Fe,NM,87501,
6151.0,AIRPORT RD,Santa Fe,NM,87507,250.0
3301.0,CRESCENT AVE,FARMINGTON,NM,87401,
2011.0,TROY KING RD,FARMINGTON,NM,87401,
2701.0,EAST RIDGE CT,FARMINGTON,NM,87401,
2001.0,HOPEWELL ST,Santa Fe,NM,87505,
4800.0,PEREGRINE CIR,FARMINGTON,NM,87401,
2601.0,VISTA DE JEMEZ,Santa Fe,NM,87505,
17.0,ROAD 7102,FARMINGTON (NO DELIVERY),NM,87401,
533.0,ESTE ES RD,TAOS,NM,87571,
2630.0,N DUSTIN AVE,FARMINGTON,NM,87401,31.0
10.0,GARDUNO RD,ARROYO HONDO,NM,87513,
,37TH ST,LOS ALAMOS,NM,87544,
1430.0,SANTA CRUZ RD,TAOS,NM,87571,
320.0,KEARNY AVE,Santa Fe,NM,87501,8.0
2800.0,N DUSTIN AVE,FARMINGTON,NM,87401,105.0
101.0,GARDEN,BLOOMFIELD,NM,87413,
17.0,ROAD 4275,NAVAJO DAM,NM,87419,
3500.0,N BUTLER AVE,FARMINGTON,NM,87401,4101.0
6397.0,JAGUAR DR,Santa Fe,NM,87507,
2813.0,VEREDA DE PUEBLO,Santa Fe,NM,87507,
463.0,CAMINO MANZANO,Santa Fe,NM,87505,
,45TH ST,LOS ALAMOS,NM,87544,
101.0,CAMINO RIO,Santa Fe,NM,87501,
1100.0,OSAGE AVE,Santa Fe,NM,87505,
5677.0,US 64,FARMINGTON,NM,87401,
506.0,E 16TH ST,FARMINGTON,NM,87401,
26520.0,US HIGHWAY 60,FORT SUMNER,NM,88119,
626.0,47TH ST,LOS ALAMOS,NM,87544,
,AZTEC,AZTEC,NM,87410,20.0
120.0,HERDNER RD,TAOS,NM,87571,
4633.0,GILA ST,FARMINGTON,NM,87402,12.0
4300.0,ENGLISH RD,FARMINGTON,NM,87402,
900.0,CANNERY CT,FARMINGTON,NM,87401,9101.0
2781.0,LA SILLA DORADA,Santa Fe,NM,87505,
4602.0,PACIFIC ST,FARMINGTON,NM,87402,
718.0,S SAINT FRANCIS DR,Santa Fe,NM,87505,
4300.0,W MAIN ST,FARMINGTON,NM,87401,
212.0,PASEO DEL PUEBLO SUR,TAOS,NM,87571,
135.0,MARTINEZ RD,TRES PIEDRAS,NM,87577,
13.0,THUNDERBIRD RD,TAOS SKI VALLEY,NM,87525,
90.0,ROAD 4025,IGNACIO,NM,81137,
971.0,NAMBE LOOP,LOS ALAMOS,NM,87544,
46.0,ROAD 6405,KIRTLAND,NM,87417,
2083.0,AVENIDA DE LAS ALTURAS,Santa Fe,NM,87505,
1930.0,SAN JUAN BLVD,FARMINGTON,NM,87401,
391.0,ROAD 3100,AZTEC,NM,87410,
6151.0,AIRPORT RD,Santa Fe,NM,87507,332.0
8.0,TIMBER RIDGE RD,LOS ALAMOS,NM,87544,
2004.0,BROTHERS AVE,FARMINGTON,NM,87402,
10.0,ROAD 5330,FARMINGTON,NM,87401,
2300.0,W ALAMEDA ST,Santa Fe,NM,87507,
3574.0,US 64,WATERFLOW,NM,87421,
458.0,S VALLEY VIEW TRAILER PARK ST,FORT SUMNER,NM,88119,
14.0,AMBER LN,RANCHOS DE TAOS,NM,87557,
11.0,SOL GRANDE RD,EL PRADO,NM,87529,
4722.0,HOJAS VERDES,Santa Fe,NM,87507,
16227.0,US 550,AZTEC,NM,87410,
3765.0,VALMORA RD,Santa Fe,NM,87505,
750.0,W BROADWAY,FARMINGTON,NM,87401,
430.0,STATE HWY 150,ARROYO SECO,NM,87514,
122.0,LOS CORDOVAS RD,TAOS,NM,87571,
1018.0,CRESTVIEW CIR,FARMINGTON,NM,87401,
1064.0,HIGHLAND WAY,Santa Fe,NM,87507,
3924.0,OLD SANTA FE TRL,Santa Fe,NM,87505,
3920.0,CALLE CISCO,Santa Fe,NM,87507,
890.0,CAMINO CONSUELO,Santa Fe,NM,87507,
6491.0,OLD COURSE DR,FARMINGTON,NM,87402,
2809.0,PARQUE DE OESTE DR,FARMINGTON,NM,87401,1.0
111.0,CATRON ST,Santa Fe,NM,87501,
1210.0,CALLE INEZ,Santa Fe,NM,87507,
5879.0,US 64,FARMINGTON,NM,87401,
131.0,ROAD 2400,AZTEC,NM,87410,
4204.0,SUNDANCE ST,Santa Fe,NM,87507,
3071.0,PRIMO COLORES ST,Santa Fe,NM,87507,
4100.0,WINDSOR DR,FARMINGTON,NM,87402,
1885.0,CERROS COLORADOS,Santa Fe,NM,87501,
528.0,DOLORES RD,TAOS,NM,87571,
6404.0,BENT TREE CIR,FARMINGTON,NM,87402,
2010.0,24TH ST,LOS ALAMOS,NM,87544,
1613.0,BEN HUR DR,Santa Fe,NM,87501,
6013.0,JAGUAR DR,Santa Fe,NM,87507,
302.0,BLOOMFIELD,BLOOMFIELD,NM,87413,
520.0,S SCHWARTZ AVE,FARMINGTON,NM,87401,
663.0,BISHOPS LODGE RD,Santa Fe,NM,87501,23.0
2001.0,HOPEWELL ST,Santa Fe,NM,87505,
4650.0,AIRPORT RD,Santa Fe,NM,87507,91.0
9.0,LOS ALTOS RD,ARROYO SECO,NM,87514,
801.0,BISHOP LN,FARMINGTON,NM,87401,
28.0,CUCHILLA RD,RANCHOS DE TAOS,NM,87557,
1610.0,SONRISA,LOS ALAMOS,NM,87544,
120.0,35TH ST,LOS ALAMOS,NM,87544,
1426.0,S BUTLER AVE,FARMINGTON,NM,87401,
1537.0,CAMINO LA CANADA,Santa Fe,NM,87501,
2500.0,W APACHE ST,FARMINGTON,NM,87401,
4000.0,LA CARRERA,Santa Fe,NM,87507,
1228.0,APACHE AVE,Santa Fe,NM,87505,
1708.0,E 23RD ST,FARMINGTON,NM,87401,
1925.0,ASPEN DR,Santa Fe,NM,87505,
8.0,ARTISTA RD,RANCHOS DE TAOS,NM,87557,
901.0,W SAN MATEO RD,Santa Fe,NM,87505,
806.0,BACA ST,Santa Fe,NM,87505,
900.0,W PINON ST,FARMINGTON,NM,87401,
1239.0,N BUTLER AVE,FARMINGTON,NM,87401,
210.0,EL PASO DR,FARMINGTON,NM,87401,
,VERDE RIDGE,LOS ALAMOS,NM,87544,
4715.0,GILA ST,FARMINGTON,NM,87402,17.0
2800.0,N DUSTIN AVE,FARMINGTON,NM,87401,304.0
2819.0,DON QUIXOTE,Santa Fe,NM,87505,
403.0,MARTINEZ LN,TAOS,NM,87571,
2412.0,HUTTON AVE,FARMINGTON,NM,87402,
51.0,COYOTE LOOP,LOS ALAMOS,NM,87544,
6021.0,RINCONADA ST,FARMINGTON,NM,87402,
10.0,LOWER EMBARGO RD,QUESTA,NM,87556,
200.0,E NAVAJO ST,FARMINGTON,NM,87401,
309.0,3RD,BLOOMFIELD,NM,87413,
6324.0,CASAS DE MILAGRO,Santa Fe,NM,87507,
98.0,PLACITA DE ORO,Santa Fe,NM,87501,
400.0,NELSON AVE,FARMINGTON,NM,87401,2303.0
2364.0,SUNTUOSO CT,FARMINGTON,NM,87401,
4501.0,SAN IGNACIO RD,Santa Fe,NM,87507,
2715.0,LA PUENTE ST,FARMINGTON,NM,87401,
6018.0,ARROYO DR,FARMINGTON,NM,87402,
27.0,LAS ANIMAS RD,ARROYO SECO,NM,87514,
909.0,CAMINO DEL MEDIO,TAOS,NM,87571,
5717.0,CHANCE LN,FARMINGTON,NM,87402,
227.0,E PALACE AVE,Santa Fe,NM,87501,
231.0,CLOSSON ST,Santa Fe,NM,87501,5.0
2501.0,W ZIA RD,Santa Fe,NM,87505,
2255.0,BRITTANY PL,FARMINGTON,NM,87401,
13.0,HERRERA RD,RANCHOS DE TAOS,NM,87557,
2159.0,DEER TRL,LOS ALAMOS,NM,87544,
2531.0,CAMINO ESPUELA,Santa Fe,NM,87505,
897.0,NM 170,FARMINGTON,NM,87401,
231.0,RODRIGUEZ ST,Santa Fe,NM,87501,
168.0,CUCHILLA RD,RANCHOS DE TAOS,NM,87557,
6005.0,TEE CT,FARMINGTON,NM,87402,
329.0,MONTOYA ST,TAOS,NM,87571,
1252.0,CAMINO DE CISNEROS,EL PRADO,NM,87529,
171.0,CERRO RD,CERRO,NM,87519,
3100.0,ENGLISH RD,FARMINGTON,NM,87402,
265.0,ROAD 1191,LA PLATA,NM,87418,
323.0,TESUQUE DR,Santa Fe,NM,87505,
960.0,ROAD 4990,BLOOMFIELD,NM,87413,
816.0,CAMINO VISTAS ENCANTADA,Santa Fe,NM,87507,
72.0,ROAD 1115,LA PLATA,NM,87418,
2998.0,PLAZA AZUL,Santa Fe,NM,87507,
2235.0,BROOKE PL,FARMINGTON,NM,87401,
1625.0,CALLE DE ORIENTE NORTE,Santa Fe,NM,87507,
501.0,W ZIA RD,Santa Fe,NM,87505,
316.0,E BUENA VISTA ST,Santa Fe,NM,87505,
70.0,MAESTAS RD,RANCHOS DE TAOS,NM,87557,
5607.0,PINE ST,FARMINGTON,NM,87402,
1877.0,CONEJO DR,Santa Fe,NM,87505,
4724.0,SUNRISE CIR,FARMINGTON,NM,87401,
22.0,SHADY LN,RED RIVER,NM,87558,
104.0,E MAIN ST,FARMINGTON,NM,87401,
1213.0,6TH ST,LOS ALAMOS,NM,87544,
2551.0,35TH ST,LOS ALAMOS,NM,87544,
,CASEY DR,FARMINGTON,NM,87402,
2200.0,RIDGECREST DR,FARMINGTON,NM,87401,
1211.0,11TH ST,LOS ALAMOS,NM,87544,
1610.0,CAMINO LA CANADA,Santa Fe,NM,87501,
24.0,ROAD 5127,BLOOMFIELD,NM,87413,
18.0,ROAD 3461,FLORA VISTA,NM,87415,
4016.0,MILAGRO ORO,Santa Fe,NM,87507,
7401.0,OLD AZTEC HWY,FARMINGTON,NM,87415,
3480.0,TODOS SANTOS,Santa Fe,NM,87507,
3600.0,CERRILLOS RD,Santa Fe,NM,87507,107.0
607.0,PARKLAND,AZTEC,NM,87410,
7500.0,TUSCANY WAY,FARMINGTON,NM,87402,
2601.0,MABEL DR,FARMINGTON,NM,87402,
2525.0,E 16TH ST,FARMINGTON,NM,87401,
101.0,QUAIL,AZTEC,NM,87410,
1570.0,PACHECO ST,Santa Fe,NM,87505,
1902.0,CALLE MIQUELA,Santa Fe,NM,87505,
1508.0,MUNICIPAL DR,FARMINGTON,NM,87401,
2563.0,CALLE DELFINO,Santa Fe,NM,87505,
2081.0,45TH ST,LOS ALAMOS,NM,87544,
1925.0,24TH ST,LOS ALAMOS,NM,87544,
7274.0,ARROYO CENTRAL,Santa Fe,NM,87507,
6958.0,GOLDEN MESA,Santa Fe,NM,87507,
,WALNUT ST,LOS ALAMOS,NM,87544,
28.0,ROAD 5243,FARMINGTON,NM,87401,
36.0,RIO CHIQUITO RD,PENASCO,NM,87553,
26.0,ROAD 4280,NAVAJO DAM,NM,87419,
1843.0,TD-SITE RD,LOS ALAMOS,NM,87545,
2928.0,CLIFF PALACE,Santa Fe,NM,87507,
36.0,ROAD 4275,NAVAJO DAM,NM,87419,
6001.0,RINCONADA ST,FARMINGTON,NM,87402,
4600.0,CAMELLIA ST,FARMINGTON,NM,87402,
325.0,TESUQUE DR,Santa Fe,NM,87505,
3730.0,WELLINGTON ST,FARMINGTON,NM,87402,
1713.0,CLIFFSIDE DR,FARMINGTON,NM,87401,
1072.0,E SUMNER AVE,FORT SUMNER,NM,88119,
33.0,DAY LN,EL PRADO,NM,87529,
38.0,SHORT DR,LOS ALAMOS,NM,87544,
263.0,CAMINO DEL OLMO,Santa Fe,NM,87501,
3811.0,CERRILLOS RD,Santa Fe,NM,87507,
1000.0,S LORENA AVE,FARMINGTON,NM,87401,
817.0,MONARCH ST,FARMINGTON,NM,87401,
945.0,SAN ILDEFONSO RD,LOS ALAMOS,NM,87544,
5925.0,INVERNESS DR,FARMINGTON,NM,87402,
103.0,CATRON ST,Santa Fe,NM,87501,
4000.0,UNIVERSITY DR,LOS ALAMOS,NM,87544,
1510.0,E 20TH ST,FARMINGTON,NM,87401,
4970.0,AIRPORT RD,Santa Fe,NM,87507,
375.0,ROAD 4599,BLANCO,NM,87412,
508.0,W ARRINGTON ST,FARMINGTON,NM,87401,
7590.0,OLD AZTEC HWY,FARMINGTON,NM,87415,
236.0,FIESTA ST,Santa Fe,NM,87501,
1026.0,E NAVAJO ST,FARMINGTON,NM,87401,
305.0,N AUBURN AVE,FARMINGTON,NM,87401,
703.0,ALARID ST,Santa Fe,NM,87505,
4650.0,AIRPORT RD,Santa Fe,NM,87507,209.0
511.0,N BEHREND AVE,FARMINGTON,NM,87401,
6975.0,ALYSSA CT,FARMINGTON,NM,87402,
1789.0,36TH ST,LOS ALAMOS,NM,87544,
112.0,CAMINO DE LA MERCED,TAOS,NM,87571,
3920.0,PASEO DEL SOL,Santa Fe,NM,87507,
2504.0,EDGECLIFF DR,FARMINGTON,NM,87402,
32.0,ROAD 6480,KIRTLAND,NM,87417,
822.0,WATSON AVE,FARMINGTON,NM,87401,
2909.0,CAMINO PRINCIPE,Santa Fe,NM,87507,
2440.0,R-SITE RD,LOS ALAMOS,NM,87545,
705.0,FRENCH,AZTEC,NM,87410,
,AZTEC,AZTEC,NM,87410,3.0
2405.0,AVENIDA DE LAS ESTRELLAS,Santa Fe,NM,87507,
3580.0,RIDGEWAY DR,LOS ALAMOS,NM,87544,
2743.0,BOYLAN CIR,Santa Fe,NM,87507,17.0
1450.0,42ND ST,LOS ALAMOS,NM,87544,
710.0,STATE HWY 38,RED RIVER,NM,87558,
511.0,SAN ANTONIO ST,Santa Fe,NM,87505,
2530.0,YUCCA ST,Santa Fe,NM,87505,
1701.0,CLIFFSIDE DR,FARMINGTON,NM,87401,
801.0,HACIENDA,BLOOMFIELD,NM,87413,
5010.0,YARROW TRL,FARMINGTON,NM,87401,
3600.0,RODEO LN,Santa Fe,NM,87507,
4001.0,OFFICE COURT DR,Santa Fe,NM,87507,800.0
258.0,LOMA DEL ESCOLAR,LOS ALAMOS,NM,87544,
201.0,AIRPORT DR,FARMINGTON,NM,87401,
7458.0,WOLF CREEK RD,Santa Fe,NM,87507,
72.0,LA PALOMA DR,LOS ALAMOS,NM,87547,
2700.0,FARMINGTON AVE,FARMINGTON,NM,87401,
313.0,MOORE,BLOOMFIELD,NM,87413,
11.0,BACA RD,ARROYO SECO,NM,87514,
1700.0,N CARLTON AVE,FARMINGTON,NM,87401,
1008.0,OSAGE CIR,Santa Fe,NM,87505,
2011.0,TROY KING RD,FARMINGTON,NM,87401,
3492.0,LOPEZ LN,Santa Fe,NM,87507,
534.0,E MAIN ST,FARMINGTON,NM,87401,
507.0,CAMINO DEL MONTE SOL,Santa Fe,NM,87505,
820.0,CALLE TORREADOR,Santa Fe,NM,87505,
1600.0,SAINT MICHAELS DR,Santa Fe,NM,87505,5.0
5805.0,FAWN DR,FARMINGTON,NM,87402,
1405.0,VEGAS VERDES DR,Santa Fe,NM,87507,
1212.0,SAN JUAN BLVD,FARMINGTON,NM,87401,
3513.0,BLOOMFIELD HWY,FARMINGTON,NM,87401,
227.0,OTERO ST,Santa Fe,NM,87501,
1897.0,CAMINO UVA,LOS ALAMOS,NM,87544,
951.0,N AUBURN AVE,FARMINGTON,NM,87401,
17.0,GEORGE TORRES RD,RANCHOS DE TAOS,NM,87557,
701.0,MESA VISTA DR,FARMINGTON,NM,87401,
1310.0,SANCHEZ,BLOOMFIELD,NM,87413,
16.0,ROAD 2397,AZTEC,NM,87410,
941.0,CALLE MEJIA,Santa Fe,NM,87501,822.0
2701.0,LA NAPA ST,FARMINGTON,NM,87401,
33.0,ROAD 3004,AZTEC,NM,87410,
880.0,BILLIE AVE,FARMINGTON,NM,87401,
250.0,E ALAMEDA ST,Santa Fe,NM,87501,233.0
35.0,ROAD 5777,FARMINGTON,NM,87401,
3101.0,MARQUETTE AVE,FARMINGTON,NM,87402,
718.0,EL PASO DR,FARMINGTON,NM,87401,
3605.0,N MONTEREY AVE,FARMINGTON,NM,87401,
73.0,ROAD 5005,BLOOMFIELD,NM,87413,
2550.0,E 16TH ST,FARMINGTON,NM,87401,5201.0
2400.0,LEGACY CT,Santa Fe,NM,87507,
4499.0,SAN IGNACIO RD,Santa Fe,NM,87507,
1904.0,E 25TH ST,FARMINGTON,NM,87401,
329.0,PASEO DEL PUEBLO SUR,TAOS,NM,87571,
3.0,ROAD 53170,BLOOMFIELD,NM,87413,
1027.0,9TH ST,LOS ALAMOS,NM,87544,
111.0,ALEXANDER ST,TAOS,NM,87571,
2807.0,PLAZA ROJO,Santa Fe,NM,87507,
197.0,ROAD 5569,FARMINGTON,NM,87401,
3078.0,PLAZA BLANCA,Santa Fe,NM,87507,
76.0,BUENA VISTA RD,CERRO,NM,87519,
605.0,E 30TH ST,FARMINGTON,NM,87401,
24.0,CALLE MIGUEL,RANCHOS DE TAOS,NM,87557,
1314.0,CAMINO CORRALES,Santa Fe,NM,87505,
511.0,RIO GRANDE AVE,Santa Fe,NM,87501,5.0
7801.0,E MAIN ST,FARMINGTON,NM,87402,
961.0,ACEQUIA DE LAS JOYAS,Santa Fe,NM,87501,
518.0,JOHNSON LN,Santa Fe,NM,87505,
561.0,KIVA ST,LOS ALAMOS,NM,87544,
16.0,ROAD 7812,NAGEEZI,NM,87037,
72.0,CABRESTO RD,QUESTA,NM,87556,
1350.0,ALTA VISTA ST,Santa Fe,NM,87505,
124.0,MONTE REY DR N,LOS ALAMOS,NM,87547,
2733.0,LA NAPA ST,FARMINGTON,NM,87401,
3704.0,COPPER AVE,FARMINGTON,NM,87402,
41.0,ROAD 4046,NAVAJO DAM,NM,87419,
311.0,BURCH ST,TAOS,NM,87571,
106.0,LA PALOMA ST,Santa Fe,NM,87505,
1072.0,OSAGE CIR,Santa Fe,NM,87505,
69.0,UPPER PINABETTE RD,QUESTA,NM,87556,
205.0,CAMINO DE LA MERCED,TAOS,NM,87571,16.0
1709.0,AGUA FRIA ST,Santa Fe,NM,87501,
2650.0,PINON FRONTAGE RD,FARMINGTON,NM,87402,
4372.0,CENTER PL,Santa Fe,NM,87507,
3266.0,US 64,WATERFLOW,NM,87421,
15.0,ROAD 6335,KIRTLAND,NM,87417,
1211.0,11TH ST,LOS ALAMOS,NM,87544,
405.0,E SPRUCE ST,FARMINGTON,NM,87401,
404.0,RICHARD CT,LOS ALAMOS,NM,87547,
945.0,ROAD 3000,FARMINGTON,NM,87401,
99.0,ROAD 4275,NAVAJO DAM,NM,87419,
168.0,VERDOLAGA RD,EL PRADO,NM,87529,
416.0,ACEQUIA MADRE,Santa Fe,NM,87505,
1.0,FARRELL ST,RANCHOS DE TAOS,NM,87557,
1075.0,MYRTLE ST,LOS ALAMOS,NM,87544,
30.0,ROAD 6407,KIRTLAND,NM,87417,
5.0,ROAD 4028,IGNACIO,NM,81137,
5.0,ROAD 4265,NAVAJO DAM,NM,87419,
312.0,VALLE VISTA DR,FARMINGTON,NM,87401,
97.0,RANGE RD,TAOS,NM,87571,
245.0,ROAD 3050,AZTEC,NM,87410,
40.0,ARCHULETA RD,RANCHOS DE TAOS,NM,87557,
1187.0,LUGAR DE JOSE,Santa Fe,NM,87507,
5811.0,PALLAS ST,FARMINGTON,NM,87401,
3921.0,RANCHO DE ANIMAS DR,FARMINGTON,NM,87402,
2403.0,SOUTHSIDE RIVER RD,FARMINGTON,NM,87401,
2417.0,LOMA VERDE,Santa Fe,NM,87507,
420.0,BURCH ST,TAOS,NM,87571,
1213.0,N LAGUNA AVE,FARMINGTON,NM,87401,
1009.0,DELHI AVE,FARMINGTON,NM,87401,
500.0,ADOLFO ST,Santa Fe,NM,87501,
501.0,7TH,BLOOMFIELD,NM,87413,
24.0,RIM RD,ARROYO SECO,NM,87514,
1105.0,ISAAC GONZALES RD,EL PRADO,NM,87529,
7624.0,CREE CIR,Santa Fe,NM,87507,
5002.0,HOLMES DR,FARMINGTON,NM,87402,
730.0,CANADA ANCHA,Santa Fe,NM,87501,
2213.0,BROTHERS RD,Santa Fe,NM,87505,700.0
4.0,ROAD 3125,AZTEC,NM,87410,
1334.0,AGUA FRIA ST,Santa Fe,NM,87501,
2833.0,PLAZA AMARILLA,Santa Fe,NM,87507,
310.0,MESA VERDE,AZTEC,NM,87410,
609.0,PAULIN ST,Santa Fe,NM,87505,
25.0,ROAD 3181,AZTEC,NM,87410,
1501.0,FAIRGROUNDS RD,FARMINGTON,NM,87401,13.0
5703.0,FAWN DR,FARMINGTON,NM,87402,
6710.0,FOOTJOY RD,FARMINGTON,NM,87402,
2850.0,CALLE DE ORIENTE,Santa Fe,NM,87507,
3808.0,MANCHESTER ST,FARMINGTON,NM,87402,
4159.0,SOUTH MEADOWS RD,Santa Fe,NM,87507,
3206.0,CORONADO AVE,FARMINGTON,NM,87401,
488.0,ARROYO TENORIO,Santa Fe,NM,87505,
2506.0,LEE AVE,FARMINGTON,NM,87402,1.0
1110.0,RIO VISTA,BLOOMFIELD,NM,87413,
1002.0,CALLE FELIZ,Santa Fe,NM,87507,
3710.0,HIGHLAND VIEW DR,FARMINGTON,NM,87402,
80.0,MARTINEZ RD,ARROYO SECO,NM,87514,
508.0,STATE HWY 567,CARSON,NM,87517,
2844.0,E MAIN ST,FARMINGTON,NM,87402,
2938.0,NICKEL ST,LOS ALAMOS,NM,87544,
2105.0,CAMINA PLACER,FARMINGTON,NM,87401,
1500.0,PACHECO ST,Santa Fe,NM,87505,
3444.0,US 64,WATERFLOW,NM,87421,
3055.0,TRINITY DR,LOS ALAMOS,NM,87544,
3084.0,PLAZA BLANCA,Santa Fe,NM,87507,
2400.0,LEGACY CT,Santa Fe,NM,87507,
2507.0,LEE AVE,FARMINGTON,NM,87402,
235.0,ROSARIO BLVD,Santa Fe,NM,87501,
7031.0,SARAH ST,FARMINGTON,NM,87401,
6820.0,US 64,BLOOMFIELD,NM,87413,
9.0,ROAD 2643,AZTEC,NM,87410,
2638.0,N DUSTIN AVE,FARMINGTON,NM,87401,
204.0,W 25TH ST,FARMINGTON,NM,87401,
4000.0,LA CARRERA,Santa Fe,NM,87507,
716.0,CALLE BEATRICE,Santa Fe,NM,87501,
2275.0,BRITTANY PL,FARMINGTON,NM,87401,
10.0,ROAD 3451,FLORA VISTA,NM,87415,
1016.0,GLADE LN,FARMINGTON,NM,87401,
1752.0,MANN ST,Santa Fe,NM,87505,
2141.0,BLOOMFIELD,BLOOMFIELD,NM,87413,
2101.0,N FAIRVIEW AVE,FARMINGTON,NM,87401,
2525.0,E 16TH ST,FARMINGTON,NM,87401,413.0
221.0,W SAN FRANCISCO ST,Santa Fe,NM,87501,
400.0,NELSON AVE,FARMINGTON,NM,87401,
741.0,W ANIMAS ST,FARMINGTON,NM,87401,
6941.0,GOLDEN MESA,Santa Fe,NM,87507,
2674.0,VIA CABALLERO DEL NORTE,Santa Fe,NM,87505,
601.0,W SAN MATEO RD,Santa Fe,NM,87505,
414.0,KOLLEEN CT,LOS ALAMOS,NM,87547,
227.0,CAMINO DE LA SIERRA,Santa Fe,NM,87501,
422.0,W MAIN ST,FARMINGTON,NM,87401,
2500.0,SAWMILL RD,Santa Fe,NM,87505,
,WALNUT ST,LOS ALAMOS,NM,87544,
8.0,ROAD 6313,KIRTLAND,NM,87417,
33.0,ROAD 4267,NAVAJO DAM,NM,87419,
912.0,N DUSTIN AVE,FARMINGTON,NM,87401,
912.0,PASEO DEL PUEBLO SUR,TAOS,NM,87571,
10.0,ROAD 2684,AZTEC,NM,87410,
843.0,RIO VISTA ST,Santa Fe,NM,87501,
2537.0,CAMINO ALFREDO,Santa Fe,NM,87505,
5803.0,ENGLISH DR,FARMINGTON,NM,87402,
3530.0,CERRILLOS RD,Santa Fe,NM,87507,22.0
2510.0,ROSINA ST,Santa Fe,NM,87505,
548.0,ARROYO HONDO ARROYO SECO RD,ARROYO SECO,NM,87514,
3657.0,MIMBRES LN,Santa Fe,NM,87507,
830.0,CANYON RD,Santa Fe,NM,87501,
1524.0,AZTEC,AZTEC,NM,87410,
924.0,CANYON RD,Santa Fe,NM,87501,5.0
151.0,GONZALES RD,Santa Fe,NM,87501,10.0
201.0,LA JARA,BLOOMFIELD,NM,87413,
601.0,W SAN MATEO RD,Santa Fe,NM,87505,
8.0,ROAD 1417,LA PLATA,NM,87418,
1347.0,TANO RIDGE RD,Santa Fe,NM,87506,
4775.0,AIRPORT RD,Santa Fe,NM,87507,
1355.0,45TH ST,LOS ALAMOS,NM,87544,
4000.0,CRESCENT AVE,FARMINGTON,NM,87401,
1806.0,JUNEAU,BLOOMFIELD,NM,87413,
700.0,N BUENA VISTA AVE,FARMINGTON,NM,87401,
3011.0,TULANE AVE,FARMINGTON,NM,87402,
1299.0,ZEPOL RD,Santa Fe,NM,87507,131.0
1609.0,CAMINA PLACER,FARMINGTON,NM,87401,
2881.0,CALLE DE PINOS ALTOS,Santa Fe,NM,87507,
8.0,ROAD 47250,BLOOMFIELD,NM,87413,
6109.0,SANTO DOMINGO DR,FARMINGTON,NM,87402,
360.0,ROAD 2900,AZTEC,NM,87410,
6.0,ROAD 3450,FLORA VISTA,NM,87415,
1102.0,S BOWEN AVE,FARMINGTON,NM,87401,
5728.0,CHANCE LN,FARMINGTON,NM,87402,
6.0,GALLINA CANYON RD,VALDEZ,NM,87580,
955.0,NM 511,NAVAJO DAM,NM,87419,
30.0,COYOTE CIR N,RANCHOS DE TAOS,NM,87557,
701.0,UTE,AZTEC,NM,87410,
6600.0,JAGUAR DR,Santa Fe,NM,87507,
148.0,SUGAR LN,EL PRADO,NM,87529,
1324.0,ACEQUIA BORRADA,Santa Fe,NM,87507,
114.0,CARLSBAD AVE,LOS ALAMOS,NM,87547,
1316.0,HICKOX ST,Santa Fe,NM,87505,
1710.0,W ALAMEDA ST,Santa Fe,NM,87501,4.0
,N WALL AVE,FARMINGTON,NM,87401,
2904.0,RODEO PARK DR E,Santa Fe,NM,87505,8.0
2500.0,W APACHE ST,FARMINGTON,NM,87401,
40.0,PERCILLA LN,ARROYO SECO,NM,87514,
306.0,RIO LUCERO RD,EL PRADO,NM,87529,
4685.0,HOJAS VERDES,Santa Fe,NM,87507,
2416.0,CALLE ZAGUAN,Santa Fe,NM,87505,
51.0,ROAD 7586,BLOOMFIELD,NM,87413,
1319.0,LA MIRADA CIR,LOS ALAMOS,NM,87544,
32.0,CANYON VIEW DR,LOS ALAMOS,NM,87544,
2012.0,N TUCKER AVE,FARMINGTON,NM,87401,4.0
108.0,MESA VISTA ST,Santa Fe,NM,87501,
52.0,ROAD 2400,AZTEC,NM,87410,
2915.0,ENGLISH RD,FARMINGTON,NM,87402,
20.0,ROAD 5109,BLOOMFIELD,NM,87413,
2816.0,CALLE DULCINEA,Santa Fe,NM,87505,
715.0,W MANHATTAN AVE,Santa Fe,NM,87501,
2027.0,CALLE LORCA,Santa Fe,NM,87505,27.0
2807.0,E 22ND ST,FARMINGTON,NM,87402,
2011.0,TROY KING RD,FARMINGTON,NM,87401,17.0
4260.0,SNOW BIRD,Santa Fe,NM,87507,
186.0,PLASTICS RD,LOS ALAMOS,NM,87545,
2304.0,BROTHER ABDON WAY,Santa Fe,NM,87505,
913.0,ACEQUIA MADRE,Santa Fe,NM,87505,
101.0,CORONADO LN,Santa Fe,NM,87505,
17.0,CAMINO DEL ARROYO,EMBUDO,NM,87531,
500.0,RODEO RD,Santa Fe,NM,87505,
542.0,ARROYO HONDO ARROYO SECO RD,ARROYO SECO,NM,87514,
255.0,CAMINO ALIRE,Santa Fe,NM,87501,
36.0,ROAD 6669,FRUITLAND,NM,87416,
4532.0,SANTA ELENA ST,Santa Fe,NM,87507,
1204.0,ROLLO WAY,FARMINGTON,NM,87401,
16.0,ROAD 4904,BLOOMFIELD,NM,87413,
1063.0,N SHARP ST,FORT SUMNER,NM,88119,
2011.0,TROY KING RD,FARMINGTON,NM,87401,
94.0,STATE HWY 240,RANCHOS DE TAOS,NM,87557,
2807.0,E 22ND ST,FARMINGTON,NM,87402,
3232.0,LOURAINE ST,Santa Fe,NM,87507,
3908.0,WILSHIRE DR,FARMINGTON,NM,87402,
4171.0,BIG SKY RD,Santa Fe,NM,87507,
2614.0,SOL Y NUBES,Santa Fe,NM,87505,
4352.0,SIERRA BLANCA,Santa Fe,NM,87507,
401.0,NELSON AVE,FARMINGTON,NM,87401,1304.0
895.0,BLANCO,BLOOMFIELD,NM,87413,
47.0,CAMINO DE CORAZON,RANCHOS DE TAOS,NM,87557,
2500.0,SAWMILL RD,Santa Fe,NM,87505,
1207.0,CHERRY LN,FARMINGTON,NM,87401,
1308.0,HEILAND,AZTEC,NM,87410,
1569.0,KACHINA RIDGE DR,Santa Fe,NM,87507,
134.0,LOWER BUENA VISTA RD,CERRO,NM,87519,
501.0,CORTE DE PINON,Santa Fe,NM,87505,
2773.0,WALNUT ST,Santa Fe,NM,87507,
2980.0,CORTE DE ESPUELAS,Santa Fe,NM,87505,
1113.0,S BUTLER AVE,FARMINGTON,NM,87401,
1402.0,N SULLIVAN AVE,FARMINGTON,NM,87401,
2930.0,SANTEROS RD,Santa Fe,NM,87507,
4317.0,VUELTA DORADA,Santa Fe,NM,87507,
1903.0,SIRINGO RD,Santa Fe,NM,87505,
27.0,CERRITO COLORADO RD,VALDEZ,NM,87580,
159.0,ROAD 7840,NAGEEZI,NM,87037,
1129.0,PASEO DE PERALTA,Santa Fe,NM,87501,
2308.0,CALLE COLIBRI,Santa Fe,NM,87505,
2310.0,W APACHE ST,FARMINGTON,NM,87401,
1100.0,SIRINGO CT,Santa Fe,NM,87507,
2011.0,TROY KING RD,FARMINGTON,NM,87401,412.0
3620.0,GOLD ST,LOS ALAMOS,NM,87544,
404.0,N ALLEN AVE,FARMINGTON,NM,87401,
411.0,SAINT MICHAELS DR,Santa Fe,NM,87505,4.0
500.0,RODEO RD,Santa Fe,NM,87505,
1733.0,ANA BETH CIR,FARMINGTON,NM,87401,
317.0,BLAKE RD,FARMINGTON,NM,87401,
1974.0,PEACH ST,LOS ALAMOS,NM,87544,
152.0,LORENZO RD,Santa Fe,NM,87501,
1005.0,DON JUAN ST,Santa Fe,NM,87501,
729.0,PASEO DEL PUEBLO NORTE,TAOS,NM,87571,
4159.0,SOUTH MEADOWS RD,Santa Fe,NM,87507,
5500.0,HOGAN PL,FARMINGTON,NM,87402,
735.0,MONTEZ PL,Santa Fe,NM,87501,
6521.0,SPRING AVE,FARMINGTON,NM,87402,
2260.0,BRENNA PL,FARMINGTON,NM,87401,
937.0,KIT CARSON RD,TAOS,NM,87571,
901.0,GLADE LN,FARMINGTON,NM,87401,
305.0,W 24TH ST,FARMINGTON,NM,87401,
1822.0,PASEO DE LA CONQUISTADORA,Santa Fe,NM,87501,
4211.0,US 64,KIRTLAND,NM,87417,
903.0,CAMINO SAN ACACIO,Santa Fe,NM,87505,
250.0,CALLE FELIBERTO,EL PRADO,NM,87529,
505.0,SANDSTONE AVE,FARMINGTON,NM,87401,
60.0,ROAD 2929,AZTEC,NM,87410,
7255.0,VIA VERDE,Santa Fe,NM,87507,
2550.0,E 16TH ST,FARMINGTON,NM,87401,8202.0
5505.0,COUNTRY CLUB DR,FARMINGTON,NM,87402,
57.0,LLANO DE LA LLEGUA RD,VADITO,NM,87579,
2330.0,E MAIN ST,FARMINGTON,NM,87401,
741.0,W ANIMAS ST,FARMINGTON,NM,87401,63.0
67.0,ROAD 4903,BLOOMFIELD,NM,87413,
4499.0,SAN IGNACIO RD,Santa Fe,NM,87507,
2506.0,ALAMOSA DR,Santa Fe,NM,87505,
600.0,BLANCO,BLOOMFIELD,NM,87413,
119.0,LOWER BUENA VISTA RD,CERRO,NM,87519,
,E 22ND ST,FARMINGTON,NM,87402,
731.0,E ZIA RD,Santa Fe,NM,87505,
11.0,ROAD 3400,AZTEC,NM,87410,
866.0,CAMINO FRANCISCA,Santa Fe,NM,87507,
2705.0,E 30TH ST,FARMINGTON,NM,87402,
3424.0,MONTEREY CIR,FARMINGTON,NM,87401,
4636.0,BARCELONA CIR,FARMINGTON,NM,87401,
1345.0,OLD PECOS TRL,Santa Fe,NM,87505,
221.0,CLOSSON ST,Santa Fe,NM,87501,
2412.0,STATE HWY 76,TRAMPAS,NM,87576,
32.0,CERRITO COLORADO RD,VALDEZ,NM,87580,
317.0,FIESTA ST,Santa Fe,NM,87501,
38.0,VALERIO RD,RANCHOS DE TAOS,NM,87557,
483.0,S VALLEY VIEW TRAILER PARK ST,FORT SUMNER,NM,88119,
,PARK,AZTEC,NM,87410,
37.0,STATE HWY 240,RANCHOS DE TAOS,NM,87557,
1040.0,AIRPORT RD,LOS ALAMOS,NM,87544,
2336.0,E 15TH ST,FARMINGTON,NM,87401,
1807.0,E 15TH ST,FARMINGTON,NM,87401,
432.0,SHERWOOD BLVD,LOS ALAMOS,NM,87547,
201.0,W MAIN ST,FARMINGTON,NM,87401,
4000.0,LA CARRERA,Santa Fe,NM,87507,
700.0,FORD,AZTEC,NM,87410,
3113.0,CRESCENT AVE,FARMINGTON,NM,87401,
76.0,ROAD 1115,LA PLATA,NM,87418,
334.0,OTERO ST,Santa Fe,NM,87501,7.0
505.0,RAFAEL ST,Santa Fe,NM,87505,
609.0,ROSA ST,FARMINGTON,NM,87401,
2013.0,22ND ST,LOS ALAMOS,NM,87544,
98.0,ROAD 2595,AZTEC,NM,87410,
6148.0,US 64,BLOOMFIELD,NM,87413,
1569.0,LA CIENEGUITA,Santa Fe,NM,87507,
1103.0,WILLOW WAY,Santa Fe,NM,87507,
1130.0,PIEDRA RONDO,Santa Fe,NM,87501,
1011.0,N SULLIVAN AVE,FARMINGTON,NM,87401,
447.0,W SAN FRANCISCO ST,Santa Fe,NM,87501,
779.0,NM 170,FARMINGTON,NM,87401,
527.0,GRAND CANYON DR,LOS ALAMOS,NM,87547,
1395.0,S LAKE ST,FARMINGTON,NM,87401,
4750.0,WESTWIND AVE,FARMINGTON,NM,87401,
3210.0,NIZHONI DR,Santa Fe,NM,87507,
2725.0,WALNUT ST,Santa Fe,NM,87507,
35.0,ROAD 5485,FARMINGTON,NM,87401,
12.0,SAN ISIDRO RD,RANCHOS DE TAOS,NM,87557,
31.0,SUNSHINE RD E,QUESTA,NM,87556,
1419.0,ZEPOL RD,Santa Fe,NM,87507,208.0
1315.0,S BLUFFVIEW AVE,FARMINGTON,NM,87401,
1599.0,E SUMNER AVE,FORT SUMNER,NM,88119,
1709.0,S MILLER AVE,FARMINGTON,NM,87401,
7104.0,PLAZA CENTRAL,Santa Fe,NM,87507,
516.0,WESTERN,AZTEC,NM,87410,
2457.0,OLD RED RIVER RD,QUESTA,NM,87556,
313.0,6TH,BLOOMFIELD,NM,87413,
,AZTEC,AZTEC,NM,87410,56.0
1040.0,CALLE DEL SOL,TAOS,NM,87571,
209.0,E MARCY ST,Santa Fe,NM,87501,
82.0,ROAD 5060,BLOOMFIELD,NM,87413,
1000.0,TROY KING RD,FARMINGTON,NM,87401,
2491.0,SAWMILL RD,Santa Fe,NM,87505,
3401.0,VICTORIA WAY,FARMINGTON,NM,87402,3000.0
1811.0,NM 170,LA PLATA,NM,87418,
307.0,N WALL AVE,FARMINGTON,NM,87401,
1210.0,APACHE AVE,Santa Fe,NM,87505,
663.0,BISHOPS LODGE RD,Santa Fe,NM,87501,42.0
3800.0,LA PLATA HWY,FARMINGTON,NM,87401,10.0
708.0,DON FELIX ST,Santa Fe,NM,87501,
64.0,LAS TUSAS RD,RANCHOS DE TAOS,NM,87557,
301.0,ROAD 4990,BLOOMFIELD,NM,87413,
628.0,WITT RD,TAOS,NM,87571,
704.0,W 27TH ST,FARMINGTON,NM,87401,
1118.0,CARDENAS LN,EL PRADO,NM,87529,
14.0,ROAD 3959,FARMINGTON,NM,87401,
2001.0,HOPEWELL ST,Santa Fe,NM,87505,
692.0,CROSSROADS,LOS ALAMOS,NM,87545,
9.0,ROAD 4991,BLOOMFIELD,NM,87413,
906.0,TOWNSEND,AZTEC,NM,87410,
6004.0,MCCARTY AVE,FARMINGTON,NM,87402,
47.0,LUBBOCK,LOS ALAMOS,NM,87545,
573.0,W SAN FRANCISCO ST,Santa Fe,NM,87501,
8380.0,CERRILLOS RD,Santa Fe,NM,87507,106.0
2739.0,LA BAJADA,Santa Fe,NM,87505,
4301.0,JUNIPER HILL LN,Santa Fe,NM,87507,
4159.0,SOUTH MEADOWS RD,Santa Fe,NM,87507,
5.0,PASEO DE LA REINA,Santa Fe,NM,87507,
4501.0,SAN IGNACIO RD,Santa Fe,NM,87507,
603.0,SALAZAR ST,Santa Fe,NM,87505,
2961.0,GALISTEO RD,Santa Fe,NM,87505,1.0
1515.0,E 20TH ST,FARMINGTON,NM,87401,
1280.0,ALISE AVE,FARMINGTON,NM,87401,
404.0,ROAD 1191,LA PLATA,NM,87418,
3225.0,LA PAZ LN,Santa Fe,NM,87507,
6.0,BALSAMO LN,RANCHOS DE TAOS,NM,87557,
133.0,RIDGE CREST DR,Santa Fe,NM,87505,
1139.0,LOPEZ ST,Santa Fe,NM,87501,1.0
2210.0,MIGUEL CHAVEZ RD,Santa Fe,NM,87505,
3801.0,WELLINGTON ST,FARMINGTON,NM,87402,
81.0,LOMA VISTA DR,LOS ALAMOS,NM,87544,
910.0,N MONTEREY AVE,FARMINGTON,NM,87401,
1601.0,E 20TH ST,FARMINGTON,NM,87401,
24.0,GUTIERREZ RD,RANCHOS DE TAOS,NM,87557,
1105.0,N ALLEN AVE,FARMINGTON,NM,87401,
2949.0,PLAZA AZUL,Santa Fe,NM,87507,
,FAIRWAY DR,LOS ALAMOS,NM,87544,
1032.0,PASEO DEL PUEBLO SUR,TAOS,NM,87571,
1252.0,GALLEGOS LN,Santa Fe,NM,87505,
127.0,E WATER ST,Santa Fe,NM,87501,
555.0,NORTH MESA RD,LOS ALAMOS,NM,87544,
104.0,TAOS ST,Santa Fe,NM,87505,
510.0,STATE HWY 38,QUESTA,NM,87556,4.0
2309.0,CAMINO RANCHO SIRINGO,Santa Fe,NM,87505,
16245.0,US 550,AZTEC,NM,87410,
1406.0,SAIZ,BLOOMFIELD,NM,87413,
,33RD ST,LOS ALAMOS,NM,87544,
1088.0,E NAVAJO ST,FARMINGTON,NM,87401,1088.0
101.0,W ANIMAS ST,FARMINGTON,NM,87401,
3809.0,SUNSET AVE,FARMINGTON,NM,87401,
2825.0,FIGUEROH AVE,FARMINGTON,NM,87401,
1308.0,LUJAN ST,Santa Fe,NM,87505,
1491.0,S CARLTON AVE,FARMINGTON,NM,87401,
2610.0,CAMPO VERDE,Santa Fe,NM,87505,
892.0,ROAD 7520,BLOOMFIELD,NM,87413,
8.0,FIFTH GREEN DR,TAOS,NM,87571,
6.0,ROAD 3187,AZTEC,NM,87410,
1302.0,AGUA FRIA ST,Santa Fe,NM,87501,
2021.0,SUMMIT DR,FARMINGTON,NM,87401,
18.0,ROAD 3003,AZTEC,NM,87410,
3118.0,FLORAS DEL SOL ST,Santa Fe,NM,87507,
21.0,ROAD 6427,KIRTLAND,NM,87417,
210.0,MAIN,BLOOMFIELD,NM,87413,
2502.0,LEE AVE,FARMINGTON,NM,87402,
401.0,E 18TH ST,FARMINGTON,NM,87401,
2085.0,CALLE LORCA,Santa Fe,NM,87505,
4930.0,LESLIE PL,FARMINGTON,NM,87402,
26.0,ROAD 6211,KIRTLAND,NM,87417,
2210.0,MIGUEL CHAVEZ RD,Santa Fe,NM,87505,
2837.0,PLAZA AMARILLA,Santa Fe,NM,87507,
2254.0,CALLE CUESTA,Santa Fe,NM,87505,
720.0,KATHERINE AVE,FARMINGTON,NM,87401,
2015.0,CLOVER,BLOOMFIELD,NM,87413,
4737.0,SUNDIAL WAY,Santa Fe,NM,87507,
29.0,VALLEY OF THE PINES RD,RED RIVER,NM,87558,
106.0,CIRCLE DR,Santa Fe,NM,87501,
3907.0,KNOLLCREST DR,FARMINGTON,NM,87402,
1008.0,N WALL AVE,FARMINGTON,NM,87401,
515.0,CALLE CORVO,Santa Fe,NM,87501,
8.0,REATA RD,Santa Fe,NM,87507,
75.0,ROAD 5290,FARMINGTON,NM,87401,
1711.0,SIRI DHARMA CT,Santa Fe,NM,87501,
5555.0,FRANK'S LN,FARMINGTON,NM,87402,
1904.0,MEADOW CT,Santa Fe,NM,87505,
1450.0,SANTIAGO LOOP,Santa Fe,NM,87507,
2056.0,PLACITA DE VIDA,Santa Fe,NM,87505,
1714.0,E 21ST ST,FARMINGTON,NM,87401,
6921.0,AIRPORT RD,Santa Fe,NM,87507,
1729.0,E 21ST ST,FARMINGTON,NM,87401,
33.0,EOTOTO RD,EL PRADO,NM,87529,
2000.0,LION'S TRL,FARMINGTON,NM,87401,
3601.0,SIERRA VISTA DR,FARMINGTON,NM,87402,
942.0,PASEO DEL SUR,Santa Fe,NM,87501,
5801.0,VISTA GRANDE DR,FARMINGTON,NM,87401,
800.0,TRINITY DR,LOS ALAMOS,NM,87544,
1128.0,ROAD 2900,AZTEC,NM,87410,
1205.0,FOUR SEASONS PKWY,FARMINGTON,NM,87401,
7685.0,FOOTHILLS DR,FARMINGTON,NM,87402,
2401.0,E 30TH ST,FARMINGTON,NM,87401,
2205.0,TERENCE AVE,FARMINGTON,NM,87402,
1012.0,DELHI TERRACE,FARMINGTON,NM,87401,
228.0,MORADA LN,TAOS,NM,87571,
138.0,ROMERO ST,Santa Fe,NM,87501,
509.0,N BEHREND AVE,FARMINGTON,NM,87401,
1918.0,HOPEWELL ST,Santa Fe,NM,87505,
112.0,ROAD 5005,BLOOMFIELD,NM,87413,
2065.0,CALLE SOMBRA,Santa Fe,NM,87505,
112.0,LIGHT PLANT,AZTEC,NM,87410,
847.0,N 5TH ST,FORT SUMNER,NM,88119,
,AZTEC,AZTEC,NM,87410,32.0
3904.0,CRESCENT AVE,FARMINGTON,NM,87401,
1449.0,MONTEREY RD,TAOS,NM,87571,
2722.0,E 19TH ST,FARMINGTON,NM,87402,
3015.0,CALLE CABALLERO,Santa Fe,NM,87507,
7558.0,KACHINA LOOP,Santa Fe,NM,87507,
505.0,OPPENHEIMER DR,LOS ALAMOS,NM,87544,
250.0,E ALAMEDA ST,Santa Fe,NM,87501,408.0
869.0,AGUA FRIA ST,Santa Fe,NM,87501,
6058.0,US 64,FARMINGTON,NM,87401,
65.0,ROAD 5190,BLOOMFIELD,NM,87413,
1120.0,HINES RD,FARMINGTON,NM,87401,
305.0,DON FERNANDO ST,TAOS,NM,87571,
893.0,NM 516,FLORA VISTA,NM,87415,
83.0,ROAD 3536,FLORA VISTA,NM,87415,
308.0,LOS ARBOLES DR,Santa Fe,NM,87501,
2964.0,LOIS LN,Santa Fe,NM,87507,
1.0,MESA LN,EL PRADO,NM,87529,
1200.0,SUNRISE PKWY,FARMINGTON,NM,87401,
2258.0,CALLE DE ARCE,Santa Fe,NM,87505,
1201.0,BRENTWOOD CIR,FARMINGTON,NM,87401,
269.0,CAMINO DE LA SIERRA,Santa Fe,NM,87501,
2411.0,CALLE CONTESSA,Santa Fe,NM,87505,
700.0,S DUSTIN RD,FARMINGTON,NM,87401,
411.0,SAINT MICHAELS DR,Santa Fe,NM,87505,3.0
214.0,N COURT AVE,FARMINGTON,NM,87401,
1563.0,OLD STATE HWY 3,SAN CRISTOBAL,NM,87564,
2108.0,CALLE DE SEBASTIAN,Santa Fe,NM,87505,
22.0,SANTO NINO RD,EL PRADO,NM,87529,
300.0,CHULA VISTA,Santa Fe,NM,87501,
7110.0,SARAH ST,FARMINGTON,NM,87401,
5590.0,ROBERTS RD,FARMINGTON,NM,87402,
11.0,UPPER PINABETTE RD,QUESTA,NM,87556,
164.0,W ROMERO RD,RANCHOS DE TAOS,NM,87557,
624.0,PAIGE LOOP E,LOS ALAMOS,NM,87547,
28.0,ROAD 6221,KIRTLAND,NM,87417,
1629.0,PASEO DEL PUEBLO NORTE,EL PRADO,NM,87529,
800.0,E 20TH ST,FARMINGTON,NM,87401,
25.0,ROAD 5387,FARMINGTON,NM,87401,38.0
6061.0,MONTE AZUL PL,Santa Fe,NM,87507,
222.0,HINDE PL,TAOS,NM,87571,
1405.0,CAMINA ENTRADA,FARMINGTON,NM,87401,
1075.0,MYRTLE ST,LOS ALAMOS,NM,87544,
4205.0,MAGNOLIA LN,FARMINGTON,NM,87402,
414.0,HEILAND,AZTEC,NM,87410,
2345.0,E 17TH ST,FARMINGTON,NM,87401,
8.0,ROAD 4960,BLOOMFIELD,NM,87413,
836.0,SHADY LN,FARMINGTON,NM,87401,
702.0,N ALLEN AVE,FARMINGTON,NM,87401,
2117.0,E 11TH ST,FARMINGTON,NM,87401,
123.0,CANYON VISTA,LOS ALAMOS,NM,87547,
1650.0,ROAD 7100,FARMINGTON (NO DELIVERY),NM,87401,
1445.0,BIG ROCK LOOP,LOS ALAMOS,NM,87544,
4761.0,QUEMAZON,LOS ALAMOS,NM,87544,
108.0,CATHEDRAL PL,Santa Fe,NM,87501,
501.0,W ZIA RD,Santa Fe,NM,87505,
740.0,BILLIE AVE,FARMINGTON,NM,87401,
245.0,ROSARIO BLVD,Santa Fe,NM,87505,
2832.0,PLAZA AMARILLA,Santa Fe,NM,87507,
160.0,BROWNELL HOWLAND RD,Santa Fe,NM,87501,
807.0,E 24TH ST,FARMINGTON,NM,87401,
540.0,JUANITA ST,Santa Fe,NM,87501,
1449.0,OAKWOOD LOOP,LOS ALAMOS,NM,87544,
441.0,LA POSTA RD,TAOS,NM,87571,4.0
621.0,CALLE DE VALDEZ,Santa Fe,NM,87505,
1513.0,S BUTLER AVE,FARMINGTON,NM,87401,
23.0,ROAD 3074,AZTEC,NM,87410,
30.0,ROAD 3351,AZTEC,NM,87410,
15.0,SIERRA VISTA RD,TRES PIEDRAS,NM,87577,
808.0,E 24TH ST,FARMINGTON,NM,87401,
118.0,LA VEREDA,Santa Fe,NM,87501,
1230.0,CALLE INEZ,Santa Fe,NM,87507,
801.0,CAMINO ZOZOBRA,Santa Fe,NM,87505,
108.0,W LA PLATA ST,FARMINGTON,NM,87401,
100.0,RIO VISTA PL,Santa Fe,NM,87501,
2719.0,N DUSTIN AVE,FARMINGTON,NM,87401,
3313.0,CAMINO PRADO VISTA,Santa Fe,NM,87507,
964.0,OTOWI PL,LOS ALAMOS,NM,87544,
1107.0,ORCHARD DR,FARMINGTON,NM,87401,
5050.0,E MAIN ST,FARMINGTON,NM,87402,
1603.0,W MAIN ST,FARMINGTON,NM,87401,
259.0,STAAB ST,Santa Fe,NM,87501,
2491.0,SAWMILL RD,Santa Fe,NM,87505,
2011.0,TROY KING RD,FARMINGTON,NM,87401,135.0
5003.0,HOLMES DR,FARMINGTON,NM,87402,
304.0,MCCLOUD,AZTEC,NM,87410,
1809.0,E 22ND ST,FARMINGTON,NM,87401,
6600.0,JAGUAR DR,Santa Fe,NM,87507,
3500.0,BLOOMFIELD HWY,FARMINGTON,NM,87401,
438.0,BLUEBERRY HILL RD,EL PRADO,NM,87529,
3032.0,CALLE NUEVA VISTA,Santa Fe,NM,87507,
1056.0,SIERRA DEL NORTE,Santa Fe,NM,87501,
1409.0,CAMINA ENTRADA,FARMINGTON,NM,87401,
388.0,ARROYO HONDO ARROYO SECO RD,ARROYO SECO,NM,87514,
101.0,ROAD 2755,AZTEC,NM,87410,
6221.0,OLD COURSE DR,FARMINGTON,NM,87402,
1747.0,38TH ST,LOS ALAMOS,NM,87544,
1601.0,EL REDONDO CIR,FARMINGTON,NM,87401,
142.0,BOB ST,Santa Fe,NM,87501,
1301.0,E NAVAJO ST,FARMINGTON,NM,87401,
2163.0,DEER TRL,LOS ALAMOS,NM,87544,
110.0,PASEO DEL PUEBLO NORTE,TAOS,NM,87571,
2218.0,MIGUEL CHAVEZ RD,Santa Fe,NM,87505,
16.0,ROAD 6335,KIRTLAND,NM,87417,
2011.0,TROY KING RD,FARMINGTON,NM,87401,
1364.0,42ND ST,LOS ALAMOS,NM,87544,
474.0,ARROYO HONDO ARROYO SECO RD,EL PRADO,NM,87529,
7.0,ROAD 2896,AZTEC,NM,87410,
1700.0,CALLE DE ORIENTE NORTE,Santa Fe,NM,87507,
88.0,UPPER LLANO RD,VADITO,NM,87579,
126.0,E DE VARGAS ST,Santa Fe,NM,87501,
876.0,E PALACE AVE,Santa Fe,NM,87501,
1305.0,N GIBSON AVE,FARMINGTON,NM,87401,
70.0,ROAD 7585,BLOOMFIELD,NM,87413,
2020.0,OTOWI DR,Santa Fe,NM,87505,
315.0,RIO PECOS,AZTEC,NM,87410,
4101.0,BECKLAND DR,FARMINGTON,NM,87402,
27.0,ROUTE 12,TRES PIEDRAS,NM,87577,
2354.0,PLACITA LA CONDESA,Santa Fe,NM,87507,
604.0,CERRILLOS DR,FARMINGTON,NM,87401,
810.0,CRESTVIEW DR,FARMINGTON,NM,87401,
1690.0,37TH ST,LOS ALAMOS,NM,87544,
2848.0,VEREDA DE PUEBLO,Santa Fe,NM,87507,
13.0,ROAD 2617,AZTEC,NM,87410,
1891.0,CAMINO DE PABILO,Santa Fe,NM,87505,
759.0,W MANHATTAN AVE,Santa Fe,NM,87501,1.0
4227.0,ENTRADA SONATA,Santa Fe,NM,87507,
1807.0,SECOND ST,Santa Fe,NM,87505,
1176.0,DON BERNABE GARCIA LN,EL PRADO,NM,87529,
604.0,N ORCHARD AVE,FARMINGTON,NM,87401,
73.0,ROAD 4800,BLOOMFIELD,NM,87413,1.0
7.0,ROAD 6536,KIRTLAND,NM,87417,
2601.0,HIGHLAND PL,FARMINGTON,NM,87401,
1935.0,HOLLY HOCK CIR,FARMINGTON,NM,87401,
325.0,4TH,BLOOMFIELD,NM,87413,
822.0,SCOTT WAY,LOS ALAMOS,NM,87544,
3217.0,LOURAINE CIR,Santa Fe,NM,87507,
14120.0,STATE HWY 75,PENASCO,NM,87553,1.0
1006.0,MUNICIPAL DR,FARMINGTON,NM,87401,
25.0,ROAD 7280,BLOOMFIELD,NM,87413,
3106.0,CARMEL DR,FARMINGTON,NM,87401,
510.0,N ORCHARD AVE,FARMINGTON,NM,87401,
1831.0,CHILTON CT,FARMINGTON,NM,87401,
116.0,FERNANDEZ LN,TAOS,NM,87571,
605.0,SAN MIGUEL ST,FARMINGTON,NM,87401,
2401.0,CAMINO CAPITAN,Santa Fe,NM,87505,
4209.0,SAINT MICHAELS DR,FARMINGTON,NM,87401,
5.0,SAGEBRUSH RD,TRES PIEDRAS,NM,87577,
1183.0,MESITA DEL BUEY,LOS ALAMOS,NM,87545,
834.0,DON DIEGO AVE,Santa Fe,NM,87505,
941.0,CALLE MEJIA,Santa Fe,NM,87501,1205.0
3414.0,N BUENA VISTA AVE,FARMINGTON,NM,87401,
5002.0,LOMA ALTO DR,FARMINGTON,NM,87402,
72.0,OLD SCHOOL RD,CHAMISAL,NM,87521,
4112.0,TERRACE DR,FARMINGTON,NM,87402,
135.0,ROAD 7675,BLOOMFIELD,NM,87413,
2218.0,MIGUEL CHAVEZ RD,Santa Fe,NM,87505,
5999.0,AIRPORT RD,Santa Fe,NM,87507,3.0
2332.0,E 17TH ST,FARMINGTON,NM,87401,
1220.0,RANDOLPH AVE,FARMINGTON,NM,87401,
1627.0,C DE Baca LN,Santa Fe,NM,87505,
24.0,TWINING RD,TAOS SKI VALLEY,NM,87525,
741.0,NATANE AVE,FARMINGTON,NM,87401,
33.0,ROAD 5345,BLOOMFIELD,NM,87413,
1401.0,E BROADWAY,FARMINGTON,NM,87401,
1070.0,SHADOW VALLEY LN,FARMINGTON,NM,87401,
8.0,CAMINO DE SILVIANO,RANCHOS DE TAOS,NM,87557,
,NICKEL ST,LOS ALAMOS,NM,87544,
4734.0,EMERALD ST,FARMINGTON,NM,87401,
1306.0,SAIZ,BLOOMFIELD,NM,87413,
3800.0,LA PLATA HWY,FARMINGTON,NM,87401,
1112.0,S BLUFFVIEW AVE,FARMINGTON,NM,87401,
6009.0,JAGUAR DR,Santa Fe,NM,87507,
322.0,STATE HWY 240,TAOS,NM,87571,
3904.0,BUCKINGHAM ST,FARMINGTON,NM,87402,
1015.0,GLADE LN,FARMINGTON,NM,87401,
1600.0,CLIFFSIDE DR,FARMINGTON,NM,87401,167.0
4102.0,SAINT MICHAELS DR,FARMINGTON,NM,87401,
2212.0,RIDGECREST DR,FARMINGTON,NM,87401,
766.0,CALLE DEL RESPLANDOR,Santa Fe,NM,87505,
7134.0,STATE HWY 518,RANCHOS DE TAOS,NM,87557,
600.0,SAN ILDEFONSO RD,LOS ALAMOS,NM,87544,
2524.0,CAMINO CABESTRO,Santa Fe,NM,87505,
6149.0,VUELTA VENTURA,Santa Fe,NM,87507,
1501.0,MONTANO ST,Santa Fe,NM,87505,22.0
101.0,PEDREGAL PL,Santa Fe,NM,87501,
11.0,ROAD 5061,BLOOMFIELD,NM,87413,
1416.0,FOURTH ST,Santa Fe,NM,87505,
8050.0,FOOTHILLS DR,FARMINGTON,NM,87402,
2415.0,GLADE RD,FARMINGTON,NM,87401,
5410.0,COLIBRI PL,FARMINGTON,NM,87402,
800.0,SAN MIGUEL ST,FARMINGTON,NM,87401,
113.0,CAMINO ESCONDIDO,Santa Fe,NM,87501,1.0
133.0,LOS RIOS RD,ARROYO HONDO,NM,87513,
609.0,BISHOP LN,FARMINGTON,NM,87401,
2300.0,W ALAMEDA ST,Santa Fe,NM,87507,
1421.0,11TH ST,LOS ALAMOS,NM,87544,
1400.0,BOYLAN LN,Santa Fe,NM,87507,
1125.0,MAEZ RD,Santa Fe,NM,87505,
8.0,ROAD 3261,AZTEC,NM,87410,
160.0,STATE HWY 73,VADITO,NM,87579,
2400.0,N DUSTIN AVE,FARMINGTON,NM,87401,114.0
66.0,CAMINO SUR DEL LLANO QUEMADO,RANCHOS DE TAOS,NM,87557,
1186.0,E SUMNER AVE,FORT SUMNER,NM,88119,
2064.0,CALLE LORCA,Santa Fe,NM,87505,
2905.0,RUFINA CT,Santa Fe,NM,87507,
109.0,W CORCORRAN DR,FARMINGTON,NM,87401,
227.0,E PALACE AVE,Santa Fe,NM,87501,
704.0,JEFFREY PL,LOS ALAMOS,NM,87547,
4336.0,US 64,KIRTLAND,NM,87417,
1340.0,ALAMO RD,Santa Fe,NM,87505,
76.0,ROAD 4903,BLOOMFIELD,NM,87413,
110.0,HILL ST,FARMINGTON,NM,87401,
804.0,S MESA VERDE AVE,FARMINGTON,NM,87401,
2564.0,CAMINO CHUECO,Santa Fe,NM,87505,
2100.0,BLANCO,BLOOMFIELD,NM,87413,
309.0,ROAD 4990,BLOOMFIELD,NM,87413,
305.0,ROAD 1191,LA PLATA,NM,87418,
2008.0,KIVA RD,Santa Fe,NM,87505,
803.0,ACEQUIA MADRE,Santa Fe,NM,87505,
1651.0,GALISTEO ST,Santa Fe,NM,87505,11.0
1299.0,ZEPOL RD,Santa Fe,NM,87507,121.0
3.0,ROAD 4650,BLOOMFIELD,NM,87413,
373.0,STATE HWY 230,VALDEZ,NM,87580,
19.0,CLOVE LN,FORT SUMNER,NM,88119,
616.0,TETON DR,FARMINGTON,NM,87401,
4002.0,E MAIN ST,FARMINGTON,NM,87402,
4633.0,GILA ST,FARMINGTON,NM,87402,33.0
21.0,ROAD 3476,FLORA VISTA,NM,87415,
2004.0,CULPEPPER LN,FARMINGTON,NM,87401,
108.0,PADRE MARTINEZ LN,TAOS,NM,87571,
6151.0,AIRPORT RD,Santa Fe,NM,87507,7.0
3500.0,TWIN PEAKS BLVD,FARMINGTON,NM,87401,
1901.0,CAMINO MANZANA,LOS ALAMOS,NM,87544,
626.0,CAMINO RANCHEROS,Santa Fe,NM,87505,
5620.0,WILDWOOD ST,FARMINGTON,NM,87402,
1955.0,LONE WOLF DR,FARMINGTON,NM,87401,3.0
28.0,ROAD 5151,BLOOMFIELD,NM,87413,
850.0,S BROWNING PKWY,FARMINGTON,NM,87401,
1421.0,LUISA ST,Santa Fe,NM,87505,
700.0,ORCHARD HOMES DR,FARMINGTON,NM,87401,
102.0,W TWILIGHT DR,FARMINGTON,NM,87401,
2501.0,W ZIA RD,Santa Fe,NM,87505,
11.0,FIREHOUSE RD,PENASCO,NM,87553,
,SYCAMORE ST,LOS ALAMOS,NM,87544,
2011.0,TROY KING RD,FARMINGTON,NM,87401,
221.0,AIRPORT DR,FARMINGTON,NM,87401,
149.0,CALLE CORAZON,Santa Fe,NM,87507,
525.0,1ST,BLOOMFIELD,NM,87413,
5455.0,E MAIN ST,FARMINGTON,NM,87402,
3480.0,TODOS SANTOS,Santa Fe,NM,87507,
859.0,E PALACE AVE,Santa Fe,NM,87501,
302.0,GLENMARY,AZTEC,NM,87410,
1015.0,GLADE LN,FARMINGTON,NM,87401,80.0
38.0,ROAD 7088,BLOOMFIELD,NM,87413,
601.0,W SAN MATEO RD,Santa Fe,NM,87505,
30.0,CALLE LAZO ERRANTE,Santa Fe,NM,87507,
2204.0,N TUCKER AVE,FARMINGTON,NM,87401,3.0
506.0,PAIGE LOOP W,LOS ALAMOS,NM,87547,
5251.0,MESA DEL OSO,FARMINGTON,NM,87402,
5109.0,CRITERION ST,FARMINGTON,NM,87402,
23.0,ROAD 3546,FLORA VISTA,NM,87415,
506.0,E 15TH ST,FARMINGTON,NM,87401,
1027.0,9TH ST,LOS ALAMOS,NM,87544,
318.0,KIMBERLY LN,LOS ALAMOS,NM,87547,
1600.0,CLIFFSIDE DR,FARMINGTON,NM,87401,
1223.0,LA RAMBLA,Santa Fe,NM,87505,
445.0,ARROYO HONDO ARROYO SECO RD,ARROYO SECO,NM,87514,
36.0,LAS TUSAS  RD,TAOS,NM,87571,
408.0,CEDAR,BLOOMFIELD,NM,87413,
135.0,STATE HWY 240,TAOS,NM,87571,
806.0,MIRABEL ST,FARMINGTON,NM,87401,
1240.0,N SUNSET ST,TAOS,NM,87571,
2451.0,CALLE LINDA,Santa Fe,NM,87505,
