NUMBER,STREET,CITY,STATE,POSTCODE,UNIT
11473,ROCKY MOUNTAIN ST,RENO,NV,89506,
703,ROCKY TRAIL RD,Henderson,NV,89014,
1877,EL RANCHO DR,SPARKS,NV,89431,127
410,K ST,SPARKS,NV,89431,
7817,SADDLEBACK CT,SPARKS,NV,89436,
7195,SOUVERAIN LN,RENO,NV,89506,
1024,WATER COVE ST,Henderson,NV,89011,
115,CROSSFOOT TERRACE CT,Henderson,NV,89002,
13,ECLIPSE DR,SPARKS,NV,89441,
1704,MAYAN CT,Henderson,NV,89014,
2009,CUTLASS DR,Henderson,NV,89014,
800,REDFIELD PKWY,RENO,NV,89509,1
980,AMERICAN PACIFIC DR,Henderson,NV,89014,102
1415,CHEROKEE TRL,RENO,NV,89521,
1025,BRINKBY AVE,RENO,NV,89509,2
17000,WEDGE PKWY,RENO,NV,89511,2022
5366,SANTA BARBARA AVE,SPARKS,NV,89436,
15025,RED ROCK RD,RENO,NV,89508,
2027,PINION SPRINGS DR,Henderson,NV,89074,
2749,SUNRIDGE HEIGHTS PKWY,Henderson,NV,89052,
2300,HARVARD WAY,RENO,NV,89502,
2100,INTERSTATE 80 W,VERDI,NV,89439,83
1220,E GREG ST,SPARKS,NV,89431,20
2140,BRITTANY MEADOWS DR,RENO,NV,89521,
1133,PARADISE MOUNTAIN TRL,Henderson,NV,89002,
10671,FORT MORGAN WAY,RENO,NV,89521,
13895,KEWANNA TRL,RENO,NV,89521,
300,SAGE ST,RENO,NV,89512,39
30,STRADA DI VILLAGGIO,Henderson,NV,89011,108
103,DOGWOOD ST,Henderson,NV,89015,
241,KIRK AVE,Henderson,NV,89015,
5040,LAKERIDGE DR,RENO,NV,89509,
2276,SURREY MEADOWS AVE,Henderson,NV,89052,
2375,E 4TH ST,RENO,NV,89512,
600,W 5TH ST,RENO,NV,89503,
5705,WINNEMUCCA RANCH RD,RENO,NV,89510,
2548,WIGWAM PKWY,Henderson,NV,89074,100
3700,KINGS ROW,RENO,NV,89503,106
20,BLACKBIRD CT,RENO,NV,89508,
1371,ADAGIETTO DR,Henderson,NV,89052,
8365,EASTGATE RD,Henderson,NV,89015,100
2097,VIA FIRENZE,Henderson,NV,89044,
8598,MOTH CIR,RENO,NV,89506,
1066,FUGATO ST,Henderson,NV,89011,
3000,HIGH VIEW DR,Henderson,NV,89014,212
8056,WHITE FALLS DR,RENO,NV,89506,
2136,TWIN FALLS DR,Henderson,NV,89044,
231,W HORIZON RIDGE PKWY,Henderson,NV,89012,2721
1790,LANDER ST,RENO,NV,89509,
7635,APPENZELL ST,RENO,NV,89506,
525,MAGISTRATE CT,RENO,NV,89521,
2108,ROUNDHOUSE RD,SPARKS,NV,89431,
537,TRIMLEY CT,Henderson,NV,89014,
856,Holt Ave,Caliente,NV,89008,
14,W I80,ELKO COUNTY,NV,0,
4982,NEWPORT CT,RENO,NV,89506,
1455,W 4TH ST,RENO,NV,89503,33
10891,CROOKED CANYON DR,RENO,NV,89521,
510,COLLEGE DR,Henderson,NV,89015,1423
2200,N D'ANDREA PKWY,SPARKS,NV,89434,1713
11,OAK HOLLOW CT,Henderson,NV,89074,
827,HAPPY SPARROW AVE,Henderson,NV,89052,
75,MESA RIVERA ST,Henderson,NV,89012,
5264,SIDEHILL DR,SUN VALLEY,NV,89433,
2665,SYCAMORE GLEN DR,SPARKS,NV,89434,3
238,LENWOOD DR,SPARKS,NV,89431,
4101,CAUGHLIN SQ,RENO,NV,89519,
326,SHELBY DR,SPARKS,NV,89436,
6,VIA VASARI,Henderson,NV,89011,102
6400,SHARLANDS AVE,RENO,NV,89523,2029
1505,JOY LAKE RD,RENO,NV,89511,
7660,PATRINA WAY,SPARKS,NV,89436,
70,SHEENA CT,SPARKS,NV,89436,
755,JADE SPARROW CT,Henderson,NV,89015,
2725,AVENIDA DE LANDA,RENO,NV,89523,
713,J ST,SPARKS,NV,89431,
1175,HARVARD WAY,RENO,NV,89502,
219,W COMMERCIAL ST,ELKO,NV,89801,
595,LITTLE SORREL CT,RENO,NV,89521,
1600,IDLEWILD DR,RENO,NV,89509,2
2180,ROCKIN ROBIN DR,SPARKS,NV,89441,
800,FOREST ST,RENO,NV,89509,14
4650,SIERRA MADRE DR,RENO,NV,89502,475
7155,LINDSEY LN,SPARKS,NV,89436,
294,WINONA DR,SPRING CRK TRLR SEC,NV,89815,
1835,WENDY WAY,RENO,NV,89509,
228,FRIENDLY CT,Henderson,NV,89052,
2734,CRAIGMILLAR ST,Henderson,NV,89044,
934,JENNIFER ST,INCLINE VILLAGE,NV,89451,
403,ROCKY RD,Henderson,NV,89015,
1325,WENDOVER BLVD,WEST WENDOVER,NV,89883,
1680,MILL ST,RENO,NV,89502,
4919,DUBONNET DR,SPARKS,NV,89436,
2017,ALTO VISTA DR,Henderson,NV,89052,
3950,GOLDFINCH DR,RENO,NV,89508,
811,E YORK WAY,SPARKS,NV,89434,
1072,GALLANT FOX AVE,Henderson,NV,89015,
777,GRAND CANYON BLVD,RENO,NV,89502,
1877,EL RANCHO DR,SPARKS,NV,89431,58
1964,BLOSSOM VIEW DR,SPARKS,NV,89434,
450,N WELLS AVE,RENO,NV,89512,101
10830,RUSHING FLUME DR,RENO,NV,89521,
475,LILLARD DR,SPARKS,NV,89434,106
1851,STEAMBOAT PKWY,RENO,NV,89521,6001
390,FREEPORT BLVD,SPARKS,NV,89431,5
1331,COACHMAN DR,SPARKS,NV,89434,
2575,W HORIZON RIDGE PKWY,Henderson,NV,89052,311
2224,VISTA TERRACE LN,SPARKS,NV,89436,
2635,MARGARET DR,RENO,NV,89506,
5765,TAPPAN DR,RENO,NV,89523,
251,S GREEN VALLEY PKWY,Henderson,NV,89012,4121
345,BRIDLE PATH TER,SPARKS,NV,89441,
1200,RIVERSIDE DR,RENO,NV,89503,1202
2201,RAMSGATE DR,Henderson,NV,89074,1121
1177,SPRING SAGE ST,Henderson,NV,89011,
4340,WARREN WAY,RENO,NV,89509,
8055,WHITE FALLS DR,RENO,NV,89506,
3330,KINGS ROW,RENO,NV,89503,
104,ASH ST,Henderson,NV,89015,
1250,W 4TH ST,RENO,NV,89503,
1845,POCONO CT,SPARKS,NV,89434,
8500,SILVER SHORES DR,RENO,NV,89506,
1540,HILLBORO AVE,RENO,NV,89512,
4005,MOORPARK CT,SUN VALLEY,NV,89433,393
6658,LILAC DAWN DR,SPARKS,NV,89436,
2908,PORTADA AVE,Henderson,NV,89074,
3400,KINDRED AVE,RENO,NV,89502,11
11075,HEARTPINE ST,RENO,NV,89506,
2246,BOWIE CIR,Henderson,NV,89014,
6581,VOYAGE DR,SPARKS,NV,89436,
10120,S EASTERN AVE,Henderson,NV,89052,237
1431,MOUNT GRANT DR,RENO,NV,89523,
390,NORLINA CT,Henderson,NV,89014,
943,WAGON TRAIN DR,Henderson,NV,89002,
350,GRACIOUS WAY,Henderson,NV,89011,
1346,FRONTIER ST,RENO,NV,89503,
8085,WHITE FALLS DR,RENO,NV,89506,
10,TANGLEWOOD DR,Henderson,NV,89012,
991,MIRROR LAKE DR,RENO,NV,89511,
845,PINE RIDGE DR,RENO,NV,89509,
449,J ST,SPARKS,NV,89431,
1447,PRATER WAY,SPARKS,NV,89431,
2655,PARKWAY DR,RENO,NV,89502,
2248,CALTANA CT,Henderson,NV,89052,
1801,N GREEN VALLEY PKWY,Henderson,NV,89074,723
130,STONECREST DR,VERDI,NV,89439,
747,WILLOW ST,RENO,NV,89502,11
1180,TYLER WAY,SPARKS,NV,89431,
2386,STANSBURY CT,Henderson,NV,89052,
1761,STEWART ST,RENO,NV,89502,3
210,QUEST PARK ST,Henderson,NV,89074,8
3129,SARNANO AVE,Henderson,NV,89044,
1133,SPORT OF KINGS AVE,Henderson,NV,89015,
2610,DAFFODIL WAY,RENO,NV,89512,
639,CRYSTAL PEAK RD,INCLINE VILLAGE,NV,89451,
534,CHENEY ST,RENO,NV,89502,
3226,PORTO VITTORIA AVE,Henderson,NV,89044,
30,E PRATER WAY,SPARKS,NV,89431,
125,E 5TH AVE,SUN VALLEY,NV,89433,
17710,CASITA CT,RENO,NV,89508,
2457,ROMANGA CT,SPARKS,NV,89434,
2005,STONERIDGE DR,VERDI,NV,89439,
1000,AMERICAN PACIFIC DR,Henderson,NV,89074,222
1894,SCOTT VALLEY RD,RENO,NV,89523,
1900,E PRATER WAY,SPARKS,NV,89434,
1555,RIDGEVIEW DR,RENO,NV,89519,
3270,W HIDDEN VALLEY DR,RENO,NV,89502,
2490,EASTSHORE PL,RENO,NV,89509,
3008,MONROE PARK RD,Henderson,NV,89052,
16225,CALLAHAN RD,RENO,NV,89511,
1057,LUSH HILLSIDE CT,Henderson,NV,89002,
3430,TEN MILE DR,SPARKS,NV,89436,
170,LEO DR,SPARKS,NV,89441,
3465,BUCKHORN WAY,RENO,NV,89503,
9360,HUMMER CT,RENO,NV,89521,
2940,DEER RUN DR,RENO,NV,89509,
9615,PASSA TEMPO DR,RENO,NV,89511,
1952,BARRANCA DR,Henderson,NV,89074,
1633,BUFFALO TRAIL DR,Henderson,NV,89014,
699,HOGAN CT,INCLINE VILLAGE,NV,89451,1
442,FIELD ST,SPARKS,NV,89431,
2205,CLEARWATER CT,ELKO,NV,89801,
3155,VILLA MARBELLA CIR,RENO,NV,89509,
636,TYLER RIDGE AVE,Henderson,NV,89012,
3146,UNIVERSITY CT,ELKO,NV,89801,
12101,MOYA BLVD,RENO,NV,89506,
2965,TWIN CREEKS CT,RENO,NV,89523,
51,Broadway St,Alamo,NV,89001,
5725,NORDEND WAY,RENO,NV,89511,
13199,S VIRGINIA ST,RENO,NV,89511,218
6360,WALNUT CREEK RD,RENO,NV,89523,
473,BONNIE BROOK PL,Henderson,NV,89012,
770,SOUTHWOOD BLVD,INCLINE VILLAGE,NV,89451,2
275,BRIDLE PATH TER,SPARKS,NV,89441,
2890,VASSAR ST,RENO,NV,89502,
462,Bush St,Pioche,NV,89043,
12265,ALBERT WAY,RENO,NV,89506,
247,TEAL WAY,ELKO,NV,89801,
7252,LITTLE EASY ST,SPARKS,NV,89436,
606,CYNTHIA CT,INCLINE VILLAGE,NV,89451,
565,SPARKS BLVD,SPARKS,NV,89434,208
50,N SIERRA ST,RENO,NV,89501,604
609,TOBBLE CREEK CT,Henderson,NV,89011,
1813,CYPRESS BAY AVE,Henderson,NV,89012,
1218,HASKELL ST,RENO,NV,89509,
3278,BULLWINKLE DR,RENO,NV,89512,
3238,CANDELARIA DR,SPARKS,NV,89434,
5231,COIT DR,RENO,NV,89523,
3890,DOUGLAS DR,CARSON CITY,NV,89704,
800,SANDHILL SAGE ST,Henderson,NV,89052,
802,CASAZZA DR,RENO,NV,89502,
2800,ENTERPRISE RD,RENO,NV,89512,1021
5445,PEARL DR,SUN VALLEY,NV,89433,
526,E 6TH AVE,SUN VALLEY,NV,89433,
435,WRIGHT WAY,Henderson,NV,89015,
5133,NORTHERN LIGHTS DR,RENO,NV,89506,
3155,W HIDDEN VALLEY DR,RENO,NV,89502,
385,PERSIAN AVE,Henderson,NV,89015,
753,KANARRA CT,Henderson,NV,89014,
5295,SLOPE DR,SUN VALLEY,NV,89433,
4594,COBRA DR,SPARKS,NV,89436,
2130,DUTCH DRAFT DR,RENO,NV,89521,
1475,VISTA DEL RANCHO PKWY,SPARKS,NV,89436,116
5150,MAE ANNE AVE,RENO,NV,89523,402
3395,INDIAN LN,RENO,NV,89506,
780,GOLFERS PASS RD,INCLINE VILLAGE,NV,89451,
2915,PORTADA AVE,Henderson,NV,89074,
6912,TESORO CT,RENO,NV,89523,
2900,SHOW JUMPER LN,RENO,NV,89521,
1524,GLENMOOR DR,ELKO,NV,89801,
2500,E 2ND ST,RENO,NV,89595,2272
1681,BLACK FOX CANYON RD,Henderson,NV,89052,
165,HUBBARD WAY,RENO,NV,89502,38
1818,KINGLET DR,SPARKS,NV,89441,
2362,FLAGG DR,RENO,NV,89502,
2785,AUCHMULL ST,Henderson,NV,89044,
316,TEAL RIDGE HILLS DR,Henderson,NV,89014,
10421,BLOCKADE DR,RENO,NV,89521,
669,MONUMENT POINT ST,Henderson,NV,89002,
2194,TORTONA ST,Henderson,NV,89044,
17684,GEORGETOWN CT,RENO,NV,89508,
1150,GLEN MARTIN CT,SPARKS,NV,89434,
1133,PARADISE GARDEN DR,Henderson,NV,89002,
764,JUNEAU ST,ELKO,NV,89801,
9170,WIGWAM WAY,RENO,NV,89506,
2412,DOHERTY WAY,Henderson,NV,89014,
6560,PYRAMID WAY,SPARKS,NV,89436,17
3475,TEE PEE LN,RENO,NV,89506,
2155,INDIGO CREEK AVE,Henderson,NV,89012,
1799,TERRACE HEIGHTS LN,RENO,NV,89523,
2707,PEEKSKILL AVE,Henderson,NV,89052,
2338,N GREEN VALLEY PKWY,Henderson,NV,89014,1114
1432,GIANNOTTI DR,SPARKS,NV,89436,
1337,WATT ST,RENO,NV,89509,
855,BRINKBY AVE,RENO,NV,89509,119
928,WILD WEST DR,Henderson,NV,89002,
2001,KIETZKE LN,RENO,NV,89502,
1400,AVENUE OF THE OAKS,SPARKS,NV,89431,534
1851,STEAMBOAT PKWY,RENO,NV,89521,1901
1550,MESCALERO AVE,RENO,NV,89523,
1575,DUSTY CANYON ST,Henderson,NV,89052,
1088,ROCK BLVD,SPARKS,NV,89431,
9835,DIXON LN,RENO,NV,89511,
900,WILLOW ST,RENO,NV,89502,6
160,SINCLAIR ST,RENO,NV,89501,146
11000,S EASTERN AVE,Henderson,NV,89052,1626
2932,SUMTER VALLEY CIR,Henderson,NV,89052,
239,FRONT ST,MONTELLO,NV,89830,
1120,E ST,SPARKS,NV,89431,
141,LOST BALL CT,Henderson,NV,89074,
2130,CANYON MESA CT,RENO,NV,89523,
1877,EL RANCHO DR,SPARKS,NV,89431,66
652,TALUS WAY,RENO,NV,89503,
11000,S EASTERN AVE,Henderson,NV,89052,813
7329,LACERTA DR,SPARKS,NV,89436,
847,SUMNER RANCH RD,Henderson,NV,89012,
44,CABERNET PKWY,RENO,NV,89512,
3300,SKYLINE BLVD,RENO,NV,89509,249
810,LAHONTAN WAY,RENO,NV,89509,
12023,HIMALAYA ST,RENO,NV,89506,
2925,GRANVILLE DR,SPARKS,NV,89436,
391,CITRUS CIR,Henderson,NV,89015,
9490,FLYING HORSE RD,RENO,NV,89521,
24,VIA VASARI,Henderson,NV,89011,102
6797,PEPPERGRASS DR,SPARKS,NV,89436,
6617,PEPPERGRASS DR,SPARKS,NV,89436,
833,ASPEN PEAK LOOP,Henderson,NV,89011,116
695,GOLDEN SEDUM DR,Henderson,NV,89011,
428,S BOULDER HWY,Henderson,NV,89015,
1001,BAYWOOD DR,SPARKS,NV,89434,
255,N SIERRA ST,RENO,NV,89501,2205
1950,SIERRA OAKS CT,RENO,NV,89521,
1250,AMERICAN PACIFIC DR,Henderson,NV,89074,2121
8001,MILITARY RD,RENO,NV,89506,1706
993,WOLF CREEK DR,SPRING CREEK HOUSING,NV,89815,
2908,RUBY DESERT DR,RENO,NV,89521,
2980,SUNRIDGE HEIGHTS PKWY,Henderson,NV,89052,140
2218,TEDESCA DR,Henderson,NV,89052,
933,TWILIGHT PEAK CT,Henderson,NV,89012,
2362,N GREEN VALLEY PKWY,Henderson,NV,89014,91
162,COPPER ST,Henderson,NV,89015,
1851,STEAMBOAT PKWY,RENO,NV,89521,3004
50,SHADY VIEW CT,SPARKS,NV,89436,
870,CAUGHLIN GLEN,RENO,NV,89519,
201,S GIBSON RD,Henderson,NV,89012,2114
6865,Pam Dr,Carrigan Estates,NV,89008,
6600,ROLLING MEADOWS DR,SPARKS,NV,89436,134
2880,WRONDEL WAY,RENO,NV,89502,4
2176,PINION RD,ELKO,NV,89801,
1555,MCKINLEY DR,RENO,NV,89509,
1415,N VIRGINIA ST,RENO,NV,89503,
455,SOMERSETT PKWY,RENO,NV,89523,
970,LESCON CIR,RENO,NV,89509,
2108,PAGANINI AVE,Henderson,NV,89052,
1301,MARNE DR,RENO,NV,89503,
433,LA JOLLA DR,Henderson,NV,89015,
383,NEBRASKA AVE,Henderson,NV,89015,
8532,MOTH CIR,RENO,NV,89506,
283,MANZANITA RANCH LN,Henderson,NV,89012,
1250,SULLIVAN LN,SPARKS,NV,89431,8
2856,GRANVILLE DR,SPARKS,NV,89436,
343,OAKSHIRE PL,SPRING CREEK HOUSING,NV,89815,
1550,SKY VALLEY DR,RENO,NV,89523,2001
444,SOCORRO CT,RENO,NV,89511,
66,SMITHRIDGE PARK,RENO,NV,89502,
335,LAGUNA GLEN DR,Henderson,NV,89014,
10701,S EASTERN AVE,Henderson,NV,89052,225
877,WINNEMUCCA ST,NIXON,NV,89424,
1708,NAVARRE LN,Henderson,NV,89014,
1250,LAMOILLE HWY,ELKO,NV,89801,207
1891,WOOD RIVER ST,Henderson,NV,89052,
6095,SMOKEY CANYON DR,SUN VALLEY,NV,89433,
758,WIGAN PIER DR,Henderson,NV,89002,
3943,S MCCARRAN BLVD,RENO,NV,89502,
1885,MCCLOUD AVE,RENO,NV,89512,
450,N ARLINGTON AVE,RENO,NV,89503,516
10115,BURGHLEY CT,RENO,NV,89521,
2175,FIGONI RANCH RD,SPARKS,NV,89434,
555,MARSH AVE,RENO,NV,89509,
3696,4TH ST,SPARKS,NV,89431,
228,VIA MORELLI,Henderson,NV,89011,
4850,IDLEWILD DR,RENO,NV,89519,
2675,WINDMILL PKWY,Henderson,NV,89074,123
2430,GATEWOOD DR,RENO,NV,89523,
2048,SINFONIA AVE,Henderson,NV,89052,
1575,W WARM SPRINGS RD,Henderson,NV,89014,2022
5600,E RUSSELL RD,Henderson,NV,89014,113
2300,HARVARD WAY,RENO,NV,89502,
660,FINCH ISLAND AVE,Henderson,NV,89015,
2905,PARKWAY DR,RENO,NV,89502,
3187,WATERFIELD DR,SPARKS,NV,89434,
2300,DICKERSON RD,RENO,NV,89503,21
8000,OFFENHAUSER DR,RENO,NV,89511,
675,2ND ST,WELLS,NV,89835,
5270,CHALLIS CIR,RENO,NV,89523,
704,SPOTTED EAGLE ST,Henderson,NV,89015,
335,W 1ST ST,RENO,NV,89503,
1851,N GREEN VALLEY PKWY,Henderson,NV,89074,1621
2902,APOGEE LN,Henderson,NV,89074,
1500,W SUNSET RD,Henderson,NV,89014,110
2475,BLAIR CASTLE ST,Henderson,NV,89044,
700,E PECKHAM LN,RENO,NV,89502,124
1465,KINGLET DR,SPARKS,NV,89441,
2061,BURNSIDE DR,SPARKS,NV,89434,
1348,Blad St,Panaca,NV,89042,
2475,ROBB DR,RENO,NV,89523,421
2160,FAIRWEATHER ST,Henderson,NV,89052,
1032,BLUE LANTERN DR,Henderson,NV,89015,
5925,CARTIER,RENO,NV,89511,
2225,HOGAN CT,RENO,NV,89523,
2950,N GREEN VALLEY PKWY,Henderson,NV,89014,923
1945,HOPE VALLEY DR,RENO,NV,89521,
10845,GOLDENEYE AVE,ELKO COUNTY,NV,89801,
5301,LONGLEY LN,RENO,NV,89511,24
7895,KEY LARGO DR,RENO,NV,89506,
2356,STONE VIEW DR,SPARKS,NV,89436,
2180,KLEPPE LN,SPARKS,NV,89431,
4005,MUSTANG CT,RENO,NV,89502,
3243,VIA SERANOVA,Henderson,NV,89044,
682,RALSTON CT,INCLINE VILLAGE,NV,89451,
4600,MIRA LOMA DR,RENO,NV,89502,
382,LAKEPORT DR,SPRING CREEK HOUSING,NV,89815,
4401,LEVI GULCH,CARSON CITY,NV,89703,
28,RATTLESNAKE GRASS CT,Henderson,NV,89002,
501,LAKESHORE BLVD,INCLINE VILLAGE,NV,89451,40
705,THOROUGHBRED CIR,RENO,NV,89508,
3030,LEADERSHIP PKWY,RENO,NV,89503,20209
1063,OXEN RD,INCLINE VILLAGE,NV,89451,
1935,ALPHABET DR,RENO,NV,89502,
1573,BUFFALO BRUBAKER LN,Henderson,NV,89002,
4185,BILLY DR,RENO,NV,89502,
1550,EVANS AVE,RENO,NV,89512,2117
4752,AMBER HILL LN,RENO,NV,89523,
1721,TREK TRL,RENO,NV,89521,
12255,MAHOGANY DR,RENO,NV,89511,
2363,TILDEN WAY,Henderson,NV,89074,
137,PRIMERO WAY,Henderson,NV,89074,
1409,Edwards St,Panaca,NV,89042,
812,GLENMYRA CIR,SUN VALLEY,NV,89433,
3000,HIGH VIEW DR,Henderson,NV,89014,211
6330,WETZELL CT,RENO,NV,89511,
1421,N VIRGINIA ST,RENO,NV,89503,
3240,ALPINE CREEK RD,RENO,NV,89519,
2215,LINDLEY WAY,RENO,NV,89509,
3027,BADGER HILL RD,ELKO COUNTY,NV,89801,
210,QUEST PARK ST,Henderson,NV,89074,323
2260,ELLENDALE RD,RENO,NV,89503,
778,TOSSA DE MAR AVE,Henderson,NV,89002,
321,REBECCA DR,SPARKS,NV,89441,
6530,ANNIE OAKLEY DR,Henderson,NV,89014,1024
9755,SILVER SKY PKWY,RENO,NV,89506,1905
262,FAR AWAY ST,Henderson,NV,89074,
523,1ST ST,WELLS,NV,89835,
3560,BLUEJAY CT,RENO,NV,89509,
950,NUTMEG PL,RENO,NV,89502,
130,E GROVE ST,RENO,NV,89502,6
1564,RUSTY RIDGE LN,Henderson,NV,89002,
697,B ST,MONTELLO,NV,89830,
1203,GOLDEN SPIKE CT,Henderson,NV,89014,
2411,MOTIF CT,Henderson,NV,89052,
1888,SEA HORSE RD,RENO,NV,89521,
825,BROWNING DR,RENO,NV,89506,
1375,MISTYRIDGE LN,RENO,NV,89523,
1363,FUGGLES DR,SPARKS,NV,89441,
4515,CANYON DR,RENO,NV,89519,
3947,CLEAR ACRE LN,RENO,NV,89512,304
1300,BRINKBY AVE,RENO,NV,89509,2
8625,CHANNEL WAY,RENO,NV,89506,
20800,COOKE DR,RENO,NV,89521,
244,SWEET SUGAR PINE DR,Henderson,NV,89015,
2412,LUBERON DR,Henderson,NV,89044,
4330,HOUSTON DR,RENO,NV,89502,
1006,MISTY ROSE AVE,Henderson,NV,89074,
201,S WELLS AVE,RENO,NV,89502,308
4083,SNOWSHOE LN,RENO,NV,89502,
121,BROOKS CIR,SPARKS,NV,89431,
2172,SKYLINE HEIGHTS LN,Henderson,NV,89052,
5889,SOLSTICE DR,SPARKS,NV,89436,
1665,CRICKETWOOD CIR,RENO,NV,89523,
729,PROSPECT AVE,Henderson,NV,89002,
1794,TREK TRL,RENO,NV,89521,
1113,CLOUDY DAY DR,Henderson,NV,89074,
2602,PEBBLEGOLD AVE,Henderson,NV,89074,
160,LINDEN ST,RENO,NV,89502,1
9592,AUTUMN LEAF WAY,RENO,NV,89506,
4370,VIENTO WAY,RENO,NV,89502,
3245,NEIL RD,RENO,NV,89502,
4560,GOODWIN RD,SPARKS,NV,89436,
400,FAIRVIEW BLVD,INCLINE VILLAGE,NV,89451,40
929,RIFLE DR,Henderson,NV,89002,
807,BELLI DR,RENO,NV,89502,
7370,CHAMOMILE CT,SPARKS,NV,89436,
1475,NEWPORT LN,RENO,NV,89506,
1350,KELSO DUNES AVE,Henderson,NV,89014,1427
1900,E PRATER WAY,SPARKS,NV,89434,
6970,POCO BUENO CIR,SPARKS,NV,89436,
167,LUNGA AVE,Henderson,NV,89011,
2117,VIA FIRENZE,Henderson,NV,89044,
8,VIA VASARI,Henderson,NV,89011,2201
35,MONTAGNA MIRAGE ST,Henderson,NV,89012,
30,DESERT GALLERY ST,Henderson,NV,89012,
1604,SILVERTHREAD DR,RENO,NV,89521,
3085,GRAND ISLAND CT,SPARKS,NV,89436,
238,VIA FRANCIOSA DR,Henderson,NV,89011,
595,S GREEN VALLEY PKWY,Henderson,NV,89012,2123
6131,MIA VISTA DR,RENO,NV,89502,
742,RISING STAR DR,Henderson,NV,89014,
565,SPARKS BLVD,SPARKS,NV,89434,540
367,CROW BAR LN,PLEASANT VALLEY,NV,89815,
797,MARIFIELD CT,Henderson,NV,89052,
10005,BRONC CT,RENO,NV,89521,
2231,FLAGG DR,RENO,NV,89502,
780,RED GARTER ST,WEST WENDOVER,NV,89883,6
15185,CHATEAU AVE,RENO,NV,89511,
215,MEYERS AVE,Henderson,NV,89015,
775,N WATER ST,Henderson,NV,89015,
16450,N RED ROCK RD,RENO,NV,89508,
40,SUNBEAM LN,RENO,NV,89521,
9896,BRIDGEVIEW DR,RENO,NV,89521,
2111,ROCKROSE CIR,Henderson,NV,89074,
1555,RIDGEVIEW DR,RENO,NV,89519,
3275,LODESTAR LN,RENO,NV,89503,
706,BRINKBY AVE,RENO,NV,89509,1405
1501,MUSTANG DR,Henderson,NV,89002,
855,N STEPHANIE ST,Henderson,NV,89014,1714
2570,W HORIZON RIDGE PKWY,Henderson,NV,89052,7206
1606,W WARM SPRINGS RD,Henderson,NV,89014,
3031,US 93 HWY S,CLOVER VALLEY,NV,89835,
2633,SEURAT TER,Henderson,NV,89044,
11380,S VIRGINIA ST,RENO,NV,89521,1411
570,E 8TH AVE,SUN VALLEY,NV,89433,
76,E GLENDALE AVE,SPARKS,NV,89431,
14348,LEIDEN DR,RENO,NV,89506,
2973,BRACKENDALE AVE,Henderson,NV,89052,
1147,BRADLEY BAY AVE,Henderson,NV,89014,
2212,VIA ZORAN,Henderson,NV,89044,
2125,EAGLE WATCH DR,Henderson,NV,89012,
1100,CENTER ST,Henderson,NV,89015,2221
565,SPARKS BLVD,SPARKS,NV,89434,107
2665,ORNATE REGIMENT ST,Henderson,NV,89044,
625,DAN ST,Henderson,NV,89015,
1245,PLYMOUTH WAY,SPARKS,NV,89431,
100,N ARLINGTON AVE,RENO,NV,89501,
2523,VERA CRUZ CIR,Henderson,NV,89074,
1001,LAS PALMAS ENTRADA AVE,Henderson,NV,89012,3310
851,MCCOURRY BLVD,INCLINE VILLAGE,NV,89451,
1800,SULLIVAN LN,SPARKS,NV,89431,155
681,SWIFT EAGLE AVE,Henderson,NV,89015,
2222,MIDVALE TER,Henderson,NV,89074,
2360,PARADISE DR,RENO,NV,89512,2205
215,QUEST PARK ST,Henderson,NV,89074,638
858,GENTRY WAY,RENO,NV,89502,7
3825,SLEEPY HOLLOW DR,RENO,NV,89502,
3720,KINGS ROW,RENO,NV,89503,306
4871,E CREEK RIDGE TRL,RENO,NV,89519,
601,WHITNEY RANCH DR,Henderson,NV,89014,
2461,HARDIN RIDGE DR,Henderson,NV,89052,
1610,MUTCHLER DR,CARLIN,NV,89822,
56,FANTASIA LN,Henderson,NV,89074,
2759,FLOWING BREEZE ST,Henderson,NV,89044,
11660,PARADISE VIEW DR,SPARKS,NV,89441,
141,WASHINGTON ST,RENO,NV,89503,105
2990,SANTA ANA DR,RENO,NV,89502,
8200,OFFENHAUSER DR,RENO,NV,89511,
12222,ROCKY MOUNTAIN ST,RENO,NV,89506,
2295,RUDDY WAY,SPARKS,NV,89441,
120,DAISY MAE LN,SUN VALLEY,NV,89433,
5176,PALO ALTO CIR,SPARKS,NV,89436,
6582,ANGELS ORCHARD DR,SPARKS,NV,89436,
501,EL RANCHO DR,SPARKS,NV,89431,50
523,EDGEWATER DR,SPRING CRK TRLR SEC,NV,89815,
311,DAZZLING TER,Henderson,NV,89012,
11190,PARMA WAY,RENO,NV,89521,
625,W VICTORY RD,Henderson,NV,89015,
375,CONESTOGA WAY,Henderson,NV,89002,2513
178,W ADAMS ST,ELKO,NV,89801,
14100,QUIET MEADOW CT,RENO,NV,89511,
525,HARRIS ST,Henderson,NV,89015,1324
690,W RIVERVIEW CIR,RENO,NV,89509,
417,ASH ST,Henderson,NV,89015,
1800,PURDUE DR,RENO,NV,89502,124
9211,ATOLL CT,RENO,NV,89506,
7211,WINDSTAR DR,RENO,NV,89523,
730,E 7TH ST,RENO,NV,89512,
160,BRANNAN WAY,RENO,NV,89511,
2630,STARKS WAY,RENO,NV,89512,
2700,PLUMAS ST,RENO,NV,89509,205
42,HAWKEN RD,RENO,NV,89519,
627,SPRING VALLEY PKWY,SPRING CRK TRLR SEC,NV,89815,
1290,FAIRWAY DR,ELKO,NV,89801,
3385,MARTINI RD,SPARKS,NV,89434,
2050,W WARM SPRINGS RD,Henderson,NV,89014,1211
2608,HOTEL DE VILLE TER,Henderson,NV,89044,
318,HEATHER DR,Henderson,NV,89002,
833,ASPEN PEAK LOOP,Henderson,NV,89011,911
565,SPARKS BLVD,SPARKS,NV,89434,462
7921,LAS PLUMAS DR,SPARKS,NV,89436,
2525,TRIPP DR,RENO,NV,89512,
832,S CENTER ST,RENO,NV,89501,4
528,RELIANCE AVE,Henderson,NV,89002,
112,LUCKY LN,RENO,NV,89502,
830,FAIRVIEW DR,Henderson,NV,89015,
3160,ELAINE WAY,SPARKS,NV,89431,
5676,PEARL DR,SUN VALLEY,NV,89433,
910,PINE RIDGE DR,RENO,NV,89509,
1001,SOUTH MEADOWS PKWY,RENO,NV,89521,1424
827,WINTERSWEET RD,Henderson,NV,89015,
2951,SIENA HEIGHTS DR,Henderson,NV,89052,1924
2160,HELLABY LN,RENO,NV,89502,
483,CARMEL MESA DR,Henderson,NV,89012,
2120,RAMROD AVE,Henderson,NV,89014,1012
651,SOLITUDE POINT AVE,Henderson,NV,89012,
3395,SCOTTSDALE RD,RENO,NV,89512,7
2,VIA VITA BELLA,Henderson,NV,89011,
9550,HAPPY CANYON DR,RENO,NV,89521,
542,SPENCER WAY,INCLINE VILLAGE,NV,89451,
2200,N D'ANDREA PKWY,SPARKS,NV,89434,713
1815,DESERT MOUNTAIN DR,SPARKS,NV,89436,
1350,WALKING STICK WAY,RENO,NV,89523,
2513,OROVADA ST,RENO,NV,89512,
7850,TIBURON CT,SPARKS,NV,89436,
1524,LEA HURST LN,RENO,NV,89502,
10,BOBCAT DR,RENO,NV,89523,
5275,W 7TH ST,RENO,NV,89523,252
2473,BENCH REEF PL,Henderson,NV,89052,
1423,MOUNT GRANT DR,RENO,NV,89523,
17140,MAGNETITE DR,RENO,NV,89508,
2308,PARADISE DR,RENO,NV,89512,230
1005,VIA PANFILO,Henderson,NV,89011,
1238,CONWAY LN,RENO,NV,89503,
900,SOUTH MEADOWS PKWY,RENO,NV,89521,5514
796,OMAGGIO PL,Henderson,NV,89011,
2770,FOUNTAIN VISTA LN,Henderson,NV,89074,
1623,CRESCENT POINTE WAY,RENO,NV,89523,
851,VERMILLION DR,Henderson,NV,89002,
125,JAY PORTER AVE,Henderson,NV,89002,
941,TEXAS BRAND CT,Henderson,NV,89002,
1526,KESTREL CT,RENO,NV,89509,
5731,INDIGO DR,OSINO,NV,89801,
2475,ROBB DR,RENO,NV,89523,1014
905,RAILROAD ST,ELKO,NV,89801,203
309,COTTONWOOD CT,INCLINE VILLAGE,NV,89451,3
2360,WINGFIELD HILLS RD,SPARKS,NV,89436,137
791,MARANELLO ST,Henderson,NV,89052,
749,ROSE HIP CT,LAMOILLE,NV,89828,
1400,AVENUE OF THE OAKS,SPARKS,NV,89431,224
2885,KIETZKE LN,RENO,NV,89502,74
580,NATIONAL ST,Henderson,NV,89015,
3112,PAVILIO DR,Henderson,NV,89044,
1560,TURF DR,Henderson,NV,89002,
1917,MARGARITA AVE,Henderson,NV,89011,
605,GLENDALE AVE,SPARKS,NV,89431,102
1450,CLOVER VALLEY RD,CLOVER VALLEY,NV,89835,
644,PALM WASH LN,Henderson,NV,89011,
10475,MINE SHAFT DR,RENO,NV,89521,
6850,SHARLANDS AVE,RENO,NV,89523,1036
626,SINCLAIR ST,RENO,NV,89501,
989,TAHOE BLVD,INCLINE VILLAGE,NV,89451,52
2560,COLLINSVILLE DR,Henderson,NV,89052,
3207,ARCO AVE,Henderson,NV,89044,
2501,WIGWAM PKWY,Henderson,NV,89074,728
1408,SILVERADA BLVD,RENO,NV,89512,
390,FREEPORT BLVD,SPARKS,NV,89431,19
70,WALTS LN,RENO,NV,89509,33
146,SHERIDAN DR,Henderson,NV,89074,
1001,PRIMROSE ST,RENO,NV,89509,
2210,IDAHO ST,ELKO,NV,89801,
2834,CRYSTAL LANTERN DR,Henderson,NV,89074,
300,BRITT RD,RENO,NV,89508,
55,GINGER LILY TER,Henderson,NV,89074,
3300,SKYLINE BLVD,RENO,NV,89509,133
6152,CARRIAGE HOUSE WAY,RENO,NV,89519,
1435,CARLIN ST,RENO,NV,89503,1
160,SILVERSTONE PL,RENO,NV,89512,
5318,SPARKS BLVD,SPARKS,NV,89436,104
1500,NIXON AVE,RENO,NV,89509,
20,BRAYS ISLAND DR,Henderson,NV,89052,
11635,VERAZAE DR,RENO,NV,89521,
15180,BROILI DR,RENO,NV,89511,
2050,LONGLEY LN,RENO,NV,89502,
208,TUG BOAT CT,Henderson,NV,89012,
120,PETERS ST,CARLIN,NV,89822,
12,LARICOLA CT,Henderson,NV,89011,
129,CATRINA CT,SPARKS,NV,89441,
1826,RUBY LN,Henderson,NV,89014,
1851,STEAMBOAT PKWY,RENO,NV,89521,3802
5415,SPANDRELL LN,SPARKS,NV,89436,
4400,S JUMBO WAY,CARSON CITY,NV,89704,
3370,ST ROSE PKWY,Henderson,NV,89052,1713
2951,SIENA HEIGHTS DR,Henderson,NV,89052,4313
1830,WILDER ST,RENO,NV,89512,
1703,PRATER WAY,SPARKS,NV,89431,
4800,KIETZKE LN,RENO,NV,89502,220
1474,WESSEX CIR,RENO,NV,89503,
1217,HUMBOLDT ST,RENO,NV,89509,
9900,WILBUR MAY PKWY,RENO,NV,89521,1603
10561,JEFFREYS ST,Henderson,NV,89052,230
545,SADLEIR WAY,RENO,NV,89512,12
1896,GREENBRAE DR,SPARKS,NV,89431,
201,CHARLWOOD DR,SPRING CREEK HOUSING,NV,89815,
10836,MERGANSER AVE,ELKO COUNTY,NV,89801,
9015,SYDMESA DR,RENO,NV,89523,
1810,WINCHESTER DR,ELKO,NV,89801,
1301,N GREEN VALLEY PKWY,Henderson,NV,89074,
6179,SWEET CHERRY DR,SPARKS,NV,89436,
56,TIDWELL LN,Henderson,NV,89074,
10100,S EASTERN AVE,Henderson,NV,89052,110
2175,SIERRA HIGHLANDS DR,RENO,NV,89523,144
659,SPRING CREEK PKWY,SPRING CREEK HOUSING,NV,89815,
270,BURKS BLVD,RENO,NV,89523,
10080,FRITZ LN,RENO,NV,89521,
1645,BLUE CLIFFS AVE,Henderson,NV,89014,
507,CREPES PL,Henderson,NV,89052,
6000,CLEAR CREEK DR,RENO,NV,89502,
1675,SKY MOUNTAIN DR,RENO,NV,89523,522
690,ROBINHOOD DR,RENO,NV,89509,70
1225,COMMERCE ST,SPARKS,NV,89431,
679,PRINCIPLE POINT AVE,Henderson,NV,89012,
462,OAKMONT DR,SPRING CREEK HOUSING,NV,89815,
2490,EASTSHORE PL,RENO,NV,89509,503
2395,N HARBOR CIR,RENO,NV,89519,
904,SABLE CHASE PL,Henderson,NV,89011,
1690,MANCHESTER WAY,SPARKS,NV,89431,
350,HARBOUR COVE DR,SPARKS,NV,89434,212
682,BOLLONS ISLAND ST,Henderson,NV,89002,
14,E K ST,SPARKS,NV,89431,
897,SPIRACLE AVE,Henderson,NV,89002,
1355,SCHEELS DR,SPARKS,NV,89434,
1983,SUNSET VILLAGE CIR,Henderson,NV,89014,
3772,CULPEPPER DR,SPARKS,NV,89436,
1220,BERRUM LN,RENO,NV,89509,
8200,OFFENHAUSER DR,RENO,NV,89511,
520,GENTRY WAY,RENO,NV,89502,23
2014,WESTFIELD AVE,RENO,NV,89509,
2450,W HORIZON RIDGE PKWY,Henderson,NV,89052,
118,BLUEBERRY LN,Henderson,NV,89074,
89,SEA HOLLY WAY,Henderson,NV,89074,
2337,ROSENDALE VILLAGE AVE,Henderson,NV,89052,
4600,MIRA LOMA DR,RENO,NV,89502,
5055,WILD HORSE RD,RENO,NV,89510,
9718,PACHUCA DR,RENO,NV,89521,
565,SPARKS BLVD,SPARKS,NV,89434,430
1063,TABOR HILL AVE,Henderson,NV,89074,
684,MARRACCO DR,SPARKS,NV,89434,
1350,GRAND SUMMIT DR,RENO,NV,89523,241
831,2ND ST,VERDI,NV,89439,
2650,STARKS WAY,RENO,NV,89512,
2050,S MAGIC WAY,Henderson,NV,89002,285
2353,BROCKTON WAY,Henderson,NV,89074,
929,NORTHWOOD BLVD,INCLINE VILLAGE,NV,89451,25
1484,POWDER HORN DR,Henderson,NV,89014,
6777,RONALDINHO DR,SPARKS,NV,89436,
2895,THOMAS JEFFERSON DR,RENO,NV,89509,
305,BALSA ST,Henderson,NV,89002,
1497,BLUEWOOD DR,RENO,NV,89523,
2220,ASH AVE,SPARKS,NV,89431,
321,E DESERT ROSE DR,Henderson,NV,89015,
653,ROSE APPLE ST,Henderson,NV,89011,
1910,VALLEY RD,RENO,NV,89512,107
9350,DOUBLE R BLVD,RENO,NV,89521,2617
10640,N MCCARRAN BLVD,RENO,NV,89503,239
7819,MORGAN POINTE CIR,RENO,NV,89523,
75,W I80,WELLS,NV,89835,
2153,SUTRO ST,RENO,NV,89512,77
165,SAGEBROOK DR,VERDI,NV,89439,
2838,KIMBERLITE RD,SPARKS,NV,89436,
2616,SAVANNAH SPRINGS AVE,Henderson,NV,89052,
160,SINCLAIR ST,RENO,NV,89501,235
950,SEVEN HILLS DR,Henderson,NV,89052,1313
1950,BRONZE HILL RD,RENO,NV,89506,
171,VILLAGE BLVD,INCLINE VILLAGE,NV,89451,16
285,LUPIN CT,SUN VALLEY,NV,89433,
3700,SUNDANCE DR,ELKO,NV,89801,
1370,EVELYN WAY,RENO,NV,89502,26
2556,SWANS CHANCE AVE,Henderson,NV,89052,
9740,AUTUMN LEAF WAY,RENO,NV,89506,
2300,PRATER WAY,SPARKS,NV,89431,202
3895,CORSAIR ST,RENO,NV,89502,
4700,SUN VALLEY BLVD,SUN VALLEY,NV,89433,202
225,PIT LN,SUN VALLEY,NV,89433,
2455,RIO ALAYNE CT,SPARKS,NV,89436,
1400,AVENUE OF THE OAKS,SPARKS,NV,89431,723
2584,PRAIRIE PINE ST,Henderson,NV,89044,
10601,VISTA BELLA LN,RENO,NV,89521,
1009,GREENBRAE DR,SPARKS,NV,89431,
833,ASPEN PEAK LOOP,Henderson,NV,89011,723
400,N MAJOR AVE,Henderson,NV,89015,1313
1350,KELSO DUNES AVE,Henderson,NV,89014,821
5880,FLOWERING SAGE CT,RENO,NV,89511,
87,HUNTFIELD DR,Henderson,NV,89074,
4465,BOCA WAY,RENO,NV,89502,130
3027,SAGECREST DR,ELKO,NV,89801,
1503,STANFORD WAY,SPARKS,NV,89431,
34,VIA TIBERIUS WAY,Henderson,NV,89011,
1424,DRAGON ROCK DR,Henderson,NV,89052,
2708,BONAPARTE LN,Henderson,NV,89044,
2050,CARVILLE DR,RENO,NV,89512,
134,COPPER ST,Henderson,NV,89015,
1750,POLO PARK DR,RENO,NV,89523,
17940,BLAKE CT,RENO,NV,89508,
5450,SUMMER SUN CT,SUN VALLEY,NV,89433,
1017,HARBOR TOWN CIR,SPARKS,NV,89436,
1103,NORDYKE AVE,Henderson,NV,89015,
2305,W HORIZON RIDGE PKWY,Henderson,NV,89052,513
238,SMITHRIDGE PARK,RENO,NV,89502,
129,BEAR COAT CT,Henderson,NV,89002,
650,RECORD ST,RENO,NV,89512,408
450,MAESTRO DR,RENO,NV,89511,
1841,PURDUE DR,RENO,NV,89502,
2287,BILDAD DR,Henderson,NV,89044,
10700,OUTLAW LN,RENO,NV,89508,
902,SITTING BULL DR,Henderson,NV,89014,
8455,OFFENHAUSER DR,RENO,NV,89511,824
601,CABRILLO CIR,Henderson,NV,89015,432
736,SARATOGA SPRINGS ST,Henderson,NV,89015,
4775,SUMMIT RIDGE DR,RENO,NV,89523,1131
120,GREG ST,SPARKS,NV,89431,101
1452,DRAGON GLEN DR,Henderson,NV,89012,
9870,GREEN MEADOW CT,RENO,NV,89506,
2951,SIENA HEIGHTS DR,Henderson,NV,89052,3612
1832,HUMBOLDT CIR,WEST WENDOVER,NV,89883,
2536,LIBRETTO AVE,Henderson,NV,89052,
1920,HARVARD WAY,RENO,NV,89502,215
1063,SPOONBILL DR,SPARKS,NV,89441,
7140,SOUVERAIN LN,RENO,NV,89506,
2555,HIGHWAY 40 W,VERDI,NV,89439,12
210,Gold Springs Rd,Pioche,NV,89043,
2350,PARADISE DR,RENO,NV,89512,411
447,EVANS AVE,RENO,NV,89512,
1565,BUTTE ST,WEST WENDOVER,NV,89883,
8455,OFFENHAUSER DR,RENO,NV,89511,1127
885,ADOBE FLAT DR,Henderson,NV,89011,
2770,BRASS SPUR WAY,SPARKS,NV,89436,
3087,EVENING MIST AVE,Henderson,NV,89052,
2150,DESERT WOODS DR,Henderson,NV,89012,
231,W HORIZON RIDGE PKWY,Henderson,NV,89012,811
3959,HAZY SWALE WAY,SPARKS,NV,89436,
377,VIRGINIA LAKE AVE,Henderson,NV,89015,
1937,MOSER DR,Henderson,NV,89011,
5100,ELDORADO DR,RENO,NV,89519,
4604,NEIL RD,RENO,NV,89502,164
585,BRINKBY AVE,RENO,NV,89509,403
701,MCDONALD DR,RENO,NV,89503,
286,COMMODORE DR,VERDI,NV,89439,
686,WILSON WAY,INCLINE VILLAGE,NV,89451,2
10825,OAKHAVEN DR,RENO,NV,89521,
3335,SCOTTSDALE RD,RENO,NV,89512,3
7400,TUNNEL CREEK RD,CARSON CITY,NV,89704,
1762,BRAIDWOOD DR,SPARKS,NV,89436,
1405,APPIAN WAY,RENO,NV,89510,
2699,ALDONZA DR,Henderson,NV,89014,
501,E LAKE MEAD PKWY,Henderson,NV,89015,
645,SIERRA ROSE DR,RENO,NV,89511,
3370,ST ROSE PKWY,Henderson,NV,89052,1232
886,JENNIFER ST,INCLINE VILLAGE,NV,89451,
6015,STILLMEADOW DR,RENO,NV,89502,
608,TYNER WAY,INCLINE VILLAGE,NV,89451,
2680,OLIVE PL,RENO,NV,89511,
4390,MIRA LOMA DR,RENO,NV,89502,
175,WINTERCREST DR,VERDI,NV,89439,
1710,SAGEBRUSH DR,ELKO TRIBAL,NV,89801,
1040,C ST,SPARKS,NV,89431,203
18,VIA DE PESCARA,Henderson,NV,89074,
491,5TH ST,ELKO,NV,89801,
1895,N GREEN VALLEY PKWY,Henderson,NV,89074,2011
2014,BRIGHTON CT,RENO,NV,89509,
1001,SOUTH MEADOWS PKWY,RENO,NV,89521,1328
1092,CALLAWAY TRL,RENO,NV,89523,
119,STERLING CT,Henderson,NV,89015,
40,N VALLE VERDE DR,Henderson,NV,89074,140
3255,N RANCH VISTA CT,RENO,NV,89509,
1545,WIGWAM PKWY,Henderson,NV,89074,21
3835,AVOCET CT,RENO,NV,89508,
403,PEREGRINE AVE,Henderson,NV,89002,
40,LILAC LN,RENO,NV,89512,
750,ARROWCREEK PKWY,RENO,NV,89511,10311
9350,DOUBLE R BLVD,RENO,NV,89521,4014
11021,S EASTERN AVE,Henderson,NV,89052,
13125,WELCOME WAY,RENO,NV,89511,
300,WESTERN RD,RENO,NV,89506,
2976,RUBY DESERT DR,RENO,NV,89521,
2927,MATESE DR,Henderson,NV,89052,
460,SUNRISE BREEZE AVE,Henderson,NV,89011,
3330,WILMA DR,SPARKS,NV,89431,
577,VIA MEDICI,Henderson,NV,89011,
8580,CORRIGAN WAY,RENO,NV,89506,
18115,NORTHRIDGE AVE,RENO,NV,89508,
7559,WATER VIEW WAY,RENO,NV,89511,
2675,WINDMILL PKWY,Henderson,NV,89074,3524
512,HUMBOLDT ST,RENO,NV,89509,1
29,MONTELAGO BLVD,Henderson,NV,89011,421
3300,KAUAI CT,RENO,NV,89509,
1851,N GREEN VALLEY PKWY,Henderson,NV,89074,3323
2089,S MACKENZIE CIR,SPARKS,NV,89431,
400,N MAJOR AVE,Henderson,NV,89015,1622
1442,FEATHER WAY,ELKO TRIBAL,NV,89801,
6029,RED SUN DR,SPARKS,NV,89436,
49,GARCIA LN,ELKO,NV,89801,
2260,MAKENNA DR,RENO,NV,89521,
3845,SHEARWATER DR,RENO,NV,89508,
450,RABBIT CREEK RD,ELKO COUNTY,NV,89815,
222,LOS ALTOS PKWY,SPARKS,NV,89436,
850,SUSAN CT,INCLINE VILLAGE,NV,89451,
2175,BANNERWOOD ST,Henderson,NV,89044,
448,SFIR LEE RD,ELKO COUNTY,NV,89801,
2275,LARAMINE RIVER DR,Henderson,NV,89052,
815,NEVADA ST,RENO,NV,89503,8
6400,SHARLANDS AVE,RENO,NV,89523,2046
520,E 5TH AVE,SUN VALLEY,NV,89433,
4005,MOORPARK CT,SUN VALLEY,NV,89433,
1076,DEANGELIS DR,Henderson,NV,89015,
1288,ARCADIA RIM PL,Henderson,NV,89002,
1485,STARDUST ST,RENO,NV,89503,205
305,STEAMBOAT CT,RENO,NV,89521,
9135,SPRUCE CREEK CT,RENO,NV,89523,
617,MILL ST,RENO,NV,89502,
160,E CHAPARRAL DR,Henderson,NV,89015,
1050,CONNOLLY DR,ELKO,NV,89801,196
920,MONTELLO ST,RENO,NV,89512,
512,ALPINE ROSE CT,RENO,NV,89521,
480,AVALON TERRACE CT,RENO,NV,89523,
23500,US HIGHWAY 395 S,RENO,NV,89521,
4951,NEIL CIR,RENO,NV,89502,1
1290,EL MONTE CT,RENO,NV,89521,
581,SECRETARIAT CT,RENO,NV,89521,
1801,N GREEN VALLEY PKWY,Henderson,NV,89074,714
999,PALMWOOD DR,SPARKS,NV,89434,
2490,EASTSHORE PL,RENO,NV,89509,
1051,MARY CREST RD,Henderson,NV,89074,
10399,DOUBLE R BLVD,RENO,NV,89521,
5090,NEIL RD,RENO,NV,89502,2
275,GEMINI CIR,RENO,NV,89521,
2338,N GREEN VALLEY PKWY,Henderson,NV,89014,511
813,GLEN MEADOW DR,SPARKS,NV,89434,
934,CALLE MYRIAM,SPARKS,NV,89436,
226,OXFORD CLOTH CT,Henderson,NV,89074,
2855,IDLEWILD DR,RENO,NV,89509,147
1480,STAR WAY,RENO,NV,89511,
1260,PARKVIEW ST,RENO,NV,89502,
1781,CANDLEWOOD ST,SPARKS,NV,89434,
791,IDA CT,INCLINE VILLAGE,NV,89451,
,BAY CT,RENO,NV,89506,
10687,BRITTANY PARK DR,RENO,NV,89521,
1097,VIA GANDALFI,Henderson,NV,89011,
1775,WYOMING AVE,RENO,NV,89503,
6480,ANNIE OAKLEY DR,Henderson,NV,89014,112
2593,BECHAMEL PL,Henderson,NV,89044,
1260,COMMERCE ST,SPARKS,NV,89431,309
775,KINGSTON LN,RENO,NV,89511,
335,Spring Hts,Caliente,NV,89008,
16360,ENARGITE CIR,RENO,NV,89521,
1355,EBBETTS DR,RENO,NV,89503,
3853,AUTUMN COLORS DR,ELKO,NV,89801,
1300,W SUNSET RD,Henderson,NV,89014,1330
1695,CHASKA PL,RENO,NV,89502,
2656,TUSCAN WAY,SPARKS,NV,89434,
2824,FALCON RIDGE DR,SPARKS,NV,89436,
10720,PLATA MESA DR,RENO,NV,89508,
240,FREEPORT BLVD,SPARKS,NV,89431,21
2076,DESERT WOODS DR,Henderson,NV,89012,
2002,TANGERINE ST,SPARKS,NV,89434,
4045,WAGONEER DR,RENO,NV,89502,
1708,FLAT RIDGE RD,Henderson,NV,89014,
847,RALSTON ST,RENO,NV,89503,
244,DIAMOND LADY LN,PLEASANT VALLEY,NV,89815,
9350,DOUBLE R BLVD,RENO,NV,89521,312
10025,QUINTANA CT,RENO,NV,89521,
3730,THISTLE DOWN CT,RENO,NV,89512,
980,CHICKADEE DR,RENO,NV,89506,
450,BEARDSLEY CIR,Henderson,NV,89052,
11021,ZEOLITE DR,RENO,NV,89506,
18608,JUNEBERRY CT,RENO,NV,89508,
479,GROFT WAY,Henderson,NV,89015,
8011,HIGHLAND FLUME CIR,RENO,NV,89523,
2291,TANGERINE ST,SPARKS,NV,89434,
65,DESERT RAIN LN,Henderson,NV,89074,
2757,AUDRA FAYE AVE,Henderson,NV,89052,
4350,E SUNSET RD,Henderson,NV,89014,108
833,ASPEN PEAK LOOP,Henderson,NV,89011,1925
2425,HARDIN RIDGE DR,Henderson,NV,89052,
1637,HAVENCREST DR,RENO,NV,89523,
954,FAIRWAY BLVD,INCLINE VILLAGE,NV,89451,23
3550,BARRON WAY,RENO,NV,89511,
1116,AUBREY SPRINGS AVE,Henderson,NV,89014,
274,Kiva Pl,Caliente,NV,89008,
602,ST ANDREWS RD,Henderson,NV,89015,
410,COPPER VISTA CT,RENO,NV,89506,
5,CAMINITO AMORE,Henderson,NV,89011,
1001,PYRAMID WAY,SPARKS,NV,89431,
629,SMITHRIDGE PARK,RENO,NV,89502,
1876,BUTTE ST,WEST WENDOVER,NV,89883,
807,ALDER AVE,INCLINE VILLAGE,NV,89451,76
556,E PRATER WAY,SPARKS,NV,89431,
1001,SOUTH MEADOWS PKWY,RENO,NV,89521,633
720,SADDLESPUR RD,RENO,NV,89511,
261,RESOLUTE AVE,Henderson,NV,89011,
2300,WEDEKIND RD,RENO,NV,89512,35
2095,HEAVENLY VIEW TRL,RENO,NV,89523,
3295,DOWNEY AVE,RENO,NV,89503,
4455,SMOKERIDGE DR,RENO,NV,89523,
4966,SANTA BARBARA AVE,SPARKS,NV,89436,
995,LUNAR CT,INCLINE VILLAGE,NV,89451,
4884,SPARKS BLVD,SPARKS,NV,89436,102
1640,HAROLD DR,RENO,NV,89503,
1441,PRICE ST,Henderson,NV,89011,
1012,VIA POSITANO ST,Henderson,NV,89011,
758,PEREGRINE FALCON ST,Henderson,NV,89015,
215,SURREY DR,RENO,NV,89521,
77,SHORELINE CIR,INCLINE VILLAGE,NV,89451,
297,WINTER CREEK CT,Henderson,NV,89074,
342,W 11TH ST,RENO,NV,89503,
2305,AZTEC RUIN WAY,Henderson,NV,89044,
698,S RACETRACK RD,Henderson,NV,89015,714
1038,WHITE WILLOW CT,Henderson,NV,89002,
1201,COLUSA DR,RENO,NV,89503,
130,E PACIFIC AVE,Henderson,NV,89015,210
10570,ELM GLEN CT,RENO,NV,89521,
1370,JET STREAM DR,Henderson,NV,89052,
239,N MAIN ST,GOLD CIRCLE MIDAS,NV,89414,
10575,Malloy Springs Rd,Malloy Springs,NV,89043,
364,TRENTINO ALTO ST,Henderson,NV,89012,
510,COLLEGE DR,Henderson,NV,89015,124
2501,CORVUS ST,Henderson,NV,89044,
4061,TALLADEGA DR,SPARKS,NV,89436,
185,SHADED PEAK ST,Henderson,NV,89012,
500,DUTCHMAN AVE,Henderson,NV,89011,
9420,OGDEN TRAIL DR,SPARKS,NV,89441,
2219,HEAVENLY VIEW DR,Henderson,NV,89014,
231,W HORIZON RIDGE PKWY,Henderson,NV,89012,1912
1925,EPTE POPLARS ST,Henderson,NV,89044,
2907,DELANO DR,Henderson,NV,89074,
43,NETTLE LEAF AVE,Henderson,NV,89002,
1156,STRADA CRISTALLO,Henderson,NV,89011,
2795,SPINNAKER DR,RENO,NV,89519,
2675,WINDMILL PKWY,Henderson,NV,89074,3623
1310,WATERLOO DR,RENO,NV,89509,
1185,UPTON WAY,SPARKS,NV,89431,
530,VALLE VERDE DR,SPARKS,NV,89441,
1349,W HORIZON RIDGE PKWY,Henderson,NV,89012,1322
1120,AUTUMN BAY CT,Henderson,NV,89052,
