NUMBER,STREET,CITY,STATE,POSTCODE,UNIT
4208,DIXIE CT,COLUMBUS,OH,43228,
679,STATE RD W,Trumbull,OH,44483,
2145,RIVERDALE SQ E,COLUMBUS,OH,43232,
835,SKINNER ST,DELPHOS,OH,45833,57
4986,SCOVILL CT,CLEVELAND,OH,44104,
7049,BIG WALNUT RD,GENOA TWP,OH,43021,
6620,BRUCE RD,Mercer,OH,45822,
729,BLUM ST,TOLEDO,OH,43604,
1053,LILLY RD NE,MINERVA,OH,44657,
6596,MUDDY CREEK RD,GREEN TOWNSHIP HAM OH,OH,45233,
816,MECHANIC AVE,RAVENNA,OH,44266,
29,CLINE ST,NORWALK,OH,44857,
8607,MILMICHAEL CT,DUBLIN,OH,43017,
24716,ANTLER DR,NORTH OLMSTED,OH,44070,
6455,MEADOWSWEET AVE NW,Stark,OH,44718,
785,N SAINT CLAIR ST,PAINESVILLE,OH,44077,
5097,N TR 137,Seneca,OH,44883,
7785,FREESIA ST,BLACKLICK,OH,43004,
34,CHURCHILL RD,GIRARD,OH,44420,
1125,BOLTON ST,FINDLAY,OH,45840,
1976,BROOKHAVEN CT #4,Allen,OH,45805,
114,A~M BAVARIAN ST,Butler,OH,45044,
5931,BRICKLIN ST,COLUMBUS,OH,43081,
4011,ELIDA RD,Allen,OH,45807,
277,N RIDGE RD,LORAIN,OH,44055,
79,7 AVE SW,PATASKALA,OH,43062,
703,LENOX AVE,ZANESVILLE,OH,43701,
2485,BASE LINE RD W,Richland,OH,44865,
207,W MAIN ST,MONTPELIER,OH,43543,
10045,JULIANA CIR,LIBERTY TWP,OH,43065,
21,RED CEDAR DR,TROY,OH,45373,
30,COOK DR,ATHENS,OH,45701,
1510,N ST RT 555,Morgan,OH,43758,
726,SCHILLER CT   AVON,LAKE,OH,44012,
6504,TIMBERMILL WAY,REYNOLDSBURG,OH,43068,
10351,SHORT RD,CROSBY TOWNSHIP HAM OH,OH,45030,
4652,CHANNING TER,COLUMBUS,OH,43232,
1148,GARWOOD ST,ALLIANCE,OH,44601,
200,LIBERTY ST,COLUMBUS,OH,43215,449
32500,KNOBEL ST,WILLOWICK,OH,44095,
1125,S  CHAMPION AVE,COLUMBUS,OH,43206,
2102,BUNTS RD,LAKEWOOD,OH,44107,
41,PARKLAWN BLVD,WHITEHALL,OH,43213,
2666,COMMERCIAL ST,Jefferson,OH,43938,
0,ENGLE RD,BROOK PARK,OH,44142,
4323,WYATT RD,CLEVELAND,OH,44128,
1691,PAGE RD,COLUMBUS,OH,43207,
9021,PANHANDLE RD SE,FRANKLIN TWP,OH,43056,
1388,MILLERDALE RD,COLUMBUS,OH,43209,
6610,SODOM HUTCHINGS RD,Trumbull,OH,44420,
6916,SEILER RD,Darke,OH,45331,
9485,SPENCERVILLE RD,Allen,OH,45887,
723,CO RD 59,Lawrence,OH,45619,
554,HERITAGE SQ,HARRISON HAM OH,OH,45030,
3121,FRANTZ ROAD,Medina Township,OH,44256,
8225,CR 35,Hardin,OH,45812,
32,E MAIN ST,VERSAILLES,OH,45380,
1679,SPRUCE ST,Defiance,OH,43512,
901,BRIAR DR,Franklin,OH,43015,
961,SALEM AVE,ELYRIA,OH,44035,
207,CONCORD PL,COLUMBUS,OH,43206,
801,BEALL AVE,WOOSTER,OH,44691,
10740,TR 109,Hancock,OH,45889,
6544,N RIDGE  E,Ashtabula,OH,44041,2
7108,BROWNELL DR,MENTOR,OH,44060,
39301,MOUND HILL RD,Vinton,OH,45710,
7639,HARBOUR TOWN DR,COLUMBUS,OH,43147,
6641,W SYLVANIA AVE,TOLEDO,OH,43617,
1776,WILSHIRE DR,XENIA,OH,45385,
6940,ROCHESTER RD,Columbiana,OH,44625,
3476,RED HOOK CROSSING,COLUMBUS,OH,43219,
8477,KINGSLEY DR,REYNOLDSBURG,OH,43068,
3016,GLENMORE AV,CINCINNATI HAM OH,OH,45238,
4680,E  MAIN ST,COLUMBUS,OH,43213,
1000,GARFIELD AVE,BELLEFONTAINE,OH,43311,76
3275,LOTZ DR,GROVE CITY,OH,43123,
12438,TWAY RD NE,Fayette,OH,43153,
7626,TRAYMORE AVE,BROOKLYN,OH,44144,
363,CROSS ST,Putnam,OH,45830,
18,GRAND AVE,TROTWOOD,OH,45426,
2001,BRANDT PIKE,RIVERSIDE,OH,45404,
110,MAIN ST,GLENMONT,OH,44628,
10505,HOPEWOODS CT,SYMMES TOWNSHIP HAM OH,OH,45249,
17188,STATE RTE 217,Lawrence,OH,45623,
80550,REDEYE RD,FREEPORT,OH,43973,
3407,ASTON CT,CINCINNATI HAM OH,OH,45209,4
2378,OAK ST,SALEM,OH,44460,
5402,NORTHFIELD RD,MAPLE HEIGHTS,OH,44137,
5572,ESPLANADE ST,COLUMBUS,OH,43221,
6230,LOWRIDGE DR,COLUMBUS,OH,43110,
7210,GRACELY DR,CINCINNATI HAM OH,OH,45233,
6375,RIVERSIDE DR,DUBLIN,OH,43017,
5221,RAVENNA ST,CINCINNATI HAM OH,OH,45227,
42833,STATE RTE 518,Columbiana,OH,44432,
5322,BRANSCOM BLVD,COLUMBUS,OH,43081,
6554,TIMBERWOLF CT,Butler,OH,45069,
7858,CASTLEROCK DR NE,Trumbull,OH,44484,
3318,WALWORTH AV,CINCINNATI HAM OH,OH,45226,
13601,BAILEY RD,GRAND RAPIDS,OH,43522,
7006,TAYLOR RD SW,REYNOLDSBURG,OH,43068,
2205,DEMINGTON DR,CLEVELAND HEIGHTS,OH,44106,
391,GABRIELS RUN DR,COLUMBUS,OH,43119,
4724,BRADDOCK CT,COLUMBUS,OH,43220,
10615,GRATIS JACKSONBURG RD,Preble,OH,45064,
21,103 LYNN ST,Butler,OH,45056,103
1483,LOCKBOURNE RD,COLUMBUS,OH,43206,
18145,RD N-18,Putnam,OH,45844,
2689,WOODLAND TRAIL DR,COLUMBUS,OH,43231,
327,S MILTON ST,SMITHVILLE,OH,44677,
48,MAINE ST,MIFFLIN,OH,44805,
3361,STEPHEN DR S,COLUMBUS,OH,43204,
2406,SILVERBLUFF DR,GROVE CITY,OH,43123,
428,BRADLEY RD,BAY VILLAGE,OH,44140,
,W MAIN ST,MT ORAB,OH,45154,
4807,GARDEN ACRES,STEUBENVILLE,OH,43953,
721,YVETTE CT,COLUMBUS,OH,43223,
650,ROCK CREEK DR,AURORA,OH,44202,
3354,HILTON ST NW,Stark,OH,44646,26
5729,GREENACRES CT,GREEN TOWNSHIP HAM OH,OH,45248,
5593,CARTWRIGHT LN,COLUMBUS,OH,43231,
4250,VERSAILLES RD,PIQUA,OH,45356,
2878,SHAFFER AV,CINCINNATI HAM OH,OH,45211,
5510,SCARFF RD,Miami,OH,45344,
1081,BERKELEY RD,COLUMBUS,OH,43206,
3917,BELLEVUE RD,TOLEDO,OH,43613,
6045,TUCKAHOE CT,NEW ALBANY,OH,43054,
420,S POWELL AVE,COLUMBUS,OH,43204,
3341,CROMWELL DR,OREGON,OH,43616,
9018,TABERNASH DR,COLUMBUS,OH,43240,
511,STATION DR,COLUMBUS,OH,43228,8
688,YERKE YOUNG RD,LORDSTOWN,OH,44440,
9599,WALNUT CREEK BOTTOM RD NW,DUNDEE,OH,44624,
2104,TOWNLINE RD,NORTH PERRY,OH,44057,
1090,CONCORD DRIVE,Medina City,OH,44256,
23,E 4TH ST,MANSFIELD,OH,44902,
5138,VININGS BLVD,DUBLIN,OH,43016,
1230,MARLYN DR,UPPER ARLINGTON,OH,43220,
12,CURRY LN,MILFORD CLE OH,OH,45150,
3710,DARWIN AV,CHEVIOT HAM OH,OH,45211,
19,MCCLURE ST,DAYTON,OH,45403,
115,N 2ND ST,ZALESKI,OH,45698,
5968,MILL BRIDGE DR,COLUMBUS,OH,43026,
5971,OLENTANGY RIVER RD,COLUMBUS,OH,43085,
734,HARRISBURG PIKE,FRANKLIN TWP,OH,43223,
780,VALLEYWOOD HEIGHTS DR,Knox,OH,43028,
429,PORTAGE BLVD,TALLMADGE,OH,44240,
5419,GOLDEN CASCADE DR,DUBLIN,OH,43016,
4773,HILLARY LN,RICHMOND HEIGHTS,OH,44143,
2856,BELLA VIA AVE,COLUMBUS,OH,43231,
1721,ASCHINGER BLVD,COLUMBUS,OH,43212,
100,E  WOODBURY DR,DAYTON,OH,45415,
2801,ST RTE 60,Ashland,OH,44842,
159,CO RD 68,Jefferson,OH,43964,
3065,JASPER RD,Greene,OH,45385,
701,SEDGWICK WAY,TROY,OH,45373,
3758,SOFT WIND DR,COLUMBUS,OH,43232,
431,W  TOWN ST,COLUMBUS,OH,43215,
7231,NORITA CT,DAYTON,OH,45414,
830,WALNUT ST,ELYRIA,OH,44035,
2055,DORNBIN DR,REYNOLDSBURG,OH,43068,
36,SANDS AVE,AMHERST,OH,44001,
421,ALAMEDA PL,DAYTON,OH,45406,
210,NORTH ST,WATERVILLE,OH,43566,
,MIAMISBURG SPRINGBORO RD,MIAMISBURG,OH,45342,
2225,SHERINGHAM RD,UPPER ARLINGTON,OH,43220,
1327,HIGHPOINT ST,Portage,OH,44240,
850,E XENIA DR,FAIRBORN,OH,45324,400
910,DECATUR ST,SANDUSKY,OH,44870,
366,MEADOW DR,CIRCLEVILLE,OH,43113,
14807,DAY RD,Brown,OH,45154,
5137,LEONA DR,GREEN TOWNSHIP HAM OH,OH,45238,
3270,COX RD,Darke,OH,45331,
13450,HARMON RD  NW,PICKERINGTON,OH,43147,
3825,AIREDALE AVE,TOLEDO,OH,43623,
3717,RUSHLAND AVE,TOLEDO,OH,43613,
647,POOL AVE,VANDALIA,OH,45377,
1225,W HIGH ST,BRYAN,OH,43506,
33,BREHL AVE,COLUMBUS,OH,43222,
5288,FINCH LN,GALENA,OH,43021,
157,PARK RD 20,OREGON,OH,43616,
123,N BRIDGE ST,MALVERN,OH,44644,
6227,FAIRWAY LN,CANAL WINCHESTER,OH,43110,
6301,RENNER RD,NORWICH TWP,OH,43228,
813,WESTRAY DR,WESTERVILLE,OH,43081,
4837,POWDERHORN LN,COLUMBUS,OH,43081,
5903,NATUREVIEW LN,COLUMBUS,OH,43017,
8735,CHARLESTON PIKE,Ross,OH,45601,
149,CHORUS LN,TOLEDO,OH,43615,
28151,ALLEN RD,Defiance,OH,43512,
104,EDGEWATER DR,AUSTINTOWN,OH,44515,
207,FOREST AVE,DAYTON,OH,45405,
2610,OLD SPRINGFIELD RD NE,Fayette,OH,43145,
8864,LYNCRIS DR,SYCAMORE TOWNSHIP HAM OH,OH,45242,
1610,TURNBERRY DR,PICKERINGTON,OH,43147,
2312,WARD RD,COLUMBUS,OH,43224,
3311,SUGAR CREEK RD,Allen,OH,45807,
134,ARBORS CIR,GAHANNA,OH,43230,
905,HIGH ST,WORTHINGTON,OH,43085,
713,BETTON ST,CINCINNATI HAM OH,OH,45214,
0,LEE RD,CLEVELAND,OH,44128,
327,ASPEN DR,Trumbull,OH,44483,
4439,FILBURN LN,TROTWOOD,OH,45426,
867,BELMONT AVE,TOLEDO,OH,43607,
6604,KELTON PL,DAYTON,OH,45424,
626,WIGGS CT,GALION,OH,44833,
2599,RIVERSIDE DR,COLUMBUS,OH,43221,
10854,GORDON DR,PARMA,OH,44130,
620,LIME ST,Sandusky,OH,43420,
1487,WATKINS RD SW,ALEXANDRIA,OH,43001,
2179,TRAILWOOD DR,CINCINNATI HAM OH,OH,45230,
3584,CARLOTTA ST,GROVE CITY,OH,43123,
2767,WEDGE ST,COLUMBUS,OH,43211,
15467,MUSKINGUM BLVD,BROOK PARK,OH,44142,
29774,STANLEY RD,Vinton,OH,45766,
11500,MARKET ST,BEAVER,OH,44452,
8143,MIAMI AV,MADEIRA HAM OH,OH,45243,
6021,BATHEREST CIR,COLUMBUS,OH,43213,
4555,LAKE FOREST DR,BLUE ASH HAM OH,OH,45242,
2150,GRANDIN RD,CINCINNATI HAM OH,OH,45208,
2221,FELDMAN AV,NORWOOD HAM OH,OH,45212,
358,PORTSIDE CIR,PERRYSBURG,OH,43551,8
133,S WASHINGTON ST,UTICA,OH,43080,
474,TWP RD 139,Lawrence,OH,45678,
409,VICTORIA PL,TOLEDO,OH,43610,
2557,BARTLETT ST,CINCINNATI HAM OH,OH,45225,
2173,OLDE SAWMILL BLVD,DUBLIN,OH,43016,
1385,LIGHTHOUSE CT,Columbiana,OH,43920,
1112,CLINTON AVE SE,NORTH CANTON,OH,44720,
52,NICKELL CT,GERMANTOWN,OH,45327,
4240,E   181 ST,CLEVELAND,OH,44128,
4142,RAVENNA LOOP,HILLIARD,OH,43026,
309,OXFORD DR,GREENVILLE,OH,45331,302
8522,OLD IVORY WAY,BLACKLICK,OH,43004,
11094,STATE RTE 152,Jefferson,OH,43964,
4116,ERIE ST,WILLOUGHBY,OH,44094,
161,E STREET,Wadsworth City,OH,44281,
11323,UNION AVE,CLEVELAND,OH,44105,
2465,INDIANA AVE,COLUMBUS,OH,43202,
27688,SR 7,Meigs,OH,45620,
299,LEGACY WY,HARRISON HAM OH,OH,45030,
15,N MOUND ST,FRAZEYSBURG,OH,43822,
,MISSION HILLS DR,CANFIELD,OH,44406,
1161,S YELLOW SPRINGS ST,SPRINGFIELD,OH,45506,
3290,BEECH LN,AVON,OH,44011,
2729,ZOLLINGER RD,COLUMBUS,OH,43221,
54,PLACID BLVD,AUSTINTOWN,OH,44515,
4129,MONROE ST,TOLEDO,OH,43606,
17495,SUN MEADOW,STRONGSVILLE,OH,44136,
3859,HOMEWOOD RD,MARIEMONT HAM OH,OH,45227,
1914,E  BEAUMONT RD,COLUMBUS,OH,43224,
333,S STAFFORD ST,YELLOW SPRINGS,OH,45387,
2588,ST RTE 551,Pike,OH,45690,
1499,MARLOWE AVE,LAKEWOOD,OH,44107,
9560,QUARRY RD,AMHERST,OH,44001,
9010,N PIQUA LOCKINGTON RD,Miami,OH,45356,
336,W 5TH AVE,COLUMBUS,OH,43201,
118,N MAIN ST,PLEASANT HILL,OH,45359,
340,WATSON RD,Gallia,OH,45614,
1181,WARREN RD,LAKEWOOD,OH,44107,
112,EDGEWOOD DR,CONNEAUT,OH,44030,
15815,LIBBY RD,MAPLE HEIGHTS,OH,44137,
135,W OHIO AVE,SEBRING,OH,44672,
1001,S   OLD 3C HWY,SUNBURY,OH,43074,
1319,SCHIRMER AV,ANDERSON TOWNSHIP HAM OH,OH,45230,
2879,EMERALD LAKE BLVD,WILLOUGHBY HILLS,OH,44092,
3879,MAIDENS LARNE DR,COLUMBUS,OH,43221,
544,MTGMRY TWP RD 1404,Ashland,OH,44805,
817,N HOLLAND SYLVANIA RD,TOLEDO,OH,43615,
946,ENGLEWOOD RD,CLEVELAND HEIGHTS,OH,44121,
12172,GREENVILLE RD,Van Wert,OH,45891,
6805,HILL RD,CANAL WINCHESTER,OH,43110,
6023,SYLVAN RIDGE DR,TOLEDO,OH,43623,
50695,ATKINSON RUN RD,Monroe,OH,43716,
267,E 15TH AVE,COLUMBUS,OH,43201,
3527,ONYX CIR S,BEAVERCREEK,OH,45431,4
16066,TR 180,Hardin,OH,43326,
1819,S 6 ST,Lawrence,OH,45638,
2357,MCCAULEY CT,COLUMBUS,OH,43220,4
222,CURTIS ST,DELAWARE,OH,43015,
310,N MAIN ST,Fulton,OH,43558,
5347,TALL OAK CT,GREEN TOWNSHIP HAM OH,OH,45247,
114,S MAIN STREET,Wadsworth City,OH,44281,
26,TAYLOR JAMES BOULEVARD,Sharon Township,OH,44281,
1946,STATE AV,CINCINNATI HAM OH,OH,45204,
33240,ELECTRIC BLVD  AVON,LAKE,OH,44012,
111,SHAFTSBURY RD,TROY,OH,45373,
21,SAVITZ DR,Butler,OH,45011,
809,LOUISE AVE,Butler,OH,45014,
1517,LATHAM AVE,LIMA,OH,45805,
272,E MARKISON AVE,COLUMBUS,OH,43207,
3369,CLUB WAY CT,Columbus,OH,43065,
1347,SUMMIT ST,COLUMBUS,OH,43201,
6288,DIETZ DR,CANAL WINCHESTER,OH,43110,
346,ROCKY FORK DR N,GAHANNA,OH,43230,
3326,BLUHM CT,COLUMBUS,OH,43223,
136,NEWS PLAZA,WASHINGTON COURT HOUSE,OH,43160,
2014,STRATHMOOR AVE,TOLEDO,OH,43614,
4565,DRESSLER RD NW,Stark,OH,44718,
2026,JASPER LN,COLUMBUS,OH,43026,
621,E 3RD ST,PORT CLINTON,OH,43452,
103,E SUGARTREE ST,WILMINGTON,OH,45177,
11962,2ND AV,SYCAMORE TOWNSHIP HAM OH,OH,45249,
1765,KINGS CT,COLUMBUS,OH,43212,
1419,HAMPTON DR,FINDLAY,OH,45840,
1737,SILLIMAN ST,YOUNGSTOWN,OH,44509,
14501,SCIOTO AVE,EAST CLEVELAND,OH,44112,
1292,BUNKER HILL BLVD,COLUMBUS,OH,43220,210
4657,TAMARACK BLVD,COLUMBUS,OH,43229,
29329,GORE ORPHANAGE RD,NOVA,OH,44859,
249,E  SECOND ST,DAYTON,OH,45402,
333,POCONO RD,COLUMBUS,OH,43235,
2106,W   93 ST,CLEVELAND,OH,44102,
1565,TAFT AVE SW,Trumbull,OH,44444,
318,CHICAGO AVE,YOUNGSTOWN,OH,44511,
1609,SALEM AVE,DAYTON,OH,45406,
9,DAN CT,Butler,OH,45014,
6524,LLOYD DR,BRECKSVILLE,OH,44141,
2971,DECKEBACH AV,CINCINNATI HAM OH,OH,45220,27
4303,W   152 ST,CLEVELAND,OH,44135,
1700,ESSEX RD,UPPER ARLINGTON,OH,43221,
3506,EDGEVIEW DR,CINCINNATI HAM OH,OH,45213,
7067,FERNRIDGE DR,NEW ALBANY,OH,43054,
133,W  OAKLAND AVE,COLUMBUS,OH,43201,
3179,WOOSTER DR,BEAVERCREEK,OH,45434,
3678,SOUTH BANK RD  NE,MILLERSPORT,OH,43046,
8237,KINGSLEY DR,REYNOLDSBURG,OH,43068,
1416,BETHLEHEM RD W,Marion,OH,43342,
1043,SEYMOUR AVE,COLUMBUS,OH,43206,
3407,DAHLGREEN DR,WESTERVILLE,OH,43081,
6063,FAIRDALE DR,Guernsey,OH,43725,
1571,ALGIERS DR,MAYFIELD HEIGHTS,OH,44124,
30076,TR 358,TIVERTON TWP,OH,43843,
904,N 5 ST,Lawrence,OH,45638,
628,GARFIELD AVE,ALLIANCE,OH,44601,
861,CONTINENTAL DR,WATERVILLE,OH,43566,
19955,ROCKSIDE RD,BEDFORD,OH,44146,1007
5228,WESTCROFT DR,SYLVANIA,OH,43560,
4970,YACKEY DR NW,STRASBURG,OH,44680,
4665,E  MAIN ST,COLUMBUS,OH,43213,
727,VILLA DR,ONTARIO,OH,44906,
2733,SUMMER DR,DUBLIN,OH,43016,
36,E   CARRIAGE DR,CHAGRIN FALLS VILLAGE,OH,44022,
1201,EATON AVE,Butler,OH,45044,
1416,S 6 ST,Lawrence,OH,45638,
5682,BLENDON VALLEY DR,COLUMBUS,OH,43230,
189,E ROCHELLE ST,CINCINNATI HAM OH,OH,45219,3
1321,E PARISH ST,SANDUSKY,OH,44870,
2401,FRONT ST,TOLEDO,OH,43605,
1330,COLLAR PRICE RD SE,Trumbull,OH,44425,
290,WALNUT CREEK PIKE,CIRCLEVILLE,OH,43113,
4521,LINNVILLE RD SE,LICKING TWP,OH,43056,
1105,S YEARLING RD,COLUMBUS,OH,43227,
602,LOCKWOOD AVE,SANDUSKY,OH,44870,
1057,VIRGINIA AVE,COLUMBUS,OH,43212,
807,S MUMAUGH RD,Allen,OH,45804,92
436,MAYFAIR BLVD,TOLEDO,OH,43612,
274,GLEN CROSSING DR,Columbus,OH,43062,
897,SULLIVAN RD,Ross,OH,45601,
9839,SNOW RD,PARMA HEIGHTS,OH,44130,
58,CURTIS AVE,NEWARK,OH,43055,
1359,BRYDEN RD,COLUMBUS,OH,43205,
1430,SNOWBERRY LANE,Granger Township,OH,44256,
3489,W   54 ST,CLEVELAND,OH,44102,
4765,BAY RUN DR,COLUMBUS,OH,43228,
7337,PARADISE LAKE RD SW,NEW PHILADELPHIA,OH,44663,
0,CHAPEL HILL DR,Butler,OH,45014,
993,S  BROADLEIGH RD,COLUMBUS,OH,43209,
4629,E LINCOLN WAY,Wayne,OH,44691,
15151,SHORLE RD,Wayne,OH,44276,
5446,WOODGATE DR,HUBER HEIGHTS,OH,45424,
5611,GREENFIELD DR,BERLIN TWP,OH,43021,
518,PARK OVERLOOK DR,WORTHINGTON,OH,43085,
106,FRONT ST,GREENVILLE,OH,45331,
86,S  HIGH ST,GAHANNA,OH,43230,
5806,THORTON ST,COLUMBUS,OH,43081,
24006,GLENBROOK BLVD,EUCLID,OH,44117,
305,LONG ST,CAMBRIDGE,OH,43725,
7703,NEWPORT AVE,PARMA,OH,44129,
160,TUTTLE RD,Clark,OH,45503,
11613,READING RD,SHARONVILLE HAM OH,OH,45241,
2191,TEAKWOOD DR,COLUMBUS,OH,43229,
,N WASHINGTON ST,NEW PARIS,OH,45347,
1801,HILTON AVE,FINDLAY,OH,45840,
5384,BRIDLE CREEK WAY,COLUMBUS,OH,43026,
187,OLDE MOUND LN,PICKERINGTON,OH,43147,
7040,BRANDYWINE RD,PARMA HEIGHTS,OH,44130,
694,LITTLE BROOK WAY,COLUMBUS,OH,43232,
9300,RUSH LN,Morgan,OH,43728,
2149,WERON LN,CINCINNATI HAM OH,OH,45225,
40943,PARK RD,Meigs,OH,45776,34
795,CONSERVATION CIR,FAIRBORN,OH,45324,
162,MELLWOOD DR,Jefferson,OH,43964,
1225,S 22ND ST,COLUMBUS,OH,43206,
1504,W SYLVANIA AVE,TOLEDO,OH,43612,
7838,LOCUST GROVE CT,SPRINGBORO,OH,45066,
1813,COURT EDMUN,Butler,OH,45044,
434,S EAST ST,RIDGEWAY,OH,43345,
1788,N LONGVIEW ST,BEAVERCREEK,OH,45432,
1207,WEYBRIDGE RD,COLUMBUS,OH,43220,
1130,29TH ST NE,Stark,OH,44714,
4480,W   168 ST,CLEVELAND,OH,44135,
12020,NEAPOLIS WATERVILLE RD,WHITEHOUSE,OH,43571,
3259,ERIN AVE,CLEVELAND,OH,44113,
979,INDIAN HILL DRIVE,Sharon Township,OH,44281,
5734,DUDDINGSTON DR,DUBLIN,OH,43017,
210,W MAIN ST,NORWALK,OH,44857,
7310,WOODALE DR N,CARROLL,OH,43112,
54,FOREST HILL DR,HUBBARD,OH,44425,
4723,14TH ST NW,Stark,OH,44708,
1877,S MAPLE AVE,FAIRBORN,OH,45324,
328,DEMOREST AVE,COLUMBUS,OH,43204,
2210,MC GUFFEY RD,YOUNGSTOWN,OH,44505,
112,HERITAGE CT,VERSAILLES,OH,45380,
1172,WILSHIRE DR,YOUNGSTOWN,OH,44511,
897,THORNAPPLE GROVE,GALLOWAY,OH,43119,
36,N  STANWOOD RD,COLUMBUS,OH,43209,
2287,BROOKWOOD RD,COLUMBUS,OH,43209,
291,ELM ST,GENEVA,OH,44041,
10161,US 62  NE,Fayette,OH,43160,
5243,SPRING BEAUTY CT,COLUMBUS,OH,43230,
6856,SILVER LAKES DR,Mercer,OH,45822,
18,LAWSON AVE,NEW LEBANON,OH,45345,
4512,WAYMIRE AVE,DAYTON,OH,45406,
5800,LOCBURY LN,DUBLIN,OH,43016,
3618,NICHOLS ROAD,Medina Township,OH,44256,
465,BROAD MEADOWS BLVD,COLUMBUS,OH,43214,116
5466,PARKER LANDINGS DR,COLUMBUS,OH,43081,
1046,E 17TH AVE,COLUMBUS,OH,43211,
755,CRESTLAND AVE SE,NORTH CANTON,OH,44720,
618,N  DECKER AVE,DAYTON,OH,45417,
609,LEESBURG AVE,WASHINGTON COURT HOUSE,OH,43160,
9775,FRANKFORT RD,Lucas,OH,43528,
7415,MAHAFFEY DR,PICKERINGTON,OH,43147,
315,ROBERT DR,PATASKALA,OH,43062,
6763,CR 39,Logan,OH,43324,
1322,BROOKE PARK DR,TOLEDO,OH,43612,
3818,SUNBURY RD,COLUMBUS,OH,43219,
2684,SAWGRASS CT,MIAMI TOWNSHIP HAM OH,OH,45233,
14461,SR 104,SCIOTO TWP,OH,43103,51
2499,CEDARWOOD RD,PEPPER PIKE,OH,44124,
2119,OAKSIDE RD,TOLEDO,OH,43615,
5001,OLENTANGY RIVER RD,COLUMBUS,OH,43214,320
98,E NEW ENGLAND AVE,WORTHINGTON,OH,43085,
3970,WARNER ST,MOGADORE,OH,44260,
734,KING RIDGE DR,ASHLAND,OH,44805,
5651,TUTTLE COMMONS BLVD,DUBLIN,OH,43016,
733,SUMMERTREE LN,COLUMBUS,OH,43081,
1021,GRAHAM AVE,KENT,OH,44240,
2169,CARDINAL AVE,Butler,OH,45014,
125,RESACA ST NE,Madison,OH,43140,
12023,PEPPERMILL LN,PICKERINGTON,OH,43147,
2767,DENMARK RD,COLUMBUS,OH,43232,
6653,APPLERIDGE DR,BOARDMAN,OH,44512,
6043,JESTER HILL RD,Ross,OH,45612,
390,OSAGE LN,Hocking,OH,43155,
5246,HORSE SHOE DR,Preble,OH,45338,
5570,WINDING CAPE WAY,MASON,OH,45040,
5221,MORNING SUN RD,Butler,OH,45056,
2923,KEMPER HOLLOW RD,Gallia,OH,45631,
48846,CAIN RIDGE RD,Monroe,OH,43915,
432,N HENRY ST,CRESTLINE,OH,44827,
7306,PARKDALE AV,CINCINNATI HAM OH,OH,45237,
2735,SAGAMORE RD,TOLEDO,OH,43606,
32850,ASPEN GLEN DR,SOLON,OH,44139,
355,N WATER ST,KENT,OH,44240,
5754,BEECHNUT DR,ANDERSON TOWNSHIP HAM OH,OH,45230,
17117,SCOTTSDALE BLVD,SHAKER HEIGHTS,OH,44120,
617,Highland Blvd,COSHOCTON,OH,43812,
2021,EXETER ST,Butler,OH,45015,
1393,HARRISON POND DR,NEW ALBANY,OH,43054,
7641,SMOKEY RD,RADNOR,OH,43066,
218,E WYANDOT AVE,UPPER SANDUSKY,OH,43351,1
1875,FLEMING RD,COLUMBUS,OH,43232,
1794,GAULT ST,COLUMBUS,OH,43205,
5515,CLARK RD,Trumbull,OH,44062,
2955,LINDA LN,NORTH KINGSVILLE,OH,44004,
253,W DAYTON YELLOW SPRINGS RD,FAIRBORN,OH,45324,316
651,ARCHWOOD ROAD,Wadsworth City,OH,44281,
110,S 8 ST,HEBRON,OH,43025,
2125,S TECUMSEH RD,Clark,OH,45502,161
3589,RAND SQ E,COLUMBUS,OH,43227,
992,ERIS RD,Champaign,OH,43078,
1840,STRATHMOOR AVE,TOLEDO,OH,43614,
4435,NORTH LEAVITT RD,Trumbull,OH,44485,
11476,CATHY CT,Highland,OH,45133,
5595,AUTUMN CHASE DR,COLUMBUS,OH,43232,
207,REINDL DR,CRESTLINE,OH,44827,
1012,LITTLE CREEK DR,PERRYSBURG,OH,43551,
2152,THORNRIDGE DR,TOLEDO,OH,43614,
1413,S 4 ST,Lawrence,OH,45638,
119,VAUGHN ST,CROOKSVILLE,OH,43731,
8445,CHESHIRE RD,SUNBURY,OH,43074,
150,EAST BRIDGE ST,ELYRIA,OH,44035,
1810,BEACON ST,WASHINGTON COURT HOUSE,OH,43160,
62,CASCADE DR,FAIRBORN,OH,45324,
1640,WESTLAND GARDEN RD,TOLEDO,OH,43615,
5214,TAYLOR LANE AVE,HILLIARD,OH,43026,
6350,KING PIKE NE,JEFFERSON TWP,OH,43162,
300,S WASHINGTON ST,TIFFIN,OH,44883,
26,N FOUR MILE RUN RD,AUSTINTOWN,OH,44515,
6655,MAPLE CANYON AVE,COLUMBUS,OH,43229,
35,SANTA MARIA LN,WHITEHALL,OH,43213,
644,ELM ST,YOUNGSTOWN,OH,44502,
1426,E WALNUT ST,LANCASTER,OH,43130,
273,E  TORRENCE RD,COLUMBUS,OH,43214,
1091,CHENOWETH ST,ORIENT,OH,43146,
230,WALNUT ST S,UHRICHSVILLE,OH,44683,
1144,PANTHER CT,CINCINNATI HAM OH,OH,45205,
2250,E   83 ST,CLEVELAND,OH,44103,
1670,ST RTE 576,Williams,OH,43506,1
6225,ROBINHOOD LN,NORTH KINGSVILLE,OH,44004,
4240,W   21 ST,CLEVELAND,OH,44109,
20,14TH AVE,COLUMBUS,OH,43201,
112,W VOORHEES ST,READING HAM OH,OH,45215,
8978,BAKIRCAY LN,POWELL,OH,43065,
175,CAMPBELL RD,Gallia,OH,45685,
906,N CLARK ST,ASHLAND,OH,44805,
346,BIMILER ST SW,BREWSTER,OH,44613,
869,CO RD 71,Jefferson,OH,43901,
5850,LESLIE DR,Butler,OH,45014,
19100,HOPEWELL RD,Knox,OH,43050,
7314,WYANDOT LN,Butler,OH,45044,
4157,E   127 ST,CLEVELAND,OH,44105,
2241,SULLIVANT AVE,COLUMBUS,OH,43223,
2133,MACKENZIE DR,COLUMBUS,OH,43220,
7112,WINCHESTER CROSSING BLVD,CANAL WINCHESTER,OH,43110,
7622,BRIARGREEN DR,MIAMI TOWNSHIP HAM OH,OH,45248,
2850,BYRNESIDE DR,COLERAIN TOWNSHIP HAM OH,OH,45239,
7343,FRASIER RD,GENOA TWP,OH,43082,
3696,FARBER ST SE,Stark,OH,44643,
11,MEADOWLAWN DR,MENTOR,OH,44060,23
2958,MADISON RD,CINCINNATI HAM OH,OH,45209,
412,W JOHN ST,MAUMEE,OH,43537,
12412,YORK RD,NORTH ROYALTON,OH,44133,
6784,SR 2,Defiance,OH,43526,
446,FAIRVIEW AVE,CANFIELD,OH,44406,
615,GLENWAY DR,Butler,OH,45013,
95,E  MAYNARD AVE,COLUMBUS,OH,43202,
217,SPEARGRASS DR,RIVERSIDE,OH,45431,
818,N 8 ST,STEUBENVILLE,OH,43952,
7786,PRAIRIE FIRE CT,WESTERVILLE,OH,43082,
8454,ST RT 19,Morrow,OH,44833,
415,PROSPECT AVE E,CLEVELAND,OH,44115,
117,E BROADWAY ST,FT RECOVERY,OH,45846,50
5585,RIDGE RD,Allen,OH,45807,
10848,LAKE THAMES DR,SYCAMORE TOWNSHIP HAM OH,OH,45242,171
2911,BERRY LN,MINERVA PARK,OH,43231,
4330,RIVERSIDE DR,DAYTON,OH,45405,
3962,SANTA MARIA DR,GROVE CITY,OH,43123,
1124,MCCARLEY DR E,COLUMBUS,OH,43228,
1480,OCTOBER RIDGE CT,COLUMBUS,OH,43223,
19,HAWKES AVE,COLUMBUS,OH,43222,
423,FALLRIVER DR,REYNOLDSBURG,OH,43068,
7222,BERWOOD DR,MADEIRA HAM OH,OH,45243,
103,Church St,PLAINFIELD,OH,43812,
3828,BOYDELL RD,Portage,OH,44240,
11021,ROACHTON RD, ,OH,43551,
1039,LOCUST ST,PERRYSBURG,OH,43551,
5700,CELTIC SEA LN,COLUMBUS,OH,43110,
17416,OXFORD AVE,CLEVELAND,OH,44111,
13025,LUTHMAN RD,Shelby,OH,45865,
1418,W   75 ST,CLEVELAND,OH,44102,
1119,BIRCHARD AVE,FREMONT,OH,43420,
5677,KUGLER MILL RD,SYCAMORE TOWNSHIP HAM OH,OH,45236,
615,48TH ST NW,CANTON,OH,44709,
3377,URBAN HOLLOW CT,GROVE CITY,OH,43123,
34305,BOWER RD,BOWERSTON,OH,44695,
6842,WARDELL LOOP,NEW ALBANY,OH,43054,
637,SALLY CIRCLE,Wadsworth City,OH,44281,
2855,DOVER RD,COLUMBUS,OH,43209,
3748,CR 59,Sandusky,OH,43435,
812,N BAXTER ST,LIMA,OH,45801,
6945,RAMBLEHURST RD,SYLVANIA,OH,43560,
10576,FALLIS RD,SYMMES TOWNSHIP HAM OH,OH,45140,
6723,AXTEL DR,CANAL WINCHESTER,OH,43110,
571,N FIFTH ST,TORONTO,OH,43964,
172,BRIARBEND BLVD,POWELL,OH,43065,
5020,BRENTWOOD PARK,Muskingum,OH,43830,
74,WILLOW BROOK WAY S,DELAWARE,OH,43015,
511,SAXMAN PL,COLUMBUS,OH,43081,
1255,PARSONS AVE,COLUMBUS,OH,43206,
3562,W   97 ST,CLEVELAND,OH,44102,
505,WINTER RD,DELAWARE,OH,43015,
1445,E BROAD ST,COLUMBUS,OH,43205,
105,N MCELROY RD,Richland,OH,44905,
1034,FOLKESTONE RD,COLUMBUS,OH,43220,
10926,CINDERELLA DR,Highland,OH,45133,
16117,TALFORD AVE,CLEVELAND,OH,44128,
1075,WOODLAND ST NE,WARREN,OH,44483,
2735,HERMAN RD,Butler,OH,45013,
5824,EVERWOOD RD,TOLEDO,OH,43613,
452,COURTNEY DR,NEWARK,OH,43055,
3952,VIRGIL ST,MOGADORE,OH,44260,
2032,THE BLUFFS,TOLEDO,OH,43615,
601,FINDLAY ST,FOSTORIA,OH,44830,
6962,GRAFTON ROAD,Liverpool Township,OH,44280,
3343,ALDRINGHAM RD,TOLEDO,OH,43606,
3376,SCIOTO RUN BLVD,HILLIARD,OH,43026,
120,GROVE RD,Clark,OH,45341,
105,W  PRESCOTT ST,COLUMBUS,OH,43215,
220,BERNARD AV,READING HAM OH,OH,45215,
1428,CIRCLEFIELD DR,SHARONVILLE HAM OH,OH,45246,
3409,SUPERIOR AVE E,CLEVELAND,OH,44114,
1256,TAFT ST,SIDNEY,OH,45365,
4423,GARY WAY,HILLIARD,OH,43026,
3945,AUSTINBURG RD,Ashtabula,OH,44004,
1002,BRIAR LN,CELINA,OH,45822,
316,E  NORTHWOOD AVE,COLUMBUS,OH,43201,
326,KILBOURNE ST,SYCAMORE,OH,44882,
16666,SH 2,Fulton,OH,43567,
5840,BELLTOWNE BLVD,COLUMBUS,OH,43213,
5631,INNISBROOK CT,WESTERVILLE,OH,43082,
938,HIBBS RD,LOCKBOURNE,OH,43137,
6757,HEATHVIEW ST,COLUMBUS,OH,43085,
5661,BOOMER RD,GREEN TOWNSHIP HAM OH,OH,45247,
702,WOODSTOCK AVE,TOLEDO,OH,43607,
8054,SPRING GARDEN CT,Butler,OH,45069,
3139,HARRY LEE LN,COLERAIN TOWNSHIP HAM OH,OH,45239,
27335,SR 7,Washington,OH,45750,37
808,N SUPERIOR ST,TOLEDO,OH,43604,
3242,MOUNTVIEW RD,UPPER ARLINGTON,OH,43221,
7,DANZIG LN,Clark,OH,45324,
52,N GOULD RD,COLUMBUS,OH,43209,
8749,MATTY RD,Wayne,OH,44287,
1201,DAYLILY CT,TIPP CITY,OH,45373,
140,SHEEP ROCK RD,Jefferson,OH,43938,
452,FRANKFORT SQ,COLUMBUS,OH,43206,
3890,MAIN ST SE,Fayette,OH,43160,
2820,HUNTINGTON DR,TROY,OH,45373,
74,LEXINGTON AVE,MANSFIELD,OH,44907,
2664,DUKE AVE SE,WARREN,OH,44484,
1247,GENESEE AVE,MAYFIELD HEIGHTS,OH,44124,
3717,W   169 ST,CLEVELAND,OH,44111,
15212,DARROW RD E,VERMILION,OH,44089,
2605,WATSON AVE,ALLIANCE,OH,44601,
1105,ANDREW AVE NE,MASSILLON,OH,44646,
3611,FISHINGER BLVD,COLUMBUS,OH,43026,
115,W COLUMBUS AVE,BELLEFONTAINE,OH,43311,
4312,TURTLE CREEK DR,PERRYSBURG,OH,,
7775,RIDGEVIEW LN,Muskingum,OH,43701,
7553,CUMBERLAND CIR  NW,CANAL WINCHESTER,OH,43110,
38310,LITTLE FOREST RUN RD,Meigs,OH,45772,
6601,CHERYL ANN DR,INDEPENDENCE,OH,44131,
6014,PEMBRIDGE DR,TOLEDO,OH,43615,
3649,W   134 ST,CLEVELAND,OH,44111,
41600,DENT RIDGE RD,Monroe,OH,43793,
6034,WOODSBORO DR,COLUMBUS,OH,43228,
26303,TR 180,WHITE EYES TWP,OH,43824,
7486,KINGSTONVIEW CT,ANDERSON TOWNSHIP HAM OH,OH,45255,
14867,DULL ROBINSON RD,Van Wert,OH,45874,
107,CHURCH ST,NAPOLEON,OH,43545,
13711,E NATIONAL RD,Clark,OH,45369,
13211,AILES RD,Shelby,OH,45302,
4300,TURTLE CREEK DR,PERRYSBURG,OH,,
147,MACFALLS WAY,COLUMBUS,OH,43004,
300,TWP RD 1053,Lawrence,OH,45669,
1079,ZEBULON AVE,COLUMBUS,OH,43224,
3958,MOUNDVIEW RD,HILLIARD,OH,43026,
3900,S EBER RD,MONCLOVA,OH,43542,
5732,DOUGLAS RD,TOLEDO,OH,43613,
3320,E 7TH AVE,COLUMBUS,OH,43219,
5560,ST RT 95,Morrow,OH,43338,
3655,ARK AVE,DAYTON,OH,45416,
9196,TANSING DR,COLERAIN TOWNSHIP HAM OH,OH,45231,17
313,N MAIN ST,Guernsey,OH,43749,
2295,SCENIC DR  NE,LANCASTER,OH,43130,
665,CAMPLANDS BLVD,Ashtabula,OH,44003,
6120,CARMELL DR,COLUMBUS,OH,43228,
883,SR 508,Logan,OH,43357,
3633,ODONNELL CT,COLUMBUS,OH,43228,
1051,E   177 ST,CLEVELAND,OH,44119,
6814,SMITH RD,Darke,OH,45308,
443,US RTE 250  N,Ashland,OH,44837,
17523,WHITEHEAD RD,LAGRANGE,OH,44050,
5637,KUGLER MILL RD,SYCAMORE TOWNSHIP HAM OH,OH,45236,
360,DOVE DR,BEAVERCREEK,OH,45430,
6292,CALEBS CREEK WAY,COLUMBUS,OH,43081,
6128,BROOKVIEW MANOR DR,GALENA,OH,43021,
7124,FINZEL RD,Lucas,OH,43571,
1442,NEIL AVE,COLUMBUS,OH,43201,1
2085,RICEFORD RD SW,Stark,OH,44626,
6054,BROADVIEW RD,PARMA,OH,44134,
119,RUFF DR,BREMEN,OH,43107,
6432,SUMMIT RD SW,PATASKALA,OH,43068,
2927,SHERBROOKE RD,TOLEDO,OH,43606,
2851,EAST AVE,COLUMBUS,OH,43202,
4934,PARK PLACE BLVD,Lucas,OH,43560,
5300,LAIDON CT,DUBLIN,OH,43017,
1307,I-74 WB EXWY,GREEN TOWNSHIP HAM OH,OH,45247,
1707,CARDIFF RD,UPPER ARLINGTON,OH,43221,
6815,BRAGG LN,CROSBY TOWNSHIP HAM OH,OH,45030,
4408,BOHN RD,CLEVELAND,OH,44104,
2200,SMOKY VIEW BLVD,POWELL,OH,43065,
1101,WIMBELDON BLVD,COLUMBUS,OH,43228,
5487,BERMUDA BAY DR,COLUMBUS,OH,43235,
3405,ANDERSON PKWY,TOLEDO,OH,43606,
132,N CHERRY ST,LANCASTER,OH,43130,
205,N BELMAR DR SW,PATASKALA,OH,43068,
17738,TWP RD T,NAPOLEON,OH,43545,
3496,E HIGH ST,Clark,OH,45505,
4248,DEMOREST RD,GROVE CITY,OH,43123,
5205,BERKELEY DR  SHEFFIELD,LAKE,OH,44054,
3324,ALICEMONT AV,CINCINNATI HAM OH,OH,45209,
875,OAK ST,COLUMBUS,OH,43205,
4250,ST RT 307,Ashtabula,OH,44041,23
1133,19TH ST NE,CANTON,OH,44714,
1304,PARKMAN RD NW,WARREN,OH,44485,
112,ELLIOTT LN,DEFIANCE,OH,43512,
11658,BULEN-PIERCE RD,LOCKBOURNE,OH,43137,
40481,CRESTVIEW RD,Columbiana,OH,44431,
,W  DOROTHY LN,MORAINE,OH,45439,
2506,SEAMAN ST,TOLEDO,OH,43605,
5620,HOOK RD,Richland,OH,44827,
859,DICKSON PKWY,MANSFIELD,OH,44907,
813,PIERCE AVE,WHITEHALL,OH,43213,
6449,SILVERSTONE LANE,Montville Township,OH,44256,
4311,CHESFORD RD,COLUMBUS,OH,43224,
6189,S DAYTON BRANDT RD,Miami,OH,45371,
7722,ANTHONY WAYNE AV,CINCINNATI HAM OH,OH,45216,
1373,IMPALA ST,Ashtabula,OH,44003,
4848,NORTH BANK RD,BUCKEYE LAKE,OH,43008,
9555,PARK PLACE DR,BRECKSVILLE,OH,44141,
3274,HARDISTY AV,CINCINNATI HAM OH,OH,45208,
5924,WHITEWOOD WAY,Franklin,OH,43035,
5251,SPRINGDALE AVE,TOLEDO,OH,43613,
295,HARRISON ST,PATASKALA,OH,43068,
321,CRAWFORD ST,Butler,OH,45044,
7257,NEW ALBANY LINKS DR,NEW ALBANY,OH,43054,
3120,MCCRACKEN TRAIL,Brunswick Hills Town,OH,44212,
2275,STONE'S THROW,WESTLAKE,OH,44145,
11715,TINKERS CREEK RD,VALLEY VIEW,OH,44125,
6820,SOM CENTER RD,SOLON,OH,44139,
3566,BROOKSIDE RD,TOLEDO,OH,43606,
6,HIGHLAND DR,MOUNT VERNON,OH,43050,
8,WIND ROSE CT,COLUMBIANA,OH,44408,
7540,DYER RD,Madison,OH,43143,
414,WINDSWOOD WAY,SANDUSKY,OH,44870,
150,W  FRANKLIN ST,CENTERVILLE,OH,45458,
6140,HILLSIDE AV,CINCINNATI HAM OH,OH,45233,
325,MEADOWBROOK AVE SE,WARREN,OH,44483,
5552,HILLCREST AVE,MENTOR,OH,44060,
5624,COREY SWIRL DR,DUBLIN,OH,43017,
6288,ELDRIDGE BLVD,BEDFORD HEIGHTS,OH,44146,
327,UNION ST,NEWARK,OH,43055,
307,TAYLOR ST,AMHERST,OH,44001,
6984,LAIRD LN,GENOA TWP,OH,43082,
17151,RD 156,Paulding,OH,45879,
3063,WOODMAN DR,KETTERING,OH,45420,
1492,COVE ST NW,Stark,OH,44685,
332,W ARTHUR ST,HICKSVILLE,OH,43526,
935,PROPRIETORS RD,COLUMBUS,OH,43085,
20,S  RIVERVIEW ST,DUBLIN,OH,43017,
272,CROSSLAKE CT,WESTERVILLE,OH,43081,
2836,WINSTED DR,TOLEDO,OH,43606,
6355,MEADOWBROOK RD,Athens,OH,45710,
808,RIVERVIEW DR,COLUMBUS,OH,43202,
1828,DUNHAM ST,TOLEDO,OH,43623,
1056,KEELER ST,MAUMEE,OH,43537,
406,TOWNCREST DR,BEAVERCREEK,OH,45434,
486,W  KANAWHA AVE,COLUMBUS,OH,43214,
6325,GARDEN RD,Lucas,OH,43537,81
3194,BEAUMONT AVE NW,Stark,OH,44647,
5485,CAMBRIDGE RD,ADAMSVILLE,OH,43802,
1242,DUTTON PL,COLUMBUS,OH,43227,
1521,W  7TH AVE,COLUMBUS,OH,43212,
12865,FIVE POINT RD,PERRYSBURG,OH,43551,
4220,WESLEYAN CHURCH RD SW,ST ALBANS TWP,OH,43023,
704,E DOMINION BLVD,COLUMBUS,OH,43214,
14952,FLORENCE DR,MAPLE HEIGHTS,OH,44137,
321,HAWTHORNE CT E,SUNBURY,OH,43074,
5009,CHIPMAN DR,COLUMBUS,OH,43232,
892,WHEELOCK RD,CLEVELAND,OH,44103,
374,STONE QUARRY DR,DELAWARE,OH,43015,
786,PETIGREW CT,REYNOLDSBURG,OH,43068,
224,THREE MEADOWS CT,PERRYSBURG,OH,43551,
4661,E  BROAD ST,COLUMBUS,OH,43213,
7270,THORNCLIFFE BLVD,PARMA,OH,44134,
89,ELDON AVE,COLUMBUS,OH,43204,
190,E NORWICH AVE,COLUMBUS,OH,43201,
18608,NEFF RD,CLEVELAND,OH,44119,
1285,FIRETHORNE DR,MASON WAR OH,OH,45040,
30324,ARNOLD RD,WILLOWICK,OH,44095,
7616,HIDDEN SPRINGS DR,Lucas,OH,43528,
6244,DUNHAM RD,MAPLE HEIGHTS,OH,44137,
2864,BEARS DEN CT,YOUNGSTOWN,OH,44511,
33199,WOODLEIGH RD,PEPPER PIKE,OH,44124,
5324,ST RT 45,Ashtabula,OH,44085,
1325,JENNINGS CT,MASON WAR OH,OH,45040,
1107,FOURTEENTH AVE,Butler,OH,45044,
6052,SETON CT,ORANGE TWP,OH,43035,
9218,STATE RT 82,Portage,OH,44231,
32947,CHARMWOOD OVAL,SOLON,OH,44139,
417,N HAMILTON RD,GAHANNA,OH,43230,
4885,BRITTANY CT E,COLUMBUS,OH,43229,
43456,WEST RD,WELLINGTON,OH,44090,
824,TURNER AVE,TOLEDO,OH,43607,
1310,JOSHUA ST,DELPHOS,OH,45833,
113,CEDAR WOODS DR,MIAMI CLE OH,OH,45140,
4770,LEYBOURNE DR,HILLIARD,OH,43026,
7800,WEST RIVER RD S,ELYRIA,OH,44035,
2916,HILLCREST DR,Mercer,OH,45822,
9474,ROXBURY RD,PARMA HEIGHTS,OH,44130,
20,PARADISE VALLEY CT SW,ST ALBANS TWP,OH,43062,
5803,ST RTE 303,Huron,OH,44889,
1202,CHESTNUT ST,Butler,OH,45011,
4114,ZUBER RD,ORIENT,OH,43146,
4855,SAWMILL RD,COLUMBUS,OH,43235,
2487,CONDIT DR SW,PATASKALA,OH,43062,
1384,CROSSING GREEN LN,COLUMBUS,OH,43228,
1387,BOSWORTH CT,COLUMBUS,OH,43229,
463,JACKSON ST,NELSONVILLE,OH,45764,
9916,SOMERSET AVE,CLEVELAND,OH,44108,
7988,OAK MEADOW DR,DUBLIN,OH,43016,
615,W FRANSHIRE,FRANKLIN TWP,OH,43228,
4243,PINE VIEW DR,HARLEM TWP,OH,43021,
629,ATLANTIC ST NE,WARREN,OH,44483,
688,FRONT ST E,LOGAN,OH,43138,
837,POLARIS PKWY,WESTERVILLE,OH,43082,
8032,WILLEY RD,CROSBY TOWNSHIP HAM OH,OH,45030,
330,KENMORE AVE W,YOUNGSTOWN,OH,44511,
2614,MCMICKEN CIR,CINCINNATI HAM OH,OH,45221,
4262,ORIOLE ST,Butler,OH,45014,
25746,YEOMAN DR,WESTLAKE,OH,44145,
2000,US HIGHWAY 23  N,DELAWARE,OH,43015,
7179,SANDERS WAY,WESTERVILLE,OH,43082,
5062,VININGS BLVD,DUBLIN,OH,43016,
2901,SELMA PIKE,Clark,OH,45505,
3866,ST RT 61,Morrow,OH,43315,
241,WEYDON RD,WORTHINGTON,OH,43085,
5553,WERK RD,GREEN TOWNSHIP HAM OH,OH,45248,
2952,DOVER RD,COLUMBUS,OH,43209,
7728,CHICKORY HOLLOW CT,COLUMBUS,OH,43085,
7422,DALTON-FOX LAKE RD,Wayne,OH,44666,
14031,MOULTON NEW KNOXVILLE RD,Auglaize,OH,45885,
11053,CHERRY LN,Logan,OH,43310,
4400,WHITE RD,Knox,OH,43011,
239,EARLY RD,YOUNGSTOWN,OH,44505,
3571,FULTON RD,CLEVELAND,OH,44109,
19424,ARGYLE OVAL,ROCKY RIVER,OH,44116,
709,RACINE AVE,COLUMBUS,OH,43204,
13910,VIOLET MEADOWS AVE,PICKERINGTON,OH,43147,
935,CANTERBURY LN,Columbiana,OH,44460,
160,SCHELLINGER ST,DELAWARE,OH,43015,
7370,STATE ROUTE 161,PLAIN CITY,OH,43064,
10180,62 CROSSING DR,Butler,OH,45241,62
1862,BRATTLEBORO CT,KETTERING,OH,45440,
1823,GIANT ST,TOLEDO,OH,43613,
706,MCKAIG AVE,TROY,OH,45373,
33706,US ROUTE 30,Columbiana,OH,44432,
480,E HINMAN AVE,COLUMBUS,OH,43207,
14402,JEAN AVE,CLEVELAND,OH,44110,
2000,PEARL ROAD,Brunswick City,OH,44212,
5630,RIDGEWOOD DR,Guernsey,OH,43725,
1559,N TERRACE AVE,NEWARK,OH,43055,
1463,ALUMCREST LN,COLUMBUS,OH,43209,
5925,ROUNDSTONE PL,DUBLIN,OH,43016,
2299,MONTEREY DR,XENIA,OH,45385,
224,N HENRY ST,CRESTLINE,OH,44827,
634,W TIFFIN ST,FOSTORIA,OH,44830,
10270,CHELTENHAM DR,COLERAIN TOWNSHIP HAM OH,OH,45231,
5801,TELEGRAPH RD,TOLEDO,OH,43612,11
978,COLUMBIA RD,Butler,OH,45013,
15680,SR 119,Shelby,OH,45302,
3450,FLO-LOR DR,YOUNGSTOWN,OH,44511,
1128,KATHERINE DR,BEAVERCREEK,OH,45434,
180,N SYLVAN AVE,COLUMBUS,OH,43204,
8988,WASHINGTON-WATERLOO RD NE,Fayette,OH,43160,
17530,MILL RD,BERLIN,OH,44401,
1769,W   54 ST,CLEVELAND,OH,44102,
643,FEDERAL ST,TOLEDO,OH,43605,
21971,SEABURY AVE,FAIRVIEW PARK,OH,44126,
7822,BETSY ROSS CIR,DAYTON,OH,45459,
5935,FAIRHAVEN DR,TOLEDO,OH,43623,
1334,QUAIL CT,BOARDMAN,OH,44512,
1379,MCCLURE RD,TOLEDO,OH,43612,
162,EMERSON ST,BUCYRUS,OH,44820,
4022,MC TAGGART BLVD,Portage,OH,44240,
7184,ENFIELD DR,MENTOR,OH,44060,
4540,READING RD,CINCINNATI HAM OH,OH,45229,
851,BRYDEN RD,COLUMBUS,OH,43205,
16680,MAIN ST,DARBYVILLE,OH,43164,
10712,W CR 28,Seneca,OH,44830,
102,N  MCGEE ST,DAYTON,OH,45403,
1915,SEDAN AVE,COLUMBUS,OH,43207,
979,PARSONS AVE,COLUMBUS,OH,43206,
5193,FOREST RUN DR,DUBLIN,OH,43017,
466,ALBION ST,PICKERINGTON,OH,43147,
3633,SR-28,Ross,OH,45123,
277,KEY BLVD,PATASKALA,OH,43062,
9508,LORAIN AVE,CLEVELAND,OH,44102,
4825,HUMMINGBIRD CT N,COLUMBUS,OH,43229,
6633,LINNVILLE RD SE,FRANKLIN TWP,OH,43056,
32152,TEASEL CT   AVON,LAKE,OH,44012,
6690,W LITTLE PORTAGE EAST RD,Ottawa,OH,43449,
1855,WICK CAMPBELL RD SE,Trumbull,OH,44425,
0,TWP RD 1270,Lawrence,OH,45669,
217,S MAIN ST,Auglaize,OH,45869,
753,HOLLY ST NE,BOLIVAR,OH,44612,
462,PIKE ST,MARIETTA,OH,45750,
1472,BYRD DR,COLUMBUS,OH,43219,
228,SHORELAND CIR,WILLOWICK,OH,44095,
4500,RIDGE ROAD,Granger Township,OH,44256,
7594,CHANCERY DR,DUBLIN,OH,43016,
1600,KANSAS AVE,LORAIN,OH,44052,
5914,PINE TREE PL,SYLVANIA,OH,43560,
6610,BARONSCOURT LOOP,DUBLIN,OH,43016,
727,FESCUE RD,GALENA,OH,43021,
4347,CLEVELAND RD,WOOSTER,OH,44691,
1535,CO RD 104,Lawrence,OH,45619,
116,W MAIN ST,BAINBRIDGE,OH,45612,
2027,SPYGLASS HILL CT,Butler,OH,45014,
3645,E   147 ST,CLEVELAND,OH,44120,
11056,RAIN ROCK RD,EDEN TWP,OH,43071,
9926,US RTE 62,Brown,OH,45121,
4794,HAWAIIAN TER,CINCINNATI HAM OH,OH,45223,
23,BRITTANY LN,Butler,OH,45014,
3383,BRADFORD RD,CLEVELAND HEIGHTS,OH,44118,
72,W NORWICH AVE,COLUMBUS,OH,43201,
49,LIGHTNING LN,Portage,OH,44240,
897,BLACKMORE DR,Columbus,OH,43015,
511,ATEN AVE,WELLSVILLE,OH,43968,
1634,RAYNOR DR,TOLEDO,OH,43615,
336,W VINE ST,LIMA,OH,45804,
2926,WOODBURN AV,CINCINNATI HAM OH,OH,45206,
5275,N ST NE,MAGNOLIA,OH,44643,
3001,RIDGE RD NE,Trumbull,OH,44410,
2074,MINI RANCH TRL,Ashtabula,OH,44041,
256,ORCHARD LN,COLUMBUS,OH,43214,
106,N WILLIAMS ST,PAULDING,OH,45879,
5149,RAY RD,Preble,OH,45381,
1849,GOLETA AVE,YOUNGSTOWN,OH,44504,
1878,LOTUSHILL DR,SPRINGFIELD TOWNSHIP HAM OH,OH,45240,
27317,SR 7,Washington,OH,45750,
15186,HARRIS RD,Defiance,OH,43512,
318,E ARLINGTON DR,Butler,OH,45067,
4464,FOLKESTONE CT S,COLUMBUS,OH,43220,
5607,WORCESTER DR,COLUMBUS,OH,43232,
3012,W PROSPECT RD,Ashtabula,OH,44004,
210,EATON AVE,Butler,OH,45013,
109,WADSWORTH ROAD,Wadsworth City,OH,44281,
5905,NORTHLAWN CT,TOLEDO,OH,43612,
6346,CH 96,Wyandot,OH,43316,
5350,SECTION AV,NORWOOD HAM OH,OH,45212,
3777,CATALINA DR,BEAVERCREEK,OH,45431,
119,TEAKWOOD DR,Muskingum,OH,43701,
2012,INFIRMARY RD,DAYTON,OH,45417,
106,DEAN ST,Lawrence,OH,45680,
141,ADELAIDE DR,Gallia,OH,45631,
38771,DETROIT RD,AVON,OH,44011,
304,BARKLEY PL E,COLUMBUS,OH,43213,
760,WYNSTONE DR,COLUMBUS,OH,43035,
2564,REDSTART DR,Butler,OH,45014,
1480,GALWAY BEND DR S,PATASKALA,OH,43062,
7131,SAFFRON DR,HUBER HEIGHTS,OH,45424,
2997,MCGUFFEY RD,COLUMBUS,OH,43224,
1034,ARIAN DR,Adams,OH,45144,
414,THORPE DR,SANDUSKY,OH,44870,
1427,MEADOW RIDGE DR,LANCASTER,OH,43130,
1519,WYANDOTTE RD,COLUMBUS,OH,43212,
10492,DELBARTON DR,MIAMISBURG,OH,45342,
5768,RIVER CORNERS ROAD,Spencer Township,OH,44275,
1275,WATERWYCK TRL,DAYTON,OH,45458,
1597,E   230 ST,EUCLID,OH,44117,
133,E SUMMIT ST,ALLIANCE,OH,44601,
1557,ANDERLEY RD,COLUMBUS,OH,43123,
3737,CHARBERT CT,COLUMBUS,OH,43232,
4624,TRADEMARK TRL,HILLIARD,OH,43026,
431,GARDEN GLEN LN,COLUMBUS,OH,43228,
14657,S   GALLATIN BLVD,BROOK PARK,OH,44142,
1245,JOHNSON RD,Washington,OH,45750,
1290,PERRYSBURG RD,FOSTORIA,OH,44830,63
1912,FAIRFAX RD,TOLEDO,OH,43613,
1376,WASHINGTON NORTH RD,Richland,OH,44903,
2252,MAHONING AVE NW,WARREN,OH,44483,
214,EARL NORTH DR,HASKINS,OH,43525,
6794,OLEANDER CT,Butler,OH,45044,
348,S BODMER AV,STRASBURG,OH,44680,
1948,PARKLAWN DR,ORANGE TWP,OH,43035,
4833,GREENWOOD TER,CINCINNATI HAM OH,OH,45226,
9110,GEISER RD,HOLLAND,OH,43528,
78,GLENBECK LN,MANSFIELD,OH,44906,
4349,WALFORD ST,COLUMBUS,OH,43224,
4370,WALFORD ST,COLUMBUS,OH,43224,
667,GLENDORA RD,COLUMBUS,OH,43207,
13380,KLOPFENSTEIN RD,Wood,OH,43402,
16,MAIN STREET CIR,SYLVANIA,OH,43560,
1566,HOLLYWOOD AV,CINCINNATI HAM OH,OH,45224,
5441,GRAND CRESENT DR,GALENA,OH,43021,
1026,SUTTON RD,ANDERSON TOWNSHIP HAM OH,OH,45230,
107,GARDEN CT,Lawrence,OH,45680,
3157,MILWAUKEE AVE,OREGON,OH,43616,
26505,RUSSELL RD,BAY VILLAGE,OH,44140,
5821,SALVIA AV,CINCINNATI HAM OH,OH,45224,
308,BLACKS RD,PATASKALA,OH,43062,
322,W FRONT ST,PERRYSBURG,OH,43551,
7027,20 WATERVIEW WAY,Butler,OH,45241,20
9174,EASTBROOK DR,MIAMISBURG,OH,45342,
225,ASHLAND CO RD 620,Ashland,OH,44287,
690,LARCH ST,TIPP CITY,OH,45371,
1618,UPPER VALLEY PIKE,Clark,OH,45504,
