NUMBER,STREET,CITY,STATE,POSTCODE,UNIT
3101,S OAK AV W,BROKEN ARROW,OK,74011,
112,E LAREDO PL S,BROKEN ARROW,OK,74012,
11806,N 107 AV E,COLLINSVILLE,OK,74021,
815,CAMPBELL,ARDMORE,OK,73401,
1542,E 49 ST S,TULSA,OK,74137,
333,D ST SW,ARDMORE,OK,73401,
1418,BIXBY AVE SW,ARDMORE,OK,73401,
,N ASPEN AV W,TULSA,OK,74145,
14002,E 21 ST S,TULSA,OK,74120,
3500,S ASPEN AV W,TULSA,OK,74107,
5418,S MARION PL E,LAKE HAVASU CITY,OK,86403,
11430,E 130 ST S,BROKEN ARROW,OK,74011,
728,N MARION AV E,OWASSO,OK,74055,
4508,S CYPRESS AV W,BROKEN ARROW,OK,74011,
243,S 164 PL E,TULSA,OK,74108,
8119,E 124 ST S,BIXBY,OK,74008,
4763,S BOSTON PL E,TULSA,OK,74105,
12713,S 1 ST W,JENKS,OK,74037,
2912,W DETROIT ST N,BROKEN ARROW,OK,74012,
11104,E 118 ST N,OWASSO,OK,74055,
7204,S PEACH AV W,BROKEN ARROW,OK,74011,
1342,E 36 ST S,TULSA,OK,74148,
1723,E 65 ST N,TULSA,OK,74130,
11381,E INDEPENDENCE ST N,TULSA,OK,74116,
6109,W BIRMINGHAM CR S,TULSA,OK,74112,
226,COUNTRY CLUB RD,ARDMORE,OK,73401,
3821,W ORLANDO ST S,BROKEN ARROW,OK,74011,
9334,S LAKEWOOD AV E,HOMER,OK,99603,
14620,S LAKEWOOD PL E,MOORE,OK,73160,
812,A ST NW,ARDMORE,OK,73401,
22,FREEMAN ST,ARDMORE,OK,73401,
14128,E 19 ST S,TULSA,OK,74108,
5729,E 31 ST S,TULSA,OK,74135,
4607,E 24 PL S,BROKEN ARROW,OK,74012,
919,S MAGNOLIA PL W,BROKEN ARROW,OK,74012,
1713,S NARCISSUS PL W,BROKEN ARROW,OK,74012,
8716,E 104 PL S,TULSA,OK,74133,
9327,S NORWOOD AV E,TULSA,OK,74137,
10945,E 4 ST S,SIMI VALLEY,OK,93063,
1807,W UNION PL N,COLLINSVILLE,OK,74021,
6622,S VICTOR AV E,TULSA,OK,74136,
6232,E 60 ST S,JENKS,OK,74037,
711,N ATLANTA ST W,TULSA,OK,74170,
8923,E 100 CT S,TULSA,OK,74119,
7232,E 32 PL S,HOUSTON,OK,77014,
8915,S CANTON PL E,TULSA,OK,74137,
1416,N VANDALIA AV E,TULSA,OK,74115,
5504,S ASH AV W,BROKEN ARROW,OK,74011,
7205,E 73 PL S,TULSA,OK,74133,
1407,E 42 ST S,TULSA,OK,74105,
3017,N IRONWOOD AV W,BROKEN ARROW,OK,74012,
217,S PHOENIX AV W,TULSA,OK,74112,
18401,N LEWIS AV E,SKIATOOK,OK,74070,
707,N LEWIS PL E,TULSA,OK,74107,
11415,N 132 AV E,OWASSO,OK,74055,
13600,S MINGO RD E,BIXBY,OK,74008,
3139,S FLORENCE PL E,TULSA,OK,74105,
5519,S 70 PL E,TULSA,OK,74145,
11108,S 3 ST E,JENKS,OK,74037,
1609,E 74 PL S,TULSA,OK,74136,
4510,E 85 ST S,TULSA,OK,74137,
10709,MASTERS CR,JENKS,OK,74037,
4726,S 177 PL E,TULSA,OK,74134,
804,N OXFORD AV E,TULSA,OK,74115,
3837,S 135 AV E,TULSA,OK,74134,
8616,E 127 ST S,BIXBY,OK,74008,
8547,E 56 ST S,TULSA,OK,74145,
1244,S ZUNIS AV E,TULSA,OK,74104,
6735,E 8 ST S,SILOAM SPRINGS,OK,72761,
604,S REDBUD AV W,BROKEN ARROW,OK,74012,
9900,N CINCINNATI AV E,SPERRY,OK,74073,
2218,W QUANTICO ST S,BROKEN ARROW,OK,74011,
2704,E 151 ST S,BIXBY,OK,74008,
3318,E EASTON ST N,TULSA,OK,74115,
211,S 117 PL E,TULSA,OK,74128,
4201,N REDBUD PL W,BROKEN ARROW,OK,74012,
4805,S NARCISSUS AV W,BROKEN ARROW,OK,74011,
1904,E 66 PL S,TULSA,OK,74136,
11226,S SANDUSKY AV E,TULSA,OK,74157,
2014,E 6 ST S,TULSA,OK,74104,
11304,S TAMARACK ST W,TULSA,OK,74152,
905,CHEYENNE AVE NW,ARDMORE,OK,73401,
14427,S OAK CT E,GLENPOOL,OK,74033,
1352,N CHEYENNE AV W,TULSA,OK,74127,
4347,E 56 PL S,TULSA,OK,74135,
5780,E 26 PL S,TULSA,OK,74114,
2401,VILLAGE LN,ARDMORE,OK,73401,
1912,S INDIANAPOLIS AV E,TULSA,OK,74112,
10302,S PRESCOTT ST W,JENKS,OK,74037,
1610,5TH AVE SW,ARDMORE,OK,73401,
8249,S 72 AV E,TULSA,OK,74133,
916,S OLYMPIA AV W,TULSA,OK,74132,
7774,E 24 ST S,TULSA,OK,74129,
1145,S HARVARD AV E,TULSA,OK,74112,
4543,S 32 AV W,COLLINSVILLE,OK,74021,
1248,S FLORENCE PL E,TULSA,OK,74104,
6558,S HUDSON PL E,TULSA,OK,74136,
11515,E 64 ST S,BROKEN ARROW,OK,74012,
2846,E 90 ST S,TULSA,OK,74137,
2903,S 66 AV E,TULSA,OK,74135,
3531,S NORFOLK AV E,TULSA,OK,74114,
4512,W MADISON ST N,BROKEN ARROW,OK,74011,
207,S JAMESTOWN AV E,TULSA,OK,74159,
3930,E 110 ST S,WINONA,OK,44493,
12623,E 31 CT S,TULSA,OK,74146,
1228,S GARY AV E,TULSA,OK,74104,
1626,E FULTON PL S,BROKEN ARROW,OK,74012,
2959,E 56 CT S,TULSA,OK,74105,
1524,N COMMERCE,ARDMORE,OK,73401,
11112,E 67 ST S,TULSA,OK,74133,
800,N TERRACE DR E,BIXBY,OK,74008,
12303,N HARVARD AV E,SKIATOOK,OK,74070,
3154,E 88 ST S,TULSA,OK,74137,
5605,S HARVARD CT E,TULSA,OK,74132,
,E 1 ST S,OKLAHOMA CITY,OK,73108,
6833,S 30 AV W,TULSA,OK,74132,
4228,E 80 PL S,TULSA,OK,74136,
,N XANTHUS AV E,TULSA,OK,74101,
8505,E 94 ST S,TULSA,OK,74133,
9621,N 136 AV E,OWASSO,OK,74055,
3144,E 42 ST S,TULSA,OK,74105,
2155,S URBANA AV E,BAY VILLAGE,OK,44140,
4916,S GREENAN DR W,SAND SPRINGS,OK,74063,
5610,S 88 AV E,TULSA,OK,74145,
8818,E 62 ST S,BROKEN ARROW,OK,74012,
4715,S QUINOA AV W,TULSA,OK,74147,
924,S YELLOWOOD AV W,BROKEN ARROW,OK,74012,
2027,E 48 ST N,TULSA,OK,74130,
10206,E 89 ST N,OWASSO,OK,74055,
5206,S 36 AV W,TULSA,OK,74107,
1402,N OLD NORTH PL E,SAND SPRINGS,OK,74063,
3608,S 28 AV W,TULSA,OK,74135,
1515,S DELAWARE PL E,TULSA,OK,74104,
4100,N LIONS PL W,BROKEN ARROW,OK,74012,
4859,S VANCOUVER AV W,TULSA,OK,74107,
11906,S ERIE AV E,TULSA,OK,74137,
9319,E 3 PL S,TULSA,OK,74112,
9423,S 88 AV E,TULSA,OK,74133,
1816,E JACKSONVILLE ST S,BROKEN ARROW,OK,74012,
12518,E 134 ST S,BROKEN ARROW,OK,74011,
2480,E 49 ST S,TULSA,OK,74105,
3125,S COMMERCE,ARDMORE,OK,73401,
17822,E 45 PL S,TULSA,OK,74146,
1410,S CARSON AV W,TULSA,OK,74119,
16534,E 49 PL S,TULSA,OK,74134,
616,LORRAINE RD,ARDMORE,OK,73401,
1319,N NORTHRIDGE DR E,SAND SPRINGS,OK,74063,
1407,E 38 PL S,TULSA,OK,74105,
1218,S VANDALIA AV E,TULSA,OK,74112,
2877,E ARCHER ST N,TULSA,OK,74104,
1205,W INDIANOLA ST S,SAND SPRINGS,OK,74063,
11733,S 103 AV E,BIXBY,OK,74008,
2340,S NOGALES AV W,TULSA,OK,74107,
,S 41 AV W,TULSA,OK,74107,
16039,N 97 AV E,COLLINSVILLE,OK,74021,
1143,S BIRMINGHAM AV E,TULSA,OK,74119,
8213,N 122 AV E,BRISTOW,OK,74010,
309,ASH ST,ARDMORE,OK,73401,
1513,E PASADENA ST S,BROKEN ARROW,OK,74011,
2335,E 17 PL S,TULSA,OK,74170,
1510,N VANDALIA AV E,BROKEN ARROW,OK,74011,
10123,S GRANITE AV E,TULSA,OK,74137,
8109,S 76 AV E,TULSA,OK,74104,
6729,E 7 ST S,TULSA,OK,74112,
4307,S TEAL RIDGE DR W,BROKEN ARROW,OK,74012,
6728,E INDEPENDENCE PL N,TULSA,OK,74115,
2613,W YUMA ST S,OWASSO,OK,74055,
611,E 4 ST S,SKIATOOK,OK,74070,
9441,E 40 PL S,TULSA,OK,74145,
904,N 2 ST E,JENKS,OK,74037,
1309,W PITTSBURG ST S,BROKEN ARROW,OK,74012,
1210,OAKRIDGE ST,ARDMORE,OK,73401,
108,N ARMSTRONG ST W,BIXBY,OK,74008,
3150,E 26 PL S,TULSA,OK,74114,
5019,S 91 AV E,TULSA,OK,74133,
7725,S MEMORIAL DR E,TULSA,OK,74147,
12718,E 22 ST S,TULSA,OK,74129,
3842,S TRENTON AV E,LAWRENCEBURG,OK,38464,
9141,E 46 PL S,TULSA,OK,74145,
7338,E INDEPENDENCE ST N,TULSA,OK,74115,
3911,E 115 PL S,TULSA,OK,74137,
2438,W NEW ORLEANS ST S,TULSA,OK,74133,
3649,S GARY PL E,TULSA,OK,74105,
5004,S BARR DR W,SAND SPRINGS,OK,74063,
1793,E 71 ST S,TULSA,OK,74136,
3204,E ADMIRAL CT N,BROKEN ARROW,OK,74014,
7038,E 71 PL S,TULSA,OK,74133,
4704,E LATIMER PL N,TULSA,OK,74115,
1617,W DELMAR ST S,BROKEN ARROW,OK,74012,
1712,S 152 AV W,SAND SPRINGS,OK,74063,
502,W MAIN ST N,COLLINSVILLE,OK,74021,
15381,E 12 ST S,TULSA,OK,74108,
5211,S REDBUD PL W,SAND SPRINGS,OK,74063,
1733,E 32 ST N,TULSA,OK,74110,
1404,W GLENDALE ST S,COWETA,OK,74429,
9412,S DARLINGTON AV E,CHARLOTTE,OK,28205,
700,S ROCKFORD RD,ARDMORE,OK,73401,
2944,W 115 PL S,JENKS,OK,74037,
1804,N LEWIS PL E,TULSA,OK,74127,
10533,E ADMIRAL BV N,TULSA,OK,74116,
3004,W ELGIN PL N,BROKEN ARROW,OK,74012,
9907,N 119 AV E,RAMONA,OK,74061,
2124,N KINGSTON PL E,TULSA,OK,74115,
6338,S 29 PL W,TULSA,OK,74132,
11814,S TAMARACK CT W,JENKS,OK,74037,
1600,S IRONWOOD AV W,BROKEN ARROW,OK,74012,
7225,S 85 AV E,JENKS,OK,74037,
1625,N DELAWARE AV E,OWASSO,OK,74055,
1218,E 146 PL S,GLENPOOL,OK,74033,
7821,W 18 ST S,TULSA,OK,74137,
13331,S 68 AV E,BIXBY,OK,74008,
4401,S 265 AV W,SAND SPRINGS,OK,74063,
2145,E 28 ST N,TULSA,OK,74110,
436,E OKLAHOMA PL N,LOS ANGELES,OK,90008,
5905,E 30 ST S,TULSA,OK,74114,
7921,N 125 AV E,OWASSO,OK,74055,
5840,E 57 ST S,TULSA,OK,74135,
5204,S 49 AV W,TULSA,OK,74107,
1424,E 53 PL S,TULSA,OK,74105,
1504,W OAK RIDGE CT S,BROKEN ARROW,OK,74012,
801,W AUSTIN ST S,BROKEN ARROW,OK,74013,
10905,E 11 PL S,BIXBY,OK,74008,
5741,N GARRISON PL E,TULSA,OK,74114,
7928,S 92 CT E,TULSA,OK,74133,
5934,S BIRMINGHAM AV E,TULSA,OK,74105,
2534,E 17 PL S,TULSA,OK,74104,
3300,S FIR AV W,BROKEN ARROW,OK,74012,
6220,E TECUMSEH ST N,TULSA,OK,74115,
1436,E 52 ST S,TULSA,OK,74105,
13415,E 36 ST S,TULSA,OK,74135,
6531,E 84 ST S,TULSA,OK,74133,
3300,W JACKSON ST S,BROKEN ARROW,OK,74012,
12502,S 122 AV E,BROKEN ARROW,OK,74011,
4136,S SANDUSKY AV E,TULSA,OK,74135,
211,E KENOSHA ST N,TULSA,OK,74107,
14409,S BIRCH ST E,GLENPOOL,OK,74033,
560,N MAYBELLE AV W,TULSA,OK,74103,
1302,S GARNETT RD E,TULSA,OK,74101,
17643,S SANTA FE ST W,OWASSO,OK,74055,
11941,S 2 ST E,JENKS,OK,74037,
4400,S MAPLE DR W,SAND SPRINGS,OK,74063,
5919,S 56 AV W,TULSA,OK,74107,
4600,E 181 ST S,BIXBY,OK,74008,
3773,S 90 AV E,TULSA,OK,74145,
3709,N BATTLE CREEK DR W,BROKEN ARROW,OK,74012,
2715,W KINGSPORT ST S,BROKEN ARROW,OK,74011,
5709,E 5 ST S,TULSA,OK,74112,
14015,E 90 ST N,OWASSO,OK,74055,
4706,E 84 ST S,TULSA,OK,74137,
13318,E 33 PL S,TULSA,OK,74134,
13505,S POPLAR PL E,GLENPOOL,OK,74033,
3005,W 56 ST S,TULSA,OK,74107,
9494,E 136 ST S,BIXBY,OK,74008,
1330,N EVANSTON AV E,TULSA,OK,74110,
1610,W AUSTIN PL S,BROKEN ARROW,OK,74011,
11201,S VINE ST W,JENKS,OK,74037,
470,S JAMESTOWN AV E,TULSA,OK,74137,
225,E XYLER ST N,TULSA,OK,74106,
9237,S 85 AV E,TULSA,OK,74133,
12958,E 33 ST S,TULSA,OK,74135,
6364,S 80 AV E,TULSA,OK,74133,
10,W 61 ST N,TULSA,OK,74126,
6728,E 11 ST S,TULSA,OK,74112,
14798,S HICKORY ST E,GLENPOOL,OK,74033,
5030,S 26 AV W,TULSA,OK,74107,
607,B ST NW,ARDMORE,OK,73401,
12118,E 15 ST S,TULSA,OK,74128,
3709,E 80 ST S,TULSA,OK,74136,
4306,E 118 ST S,TULSA,OK,74137,
1517,W ADMIRAL BV N,TULSA,OK,74127,
621,S 13 ST W,COLLINSVILLE,OK,74021,
478,S ALLEGHENY AV E,TULSA,OK,74127,
12805,S 7 ST E,TULSA,OK,74133,
5303,S LEWIS AV E,TULSA,OK,74170,
7737,S PARK AV W,BROKEN ARROW,OK,74011,
1086,E 133 ST S,GLENPOOL,OK,74033,
11407,E 100 ST N,OWASSO,OK,74055,
3248,S KNOXVILLE AV E,TULSA,OK,74135,
200,W 43 ST S,SAND SPRINGS,OK,74063,
1205,W EDGEWATER ST S,BROKEN ARROW,OK,74013,
3183,S 133 AV E,TULSA,OK,74134,
2448,S 133 AV E,TULSA,OK,74134,
4623,W 3 ST S,RAMONA,OK,74061,
2305,E FARGO ST N,BROKEN ARROW,OK,74037,
9301,E 95 ST N,OWASSO,OK,74055,
,E 127 CT S,JENKS,OK,74037,
719,E 133 PL S,GLENPOOL,OK,74033,
4150,N FRANKFORT PL E,TULSA,OK,74106,
3323,S GARY PL E,TULSA,OK,74105,
4137,S 25 AV W,TULSA,OK,74107,
4822,S 25 AV W,ARTESIA,OK,88211,
18528,E 46 ST,TULSA,OK,74134,
2600,W FULTON ST S,BROKEN ARROW,OK,74012,
5416,S SKYLANE PL W,SAND SPRINGS,OK,74063,
1917,E 61 CT N,TULSA,OK,74148,
809,S COMMERCE,ARDMORE,OK,73401,
1133,S BROADWAY ST E,SKIATOOK,OK,74070,
11923,S 96 AV E,BIXBY,OK,74008,
1400,W WASHINGTON ST S,TULSA,OK,74101,
1613,N BOSTON AV E,AUSTIN,OK,78745,
1213,N GARFIELD AV W,SAND SPRINGS,OK,74063,
1533,S 262 PL W,SAND SPRINGS,OK,74063,
7126,S 76 AV E,BROKEN ARROW,OK,74014,
1007,N VALLEY DR W,SAND SPRINGS,OK,74063,
8506,E 122 ST S,BIXBY,OK,74008,
7910,S 86 AV E,TULSA,OK,74133,
2127,N ATLANTA PL E,TULSA,OK,74110,
710,L ST NE,ARDMORE,OK,73401,
8232,E 32 ST S,TULSA,OK,74145,
302,N 2 ST W,SPERRY,OK,74073,
110,E ELM ST S,SKIATOOK,OK,74070,
9516,S COLLEGE CT E,TULSA,OK,74137,
16821,E 1 ST S,SEAL BEACH,OK,90740,
2499,E 49 ST S,TULSA,OK,74104,
14151,N 62 AV E,COLLINSVILLE,OK,74021,
1511,S 121 AV E,TULSA,OK,74128,
13406,E 44 ST S,TULSA,OK,74134,
41,G ST SE,ARDMORE,OK,73401,
7404,E 127 CT S,TULSA,OK,74133,
16350,S PEORIA AV E,GLENPOOL,OK,74033,
2124,E 60 CT S,TULSA,OK,74105,
4704,E MARSHALL ST N,TULSA,OK,74115,
1206,B ST NW,ARDMORE,OK,73401,
1330,E 146 PL S,GLENPOOL,OK,74033,
1143,N DETROIT AV E,TULSA,OK,74106,
2234,E 22 PL S,TULSA,OK,74103,
710,E TERRACE DR S,JENKS,OK,74037,
5214,S KINGSTON AV E,TULSA,OK,74135,
13,S ZUNIS AV E,CATOOSA,OK,74015,
9605,S NEW HAVEN AV E,TULSA,OK,74137,
9422,N LEWIS AV E,SPERRY,OK,74073,
1829,N ST LOUIS AV E,TULSA,OK,74148,
2503,E MARSHALL ST N,TULSA,OK,74104,
419,S 42 AV W,TULSA,OK,74127,
4704,S DARLINGTON AV E,BROKEN ARROW,OK,74011,
8908,E 50 ST S,TULSA,OK,74145,
512,RAILHEAD LP,ARDMORE,OK,73401,
6663,S VICTOR AV E,TULSA,OK,74105,
2439,N BOSTON PL E,TULSA,OK,74106,
527,N NORWOOD AV E,TULSA,OK,74115,
9923,N 119 AV E,OWASSO,OK,74055,
1106,W 119 ST S,JENKS,OK,74037,
2312,W KNOXVILLE ST S,BROKEN ARROW,OK,74012,
1516,N 21 ST E,BROKEN ARROW,OK,74012,
15402,E 38 ST S,TULSA,OK,74134,
1146,E 144 PL S,GLENPOOL,OK,74033,
1201,S BROADWAY ST E,SKIATOOK,OK,74070,
7200,S DATE AV W,BROKEN ARROW,OK,74011,
2544,E 30 ST N,TULSA,OK,74148,
2215,E 52 PL S,TULSA,OK,74105,
5752,S BIRMINGHAM AV E,TULSA,OK,74105,
1816,N  MARTIN LUTHER KING JR BV E,DESTIN,OK,32541,
4605,N ST LOUIS AV E,TULSA,OK,74126,
3311,W CHARLES PAGE BV S,WAGONER,OK,74467,
2853,E 35 PL S,TULSA,OK,74105,
4983,E 27 ST S,TULSA,OK,74114,
125,N 72 AV W,TULSA,OK,74127,
12970,E 34 ST S,TULSA,OK,74134,
4227,E 104 ST S,TULSA,OK,74137,
1927,E 37 ST S,TULSA,OK,74105,
402,E PARK LANE N,TULSA,OK,74137,
4803,S LAWTON AV W,OWASSO,OK,74055,
9921,E 114 PL S,BIXBY,OK,74008,
3913,E ZION ST N,TULSA,OK,74115,
3218,E ADMIRAL CT N,TULSA,OK,74110,
2761,E 23 ST S,TULSA,OK,74105,
8805,E 62 PL S,TULSA,OK,74133,
301,N INDIANWOOD AV W,BROKEN ARROW,OK,74012,
2258,E 31 ST S,TULSA,OK,74135,
10401,S MEMORIAL DR E,TULSA,OK,74136,
432,S RICHMOND AV E,TULSA,OK,74159,
917,W GRANGER ST N,BROKEN ARROW,OK,74012,
3719,E 38 ST S,TULSA,OK,74135,
3503,E 6 ST S,COWETA,OK,74429,
2438,S 140 AV E,OWASSO,OK,74055,
1246,E 47 ST N,TULSA,OK,74126,
900,N CLEVELAND AV W,SAND SPRINGS,OK,74063,
4221,S GREENTREE WY W,SAND SPRINGS,OK,74063,
5816,E 57 ST S,TULSA,OK,74135,
6828,S 29 AV W,TULSA,OK,74132,
8917,E 100 DR S,TULSA,OK,74133,
14227,S HICKORY PL E,BIXBY,OK,74008,
1505,W MAIN ST,ARDMORE,OK,73401,
1201,E DOVER ST N,BROKEN ARROW,OK,74012,
3231,N HARTFORD AV E,TULSA,OK,74106,
6006,E 112 PL S,TULSA,OK,74137,
1320,N MAIN ST W,TULSA,OK,74106,
657,N CHEYENNE AV W,TULSA,OK,74106,
806,W 119 PL S,TULSA,OK,74133,
11715,S 86 AV E,BIXBY,OK,74008,
611,W 15 ST S,TULSA,OK,74137,
614,2ND AVE NW,ARDMORE,OK,73401,
10922,S JOPLIN AV E,TULSA,OK,74137,
13116,E 30 ST S,TULSA,OK,74134,
13901,E 28 PL S,TULSA,OK,74134,
660,E 134 PL S,GLENPOOL,OK,74033,
6116,E 18 ST S,TULSA,OK,74112,
4304,S 1 PL E,BROKEN ARROW,OK,74014,
5422,S 108 AV E,OKLAHOMA CITY,OK,73105,
7208,N 145 AV E,TULSA,OK,74105,
6303,E 123 ST S,OWASSO,OK,74055,
16,S 72 AV E,OWASSO,OK,74055,
7129,S PITTSBURG AV E,TULSA,OK,74136,
6557,E 26 PL S,TULSA,OK,74129,
10608,E 74 ST S,TULSA,OK,74133,
6425,S 29 PL W,TULSA,OK,74132,
11218,S ASH ST W,JENKS,OK,74037,
2242,W 44 ST S,TULSA,OK,74107,
15906,S BRADEN AV E,BIXBY,OK,74008,
13103,E 36 ST S,BROKEN ARROW,OK,74014,
6902,E 50 PL S,TULSA,OK,74145,
109,S 36 PL W,TULSA,OK,74127,
12002,E 114 PL N,COLLINSVILLE,OK,74021,
3101,W OAKLAND CR N,BROKEN ARROW,OK,74012,
2502,CROSSROADS DR,ARDMORE,OK,73401,
2203,S LOUISVILLE AV E,TULSA,OK,74114,
520,W BROADWAY AV N,BROKEN ARROW,OK,74013,
4401,E 93 PL S,TULSA,OK,74137,
619,RESEARCH,ARDMORE,OK,73401,
10205,N 120 AV E,OWASSO,OK,74055,
9760,E 92 ST N,OWASSO,OK,74055,
2728,S SHERIDAN RD E,TULSA,OK,74129,
26710,W 16 ST S,BROKEN ARROW,OK,74012,
737,W NEW ORLEANS ST S,TULSA,OK,74159,
501,S 10 ST E,BROKEN ARROW,OK,74012,
3261,W 53 ST S,JENKS,OK,74037,
12111,E 32 ST S,BROKEN ARROW,OK,74013,
503,CARTER,ARDMORE,OK,73401,
8708,E 136 ST N,COLLINSVILLE,OK,74021,
4142,S PEORIA AV E,TULSA,OK,74105,
8202,S YUKON AV W,TULSA,OK,74132,
12311,E 170 ST N,COLLINSVILLE,OK,74021,
5027,N OSAGE DR W,TULSA,OK,74126,
3732,W CHARLESTON ST S,TULSA,OK,74133,
11419,S KINGSTON AV E,TULSA,OK,74137,
2105,N ELWOOD AV W,TULSA,OK,74106,
808,E FOREST DR N,SAND SPRINGS,OK,74063,
904,W MEMPHIS ST S,BROKEN ARROW,OK,74012,
201,S COLLEGE AV E,TULSA,OK,74146,
,E 151 ST S,TULSA,OK,74133,
237,E 35 ST S,TULSA,OK,74105,
9615,S MEMORIAL DR E,OKLAHOMA CITY,OK,73120,
7903,S 72 AV E,TULSA,OK,74133,
4425,W NORMAN ST N,BROKEN ARROW,OK,74012,
2863,S GARY AV E,TULSA,OK,74114,
8242,E 35 ST S,TULSA,OK,74145,
4104,E 21 PL S,PLANO,OK,75024,
,E 177 ST S,TULSA,OK,74133,
12811,E 18 ST S,TULSA,OK,74129,
1017,N OSWEGO AV E,SAND SPRINGS,OK,74063,
809,S COMMERCE,ARDMORE,OK,73401,
13802,E 29 PL S,TULSA,OK,74134,
11911,S 85 AV E,BIXBY,OK,74008,
1202,8TH AVE NE,ARDMORE,OK,73401,
1712,S KNOXVILLE AV E,TULSA,OK,74112,
11620,N 108 AV E,COLLINSVILLE,OK,74021,
8401,E 147 ST S,BIXBY,OK,74008,
3332,S 88 AV E,TULSA,OK,74145,
6351,E NEWTON ST N,TULSA,OK,74115,
301,COUNTRY CLUB RD,ARDMORE,OK,73401,
1062,N MADISON PL E,HAMPTON,OK,23669,
6601,N 128 AV E,OWASSO,OK,74055,
1220,S TAMARACK AV W,BROKEN ARROW,OK,74012,
1627,N ATLANTA PL E,TULSA,OK,74103,
509,S OAK AV W,BROKEN ARROW,OK,74012,
6512,E ADMIRAL PL S,BAXTER SPRINGS,OK,66713,
1813,N BUTTERNUT AV W,BROKEN ARROW,OK,74012,
1432,S SANDUSKY AV E,TULSA,OK,74137,
7302,W 36 ST S,TULSA,OK,74107,
2546,E OKLAHOMA PL N,TULSA,OK,74106,
1555,E 75 ST N,TULSA,OK,74126,
5000,S SPRUCE DR W,SAND SPRINGS,OK,74063,
7517,S GARY PL E,TULSA,OK,74135,
4111,W ORLANDO PL S,BROKEN ARROW,OK,74011,
11316,E NEWTON PL N,COWETA,OK,74429,
12429,E 130 ST N,COLLINSVILLE,OK,74021,
7709,S YALE AV E,TULSA,OK,74105,
808,N MAIN ST W,HERMITAGE,OK,37076,
860,W 150 ST S,GLENPOOL,OK,74033,
1424,N 76 AV E,TULSA,OK,74115,
11909,S JUNIPER CT W,JENKS,OK,74037,
1015,W D ST N,JENKS,OK,74037,
17402,E 44 ST S,TULSA,OK,74134,
1900,W MAPLE ST N,JENKS,OK,74037,
401,11TH AVE NW,ARDMORE,OK,73401,
810,W NORMAN ST N,BROKEN ARROW,OK,74012,
2909,S 101 AV E,TULSA,OK,74136,
3945,S DETROIT AV E,TULSA,OK,74114,
4005,E 67 ST S,TULSA,OK,74136,
2746,N ST LOUIS AV E,BROKEN ARROW,OK,74012,
822,E 141 ST S,GLENPOOL,OK,74033,
11808,S WILLOW ST W,JENKS,OK,74037,
2724,N ST LOUIS AV E,KILLEEN,OK,76549,
453,S 61 AV W,TULSA,OK,74127,
5902,W 10 ST S,TULSA,OK,74103,
328,W 46 PL S,SAND SPRINGS,OK,74063,
6302,S 73 AV E,TULSA,OK,74133,
6151,E ADMIRAL PL N,OILTON,OK,74052,
1635,W PLYMOUTH PL N,BROKEN ARROW,OK,74012,
4118,E 53 PL S,TULSA,OK,74135,
2901,E 51 ST S,OKLAHOMA CITY,OK,73105,
2024,S 9 ST E,BROKEN ARROW,OK,74012,
4625,S 27 AV W,BROKEN ARROW,OK,74012,
8171,E 112 ST S,BIXBY,OK,74008,
6409,N VICTOR AV E,TULSA,OK,74130,
11757,E 28 PL S,TULSA,OK,74129,
10112,E 93 ST N,OWASSO,OK,74055,
2401,VILLAGE LN,ARDMORE,OK,73401,
9152,E MARSHALL ST N,TULSA,OK,74120,
126,E MCKENNON AV N,BROKEN ARROW,OK,74012,
908,S TOLEDO AV E,TULSA,OK,74112,
7455,S YALE AV E,TULSA,OK,74133,
2238,N MADISON AV E,TULSA,OK,74126,
1231,S JAMESTOWN AV E,TULSA,OK,74135,
1045,N BRADEN AV E,SPERRY,OK,74073,
5953,N MADISON AV E,TULSA,OK,74126,
2252,E 7 ST S,TULSA,OK,74137,
115,N XANTHUS AV E,SAPULPA,OK,74066,
8740,E 46 ST S,TULSA,OK,74145,
4336,S LOUISVILLE AV E,TULSA,OK,74135,
2814,E ARCHER ST N,TULSA,OK,74159,
4002,S 49 AV W,TULSA,OK,74157,
106,E CHEROKEE ST N,SKIATOOK,OK,74070,
6625,E 78 CT S,TULSA,OK,74133,
9037,E 95 ST S,TULSA,OK,74133,
3323,E 77 PL S,TULSA,OK,74136,
2434,S 140 AV E,TULSA,OK,74134,
15490,N 21 AV E,SKIATOOK,OK,74070,
3509,S IRVINGTON PL E,TULSA,OK,74135,
2543,N BOSTON AV E,TULSA,OK,74106,
1420,N KINGSTON PL E,TULSA,OK,74115,
3317,W QUINCY ST S,BROKEN ARROW,OK,74012,
4323,E 100 ST S,TULSA,OK,74137,
9253,S ELWOOD AV W,TULSA,OK,74103,
4368,S ROCKFORD PL E,TULSA,OK,74135,
3709,E 31 ST S,TULSA,OK,74159,
6531,E 27 ST S,TULSA,OK,74129,
2044,E 133 CT S,BIXBY,OK,74008,
523,N LINCOLN AV E,SAPULPA,OK,74067,
526,C ST SW,ARDMORE,OK,73401,
5750,E 29 ST S,TULSA,OK,74137,
5353,E 22 PL S,TULSA,OK,74114,
6508,W CAMERON ST N,TULSA,OK,74127,
8534,E 47 PL S,TULSA,OK,74145,
220,E 2 ST N,SAND SPRINGS,OK,74063,
,S PEORIA AV E,HOUSTON,OK,77056,
12829,N 83 AV E,COLLINSVILLE,OK,74021,
6616,E 88 ST S,TULSA,OK,74133,
804,N ELDER AV E,SAND SPRINGS,OK,74063,
2808,W CHARLOTTE ST S,BROKEN ARROW,OK,74011,
2107,W 41 PL S,TULSA,OK,74107,
9201,N 137 AV E,OWASSO,OK,74055,
1411,W MAIN ST,ARDMORE,OK,73401,
406,N CARLSBAD ST W,TULSA,OK,74159,
802,N QUAKER AV E,TULSA,OK,74106,
1819,E 46 PL S,TULSA,OK,74105,
2504,W HONOLULU ST S,BROKEN ARROW,OK,74012,
8717,S LAKEWOOD AV E,TULSA,OK,74137,
9504,E 133 ST S,BIXBY,OK,74008,
14225,E 208 ST S,BIXBY,OK,74008,
1739,E 27 ST N,TULSA,OK,74128,
3898,N MEMORIAL DR E,MERRITT ISLAND,OK,32953,
5503,S BOSTON PL E,TULSA,OK,74105,
4907,S 90 AV E,TULSA,OK,74145,
7921,S 85 AV E,TULSA,OK,74133,
1594,E 59 PL S,TULSA,OK,74106,
2609,S 12 ST E,BROKEN ARROW,OK,74012,
1770,S ELM PL W,BENTONVILLE,OK,72712,
1412,N 105 AV E,OWASSO,OK,74055,
6655,E 46 PL S,COWETA,OK,74429,
6517,E 90 ST S,TULSA,OK,74170,
1009,ROCKFORD CT,ARDMORE,OK,73401,
3326,S CAMPBELL CREEK RD W,SAND SPRINGS,OK,74063,
8849,E 104 PL N,OWASSO,OK,74055,
6530,E 8 ST S,TULSA,OK,74112,
632,E MAIN ST,ARDMORE,OK,73401,
1403,2ND AVE NE,ARDMORE,OK,73401,
2223,S VANDALIA AV E,TULSA,OK,74114,
4341,E 58 ST S,TULSA,OK,74135,
8446,S COLLEGE AV E,TULSA,OK,74137,
618,W BROADWAY ST N,COLLINSVILLE,OK,74021,
9909,E 97 ST S,DURANT,OK,74702,
115,S E AV E,COLLINSVILLE,OK,74021,
312,S ELM PL W,BROKEN ARROW,OK,74012,
9021,E 135 PL S,MOUNDS,OK,74047,
12616,E 19 ST S,TULSA,OK,74169,
3920,E 64 PL S,TULSA,OK,74136,
1307,S EVANSTON AV E,TULSA,OK,74104,
2518,N GARRISON PL E,TULSA,OK,74106,
1641,E 55 ST S,TULSA,OK,74105,
1707,E ARCHER ST N,SAPULPA,OK,74066,
1017,S DATE AV W,BROKEN ARROW,OK,74012,
1636,E 36 ST S,GROVE,OK,74344,
12406,E 77 ST N,OWASSO,OK,74055,
2037,E 133 PL S,BIXBY,OK,74008,
9934,E 114 PL S,BIXBY,OK,74008,
450,W 7 ST S,TULSA,OK,74119,
17075,S 86 AV E,BIXBY,OK,74008,
12118,S SKYLINE DR E,JENKS,OK,74037,
1100,W VANDALIA ST S,BROKEN ARROW,OK,74012,
7343,E KING PL N,BIXBY,OK,74008,
3040,S QUAKER AV E,TULSA,OK,74114,
9804,E 37 CT S,TULSA,OK,74146,
4104,S FLORENCE CT E,TULSA,OK,74105,
12722,E 22 ST S,TULSA,OK,74129,
9243,S 86 AV E,TULSA,OK,74133,
,S MEMORIAL DR E,TULSA,OK,74101,
2850,E 37 ST S,TULSA,OK,74105,
16507,W 46 ST S,SAND SPRINGS,OK,74063,
512,REGENT,ARDMORE,OK,73401,
1519,N DENVER AV W,TULSA,OK,74104,
313,S 47 AV W,TULSA,OK,74127,
9440,E 38 PL S,TULSA,OK,74145,
621,S ELDER AV W,BROKEN ARROW,OK,74012,
1641,S BIRCH AV W,BROKEN ARROW,OK,74012,
8402,E 164 PL S,BIXBY,OK,74008,
12576,S 6 CT E,TULSA,OK,74133,
1530,E 51 PL N,BROKEN ARROW,OK,74014,
6719,S 29 AV W,TULSA,OK,74132,
4401,S MIMOSA AV W,BROKEN ARROW,OK,74011,
4232,W TOLEDO ST S,BROKEN ARROW,OK,74012,
8910,E 59 PL S,TULSA,OK,74145,
3905,N ELGIN AV E,LAWRENCEVILLE,OK,30043,
19006,E 50 ST S,TULSA,OK,74134,
17205,E 111 ST S,BROKEN ARROW,OK,74012,
2846,E 36 PL S,TULSA,OK,74105,
9415,E 106 ST S,TULSA,OK,74133,
2500,W IOLA ST N,TULSA,OK,74137,
418,E LATIMER ST N,TULSA,OK,74106,
554,E 42 PL N,TULSA,OK,74106,
4631,N BOSTON PL E,TULSA,OK,74126,
12250,S 65 PL E,TULSA,OK,74133,
920,N 145 AV E,TULSA,OK,74116,
1922,N OXFORD AV E,TULSA,OK,74115,
2612,E 139 ST S,BIXBY,OK,74008,
2104,MYALL ST,ARDMORE,OK,73401,
2224,W 41 ST S,TULSA,OK,74114,
2505,E MARSHALL ST N,TULSA,OK,74101,
112,E 18 ST S,TULSA,OK,74119,
4810,S 68 AV E,TULSA,OK,74145,
6815,E 73 ST S,TULSA,OK,74133,
719,W 46 PL S,TULSA,OK,74137,
1122,N IRONWOOD AV W,BROKEN ARROW,OK,74012,
5336,S DELAWARE AV E,TULSA,OK,74105,
2004,S YORKTOWN AV E,TULSA,OK,74114,
410,W 7 ST S,BAINBRIDGE,OK,17502,
3717,E XYLER ST N,TULSA,OK,74115,
10715,S DELAWARE AV E,TULSA,OK,74103,
2916,E 1 ST S,TULSA,OK,74104,
4130,S PEORIA AV E,TULSA,OK,74105,
3311,S 137 AV E,TULSA,OK,74134,
5151,S 33 AV W,TULSA,OK,74105,
812,O ST SW,ARDMORE,OK,73401,
16007,N 137 AV E,COLLINSVILLE,OK,74021,
17693,S TACOMA ST W,MOUNDS,OK,74047,
1839,N NORFOLK AV E,TULSA,OK,74145,
420,LOCUST ST,ARDMORE,OK,73401,
1736,E 11 ST S,TULSA,OK,74104,
14753,S VANDALIA AV E,BIXBY,OK,74008,
504,S 37 AV W,TULSA,OK,74127,
,E 11 ST S,TULSA,OK,74133,
2677,S 265 AV W,TULSA,OK,74136,
10303,E 97 CT N,OWASSO,OK,74055,
5942,E 26 PL S,TULSA,OK,74114,
12013,S NANDINA ST W,JENKS,OK,74037,
2401,VILLAGE LN,ARDMORE,OK,73401,
315,N ROSEDALE AV W,TULSA,OK,74106,
10205,E 101 CT N,MERRIFIELD,OK,22119,
44,S 71 AV E,TULSA,OK,74133,
205,W CANTON ST S,BROKEN ARROW,OK,74012,
1002,S COMMERCE,ARDMORE,OK,73401,
835,N NEW HAVEN AV E,TULSA,OK,74115,
5177,S 34 AV W,TULSA,OK,74137,
3733,S 27 AV W,MANNFORD,OK,74044,
2611,E 33 ST S,TULSA,OK,74133,
1406,CHICKASAW BLVD,ARDMORE,OK,73401,
1221,N CHEYENNE AV W,TULSA,OK,74106,
1039,N HARVARD AV E,TULSA,OK,74170,
1708,S 137 AV E,TULSA,OK,74108,
240,E 52 PL N,TULSA,OK,74126,
12836,N 139 AV E,COLLINSVILLE,OK,74021,
1531,N CHEYENNE AV W,TULSA,OK,74146,
2412,W LAREDO ST S,BROKEN ARROW,OK,74012,
6004,E 104 ST S,TULSA,OK,74137,
5110,N MINGO RD E,TULSA,OK,74133,
4686,N MAIN ST W,TULSA,OK,74126,
213,E ARCHER ST N,TULSA,OK,74102,
2410,N CANTON AV E,TULSA,OK,74115,
304,S BEECH AV W,BROKEN ARROW,OK,74012,
12511,E 134 ST S,BROKEN ARROW,OK,74011,
1802,S 6 PL E,BROKEN ARROW,OK,74012,
607,E BEAVER ST S,TULSA,OK,74104,
510,W WINSTON ST S,BROKEN ARROW,OK,74011,
123,N VICTOR AV E,TULSA,OK,74133,
4028,E VIRGIN ST N,OWASSO,OK,74055,
7307,S SYCAMORE PL W,BROKEN ARROW,OK,74011,
1725,S SPRUCE AV W,BROKEN ARROW,OK,74012,
6210,S TRENTON CT E,TULSA,OK,74136,
3711,S RIVERSIDE DR W,TULSA,OK,74152,
16914,E 45 ST S,BROKEN ARROW,OK,74014,
4601,S PEORIA AV E,BROKEN ARROW,OK,74012,
2003,E HASKELL ST N,TULSA,OK,74146,
573,E 58 ST N,TULSA,OK,74126,
8260,E 38 ST S,TULSA,OK,74145,
4023,E 52 ST S,TULSA,OK,74135,
9321,E 92 ST S,TULSA,OK,74133,
8023,S 88 AV E,TULSA,OK,74133,
209,S PEORIA AV E,BROKEN ARROW,OK,74013,
1228,S 110 AV E,OWASSO,OK,74055,
1245,E 29 ST S,TULSA,OK,74114,
1803,N ASTER PL W,BROKEN ARROW,OK,74012,
3017,N 5 ST E,BROKEN ARROW,OK,74012,
10103,E 85 CT N,OWASSO,OK,74055,
12934,E 32 ST S,TULSA,OK,74134,
7522,E 22 PL S,TULSA,OK,74129,
10614,S NATHAN ST W,JENKS,OK,74037,
9912,N HARVARD AV E,SPERRY,OK,74073,
4527,N JOHNSTOWN AV E,TULSA,OK,74106,
115,N 11 HY E,SPERRY,OK,74073,
239,E 28 ST N,TULSA,OK,74106,
502,E 4 ST S,SKIATOOK,OK,74070,
4301,W 8 ST S,TULSA,OK,74127,
7327,E 75 ST S,TULSA,OK,74133,
4761,E 147 PL S,BIXBY,OK,74008,
217,E 28 ST N,TULSA,OK,74106,
2321,W TWIN OAKS ST S,BROKEN ARROW,OK,74011,
524,N HUDSON AV E,TULSA,OK,74115,
1945,W 50 ST S,TULSA,OK,74128,
14105,E 87 CT N,OWASSO,OK,74055,
411,S WHEELING AV E,TULSA,OK,74104,
1923,S BOSTON AV E,TULSA,OK,74119,
3632,S 121 PL E,TULSA,OK,74146,
775,N WILLOW RD W,SAND SPRINGS,OK,74063,
13606,S 18 PL E,BIXBY,OK,74008,
5636,N GILLETTE AV E,TULSA,OK,74130,
12912,S 5 PL E,EDMOND,OK,73013,
503,O ST SW,ARDMORE,OK,73401,
5001,S REDBUD DR W,SAND SPRINGS,OK,74063,
260,S 103 AV E,OWASSO,OK,74055,
6026,S QUEBEC AV E,TULSA,OK,74135,
8911,E 100 ST S,TULSA,OK,74133,
3179,S MADISON AV E,TULSA,OK,74114,
229,WOODS LN,ARDMORE,OK,73401,
3329,S CAMPBELL CREEK RD W,SAND SPRINGS,OK,74063,
2418,S NOGALES AV W,TULSA,OK,74107,
3822,S TROOST AV E,TULSA,OK,74105,
4009,E INDEPENDENCE ST N,COLLINSVILLE,OK,74021,
437,E 130 ST S,TULSA,OK,74133,
1349,N 75 AV E,TULSA,OK,74146,
1323,3RD AVE SW,ARDMORE,OK,73401,
8839,S 90 AV E,TULSA,OK,74133,
7421,E 64 PL S,TULSA,OK,74133,
12315,N 130 AV E,OWASSO,OK,74055,
201,N ARMSTRONG ST E,YALE,OK,74085,
3566,S TOLEDO PL E,TULSA,OK,74135,
6735,E 28 ST S,TULSA,OK,74129,
8423,E 126 ST S,BIXBY,OK,74008,
711,N COMMERCE,ARDMORE,OK,73401,
536,S 98 AV E,TULSA,OK,74104,
5822,S 67 AV E,TULSA,OK,74145,
5103,E 88 CT S,BIXBY,OK,74008,
1306,S 124 AV E,TULSA,OK,74128,
6039,E TECUMSEH ST N,SAPULPA,OK,74067,
3124,W DECATUR ST S,OWASSO,OK,74055,
317,S 101 AV E,HUNTLEY,OK,59037,
2723,S 124 AV E,TULSA,OK,74129,
5004,E 108 ST S,TULSA,OK,74137,
1504,S 138 AV E,TULSA,OK,74108,
9810,E 40 ST S,TULSA,OK,74146,
8716,E 87 PL S,OKMULGEE,OK,74447,
12150,E 22 ST S,TULSA,OK,74129,
4112,W QUINCY CT S,YUBA CITY,OK,95992,
2044,E 13 ST S,TULSA,OK,74152,
3304,S ASH CT W,BROKEN ARROW,OK,74012,
4208,S PITTSBURG AV E,TULSA,OK,74135,
711,CAMPBELL,ARDMORE,OK,73401,
5526,E 36 ST S,TULSA,OK,74135,
11414,E 100 ST N,OOLOGAH,OK,74053,
6533,E 90 ST S,TULSA,OK,74133,
6410,S ELM PL W,TULSA,OK,74159,
12452,E 36 ST S,TULSA,OK,74146,
780,E 73 ST N,CARLSBAD,OK,88221,
18303,E 48 PL S,TULSA,OK,74134,
350,S 41 AV W,TULSA,OK,74127,
2916,E 84 ST S,TULSA,OK,74170,
7444,S URBANA AV E,TULSA,OK,74136,
2211,N DENVER PL W,TULSA,OK,74106,
3748,S FULTON AV E,TULSA,OK,74135,
9728,S 70 AV E,TULSA,OK,74133,
7841,S INDIAN AV W,TULSA,OK,74132,
1327,E 60 ST S,TULSA,OK,74133,
9423,E 38 PL S,TULSA,OK,74145,
4306,E 67 ST S,TULSA,OK,74136,
2833,S GARY AV E,TULSA,OK,74114,
3621,E 55 ST S,TULSA,OK,74135,
2420,E 20 ST S,TULSA,OK,74104,
1269,E 143 ST S,TULSA,OK,74137,
2504,W SOUTH PARK ST S,BROKEN ARROW,OK,74011,
10741,E 122 CT N,COLLINSVILLE,OK,74021,
,S JOSHUA AV W,BROKEN ARROW,OK,74011,
309,N DOGWOOD ST E,OWASSO,OK,74055,
6814,E 57 ST S,TULSA,OK,74145,
5822,S 107 AV E,BROKEN ARROW,OK,74012,
801,11TH AVE NW,ARDMORE,OK,73401,
1808,W COLLEGE CT S,BROKEN ARROW,OK,74012,
548,E 27 PL N,TULSA,OK,74106,
12037,E PINE ST N,CATOOSA,OK,74015,
14327,S POPLAR PL E,GLENPOOL,OK,74033,
11707,S HOLLEY AV W,JENKS,OK,74037,
,E PINE ST N,SPRINGFIELD,OK,65802,
,E MAIN ST,ARDMORE,OK,73401,
13158,S 116 AV E,BROKEN ARROW,OK,74011,
1514,N OSWEGO AV E,OWASSO,OK,74055,
138,LUCILLE DR,ARDMORE,OK,73401,
2465,N YALE AV E,TULSA,OK,74128,
13507,E 38 ST S,TULSA,OK,74134,
1320,S COMMERCE,ARDMORE,OK,73401,
1925,W MEMPHIS ST S,BROKEN ARROW,OK,74012,
13308,S 126 AV E,BROKEN ARROW,OK,74011,
12640,E 131 ST S,BROKEN ARROW,OK,74011,
2628,E 13 ST S,TULSA,OK,74135,
1226,E 1 ST S,TULSA,OK,74114,
107,E 5 ST N,OWASSO,OK,74055,
6914,E 9 ST S,TULSA,OK,74112,
4336,S 91 AV E,TULSA,OK,74145,
12128,E 84 ST N,OWASSO,OK,74055,
108,W BEAVER ST S,JENKS,OK,74037,
,E READING ST N,TULSA,OK,74115,
3209,W ELGIN ST N,BROKEN ARROW,OK,74012,
1401,B ST NW,ARDMORE,OK,73401,
14147,E 24 PL S,TULSA,OK,74134,
1228,S ZUNIS AV E,TULSA,OK,74104,
11812,S BRADEN AV E,TULSA,OK,74137,
911,HOLIDAY DR,ARDMORE,OK,73401,
3416,S 151 AV E,TULSA,OK,74134,
3536,S 177 AV W,CLAREMORE,OK,74019,
509,N BIRCH AV E,SAND SPRINGS,OK,74063,
8213,S DATE AV W,BROKEN ARROW,OK,74011,
13102,E 112 ST N,OWASSO,OK,74055,
159,S 35 AV W,SAND SPRINGS,OK,74063,
,S CHESTNUT AV W,OWASSO,OK,74055,
201,E 35 ST S,TULSA,OK,74105,
705,S MADISON PL E,TULSA,OK,74120,
9211,E 90 PL S,TULSA,OK,74133,
1104,S CHESTNUT AV W,BROKEN ARROW,OK,74012,
6425,S 27 AV W,TULSA,OK,74132,
2644,E 8 ST S,JENKS,OK,74037,
1603,N BIRCH ST E,OWASSO,OK,74055,
8170,N 52 AV E,SPERRY,OK,74073,
6621,S 107 AV E,BROKEN ARROW,OK,74012,
7725,E 118 ST S,BIXBY,OK,74008,
1610,E 14 ST S,TULSA,OK,74114,
12415,S DATE ST W,JENKS,OK,74037,
9401,E 140 ST S,BIXBY,OK,74008,
5907,E 25 PL S,TULSA,OK,74129,
4113,S PITTSBURG AV E,TULSA,OK,74135,
306,S CINCINNATI AV E,SPERRY,OK,74073,
6743,S 67 AV E,TULSA,OK,74133,
7531,S KNOXVILLE AV E,TULSA,OK,74136,
3524,S KNOXVILLE AV E,TULSA,OK,74135,
6,S 111 AV E,CLAREMORE,OK,74017,
2618,E 6 ST S,OWASSO,OK,74055,
3117,W 118 ST S,BROKEN ARROW,OK,74012,
12505,E 88 ST N,OWASSO,OK,74055,
109,S KALANCHOE AV W,BROKEN ARROW,OK,74012,
115,N PLAINVIEW RD,ARDMORE,OK,73401,
13210,N MEMORIAL DR E,COLLINSVILLE,OK,74021,
5749,E 30 PL S,TULSA,OK,74108,
408,E WASHINGTON ST S,TULSA,OK,74159,
4912,E 97 ST S,TULSA,OK,74137,
11101,E 39 ST S,TULSA,OK,74146,
3002,S NARCISSUS PL W,BROKEN ARROW,OK,74012,
121,W 147 ST S,GLENPOOL,OK,74033,
7902,S 76 AV E,TULSA,OK,74133,
5028,E 3 ST S,TULSA,OK,74112,
3705,W URBANA ST S,BROKEN ARROW,OK,74012,
6254,S 89 PL E,TULSA,OK,74133,
5206,S HARVARD AV E,TULSA,OK,74135,
3121,E ADMIRAL PL N,TULSA,OK,74112,
1807,N NORFOLK AV E,TULSA,OK,74106,
3206,E 146 ST S,JEFFERSON CITY,OK,65109,
13126,E 126 PL N,COLLINSVILLE,OK,74021,
301,S 4 ST E,BROKEN ARROW,OK,74012,
3817,S ROLLING OAKS DR W,TULSA,OK,74107,
10846,E 15 PL S,DECAUTUR,OK,62521,
326,W 32 PL S,SAND SPRINGS,OK,74063,
210,E ELM ST S,SKIATOOK,OK,74070,
539,E NEWTON PL N,TULSA,OK,74106,
13034,E 28 ST S,TULSA,OK,74134,
14239,S HICKORY PL E,GLENPOOL,OK,74033,
218,W 52 ST S,SAND SPRINGS,OK,74063,
2605,E ADMIRAL CT N,TULSA,OK,74110,
14846,S VANDALIA AV E,BIXBY,OK,74008,
6508,E 73 ST S,TULSA,OK,74133,
5503,E 118 ST S,TULSA,OK,74137,
100,W 34 PL S,SAND SPRINGS,OK,74063,
308,E 14 ST N,OWASSO,OK,74055,
6915,W 3 ST S,TULSA,OK,74127,
4246,E 25 ST S,JENKS,OK,74037,
5926,E 53 ST S,TULSA,OK,74135,
1211,E 21 ST S,TULSA,OK,74114,
4200,W FREEPORT ST N,BROKEN ARROW,OK,74012,
18508,E 45 ST,TULSA,OK,74134,
10616,S 91 AV E,TULSA,OK,74133,
5943,E KING PL N,OWASSO,OK,74055,
3320,S FLORENCE AV E,TULSA,OK,74105,
3103,N IROQUOIS AV E,TULSA,OK,74106,
229,E DALLAS ST S,BROKEN ARROW,OK,74012,
4550,E 39 ST S,TULSA,OK,74135,
313,W 41 ST S,SAND SPRINGS,OK,74063,
1212,S LEWIS PL E,TULSA,OK,74104,
3527,S YORKTOWN PL E,TULSA,OK,74105,
4927,S NORFOLK AV E,ALEDO,OK,76008,
11015,E 18 ST S,TULSA,OK,74128,
3104,E YOUNG ST N,TULSA,OK,74110,
1122,E 146 PL S,GLENPOOL,OK,74033,
4350,S ALLEGHENY AV E,TULSA,OK,74135,
12331,E 13 PL S,BROKEN ARROW,OK,74011,
318,E 125 CT S,JENKS,OK,74037,
12104,E 88 PL N,HUNTSVILLE,OK,35802,
234,E 30 ST N,TULSA,OK,74106,
6313,S OWASSO PL E,TULSA,OK,74107,
808,E 3 ST S,TULSA,OK,74120,
31,N VICTOR AV E,TULSA,OK,74110,
517,CAMPBELL,ARDMORE,OK,73401,
5722,E 140 ST S,BIXBY,OK,74008,
1438,N DELAWARE AV E,TULSA,OK,74110,
7708,N 127 AV E,OWASSO,OK,74055,
1424,S ROCKFORD AV E,TULSA,OK,74120,
1205,W KENOSHA ST N,TULSA,OK,74150,
14723,S LAKEWOOD AV E,BIXBY,OK,74008,
18833,E 48 PL S,TULSA,OK,74134,
3425,S 148 PL E,TULSA,OK,74134,
7531,E 27 ST S,TULSA,OK,74129,
2521,N MAIN ST E,TULSA,OK,74106,
7704,E 6 ST S,TULSA,OK,74112,
2950,N GILLETTE AV E,TULSA,OK,74112,
308,E SHREVEPORT ST S,BROKEN ARROW,OK,74011,
11034,E 15 PL S,BROKEN ARROW,OK,74012,
11624,E 23 PL S,TULSA,OK,74129,
1012,S TAMARACK AV W,BROKEN ARROW,OK,74012,
1534,N MARION AV E,PARK HILL,OK,74451,
3624,S DELAWARE AV E,TULSA,OK,74105,
1519,S CINCINNATI AV E,TULSA,OK,74120,
4921,E 104 ST S,TULSA,OK,74137,
1712,S DETROIT AV E,TULSA,OK,74103,
526,N ELM ST W,JENKS,OK,74037,
805,S 51 AV W,GLENPOOL,OK,74033,
12426,E 129 ST N,COLLINSVILLE,OK,74021,
1303,6TH AVE NE,ARDMORE,OK,73401,
7465,E 101 ST S,TULSA,OK,74133,
110,S SYCAMORE PL W,BROKEN ARROW,OK,74012,
7511,E 66 ST S,TULSA,OK,74133,
11270,S 72 CT E,BIXBY,OK,74008,
6225,S YORKTOWN PL E,TULSA,OK,74136,
5311,E 32 PL S,OWASSO,OK,74055,
214,E 19 ST S,TULSA,OK,74159,
1335,E 36 PL S,TULSA,OK,74105,
10300,E 81 ST S,TULSA,OK,74119,
505,S 108 AV E,TULSA,OK,74128,
816,CARTER,ARDMORE,OK,73401,
725,E 36 ST N,TULSA,OK,74106,
4605,N NARCISSUS AV W,ROYAL PALM BEACH,OK,33411,
4705,S ELM PL W,TULSA,OK,74101,
3508,E 75 ST S,TULSA,OK,74136,
2814,W 63 ST S,TULSA,OK,74170,
273,E 46 ST S,TULSA,OK,74105,
1212,S A ST E,SKIATOOK,OK,74070,
236,E 46 ST S,BIXBY,OK,74008,
,S BARBER ST W,GLENPOOL,OK,74033,
1716,S 4 ST E,BROKEN ARROW,OK,74012,
3331,E 32 PL N,TULSA,OK,74104,
17812,N LOUISVILLE AV E,SKIATOOK,OK,74070,
239,E ZION ST N,TULSA,OK,74106,
1815,N NORFOLK AV E,TULSA,OK,74106,
1515,S 121 AV E,BROKEN ARROW,OK,74011,
8631,S OXFORD AV E,TULSA,OK,74137,
156,S 167 AV E,TULSA,OK,74108,
4018,W 56 PL,TULSA,OK,74106,
4427,E 38 ST S,TULSA,OK,74135,
805,4TH AVE NE,ARDMORE,OK,73401,
243,13TH AVE NW,ARDMORE,OK,73401,
4916,S UNION AV W,TULSA,OK,74107,
8608,E 134 ST S,BROKEN ARROW,OK,74011,
465,E 148 ST S,GLENPOOL,OK,74033,
8962,E 56 PL S,SHERMAN,OK,75090,
10022,N MEMORIAL DR E,OWASSO,OK,74055,
3328,S 140 AV E,TULSA,OK,74134,
6213,N UTICA PL E,TULSA,OK,74130,
228,11TH AVE NW,ARDMORE,OK,73401,
3820,S UNION AV W,TULSA,OK,74107,
1409,S 74 AV W,TULSA,OK,74112,
8405,E 147 ST S,BIXBY,OK,74008,
12448,E 129 PL N,COLLINSVILLE,OK,74021,
,E 126 ST N,COLLINSVILLE,OK,74021,
4606,S 29 AV W,TULSA,OK,74107,
1901,W INDIANOLA ST S,BROKEN ARROW,OK,74012,
3427,S COMMERCE,ARDMORE,OK,73401,
12533,S ASH AV W,JENKS,OK,74037,
4021,S XANTHUS AV E,TULSA,OK,74105,
