NUMBER,STREET,CITY,STATE,POSTCODE,UNIT
563,COBURG RD,Eugene,OR,97401,
6900,SW 195TH AVE,BEAVERTON,OR,97007,
5113,TYEE RD,UMPQUA,OR,97486,
515,E BERKELEY ST,GLADSTONE,OR,97027,
2785,OAK ST,Eugene,OR,97405,
11209,SW SOUTH RIDGE DR,PORTLAND,OR,97219,
36711,MODOC POINT RD,Klamath,OR,97624,
4206,SE ELLIS ST,PORTLAND,OR,97206,
1668,VILLAGE PARK PL,WEST LINN,OR,97068,
,NW CRESTON RD,PORTLAND,OR,97231,
18807,S FERGUSON RD,OREGON CITY,OR,97045,
2360,S DOWNING ST,Seaside,OR,97138,
2440,TAYLOR ST,Eugene,OR,97405,
12102,CHIARA DR,OREGON CITY,OR,97045,
12105,SE HOLGATE BLVD,PORTLAND,OR,97266,
1626,N WINCHELL ST,PORTLAND,OR,97217,
16150,SW KIMBALL ST,LAKE OSWEGO,OR,97035,
3950,GOODPASTURE LP,Eugene,OR,97401,
,SE BURNSIDE RD,GRESHAM,OR,97030,
3120,NE 82ND AVE,PORTLAND,OR,97220,
,NO SITUS,ADDRESS,OR,0,
721,MITCHELL ST,Klamath,OR,97601,
76272,INDUSTRIAL PARK WAY,Oakridge,OR,97463,
825,Coyote Gulch Road,ADRIAN,OR,97901,
221,SE 18TH AVE,HILLSBORO,OR,97123,
1820,SE REEDWAY ST,PORTLAND,OR,97202,
1417,NE THOMPSON ST,PORTLAND,OR,97212,
1195,W 19TH AVE,Eugene,OR,97402,
17139,SE PINE ST,GRESHAM,OR,97233,
6719,SE REED COLLEGE PL,PORTLAND,OR,97202,
90428,METCALF DR,COOS BAY,OR,,
5404,SE 97TH AVE,PORTLAND,OR,97266,
8424,SE 11TH AVE,PORTLAND,OR,97202,
12511,SE STEELE ST,PORTLAND,OR,97236,
2411,16TH ST,Florence,OR,97439,
93590,HWY 99S,Junction City,OR,97448,
576,NE 40TH AVE,HILLSBORO,OR,97124,
6749,SE BROOKLYN ST,PORTLAND,OR,97206,
565,N ROSA PARKS WAY,PORTLAND,OR,97217,
10580,SE CHARLOTTE DR,HAPPY VALLEY,OR,97086,
1441,SW COLLEGE ST,PORTLAND,OR,97201,
36951,WHEELER RD,Pleasant Hill,OR,97455,
45,EAGLE CREST DR,LAKE OSWEGO,OR,97035,509
88553,AGATE LN,BANDON,OR,,
2630,SE 168TH AVE,PORTLAND,OR,97236,
038,SW PORTER ST,PORTLAND,OR,97201,
2655,NW HIGHLAND DR,CORVALLIS,OR,97330,61
2480,SW PICKFORD ST,CORVALLIS,OR,97333,4
1420,NW 20TH AVE,PORTLAND,OR,97209,
1803,SE HARWELL WAY,HILLSBORO,OR,97123,
1620,SE CESAR E CHAVEZ BLVD,PORTLAND,OR,97214,
2745,NW JOHN OLSEN AVE,HILLSBORO,OR,97124,
3215,ASH,NORTH BEND,OR,,
17620,SW BUNKER OAK RD,BEAVERTON,OR,97006,
4127,SW 52ND AVE,PORTLAND,OR,97221,
83606,WINESAP RD,MILTON-FREEWATER,OR,,
4745,SW ADMIRAL ST,PORTLAND,OR,97221,
3534,HILL ST SE,ALBANY,OR,97322,
2101,WEMBLEY PARK RD,LAKE OSWEGO,OR,97034,
5823,SW BEAVERTON HILLSDALE HWY,PORTLAND,OR,97221,
2831,SE STEELE ST,PORTLAND,OR,97202,
654,NE MARSHALL AVE,BEND,OR,97701,
3833,AVALON AVE NE,ALBANY,OR,97322,
11618,NW GALES CREEK RD,GALES CREEK,OR,97117,
1050,NE BUTLER MARKET RD,BEND,OR,97701,
19309,NE GLISAN ST,GRESHAM,OR,97230,
1913,SUMMERFIELD CT SW,ALBANY,OR,97321,
7655,BASELINE RD,BAY CITY,OR,97107,
720,N ELDORADO AVE,Klamath,OR,97601,
5133,NE 19TH AVE,PORTLAND,OR,97211,
720,NW 4TH ST,CORVALLIS,OR,97330,
66308,HWY 20,BEND,OR,97703,
145,SE MOSHER AVE,ROSEBURG,OR,97470,
3585,KINSROW AVE,Eugene,OR,97401,
3830,SE 69TH AVE,PORTLAND,OR,97206,
5933,NE WIN SIVERS DR,PORTLAND,OR,97220,
3110,SW MOUNTAIN LN,WEST LINN,OR,97068,
1315,SE UMATILLA ST,PORTLAND,OR,97202,402
1849,RANCH RD,REEDSPORT,OR,97467,
356,SE 192ND AVE,PORTLAND,OR,97233,110
424,SE 26TH AVE,PORTLAND,OR,97214,
9026,N POLK AVE,PORTLAND,OR,97203,
1410,DEL RIO RD,ROSEBURG,OR,97471,
17234,SE SHERMAN ST,PORTLAND,OR,97233,
715,SE 212TH AVE,GRESHAM,OR,97030,
1120,HILL ST SE,ALBANY,OR,97322,
1588,NE 16TH WAY,GRESHAM,OR,97030,
2613,SE ROSEFINCH DR,GRESHAM,OR,97080,
91090,ABBY RD,Coburg,OR,97408,
1925,NE KNOTT ST,PORTLAND,OR,97212,
3115,SE 78TH AVE,PORTLAND,OR,97206,
409,W WATER ST,Klamath,OR,97633,
1946,LYON ST SW,ALBANY,OR,97321,
612,SW OTTER WAY,BEND,OR,97702,
3138,19TH AVE SE,ALBANY,OR,97322,
1039,MERRYMAN DR,Klamath,OR,97603,
14,NE 4TH ST,GRESHAM,OR,97030,
616,N BEECH ST,PORTLAND,OR,97227,
3655,SE WOODSTOCK BLVD,PORTLAND,OR,97202,
20,NE 113TH PL,PORTLAND,OR,97220,
767,THRONE DR,Eugene,OR,97402,
4215,N ALASKA ST,PORTLAND,OR,97203,
28245,SANDLAKE RD,TIERRA DEL MAR,OR,97112,
805,NE KANE DR,GRESHAM,OR,97030,207
13220,NW NEWBERRY RD,PORTLAND,OR,97231,
62079,TORKELSON RD,BEND,OR,97701,
5330,SW SCHOLLS FERRY RD,PORTLAND,OR,97225,
4424,SE 29TH AVE,PORTLAND,OR,97202,
2071,NE STEPHENS ST,ROSEBURG,OR,97470,
61492,WEINHARD CT,BEND,OR,97702,
8678,N COLUMBIA BLVD,PORTLAND,OR,97203,
5175,PEGGY AVE,Klamath,OR,97601,
14485,S UNION HALL RD,MULINO,OR,97042,
36435,HWY 226,ALBANY,OR,97322,
10555,SW 75TH AVE,PORTLAND,OR,97223,
2340,LAKEVIEW DR,Eugene,OR,97408,
1333,OAK PATCH RD,Eugene,OR,97402,
1365,Northwest   16th Avenue,ONTARIO,OR,97914,
2860,SE CLEVELAND DR,GRESHAM,OR,97080,
65,NW 14TH PL,GRESHAM,OR,97030,
5221,SE MITCHELL ST,PORTLAND,OR,97206,
408,SE BOULEVARD WAY,ESTACADA,OR,97023,
835,OREGON,NORTH BEND,OR,,
16730,NW DESERT CANYON DR,PORTLAND,OR,97229,
17662,NW CONCORDIA CT,PORTLAND,OR,97229,
,NO SITUS,ADDRESS,OR,0,
19900,SW GASSNER RD,BEAVERTON,OR,97007,
2570,SHELDON VILLAGE LP,Eugene,OR,97401,
4310,SE NEHALEM ST,PORTLAND,OR,97206,
278,LANCASTER AVE,ROSEBURG,OR,97471,
10940,NE BRAZEE ST,PORTLAND,OR,97220,
1515,POWELL WAY SE,ALBANY,OR,97322,
15139,SE POWELL BLVD,PORTLAND,OR,97236,
6585,SW 169TH AVE,BEAVERTON,OR,97007,
89325,OLD COBURG RD,Eugene,OR,97408,111
2200,SW 187TH AVE,WASHINGTON CO,OR,97003,
,NO SITUS,ADDRESS,OR,0,
13089,SE GLENWOOD ST,PORTLAND,OR,97236,
10315,NE FREMONT ST,PORTLAND,OR,97220,
950,F ST,LEBANON,OR,97355,
4015,N ALBINA AVE,PORTLAND,OR,97227,
3920,NW CRAIG DR,BEAVERTON,OR,97006,
3425,SW BARBUR BLVD,PORTLAND,OR,97239,
1503,N HAYDEN ISLAND DR,PORTLAND,OR,97217,
1330,SE 14TH AVE,PORTLAND,OR,97214,
16639,SE NAEGELI DR,PORTLAND,OR,97236,
2425,NE 40TH AVE,PORTLAND,OR,97212,
1358,NOPAL ST,Florence,OR,97439,
13803,SE KNIGHT ST,PORTLAND,OR,97236,
11590,SE AERIE CRESCENT RD,HAPPY VALLEY,OR,97086,
196,VAL ST,SUTHERLIN,OR,97479,
490,IRON MOUNTAIN BLVD,LAKE OSWEGO,OR,97034,
3730,NE 150TH AVE,PORTLAND,OR,97230,
320,JUNIPER ST,SWEET HOME,OR,97386,
2421,NE IRVING ST,PORTLAND,OR,97232,
14850,TIDELAND RD,NEHALEM,OR,97131,
1306,SE 20TH AVE,PORTLAND,OR,97214,
4819,NE 103RD AVE,PORTLAND,OR,97220,
13755,S MOLALLA FOREST RD,MOLALLA,OR,97038,
633,SE POWELL BLVD,PORTLAND,OR,97202,
510,ACACIA AVE,GARIBALDI,OR,97118,
14345,SW BEEF BEND RD,TIGARD,OR,97224,
60441,ZUNI RD,BEND,OR,97702,
2532,NIXON ST,Eugene,OR,97403,
3315,NW 26TH AVE,PORTLAND,OR,97210,1
1625,SE ANTHONY ST,HILLSBORO,OR,97123,
92823,SIMONSEN RD,ASTORIA,OR,97103,
1350,NE STEPHENS ST,ROSEBURG,OR,97470,43
1728,MONTEREY LN,Eugene,OR,97401,
7129,SW SAGERT ST,TUALATIN,OR,97062,
11505,NE YACHT HARBOR DR,PORTLAND,OR,97217,
38070,ASPENWOOD CT,Klamath,OR,97624,
4542,NE CULLY BLVD,PORTLAND,OR,97218,
61875,BROKEN TOP DR,BEND,OR,97702,
1380,COLUMBIA ST,Eugene,OR,97403,
21908,DEE DR,BEND,OR,97701,
20532,RUSTICATE RD,BEND,OR,97702,
1199,N TERRY ST,Eugene,OR,97402,
5999,SW JORDAN RD,Culver,OR,97734,
4430,N MICHIGAN AVE,PORTLAND,OR,97217,
1221,W DEAN ST,SUTHERLIN,OR,97479,18
2339,NW FRAZER LN,BEND,OR,97703,
710,EAST THORNTON LAKE DR NW,ALBANY,OR,97321,
1950,NW 192ND AVE,Hillsboro,OR,97006,
2207,SW STELLA WAY,TROUTDALE,OR,97060,
19635,SUNSHINE WAY,BEND,OR,97702,
7415,SE EVERGREEN ST,PORTLAND,OR,97206,
3515,DIAN AVE NE,ALBANY,OR,97322,
9760,SIMPSON CANYON RD,Klamath,OR,97601,
,SE 42ND AVE,PORTLAND,OR,97215,
4185,SE WALNUT CT,HILLSBORO,OR,97123,
7227,SW APPLEGATE DR,BEAVERTON,OR,97007,
18567,NW RED WING WAY,Hillsboro,OR,97006,
2341,SE 176TH AVE,GRESHAM,OR,97233,
1061,NE 9TH AVE,PORTLAND,OR,97232,2024
2027,N SKIDMORE CT,PORTLAND,OR,97217,
3210,FILLMORE ST,Eugene,OR,97405,
2943,SANTIAM HWY SE,ALBANY,OR,97322,
3889,OSAGE ST,Springfield,OR,97478,
7787,NE PERSHING LN,HILLSBORO,OR,97124,
777,FIFTH ST,BROOKINGS,OR,97415,
2892,NW UPSHUR ST,PORTLAND,OR,97210,
2430,NE SPRUCE AVE,GRESHAM,OR,97030,
249,W EXCHANGE ST,Astoria,OR,97103,
40234,DOGWOOD RD,MILL CITY,OR,97360,
7973,SW CRICKHOLLOW CT,DURHAM,OR,97224,
1187,NW FALL AVE,BEAVERTON,OR,97006,
1060,TAYLOR ST,Eugene,OR,97402,
5840,SW HARVEST AVE,REDMOND,OR,97756,
2690,FOXGLOVE LP SE,ALBANY,OR,97322,
642,SW CHERRY PARK RD,TROUTDALE,OR,97060,
2958,NE DEBORAH CT,BEND,OR,97701,
2302,NE TILLAMOOK ST,PORTLAND,OR,97212,
1811,SE SALMON ST,PORTLAND,OR,97214,
608,SE 136TH AVE,PORTLAND,OR,97233,
3851,STEWART RD,Eugene,OR,97402,
16616,NW SOMERSET DR,BEAVERTON,OR,97006,
994,T ST,Springfield,OR,97477,
3907,SE 9TH AVE,PORTLAND,OR,97202,
522,PINE ST,BROOKINGS,OR,97415,
,1S3E02B 90278,GRESHAM,OR,97030,
1250,S 58TH ST,Springfield,OR,97478,
6031,SW GRAND OAKS DR,CORVALLIS,OR,97333,
14350,SE MARKET CT,PORTLAND,OR,97233,
921,MOUNTAIN RIVER DR,LEBANON,OR,97355,
178,SUNNY LOOP WY,BANDON,OR,,
1241,NE MARINE DR,PORTLAND,OR,97211,
87,DIAMOND LAKE LOOP,CHEMULT,OR,97731,
1510,FARRAH CT,SUTHERLIN,OR,97479,
8117,N EDISON ST,PORTLAND,OR,97203,
13597,SW ELECTRIC ST,BEAVERTON,OR,97005,
1804,SE IRONWOOD WAY,GRESHAM,OR,97080,
120,SW 25TH CIR,TROUTDALE,OR,97060,
31928,SPANIEL LN,Klamath,OR,97623,
16745,SE DIVISION ST,PORTLAND,OR,97266,052
9974,SW ARCTIC DR,BEAVERTON,OR,97005,
1026,NE BARAGER AVE,ROSEBURG,OR,97470,
4109,SE 66TH AVE,PORTLAND,OR,97206,
1120,SW AUTUMN WAY,TROUTDALE,OR,97060,
7531,N CATLIN AVE,PORTLAND,OR,97203,
371,TALEMENA DR,Cottage Grove,OR,97424,
19609,NE MARINE DR,PORTLAND,OR,97230,
1423,SW DOLPH ST,PORTLAND,OR,97219,
11609,SE FLAVEL ST,PORTLAND,OR,97266,
8717,N CURTIS AVE,PORTLAND,OR,97217,
11030,SW CAPITOL HWY,PORTLAND,OR,97219,
12835,SE SHERMAN ST,PORTLAND,OR,97233,
13747,NE KLICKITAT CT,PORTLAND,OR,97230,
1255,NW 9TH AVE,PORTLAND,OR,97209,
18140,COUCH MARKET RD,BEND,OR,97703,
883,SE BRIARWOOD CT,BEND,OR,97702,
3019,SE MAIN ST,PORTLAND,OR,97214,
6565,BASELINE RD,BAY CITY,OR,97107,
13940,SW BERTHOLD ST,BEAVERTON,OR,97005,
1535,SW CLAY ST,PORTLAND,OR,97201,
29264,S MARSHALL RD,MULINO,OR,97042,
14194,BRITTANY TER,OREGON CITY,OR,97045,
4435,NE 40TH AVE,PORTLAND,OR,97211,
695,COLE RD,OAKLAND,OR,97462,
1488,NE BUTLER MARKET RD,BEND,OR,97701,
1513,SE 127TH AVE,PORTLAND,OR,97233,
1730,WINONA WAY,Klamath,OR,97603,
2839,NW CUMBERLAND RD,PORTLAND,OR,97210,
225,GRANT ST,Klamath,OR,97601,
70110,MEADOW VIEW RD,SISTERS,OR,97759,
,NE 201ST AVE,FAIRVIEW,OR,97024,
2896,NE MODA WAY,HILLSBORO,OR,97124,
665,LOUIS ST,Eugene,OR,97402,
,1N3E31AC 9900,PORTLAND,OR,97230,
1774,NE LOMBARD ST,PORTLAND,OR,97211,
6846,N COLUMBIA BLVD,PORTLAND,OR,97203,
16130,NW DONIN CT,BEAVERTON,OR,97006,
,E BURNSIDE ST,PORTLAND,OR,97214,
1023,W 8TH AVE,Eugene,OR,97402,
3732,NW TYLER PL,CORVALLIS,OR,97330,
135,N HAYDEN BAY DR,PORTLAND,OR,97217,
18820,CHOCTAW RD,BEND,OR,97702,
3276,NE 2ND CT,HILLSBORO,OR,97124,
8536,NE PACIFIC ST,PORTLAND,OR,97220,
34860,S MERIDIAN RD,WOODBURN,OR,97071,
60050,E MARMOT RD,SANDY,OR,97055,
255,HIGH ST,Eugene,OR,97401,
7149,SW SAGERT ST,TUALATIN,OR,97062,
54514,BEACH LOOP RD,BANDON,OR,,
512,NW CELTIS LN,HILLSBORO,OR,97124,
4218,NE 131ST PL,PORTLAND,OR,97230,
9255,NE ROCKSPRING LN,HILLSBORO,OR,97006,
2018,GEARY ST SE,ALBANY,OR,97322,
281,TAYLOR ST,SUTHERLIN,OR,97479,
23119,NE ARATA RD,WOOD VILLAGE,OR,97060,
8025,NE NICHOLAS CT,HILLSBORO,OR,97124,
,1S3E04DB 90046,GRESHAM,OR,97030,
60847,GRANITE DR,BEND,OR,97702,
21327,NE SHORE DR,FAIRVIEW,OR,97024,
6439,NE 32ND AVE,PORTLAND,OR,97211,
4105,Alder Road,VALE,OR,97918,
400,N MILL ST,Creswell,OR,97426,
17836,SW WASHINGTON DR,WASHINGTON CO,OR,97078,
1500,SW HARBOR WAY,PORTLAND,OR,97201,
2263,GILMAN DR,OREGON CITY,OR,97045,
1017,SW MORRISON ST,PORTLAND,OR,97205,
43564,HOEFT RD,PENDLETON,OR,,
15530,NE KNOTT ST,PORTLAND,OR,97230,37
215,OSWEGO SMT,LAKE OSWEGO,OR,97035,
21742,SW SHERWOOD BLVD,SHERWOOD,OR,97140,
8482,SW HAYDEN DR,BEAVERTON,OR,97007,
28590,HWY 70,Klamath,OR,97623,
1412,E ST,Springfield,OR,97477,
7045,N MEARS ST,PORTLAND,OR,97203,
3559,SE MORRISON ST,PORTLAND,OR,97214,
761,PACIFIC DR,Hammond,OR,97121,
3348,SE 112TH AVE,PORTLAND,OR,97266,
5150,HOMEDALE RD,Klamath,OR,97603,
6814,SE 50TH AVE,PORTLAND,OR,97206,
1937,NW JOHNSON ST,PORTLAND,OR,97209,
4901,SW MARTHA ST,PORTLAND,OR,97221,
6716,NE GARFIELD AVE,PORTLAND,OR,97211,
3916,SE 130TH AVE,PORTLAND,OR,97236,
123,S MOLALLA AVE,MOLALLA,OR,97038,
6733,SE MORRISON ST,PORTLAND,OR,97215,
4321,SE BOWMAN ST,MILWAUKIE,OR,97222,
8252,NE WASCO ST,PORTLAND,OR,97220,
31865,CLATSOP LN,Arch Cape,OR,97102,
8457,SW 30TH AVE,PORTLAND,OR,97219,
,NE M L KING BLVD,PORTLAND,OR,97212,
322,SE MORRISON ST,PORTLAND,OR,97214,
2375,NW NORTHRUP ST,PORTLAND,OR,97210,
1680,S FRANKLIN,Seaside,OR,97138,
561,NE TRUMAN LN,HILLSBORO,OR,97124,
6436,NE MALLORY AVE,PORTLAND,OR,97211,
39295,GOLDEN VALLEY DR,LEBANON,OR,97355,
3325,NE 84TH AVE,PORTLAND,OR,97220,
23750,SW SHADYGROVE DR,SHERWOOD,OR,97140,
1245,NW 185TH AVE,HILLSBORO,OR,97006,
4643,NE 33RD AVE,PORTLAND,OR,97211,
38403,JASPER LOWELL RD,Fall Creek,OR,97438,
13133,HWY 36,Swisshome,OR,97480,
1339,NE HOGAN PL,GRESHAM,OR,97030,
13059,SE POWELL BLVD,PORTLAND,OR,97236,
411,E LOWELL ST,Klamath,OR,97601,
1809,NE 19TH ST,GRESHAM,OR,97030,
1221,SW 10TH AVE,PORTLAND,OR,97205,
4001,SE 182ND AVE,GRESHAM,OR,97030,222
95685,SITKUM LN,MYRTLE POINT,OR,,
7611,SE CRYSTAL SPRINGS BLVD,PORTLAND,OR,97206,
1480,ASHLEY LP NW,ALBANY,OR,97321,
808,NE 117TH AVE,PORTLAND,OR,97220,
5804,N BORTHWICK AVE,PORTLAND,OR,97217,
1274,SW LAURA CT,TROUTDALE,OR,97060,
27980,SPENCER CREEK RD,Eugene,OR,97405,
333,NW 4TH AVE,PORTLAND,OR,97209,
4036,SE 98TH AVE,PORTLAND,OR,97266,
5471,NANDINA ST,SWEET HOME,OR,97386,
4050,NW MORGAN PL,CORVALLIS,OR,97330,
4002,SE OAKHURST ST,HILLSBORO,OR,97123,
8490,SW FAIRWAY DR,PORTLAND,OR,97225,
1526,SE RAMSAY RD,BEND,OR,97702,
966,56TH PL,Springfield,OR,97478,
568,HOWARD AVE,Eugene,OR,97404,
19109,ROYCE MTN WAY,Klamath,OR,97733,
14824,TANNERY ST,OREGON CITY,OR,97045,
37359,GREEN MOUNTAIN ST,SANDY,OR,97055,
1636,SW 21ST PL,REDMOND,OR,97756,
190,HAWTHORNE AVE,Eugene,OR,97404,
7511,N BERKELEY AVE,PORTLAND,OR,97203,6
360,West   A Street,VALE,OR,97918,
6517,SW 35TH AVE,PORTLAND,OR,97221,
1406,SE 40TH AVE,PORTLAND,OR,97214,
29237,SKUNK RUN RD,GOLD BEACH,OR,97444,
4446,FRANKLIN BLVD,Eugene,OR,97403,
7200,SW 8TH AVE,PORTLAND,OR,97219,
10746,NE WYGANT ST,PORTLAND,OR,97220,
1937,NE SARATOGA ST,PORTLAND,OR,97211,
1836,NW 17TH ST,GRESHAM,OR,97030,
4834,SHASTA WAY,Klamath,OR,97603,
221,JIGGS LN,WINSTON,OR,97496,
478,S OLD PACIFIC HWY,MYRTLE CREEK,OR,97457,
8615,NE MILTON ST,PORTLAND,OR,97220,
2515,ASHLEY DR NW,ALBANY,OR,97321,
4415,SW REDONDO AVE,PORTLAND,OR,97239,
1721,NE FREEMONT AVE,ROSEBURG,OR,97470,
1165,E JUNIPER AVE,HERMISTON,OR,,
20120,SW JOHNSON ST,BEAVERTON,OR,97003,
1709,WELLS RD,ELKTON,OR,97436,
9026,N IDA AVE,PORTLAND,OR,97203,
19985,S SOUTH END RD,OREGON CITY,OR,97045,
2954,NE 27TH AVE,PORTLAND,OR,97212,
63357,DESCHUTES MARKET RD,BEND,OR,97701,
,LEVY CODE 708,PORTLAND,OR,97209,
1106,NW 8TH ST,GRESHAM,OR,97030,
25241,JEANS RD,Veneta,OR,97487,
127,LANEDA AVE,MANZANITA,OR,97130,
2720,S TROUTDALE RD,TROUTDALE,OR,97060,
9135,N SMITH ST,PORTLAND,OR,97203,
3101,SE 11TH AVE,PORTLAND,OR,97202,
4269,SW REDFERN AVE,GRESHAM,OR,97080,
1672,NW RIVERSCAPE ST,PORTLAND,OR,97209,
2944,NE KASTER DR,HILLSBORO,OR,97124,
1420,CALIFORNIA AVE,Klamath,OR,97601,
1250,SW VETERANS WAY,REDMOND,OR,97756,
985,SE HARLOW CT,TROUTDALE,OR,97060,
236,SE 75TH AVE,PORTLAND,OR,97215,
2362,GALE ST NW,ALBANY,OR,97321,
61406,ORION DR,BEND,OR,97702,
13915,NE RUSSELL ST,PORTLAND,OR,97230,
3604,SE POWELL VALLEY RD,GRESHAM,OR,97080,339
1989,HARBOR DR,Springfield,OR,97477,
8125,SE COOPER ST,PORTLAND,OR,97206,
,NE HOGAN DR,GRESHAM,OR,97030,
944,NE 114TH AVE,PORTLAND,OR,97220,
1904,TODD ST,Eugene,OR,97405,
1824,NE 106TH AVE,PORTLAND,OR,97220,
5294,ROYAL OAKS DR,LAKE OSWEGO,OR,97035,
24805,W DEMMING RD,Elmira,OR,97437,
6625,SE REEDWAY ST,PORTLAND,OR,97206,
2732,GLENDALE VALLEY RD,GLENDALE,OR,97442,
3930,NW WITHAM HILL DR,CORVALLIS,OR,97330,15
17890,SW ALEXANDER ST,WASHINGTON CO,OR,97003,
81978,LOST VALLEY LN,Dexter,OR,97431,
2624,SE 182ND AVE,GRESHAM,OR,97030,13
697,NW POWELL BUTTE LOOP,BEND,OR,97703,
2855,NW FOREST AVE,BEAVERTON,OR,97006,
2135,GEARY ST SE,ALBANY,OR,97322,
3045,SE 147TH AVE,PORTLAND,OR,97236,
41418,OLD HWY 30,ASTORIA,OR,97103,
11122,NE WYGANT ST,PORTLAND,OR,97220,
1712,CURTIS AVE,Eugene,OR,97401,
3015,SALEM AVE SE,ALBANY,OR,97321,
3954,N HAIGHT AVE,PORTLAND,OR,97227,
2951,COBURG RD,Eugene,OR,97408,
7933,SW CONNEMARA TER,BEAVERTON,OR,97008,
5803,N GAY AVE,PORTLAND,OR,97217,
5326,SE BRIDGE CT,PRINEVILLE,OR,97754,
2382,NW MASER DR,CORVALLIS,OR,97330,
7617,SW MAPLELEAF ST,PORTLAND,OR,97223,
4337,NE 78TH AVE,PORTLAND,OR,97218,
8083,N LEAVITT AVE,PORTLAND,OR,97203,
17030,SE MILL ST,PORTLAND,OR,97233,
6239,SW BEAVERTON HILLSDALE HWY,PORTLAND,OR,97221,
2611,SE 109TH AVE,PORTLAND,OR,97266,
2220,SE YAMHILL ST,PORTLAND,OR,97214,
10805,SW MUIRWOOD DR,PORTLAND,OR,97225,
2334,NE WILCOX AVE,TERREBONNE,OR,97760,
,LEVY CODE 026,GRESHAM,OR,97080,
3215,SW SANDLEWOOD LN,GRESHAM,OR,97080,
935,NE 79TH AVE,PORTLAND,OR,97213,
826,N HAYDEN MEADOWS DR,PORTLAND,OR,97217,
2955,B Street,HARPER,OR,97906,
1750,SW FILMONT AVE,PORTLAND,OR,97225,
1812,CAL YOUNG RD,Eugene,OR,97401,
2966,RUBY CT,BANDON,OR,,
1530,SE 120TH AVE,PORTLAND,OR,97216,
3408,SE 67TH AVE,PORTLAND,OR,97206,
36594,HWY 226,ALBANY,OR,97322,
14551,SW 153RD AVE,TIGARD,OR,97224,
2757,SE SINGING WOODS DR,HILLSBORO,OR,97123,
188,E HOWARD AVE,Eugene,OR,97404,
1255,NW 9TH AVE,PORTLAND,OR,97209,1005
4216,N GANTENBEIN AVE,PORTLAND,OR,97217,
5608,SE LAMBERT ST,PORTLAND,OR,97206,
2241,NE 162ND AVE,PORTLAND,OR,97230,
6845,F ST,Springfield,OR,97478,
23975,SE BOHNA PARK RD,DAMASCUS,OR,97089,
1065,SW CLAWSON CIR,TROUTDALE,OR,97060,69
908,SW GAINES ST,PORTLAND,OR,97239,
866,N 12TH ST,PHILOMATH,OR,97370,
34715,HILL ST,PACIFIC CITY,OR,97135,
4800,SW GRIFFITH DR,BEAVERTON,OR,97005,
187,CRESTWOOD ST,FAIRVIEW,OR,97024,
4980,NW 186TH AVE,PORTLAND,OR,97229,
826,NE 127TH AVE,PORTLAND,OR,97230,
83223,RUSSELL OAKS DR,Creswell,OR,97426,
265,AMANDA CT,OREGON CITY,OR,97045,
1042,E SECOND AVE,SUTHERLIN,OR,97479,
11705,SW BURNETT LN,BEAVERTON,OR,97008,
4111,N WILLIS BLVD,PORTLAND,OR,97203,
4314,SE 75TH AVE,PORTLAND,OR,97206,
1374,BELMONT AVE SW,ALBANY,OR,97321,
19459,PRAIRIEVIEW TER,OREGON CITY,OR,97045,
17108,SE MARKET ST,PORTLAND,OR,97233,
5335,SE 13TH CT,GRESHAM,OR,97080,
7937,NE ALBERTA ST,PORTLAND,OR,97218,
3518,NE 81ST AVE,PORTLAND,OR,97213,
904,NE DEKUM ST,PORTLAND,OR,97211,
4253,MADRONA WAY SE,ALBANY,OR,97322,
25800,S SCHOCKLEY RD,BEAVERCREEK,OR,97004,
,NO SITUS,ADDRESS,OR,0,
289,S 3RD ST,LEBANON,OR,97355,
10,HOBBS ST,LEBANON,OR,97355,
7106,NE 8TH AVE,PORTLAND,OR,97211,
6136,SE MAIN ST,PORTLAND,OR,97215,
1779,N JANTZEN AVE,PORTLAND,OR,97217,
,NE RIVERSIDE PKWY,PORTLAND,OR,97230,
14088,SE SIEBEN PARK WAY,CLACKAMAS,OR,97015,
,1S3E10BA 4200,GRESHAM,OR,97030,
13624,GOODALL RD,LAKE OSWEGO,OR,97034,
2551,BEACON HILL DR,WEST LINN,OR,97068,
1561,NE MORRIS ST,ROSEBURG,OR,97470,
16856,NW ARIZONA DR,PORTLAND,OR,97229,
900,GREENWOOD ST,Florence,OR,97439,
9,BECKET,LAKE OSWEGO,OR,97035,
8412,SW 9TH AVE,PORTLAND,OR,97219,
5758,SE OETKIN RD,MILWAUKIE,OR,97267,
15258,NW TROON WAY,PORTLAND,OR,97229,
22027,NE COUCH ST,GRESHAM,OR,97030,
1235,IRVINGTON DR,Eugene,OR,97404,
97999,W BENHAM LN,BROOKINGS,OR,97415,
525,NE 55TH AVE,PORTLAND,OR,97213,
10230,SE MITCHELL ST,PORTLAND,OR,97266,
1921,N 19TH ST,PHILOMATH,OR,97370,
14021,SE HARRISON ST,PORTLAND,OR,97233,
409,MONTGOMERY ST SE,ALBANY,OR,97321,
17463,NW WOODRUSH WAY,PORTLAND,OR,97229,
117,E EVERETT AVE,SUTHERLIN,OR,97479,
13830,SE 180TH AVE,DAMASCUS,OR,97089,
13929,SE HAROLD ST,PORTLAND,OR,97236,
3683,NW FRONT AVE,PORTLAND,OR,97210,
5920,SW ERICKSON AVE,BEAVERTON,OR,97005,
3706,PLUMTREE DR,Eugene,OR,97402,
32949,BLACKBERRY LN,TANGENT,OR,97389,
3131,SW SHERWOOD PL,PORTLAND,OR,97201,
1709,SW MORRISON ST,PORTLAND,OR,97205,
2327,SW IOWA ST,PORTLAND,OR,97239,
489,NW BURNSIDE RD,GRESHAM,OR,97030,
742,SE OAK GLEN WAY,HILLSBORO,OR,97123,
520,SE 40TH ST,TROUTDALE,OR,97060,
0602,SW NEVADA ST,PORTLAND,OR,97219,
1404,M ST,Springfield,OR,97477,
18330,SE DIVISION ST,GRESHAM,OR,97030,
2115,EVERETT,NORTH BEND,OR,,
4920,SE HENDERSON ST,PORTLAND,OR,97206,
7041,NE KILLINGSWORTH ST,PORTLAND,OR,97218,36
2712,SE 66TH AVE,PORTLAND,OR,97206,
,COMMERCIAL ST,Astoria,OR,97103,
13525,SW ROAN CT,BEAVERTON,OR,97008,
19302,SW MARSHMALLOW PL,BEND,OR,97702,
,LEVY CODE 201,PORTLAND,OR,97203,
47640,THE SADDLE,NESKOWIN,OR,97149,
216,NW 3RD AVE,PORTLAND,OR,97209,
5828,SW CARAWAY CT,PORTLAND,OR,97219,
439,SPAULDING AVE,BROWNSVILLE,OR,97327,
15598,SW WREN LN,BEAVERTON,OR,97007,
7395,SW 87TH AVE,PORTLAND,OR,97223,
833,NE SCHUYLER ST,PORTLAND,OR,97212,
7615,SW VIEW POINT TER,PORTLAND,OR,97219,
10389,NW HELVETIA RD,HILLSBORO,OR,97124,
1847,Boster Lane,ADRIAN,OR,97901,
420,NE MASON ST,PORTLAND,OR,97211,
,SE MILWAUKIE AVE,PORTLAND,OR,97202,
7212,N HODGE AVE,PORTLAND,OR,97203,
4415,SW 94TH AVE,PORTLAND,OR,97225,
,1S3E03AC 5400,GRESHAM,OR,97030,
1230,Southeast   14th Avenue,ONTARIO,OR,97914,
209,Boat Landing Road,ONTARIO,OR,97914,
11621,SW WINTER LAKE DR,TIGARD,OR,97223,
7221,SE LOIS ST,HILLSBORO,OR,97123,
220,FOREST DR,AZALEA,OR,97410,
,NW 11TH AVE,PORTLAND,OR,97209,
1420,NW PETTYGROVE ST,PORTLAND,OR,97209,410
1189,N DEAN,COQUILLE,OR,,
717,NW PORTLAND AVE,BEND,OR,97703,
90769,OAK DR,WESTPORT,OR,97016,
3473,SW BARBUR BLVD,PORTLAND,OR,97239,
4077,Alder Road,VALE,OR,97918,
7823,N BRADFORD ST,PORTLAND,OR,97203,
1356,SW HUME ST,PORTLAND,OR,97219,
2576,SW REINDEER AVE,REDMOND,OR,97756,
4608,SE BENTLEY ST,HILLSBORO,OR,97123,
2966,WILLAMETTE ST,Eugene,OR,97405,
718,FULTON ST SE,ALBANY,OR,97322,
15189,NW WENDY LN,PORTLAND,OR,97229,
3965,DONALD ST,Eugene,OR,97405,
2013,SE MELROSE DR,PRINEVILLE,OR,97754,
2174,NW DAVIS ST,PORTLAND,OR,97210,
232,NW UPTOWN TER,PORTLAND,OR,97210,
1757,RIDDLE BY-PASS RD,RIDDLE,OR,97469,
79011,QUAIL LP,Cottage Grove,OR,97424,
620,13TH AVE SE,ALBANY,OR,97322,
18400,HILLSIDE CT,WEST LINN,OR,97068,
7815,SE MADISON ST,PORTLAND,OR,97215,
7424,SW 60TH AVE,PORTLAND,OR,97219,
19230,BRYANT RD,LAKE OSWEGO,OR,97034,
,SE BELMONT ST,PORTLAND,OR,97214,
1042,N SIMPSON ST,PORTLAND,OR,97217,
981,NE HOOD AVE,GRESHAM,OR,97030,
69148,GOODRICH RD,SISTERS,OR,97759,
180,SE GROVE ST,MILL CITY,OR,97360,
1285,SE 5TH ST,GRESHAM,OR,97080,
25133,E BROADWAY AVE,Veneta,OR,97487,
590,HATTON LN,Junction City,OR,97448,
17728,TOPFLITE LN,SUNRIVER,OR,97707,
4834,SE 115TH AVE,PORTLAND,OR,97266,
1025,SE 213TH AVE,GRESHAM,OR,97030,
3358,HAWTHORNE AVE,Eugene,OR,97402,
440,TAZ LN,Eugene,OR,97404,
5835,N KERBY AVE,PORTLAND,OR,97217,
,SKIPANON CLUB CONDO #13,Warrenton,OR,97146,
1926,W BURNSIDE ST,PORTLAND,OR,97209,
8083,SW 168TH AVE,BEAVERTON,OR,97007,
8540,OLD HIGHWAY 99 SOUTH,WINSTON,OR,97496,
1841,NE 150TH AVE,PORTLAND,OR,97230,
2665,S 10TH ST,LEBANON,OR,97355,
6054,SE GREEN CT,HILLSBORO,OR,97123,
204,CASCADE DR,LEBANON,OR,97355,64
93676,DORSEY LN,Junction City,OR,97448,
872,56TH ST,Springfield,OR,97478,
9827,SE GRANT ST,PORTLAND,OR,97216,
3515,SW BARBUR BLVD,PORTLAND,OR,97239,
765,SE MT HOOD HWY,GRESHAM,OR,97080,113
15345,SW ALDERBROOK DR,TIGARD,OR,97224,
10832,S HWY 211,MOLALLA,OR,97038,
19937,PORCUPINE DR,BEND,OR,97702,
20647,NW TRAILWALK DR,HILLSBORO,OR,97006,
1811,SW RIVER DR,PORTLAND,OR,97201,
13620,SW TARLETON CT,TIGARD,OR,97224,
,NO SITUS,ADDRESS,OR,0,
2055,BILYEU AVE W,NETARTS,OR,97143,
1683,Highway 201,ADRIAN,OR,97901,
60195,CRATER RD,BEND,OR,97702,
24252,HIGH PASS RD,Junction City,OR,97448,
2940,SW 123RD AVE,BEAVERTON,OR,97005,
2054,N ALBERTA ST,PORTLAND,OR,97217,
1320,MAIN ST,PHILOMATH,OR,97370,
8430,NE KNOTT ST,PORTLAND,OR,97220,
17969,NW EVERGREEN PKWY,Beaverton,OR,97006,
1444,E 43RD AVE,Eugene,OR,97405,
5715,SE 22ND AVE,PORTLAND,OR,97202,
161,CARTHAGE AVE,Eugene,OR,97404,
10260,SW BRYTON CT,WILSONVILLE,OR,97070,
455,N LARCH ST,Cannon Beach,OR,97110,
3640,SW MT ADAMS DR,PORTLAND,OR,97239,
2195,N FREMONT ST,CORNELIUS,OR,97113,
13213,SE MULTNOMAH CT,HAPPY VALLEY,OR,97086,
40365,TONGA LN,Springfield,OR,97478,
530,N COOK ST,PORTLAND,OR,97227,
2166,SE GLENDALE CT,HILLSBORO,OR,97123,
1609,SE TENINO ST,PORTLAND,OR,97202,
4006,CANAL WOODS CT,LAKE OSWEGO,OR,97034,
11505,NE YACHT HARBOR DR,PORTLAND,OR,97217,
385,NW 116TH AVE,Beaverton,OR,97229,
9685,SOUTH PRAIRIE RD,TILLAMOOK,OR,97141,
255,NW 23RD ST,GRESHAM,OR,97030,
1520,NE HOGAN DR,GRESHAM,OR,97030,
21283,E LOLO PASS RD,RHODODENDRON,OR,97049,
2324,WESTERN DR,COQUILLE,OR,,
18753,PACIFIC AVE,SANDY,OR,97055,
4010,SE 14TH ST,GRESHAM,OR,97080,
310,SW 144TH AVE,BEAVERTON,OR,97006,
10478,SE 53RD PL,MILWAUKIE,OR,97222,
2555,GATEWAY ST,Springfield,OR,97477,
39725,NW MALLER LN,BANKS,OR,97106,
130,SE 188TH AVE,PORTLAND,OR,97233,17
2704,SW GIESE LOOP,GRESHAM,OR,97080,
1340,SE 70TH AVE,HILLSBORO,OR,97123,
4906,SE 108TH AVE,PORTLAND,OR,97266,
2815,N WATTS ST,PORTLAND,OR,97217,
4470,SW GARDEN HOME RD,PORTLAND,OR,97219,
8314,SE YAMHILL ST,PORTLAND,OR,97216,
22010,STORMY LN,BEND,OR,97701,
9055,SW BARBUR BLVD,PORTLAND,OR,97219,3
19711,POPLAR ST,BEND,OR,97702,
9033,SW BURNHAM ST,TIGARD,OR,97223,
1005,NE 17TH AVE,HILLSBORO,OR,97124,
3518,NE 70TH AVE,PORTLAND,OR,97213,
232,NE 7TH ST,Madras,OR,97741,
,NW FRONT AVE,PORTLAND,OR,97210,
37071,DUBARKO DR,SANDY,OR,97055,
16527,SE BUSH ST,PORTLAND,OR,97236,
2070,NE ALLIE AVE,HILLSBORO,OR,97124,
9718,S BARNARDS RD,CANBY,OR,97013,
770,N 7TH ST,HARRISBURG,OR,97446,
1084,SAVILLE AVE,Eugene,OR,97404,
1215,RIVER RD,Eugene,OR,97404,
19355,SW 65TH AVE,TUALATIN,OR,97062,
3036,NE 19TH AVE,PORTLAND,OR,97212,
8698,7TH ST,TERREBONNE,OR,97760,
1877,BREWER AVE,Eugene,OR,97401,
594,RIVERWOOD LN,OAKLAND,OR,97462,
2293,RIDGEWAY DR,Eugene,OR,97401,
3119,HANNAH AVE SE,ALBANY,OR,97322,
163,W JEFFERSON ST,Cannon Beach,OR,97145,
204,SW 8TH AVE,PORTLAND,OR,97205,
16817,SW CYNTHIA ST,BEAVERTON,OR,97007,
3107,NE KNOTT ST,PORTLAND,OR,97212,
1121,SE LA MESA AVE,GRESHAM,OR,97080,
320,DOE RD,GLIDE,OR,97443,
17402,NW REINDEER DR,PORTLAND,OR,97229,
3220,NE 85TH AVE,PORTLAND,OR,97220,
285,NW 35TH ST,CORVALLIS,OR,97330,9
1050,SPARKS RD,OAKLAND,OR,97462,
1894,CALISTOGA CT,Eugene,OR,97402,
640,3RD AVE SE,ALBANY,OR,97321,
1550,NW EASTMAN PKWY,GRESHAM,OR,97030,
2706,SE TUALATIN VALLEY HWY,Hillsboro,OR,97123,
306,1ST ST,GARIBALDI,OR,97118,
52450,AMMON RD,LA PINE,OR,97739,
210,SE 188TH AVE,PORTLAND,OR,97233,52
16953,NE DAVIS ST,GRESHAM,OR,97230,
15332,NW CASEY DR,PORTLAND,OR,97229,
6847,N SKY ST,PORTLAND,OR,97203,
4223,SE CORA ST,PORTLAND,OR,97206,
14342,NW LILIUM DR,PORTLAND,OR,97229,
487,MADISON ST,Eugene,OR,97402,
18155,WILLAMETTE DR,WEST LINN,OR,97068,
2582,TUSCAN LN NE,MILLERSBURG,OR,97321,
10371,SW TRAPPER TER,BEAVERTON,OR,97008,
2604,NE 27TH AVE,PORTLAND,OR,97212,
4767,NW IMNAHA CT,PORTLAND,OR,97229,
92,CERVANTES,LAKE OSWEGO,OR,97035,
20557,GLOUCESTER LN,BEND,OR,97701,
94166,ELEVENTH ST,GOLD BEACH,OR,97444,
48411,E 1ST ST,Oakridge,OR,97463,
7856,SE 16TH AVE,PORTLAND,OR,97202,
94643,Cemetery Lane,Grass Valley,OR,97029,
700,NW BELLA VISTA DR,GRESHAM,OR,97030,
14842,NW ORCHID ST,PORTLAND,OR,97229,
3030,NE HOGAN DR,GRESHAM,OR,97030,
727,SE 117TH AVE,PORTLAND,OR,97216,
15555,SW HARCOURT TER,TIGARD,OR,97224,
20950,KNOTT RD,BEND,OR,97702,
16557,S HARDING RD,OREGON CITY,OR,97045,
1827,NE 44TH AVE,PORTLAND,OR,97213,250
3310,NE 145TH AVE,PORTLAND,OR,97230,
7603,SE GLENWOOD ST,PORTLAND,OR,97206,
4815,SW ROSEBERRY ST,CORVALLIS,OR,97333,
5440,NE SANDYCREST TER,PORTLAND,OR,97213,
678,NE SANDSTONE LN,PRINEVILLE,OR,97754,
6523,SE CLACKAMAS RD,MILWAUKIE,OR,97267,
613,South Third Street,Lakeview,OR,97630,
5303,SE HAROLD ST,PORTLAND,OR,97206,
4185,SW 177TH AVE,WASHINGTON CO,OR,97078,
5403,SE GLADSTONE ST,PORTLAND,OR,97206,
4909,DARWIN PL,Klamath,OR,97603,
1030,BROTHERTON AVE,Eugene,OR,97404,
6687,SW 158TH AVE,BEAVERTON,OR,97007,
35032,OAKVILLE RD,ALBANY,OR,97321,
318,NW 11TH AVE,PORTLAND,OR,97209,
6736,SE 115TH AVE,PORTLAND,OR,97266,
2574,RIVER RD,Eugene,OR,97404,
33242,SUNSET BEACH LN #11 A,Warrenton,OR,97146,
470,SW 150TH AVE,BEAVERTON,OR,97006,
,N INTERSTATE AVE,PORTLAND,OR,97227,
5509,N PRINCETON ST,PORTLAND,OR,97203,
1491,EAGLE SPRINGS CT,REDMOND,OR,97756,
4550,Forsyth Lane,ONTARIO,OR,97914,
4646,NE 34TH AVE,PORTLAND,OR,97211,
4870,NE 76TH AVE,PORTLAND,OR,97218,
52281,LECHNER LN,LA PINE,OR,97739,
8734,SE 15TH AVE,PORTLAND,OR,97202,
2934,SE 81ST AVE,PORTLAND,OR,97206,
8025,SW FROBASE RD,TUALATIN,OR,97062,
10271,SE NICOLE LOOP,HAPPY VALLEY,OR,97086,
2330,SE BROOKWOOD AVE,HILLSBORO,OR,97123,
500,S 13TH ST,PHILOMATH,OR,97370,
12931,NE TILLAMOOK ST,PORTLAND,OR,97230,
1805,NW 130TH AVE,PORTLAND,OR,97229,
1301,E MADISON AVE,Cottage Grove,OR,97424,
54240,SW SOUTH RD,GASTON,OR,97119,
12345,SW CONESTOGA DR,BEAVERTON,OR,97008,
33104,LLOYD AVE,Cottage Grove,OR,97424,
725,HICKORY ST NW,ALBANY,OR,97321,
156,SHERWOOD DR,SUTHERLIN,OR,97479,
5335,DAISY ST,Springfield,OR,97478,
1750,NE 79TH AVE,PORTLAND,OR,97213,
20616,HUMMINGBIRD LN,BEND,OR,97702,
6225,NW KANSAS CITY RD,FOREST GROVE,OR,97116,
2122,BIRCH AVE,REEDSPORT,OR,97467,
414,Foothill Drive,ONTARIO,OR,97914,
8504,N PRINCETON ST,PORTLAND,OR,97203,
1044,W 7TH ALY,Eugene,OR,97402,
,NE 13TH AVE,PORTLAND,OR,97211,
2843,CAPITAL DR,Eugene,OR,97403,
22185,SW RIGGS RD,WASHINGTON CO,OR,97078,
148505,SNUFFY DR,Klamath,OR,97739,
4204,NE 129TH PL,PORTLAND,OR,97230,
57648,POPLAR LOOP,SUNRIVER,OR,97707,
2876,NE FORUM DR,BEND,OR,97701,
7155,NE ROCKY BROOK ST,HILLSBORO,OR,97124,
2546,SE 151ST AVE,PORTLAND,OR,97236,
11818,NE MARX ST,PORTLAND,OR,97220,
5441,SW MACADAM AVE,PORTLAND,OR,97239,
948,S 6TH ST,Cottage Grove,OR,97424,
720,SE GRAND AVE,PORTLAND,OR,97214,
9166,SW 66TH AVE,TIGARD,OR,97223,
9230,SW 3RD AVE,PORTLAND,OR,97219,
1320,MYRTLE,COOS BAY,OR,,
937,S HARBOR ST,ROCKAWAY BEACH,OR,97136,
23890,NW BACONA RD,BUXTON,OR,97109,
426,NE 92ND AVE,PORTLAND,OR,97220,
10428,NE HOLLADAY ST,PORTLAND,OR,97220,
112,NE COLUMBIA AVE,CORVALLIS,OR,97330,
13068,SW PRINCETON LN,TIGARD,OR,97223,
3010,SE 169TH AVE,PORTLAND,OR,97236,
636,N SHAVER ST,PORTLAND,OR,97227,
12625,SE TIBBETTS ST,PORTLAND,OR,97236,
968,WELCOME WAY,Eugene,OR,97402,
4673,NW GANNET TER,PORTLAND,OR,97229,
70400,MUSTANG PL,SISTERS,OR,97759,
10387,NW OLD CLAPSHAW HILL RD,FOREST GROVE,OR,97116,
2527,S CANAL ST,Klamath,OR,97632,
2271,BURDETTE DR,ROSEBURG,OR,97471,
2865,PEARL ST,Eugene,OR,97405,
1211,JEFFERSON ST SE,ALBANY,OR,97322,
1398,NE 19TH ST,GRESHAM,OR,97030,
16547,PRAIRIE VIEW DR,LA PINE,OR,97739,
3703,VIRGINIA AVE,Springfield,OR,97478,
920,CHESTNUT CT,LEBANON,OR,97355,
42211,SE GORDON CREEK RD,CORBETT,OR,97019,
4122,N HAIGHT AVE,PORTLAND,OR,97217,
92938,AMIE LP,Astoria,OR,97103,
560,N 12TH ST,PHILOMATH,OR,97370,
71,MARLBORO LN,Eugene,OR,97405,
38775,LONG CIR,SANDY,OR,97055,
15935,SW QUEEN VICTORIA PL,KING CITY,OR,97224,
1871,PORTLAND ST,Klamath,OR,97601,
,THE COTTAGES CONDO #3,Gearhart,OR,97138,
,SE 32ND AVE,PORTLAND,OR,97214,
10407,SW RIDGEVIEW LN,PORTLAND,OR,97219,
2145,31ST ST,Springfield,OR,97477,
839,ROYALDEL LN,Springfield,OR,97477,
200,MARKET ST,LEBANON,OR,97355,239
2567,NE 32ND PL,PORTLAND,OR,97212,
333,NW 9TH AVE,PORTLAND,OR,97209,717
416,ADAMS AVE,Cottage Grove,OR,97424,
4150,SW MARIGOLD ST,PORTLAND,OR,97219,
808,SW 3RD AVE,PORTLAND,OR,97204,
22425,SE SALMON CT,GRESHAM,OR,97030,
17946,SE TIBBETTS ST,GRESHAM,OR,97236,
4036,SE 15TH AVE,PORTLAND,OR,97202,
2823,NE 9TH AVE,PORTLAND,OR,97212,
17242,SE NAEGELI DR,PORTLAND,OR,97236,
93159,BROWNSMEAD HILL RD,Astoria,OR,97103,
6313,SKUNK HOLLOW RD,Florence,OR,97439,
64724,ALCOR PL,BEND,OR,97703,
2105,SE POWELL BLVD,PORTLAND,OR,97202,
13953,HAWKS BEARD,BLACK BUTTE RANCH,OR,97759,
3100,SE ALDER CT,PORTLAND,OR,97214,
734,NW 34TH ST,CORVALLIS,OR,97330,
51380,LANDERS CT,LA PINE,OR,97739,
3530,SE 84TH AVE,PORTLAND,OR,97266,
12339,NE HASSALO ST,PORTLAND,OR,97230,
1475,LAURA ST,Springfield,OR,97477,
12729,SW BARBERRY DR,BEAVERTON,OR,97008,
7920,N FOSS AVE,PORTLAND,OR,97203,
9308,SW 54TH AVE,PORTLAND,OR,97219,
332,NE PLYMOUTH CIR,CORVALLIS,OR,97330,
18111,NW JOHNSON RD,MULTNOMAH COUNTY,OR,97231,
3917,N VANCOUVER AVE,PORTLAND,OR,97227,
6345,SW MCEWAN RD,LAKE OSWEGO,OR,97035,
5001,SW 26TH DR,PORTLAND,OR,97239,
1750,NE NEFF RD,BEND,OR,97701,
4560,NE 86TH AVE,PORTLAND,OR,97220,
,NW SPRINGVILLE RD,PORTLAND,OR,97231,
6550,COLONIAL WAY,TILLAMOOK,OR,97141,
465,NE WINCHESTER ST,ROSEBURG,OR,97470,
2330,HILL ST SE,ALBANY,OR,97322,
121,NW 2ND ST,CORVALLIS,OR,97330,
3149,RIVERBEND AVE,Eugene,OR,97408,
3825,SE 80TH AVE,PORTLAND,OR,97206,
323,NW 15TH ST,CORVALLIS,OR,97330,
11737,NE SACRAMENTO ST,PORTLAND,OR,97220,
2831,MAIN ST,FORESTGROVE,OR,97116,
3258,SABO LN,WEST LINN,OR,97068,
2422,NE DIVISION ST,GRESHAM,OR,97030,
82720,LOST CREEK RD,Dexter,OR,97431,1
62781,RED DIKE RD,COOS BAY,OR,,
1989,HUCKLEBERRY DR,Seaside,OR,97138,
1940,NW LARCH AVE,CORVALLIS,OR,97330,
,NE HALSEY ST,PORTLAND,OR,97213,
461,UPLAND DR,MANZANITA,OR,97130,
1075,NW NORTHRUP ST,PORTLAND,OR,97209,2517
3550,SE ALDER ST,PORTLAND,OR,97214,
,SE CORA DR,PORTLAND,OR,97202,
2325,NE FLANDERS ST,PORTLAND,OR,97232,1
20107,SE RIDGECREST DR,SANDY,OR,97055,
940,NW 6TH AVE,CANBY,OR,97013,
20005,SW WRIGHT ST,WASHINGTON CO,OR,97078,
1601,OLIVE ST,Eugene,OR,97401,
942,ASH AVE,Cottage Grove,OR,97424,
34760,LAHAINA LP,PACIFIC CITY,OR,97135,
54228,WALLA WALLA RV RD,MILTON-FREEWATER,OR,,
2324,NE 46TH AVE,PORTLAND,OR,97213,
9957,SW ARCTIC DR,BEAVERTON,OR,97005,
2935,NE 54TH AVE,PORTLAND,OR,97213,
910,PIONEER LN,BROOKINGS,OR,97415,
341,SW 1ST ST,Madras,OR,97741,
235,North T Street,Lakeview,OR,97630,
780,TRINITY ST NE,ALBANY,OR,97322,
211,BRIARCLIFF DR,Eugene,OR,97404,
350,PEARL ST,Eugene,OR,97401,
1724,RYE ST SE,ALBANY,OR,97322,
5050,NE HOYT ST,PORTLAND,OR,97213,516
3042,SE 24TH TER,GRESHAM,OR,97080,
,NE 136TH AVE,PORTLAND,OR,97230,
28315,MATEER RD,GOLD BEACH,OR,97444,
3249,18TH AVE SE,ALBANY,OR,97322,
2822,N ARGYLE ST,PORTLAND,OR,97217,
8315,SW CASHMUR LN,PORTLAND,OR,97225,
1573,8TH AVE,WEST LINN,OR,97068,
2087,NW DIVISION ST,GRESHAM,OR,97030,
16203,NW FESCUE CT,PORTLAND,OR,97229,
15713,SE CHELSEA MORNING DR,HAPPY VALLEY,OR,97086,
1164,BEACH DR,Seaside,OR,97138,
1500,SW 11TH AVE,PORTLAND,OR,97201,
910,SE 37TH AVE,PORTLAND,OR,97214,
17009,VISTA VIEW LOOP,SISTERS,OR,97759,
6337,SE CLATSOP ST,PORTLAND,OR,97206,
29996,DIXIE CREEK RD,Grant,OR,97869,
738,E 16TH AVE,Eugene,OR,97401,
1150,DARLENE LN,Eugene,OR,97401,
237,SE 24TH AVE,HILLSBORO,OR,97123,
7807,SE 46TH AVE,PORTLAND,OR,97206,
285,NW 35TH ST,CORVALLIS,OR,97330,83
1590,SW HOLLYBROOK TER,GRESHAM,OR,97080,
5113,NE SKIDMORE ST,PORTLAND,OR,97218,
16683,NE HALSEY ST,GRESHAM,OR,97230,
3921,SW KANAN DR,PORTLAND,OR,97221,
2112,D ST,FORESTGROVE,OR,97116,
89350,OLD COBURG RD,Eugene,OR,97408,
29488,WESLINN DR,CORVALLIS,OR,97333,
699,MARY DR,MOLALLA,OR,97038,
2600,SE CUSTER RD,PRINEVILLE,OR,97754,
141561,ELK HAVEN WAY,Klamath,OR,97733,
2501,SW 1ST AVE,PORTLAND,OR,97201,
94749,JERRYS FLAT RD,GOLD BEACH,OR,97444,
1390,ALDER ST,Eugene,OR,97401,
423,N VILLAGE MEADOWS RD,SISTERS,OR,97759,
12857,SE FOSTER RD,PORTLAND,OR,97236,
7008,NE RONLER WAY,HILLSBORO,OR,97124,
16215,SW COLLEEN CT,BEAVERTON,OR,97007,
635,S 5TH ST,LEBANON,OR,97355,
1565,BEDFORD CT,LAKE OSWEGO,OR,97034,
5201,SW WILLIAMS RD,POWELL BUTTE,OR,97753,
14180,SE HAWTHORNE CT,PORTLAND,OR,97233,
35681,TUCKER CREEK LN,Astoria,OR,97103,
90867,TRAVIS LN,COOS BAY,OR,,
10722,NE BEECH ST,PORTLAND,OR,97220,
23257,POWERLINE RD,HARRISBURG,OR,97446,
2515,NOAH ST,Eugene,OR,97402,
5632,NE SIMPSON ST,PORTLAND,OR,97218,
3141,SW BARBUR BLVD,PORTLAND,OR,97201,
97838,BATHIANY LN,BROOKINGS,OR,97415,
1070,R ST,Springfield,OR,97477,
16057,SPARKS DR,LA PINE,OR,97739,
12697,SW HOOD VIEW PL,Terrebonne,OR,97760,
3721,SE ROETHE RD,MILWAUKIE,OR,97267,
5009,SE 30TH AVE,PORTLAND,OR,97202,
2328,NW GLISAN ST,PORTLAND,OR,97210,7
97057,MORGAN CREEK LN,COOS BAY,OR,,
3718,NE 17TH AVE,PORTLAND,OR,97212,
9405,SW COPPER RD,POWELL BUTTE,OR,97753,
5265,SW 182ND AVE,WASHINGTON CO,OR,97078,
12330,SE BUSH ST,PORTLAND,OR,97294,
7416,SE STEPHENS ST,PORTLAND,OR,97215,
810,NESTUCCA AVE,TILLAMOOK,OR,97141,
4965,HECETA BEACH RD,Florence,OR,97439,
3160,SW 182ND AVE,BEAVERTON,OR,97003,
14365,ORCHARD SPRINGS RD,LAKE OSWEGO,OR,97035,
235,SE 165TH AVE,GRESHAM,OR,97233,
8332,SW PFAFFLE ST,TIGARD,OR,97223,
18649,NE MULTNOMAH ST,PORTLAND,OR,97230,
178,PRUNER RD,MYRTLE CREEK,OR,97457,
82885,CLAYTON RD,Creswell,OR,97426,
39,NW 23RD AVE,PORTLAND,OR,97210,
4320,SW SELLING CT,PORTLAND,OR,97221,
90,SAILORS RAVINE CT,Florence,OR,97439,
2324,SE 30TH AVE,PORTLAND,OR,97214,
13643,MELROSE PL,LAKE OSWEGO,OR,97035,
5427,SE COLONY CIR,MILWAUKIE,OR,97267,
3207,NW FOXTAIL PL,CORVALLIS,OR,97330,
23314,BEAR CREEK RD,BEND,OR,97701,
3711,BISBEE ST,Klamath,OR,97603,
1758,20TH,MYRTLE POINT,OR,,
11835,NW LAIDLAW RD,PORTLAND,OR,97229,
1620,NE BROADWAY,PORTLAND,OR,97232,518
79564,LETZ CREEK RD,Lorane,OR,97451,
12070,SW DENNEY RD,BEAVERTON,OR,97008,
95663,MARTIN RANCH RD,BROOKINGS,OR,97415,
6908,NE CLEVELAND AVE,PORTLAND,OR,97211,
4245,SE 1ST TER,GRESHAM,OR,97080,
1989,E POWELL BLVD,GRESHAM,OR,97080,
15041,NE ROSE PKWY,PORTLAND,OR,97230,
4717,NE 97TH AVE,PORTLAND,OR,97220,
674,NE VALARIE CT,HILLSBORO,OR,97124,
645,SE 130TH AVE,PORTLAND,OR,97233,
7451,SW ASHFORD ST,TIGARD,OR,97224,
1437,THORN DR NW,ALBANY,OR,97321,
2905,SW 49TH ST,REDMOND,OR,97756,
14116,SE ALTA VISTA DR,HAPPY VALLEY,OR,97086,
10687,SE GOLDEN EAGLE DR,PRINEVILLE,OR,97754,
10,SW PORTER ST,PORTLAND,OR,97201,108
1964,HALL ST,WEST LINN,OR,97068,
1180,WILLAMETTE ST,Eugene,OR,97401,
4203,SE TOPAZ CT,TROUTDALE,OR,97060,
1631,APRIL CT,WEST LINN,OR,97068,
88577,4TH AVE,Florence,OR,97439,
1635,NE 138TH PL,PORTLAND,OR,97230,
87860,TERRITORIAL RD,Veneta,OR,97487,
15115,SE EAST AVE,MILWAUKIE,OR,97267,
171,DORIS ST,ROSEBURG,OR,97471,
