NUMBER,STREET,CITY,STATE,POSTCODE,UNIT
687.0,HOPE ST,PROVIDENCE,RI,02906,
34.0,CLIFF DR,NARRAGANSETT,RI,02882,
461.0,ACADEMY AVE,PROVIDENCE,RI,02908,
504.0,LAKE SHORE DR,WARWICK,RI,02889,
14.0,JOHN BROWN LANEWAY,NARRAGANSETT,RI,02882,
51.0,HUXLEY AVE,PROVIDENCE,RI,02908,
112.0,W LAWN AVE,PAWTUCKET,RI,02860,
20.0,FENWOOD AVE,SMITHFIELD,RI,02917,
,AYLSWORTH AVE,WOONSOCKET,RI,02895,
5.0,CRICKET CIR,EAST GREENWICH,RI,02818,
58.0,BAY ST,WESTERLY,RI,02891,
116.0,WYOMING AVE,WARWICK,RI,02888,
421.0,WEST AVE,PAWTUCKET,RI,02860,
9.0,SONYA DR,COVENTRY,RI,02816,
,BURLINGAME STATE PARK RD,CHARLESTOWN,RI,02813,
79.0,WILLOW RD,CHARLESTOWN,RI,02813,
456.0,SAMUEL GORTON AVE,WARWICK,RI,02889,
38.0,ARCH ST,PROVIDENCE,RI,02907,
11.0,HEMINGWAY DR,EAST PROVIDENCE,RI,02915,
1600.0,HIGHLAND CORPORATE DR,CUMBERLAND,RI,02864,
34.0,BRANDON RD,CRANSTON,RI,02910,
81.0,NICHOLS RD,NORTH KINGSTOWN,RI,02852,
42.0,LAUREL LN,WARREN,RI,02885,
48.0,64 BURNSIDE AVE,NARRAGANSETT,RI,02882,
104.0,BROOKFIELD RD,EAST PROVIDENCE,RI,02915,
139.0,KAY ST,NEWPORT,RI,02840,
251.0,SNUFF MILL RD,NORTH KINGSTOWN,RI,02874,
58.0,IVY ST,EAST PROVIDENCE,RI,02914,
,OLD QUARRY RD,GLOCESTER,RI,02857,
86.0,WATERMAN AVE,CRANSTON,RI,02910,
83.0,GREEN LANE RD,EAST PROVIDENCE,RI,02916,
14.0,HARDWICK ST,CUMBERLAND,RI,02864,
640.0,BENEFIT ST,PAWTUCKET,RI,02861,
196.0,RIDGE RD,SMITHFIELD,RI,02917,
33.0,AUBURN ST,PAWTUCKET,RI,02860,
46.0,OLD MOUNTAIN RD,SOUTH KINGSTOWN,RI,02879,
689.0,BLACK HUT RD,BURRILLVILLE,RI,02830,
106.0,UNION AVE,PROVIDENCE,RI,02909,
70.0,JONATHAN RD,WEST GREENWICH,RI,02817,
31.0,BEETLE ST,PROVIDENCE,RI,02909,
124.0,DIAMOND HILL RD,WARWICK,RI,02886,
61.0,CHURCH AVE,WARWICK,RI,02889,
9.0,VICTORIA AVE,NEWPORT,RI,02840,
38.0,HARVEST ST,PROVIDENCE,RI,02908,
176.0,NORTH ST,WARWICK,RI,02886,
120.0,SAKONNET POINT RD,LITTLE COMPTON,RI,02837,
3.0,BLACKMORE ST,WARWICK,RI,02818,
20.0,THOMAS LEIGHTON BLVD NORTH,CUMBERLAND,RI,02864,
172.0,BARTLETT AV,CRANSTON,RI,02905,
223.0,HUNTINGHOUSE RD,GLOCESTER,RI,02857,
24.0,RACHELLA CT,EAST PROVIDENCE,RI,02914,
9.0,STEPHEN ST,EAST PROVIDENCE,RI,02915,
5.0,ISLAND VIEW CT,WESTERLY,RI,02891,
15.0,BUTLER AVE,CENTRAL FALLS,RI,02863,
21.0,VERSAILLES ST,CRANSTON,RI,02920,
420.0,CRANDALL RD,TIVERTON,RI,02878,
44.0,SOUTH OF COMMONS RD,LITTLE COMPTON,RI,02837,
1839.0,POST RD,WARWICK,RI,02886,
473.0,OLD TOWN RD,BLOCK ISLAND,RI,02807,
343.0,CURTIS CORNER RD,SOUTH KINGSTOWN,RI,02879,
18.0,STONE GATE DR,COVENTRY,RI,02816,
41.0,JEWETT ST,PROVIDENCE,RI,02908,
1903.0,NEW LONDON TPKE,WEST WARWICK,RI,02893,
,JOB ST,PROVIDENCE,RI,02904,
141.0,STONE GATE DR,NORTH KINGSTOWN,RI,02852,
48.0,HEMLOCK AVE,CRANSTON,RI,02910,
,HOPKINS HILL RD,WEST GREENWICH,RI,02817,
312.0,BLOOMFIELD ST,PAWTUCKET,RI,02861,
23.0,ROCK AVE,BURRILLVILLE,RI,02859,
1903.0,MINERAL SPRING AV,NORTH PROVIDENCE,RI,02904,
16.0,BLUE MIST DR,LINCOLN,RI,02838,
200.0,PHENIX AVE,CRANSTON,RI,02920,
318.0,SAINT PAUL ST,NORTH SMITHFIELD,RI,02896,
4.0,LOGAN DR,LINCOLN,RI,02865,
35.0,TOWER HILL RD,NORTH KINGSTOWN,RI,02852,
,TERRY LN,GLOCESTER,RI,02814,
,CHURCH ST,RICHMOND,RI,02894,
294.0,DIAMOND HILL RD,WOONSOCKET,RI,02895,
21.0,GOUGH AVE,WEST WARWICK,RI,02893,
30.0,FEDERAL ST,WARREN,RI,02885,
,YAWGOO VALLEY RD,EXETER,RI,02822,
22.0,SAMPAN AVE,JAMESTOWN,RI,02835,
25.0,NIGHTINGALE AVE,WARWICK,RI,02889,
45.0,NORTHUP ST,SOUTH KINGSTOWN,RI,02879,
26.0,ROGLER FARM RD,SMITHFIELD,RI,02917,
90.0,SPOFFORD AVE,WARWICK,RI,02888,
10.0,MARTELLO ST,EAST PROVIDENCE,RI,02914,
90.0,WOODSTOCK LN,CRANSTON,RI,02920,
14.0,HOME ST,WEST WARWICK,RI,02893,
350.0,PAWTUCKET AVE,PAWTUCKET,RI,02860,
69.0,GERVAIS ST,COVENTRY,RI,02816,
5.0,DARLING ST,CENTRAL FALLS,RI,02863,
35.0,RIVULET ST,WOONSOCKET,RI,02895,
34.0,BRIDGTON CT,CRANSTON,RI,02910,
988.0,OLD STAFFORD RD,TIVERTON,RI,02878,
30.0,VILLAGE WAY,NORTH SMITHFIELD,RI,02896,
182.0,BURNSIDE ST,PROVIDENCE,RI,02905,
315.0,CHURCH ST,RICHMOND,RI,02894,
,POTOWOMUT RD,WARWICK,RI,02818,
59.0,WAYLAND TRL,NARRAGANSETT,RI,02882,
58.0,WINTHROP ST,WOONSOCKET,RI,02895,
354.0,TIOGUE AVE,COVENTRY,RI,02816,
86.0,CHURCH ST,BURRILLVILLE,RI,02859,
631.0,TEN ROD RD,NORTH KINGSTOWN,RI,02852,
717.0,GREENVILLE AVE,JOHNSTON,RI,02919,
11.0,HERITAGE DR,WARWICK,RI,02818,
107.0,ASHTON AVE,NORTH KINGSTOWN,RI,02852,
120.0,WOODBURY ST,PROVIDENCE,RI,02906,
71.0,LIONEL PIERSON RD,COVENTRY,RI,02827,
14.0,HILL FARM CAMP RD,COVENTRY,RI,02816,
60.0,CHARITY ST,EAST PROVIDENCE,RI,02914,
11.0,POINT WY,GLOCESTER,RI,02814,
,VAN ZANDT AVE,NEWPORT,RI,02840,
69.0,SECOND AVE,WOONSOCKET,RI,02895,
4.0,SMALL POND RD,RICHMOND,RI,02812,
19.0,MOULTON PL,CHARLESTOWN,RI,02813,
107.0,ABBOTTS CROSSING RD,COVENTRY,RI,02816,
168.0,NARRAGANSETT PKWY,WARWICK,RI,02888,
99.0,BEACH ST,WESTERLY,RI,02891,
101.0,LAUREL LN,SOUTH KINGSTOWN,RI,02892,
182.0,LOCUST AVE,PORTSMOUTH,RI,02871,
25.0,BROWN ST,PAWTUCKET,RI,02860,
616.0,BRISTOL FERRY RD,PORTSMOUTH,RI,02871,
81.0,ANSON DR,EAST PROVIDENCE,RI,02915,
9.0,N JOSEPH ST,WESTERLY,RI,02891,
,MINISTERIAL RD,SOUTH KINGSTOWN,RI,02879,
115.0,FLINT ST,PAWTUCKET,RI,02861,
783.0,POUND HILL RD,NORTH SMITHFIELD,RI,02896,
17.0,BOILING SPRING AVE,WESTERLY,RI,02891,
196.0,HEMOND AVE,WOONSOCKET,RI,02895,
,SOUTH RD,SOUTH KINGSTOWN,RI,02881,
851.0,MINERAL SPRING AVE,PAWTUCKET,RI,02860,
224.0,4TH ST,PROVIDENCE,RI,02906,
11.0,PRIMROSE LN,NORTH SMITHFIELD,RI,02896,
64.0,HELEN AVE,COVENTRY,RI,02816,
185.0,CORYS LN,PORTSMOUTH,RI,02871,
140.0,GLEN DR,WARWICK,RI,02889,
654.0,VEAZIE ST,PROVIDENCE,RI,02904,
1.0,LAMBERT ST,CRANSTON,RI,02910,
1270.0,SAUGATUCKET RD,SOUTH KINGSTOWN,RI,02879,
40.0,WOODHAVEN BLVD,NORTH PROVIDENCE,RI,02911,
248.0,SAYLES AVE,PAWTUCKET,RI,02860,
16.0,HARVEST ST,CRANSTON,RI,02920,
3.0,ALLENDALE AVE,JOHNSTON,RI,02919,
856.0,HARRIS AVE,WOONSOCKET,RI,02895,
234.0,WOODBINE ST,CRANSTON,RI,02910,
17.0,RUSKIN ST,PROVIDENCE,RI,02907,
17.0,BASSETT ST,PAWTUCKET,RI,02861,
87.0,MERINO ST,PROVIDENCE,RI,02909,
,CORY AVE,CRANSTON,RI,02920,
2.0,LATTU CT,MIDDLETOWN,RI,02842,
45.0,SWEET AVE,PAWTUCKET,RI,02861,
154.0,ALDRICH RD,GLOCESTER,RI,02857,
7.0,STRAW LN,SOUTH KINGSTOWN,RI,02879,
9.0,SESSIONS ST,PROVIDENCE,RI,02906,
47.0,FOLLETT ST,NORTH SMITHFIELD,RI,02896,
74.0,FARM ST,PROVIDENCE,RI,02908,
25.0,CUSHMAN AVE,EAST PROVIDENCE,RI,02914,
27.0,MEADOW LN,LITTLE COMPTON,RI,02837,
250.0,MAFFIT ST,MIDDLETOWN,RI,02842,
82.0,SWAN DR,MIDDLETOWN,RI,02842,
66.0,JEFFERSON AVE,PAWTUCKET,RI,02860,
224.0,WICKHAM RD,NORTH KINGSTOWN,RI,02852,
84.0,PAWTUXET AVE,CRANSTON,RI,02905,
178.0,DIVISION ST,PAWTUCKET,RI,02860,
37.0,HOOPER ST,TIVERTON,RI,02878,
175.0,GOSSETS TURN DR,MIDDLETOWN,RI,02842,
37.0,BRANCH RD,WARWICK,RI,02888,
6.0,DOLORES CT,SMITHFIELD,RI,02814,
1257.0,KINGSTOWN RD,SOUTH KINGSTOWN,RI,02879,
835.0,S MAIN ST,BURRILLVILLE,RI,02859,
591.0,INDIAN AVE,MIDDLETOWN,RI,02842,
1001.0,MINERAL SPRING AV,NORTH PROVIDENCE,RI,02904,
271.0,CHURCH ST,WESTERLY,RI,02808,
,OLD POST RD,CHARLESTOWN,RI,02813,
115.0,BUENA VISTA DR,NORTH KINGSTOWN,RI,02852,
28.0,OLD CHIMNEY RD,BARRINGTON,RI,02806,
55.0,WASHINGTON AVE,EAST PROVIDENCE,RI,02915,
1561.0,DOUGLAS AVE,NORTH PROVIDENCE,RI,02904,
151.0,FOSTER CENTER RD,FOSTER,RI,02825,
12.0,FAIRVIEW AVE,PAWTUCKET,RI,02860,
27.0,MURRAY ST,PROVIDENCE,RI,02909,
28.0,CAVALCADE BLVD,JOHNSTON,RI,02919,
137.0,SINCLAIR AVE,PROVIDENCE,RI,02907,
948.0,DOUGLAS AVE,PROVIDENCE,RI,02904,
34.0,VIKING DR,BRISTOL,RI,02809,
35.0,WELLS ST,WESTERLY,RI,02891,
326.0,RIVERSIDE DR,TIVERTON,RI,02878,
152.0,COTTAGE ST,WARWICK,RI,02886,
15.0,HAYES ST,WARWICK,RI,02886,
188.0,AMHERST AVE,PAWTUCKET,RI,02860,
88.0,CRANDALL RD,TIVERTON,RI,02878,
70.0,CEDAR BAY DR,WARWICK,RI,02888,
15.0,WAMPANAUG TRL,WEST GREENWICH,RI,02817,
35.0,LINWOOD AVE,PROVIDENCE,RI,02909,
473.0,POTTERS AVE,PROVIDENCE,RI,02907,
6.0,BURKE RD,BRISTOL,RI,02809,
35.0,BUTTONWOODS RD,RICHMOND,RI,02898,
15.0,POUND RD,CUMBERLAND,RI,02864,
288.0,BLACKBERRY HILL DR,SOUTH KINGSTOWN,RI,02879,
30.0,FOREST AVE,MIDDLETOWN,RI,02842,
260.0,AQUEDUCT RD,CRANSTON,RI,02910,
233.0,ROSEMONT AVE,JOHNSTON,RI,02919,
,DORCHESTER AVE,PROVIDENCE,RI,02909,
146.0,LEGER LN,TIVERTON,RI,02878,
21.0,BROMLEY CT,NORTH KINGSTOWN,RI,02852,
70.0,PEQUOT AVE,CUMBERLAND,RI,02864,
33.0,TONY ST,TIVERTON,RI,02878,
361.0,W FOUNTAIN ST,PROVIDENCE,RI,02903,
18.0,CEDAR RIDGE LN,WEST GREENWICH,RI,02817,
,KAYLA RICCI WY,EXETER,RI,02874,
127.0,DAHLIA ST,WARWICK,RI,02888,
6.0,CATHEDRAL CT,CUMBERLAND,RI,02864,
12.0,HANDY ST,PROVIDENCE,RI,02909,
22.0,GRIFFITH DR,EAST PROVIDENCE,RI,02915,
94.0,ARBOR DR,PROVIDENCE,RI,02908,
104.0,TORRINGTON DR,WARWICK,RI,02889,
275.0,PARK VIEW AVE,WARWICK,RI,02888,
403.0,ACADEMY AVE,PROVIDENCE,RI,02908,
271.0,NORFOLK AVE,PAWTUCKET,RI,02861,
339.0,RING AVE,WARWICK,RI,02888,
1675.0,OLD LOUISQUISSET PIKE,LINCOLN,RI,02865,
70.0,ARBUTUS TRL,CHARLESTOWN,RI,02813,
264.0,SOUTH RD,EXETER,RI,02822,
25.0,HEATHER LN,SCITUATE,RI,02825,
23.0,BRAYTON ST,WEST WARWICK,RI,02893,
16.0,A ST,PAWTUCKET,RI,02861,
170.0,ELMDALE RD,SCITUATE,RI,02857,
165.0,PRINCETON AV,PROVIDENCE,RI,02907,
19.0,SPRING ST,NORTH PROVIDENCE,RI,02904,
70.0,PASCOAG MAIN ST,BURRILLVILLE,RI,02859,
75.0,EVELIN CIR,MIDDLETOWN,RI,02842,
19.0,WINSOR ST,PROVIDENCE,RI,02908,
16.0,PINE ST,CRANSTON,RI,02910,
99.0,WALDEN WAY,CRANSTON,RI,02921,
7.0,HEWITT ST,PROVIDENCE,RI,02903,
11.0,PEAKED ROCK RD,NARRAGANSETT,RI,02882,
442.0,GARDINER RD,RICHMOND,RI,02892,
83.0,VILLAGE CT,WEST WARWICK,RI,02893,
18.0,RESERVOIR AVE,WARREN,RI,02885,
94.0,WADSWORTH ST,PROVIDENCE,RI,02907,
46.0,LANDIS DR,WARWICK,RI,02818,
575.0,NANAQUAKET RD,TIVERTON,RI,02878,
92.0,CLIFF AVE,PORTSMOUTH,RI,02871,
170.0,AMARAL ST,EAST PROVIDENCE,RI,02915,
186.0,NORTHUP ST,WARWICK,RI,02889,
22.0,RIVERSIDE DR,LINCOLN,RI,02865,
12.0,ANTONY AVE,BRISTOL,RI,02809,
,BURLINGAME RD,SMITHFIELD,RI,02917,
195.0,TENNYSON RD,WARWICK,RI,02888,
49.0,WHITE AVE,EAST PROVIDENCE,RI,02915,
215.0,WOOD ST,BRISTOL,RI,02809,
,CENTRAL ST,WARWICK,RI,02886,
64.0,PROGRESS ST,LINCOLN,RI,02865,
3.0,MAGNOLIA WAY,LITTLE COMPTON,RI,02837,
36.0,JENNIFER LN,TIVERTON,RI,02878,
13.0,ENFIELD AVE,PROVIDENCE,RI,02908,
118.0,POND ST,CRANSTON,RI,02910,
16.0,LONGWOOD AVE,WARWICK,RI,02888,
5.0,BARNEYVILLE RD,BARRINGTON,RI,02806,
127.0,SUMTER ST,PROVIDENCE,RI,02907,
676.0,CHALKSTONE AVE,PROVIDENCE,RI,02908,
831.0,JEFFERSON BLVD,WARWICK,RI,02886,
,BABCOCK ST,WEST WARWICK,RI,02893,
267.0,THAMES ST,BRISTOL,RI,02809,
498.0,N BROADWAY ST,EAST PROVIDENCE,RI,02914,
31.0,VERDANT CIR,NORTH KINGSTOWN,RI,02852,
,BRIGHTRIDGE AVE,EAST PROVIDENCE,RI,02914,
10.0,SPRING ST,NORTH PROVIDENCE,RI,02904,
20.0,HALL AVE,WARREN,RI,02885,
,LUNA ST,PROVIDENCE,RI,02904,
576.0,SMITHFIELD AVE,PAWTUCKET,RI,02860,
347.0,BISCUIT CITY RD,SOUTH KINGSTOWN,RI,02881,
,HIGHLAND AVE,LINCOLN,RI,02865,
38.0,BLACK WALNUT DR,COVENTRY,RI,02816,
25.0,CHACE AVE,PROVIDENCE,RI,02906,
210.0,FULLER AVE,CENTRAL FALLS,RI,02863,
89.0,BATTEY MEETING HOUSE RD,SCITUATE,RI,02857,
362.0,AUBURN ST,CRANSTON,RI,02910,
87.0,KENSON DR,EAST GREENWICH,RI,02818,
,KULAS RD,WEST WARWICK,RI,02893,
573.0,SMITH ST,PROVIDENCE,RI,02908,
30.0,ALTON AVE,CUMBERLAND,RI,02864,
35.0,BILLS RD,SOUTH KINGSTOWN,RI,02881,
366.0,MAIN ST,WARREN,RI,02885,
60.0,PRAIRIE AVE,PROVIDENCE,RI,02907,
11.0,IVY ST,WEST WARWICK,RI,02893,
382.0,W MAIN RD,LITTLE COMPTON,RI,02837,
285.0,LAUREL HILL AVE,PROVIDENCE,RI,02909,
9.0,KENT ST,WEST WARWICK,RI,02893,
136.0,QUAKER LN,SCITUATE,RI,02857,
74.0,GRACE AVE,WARWICK,RI,02889,
27.0,METCALF DR,CUMBERLAND,RI,02864,
78.0,GREENPOST LN,WARWICK,RI,02889,
145.0,ROGERS LN,MIDDLETOWN,RI,02842,
10.0,TRENTON ST,PROVIDENCE,RI,02906,
151.0,DUNNS CORNERS BRADFORD RD,WESTERLY,RI,02891,
6.0,BLUFF AVE,WESTERLY,RI,02891,
6.0,VISTA DR,EAST PROVIDENCE,RI,02916,
49.0,ATLANTIC ST,SOUTH KINGSTOWN,RI,02879,
131.0,RIVER AVE,PROVIDENCE,RI,02908,
18.0,NAVARRE ST,WEST WARWICK,RI,02893,
99.0,QUAKER DR,WEST WARWICK,RI,02893,
7.0,MAY DR,WESTERLY,RI,02891,
100.0,WEST BLUE RIDGE RD,CRANSTON,RI,02920,
15.0,BERKSHIRE DR,LINCOLN,RI,02865,
97.0,IROQUOIS DR,WARWICK,RI,02888,
59.0,GILLOOLY DR,WARWICK,RI,02888,
4.0,TONY ST,TIVERTON,RI,02878,
5.0,CHURCH ST,CUMBERLAND,RI,02864,
162.0,TRANSIT ST,WOONSOCKET,RI,02895,
24.0,LAUREL ST,PAWTUCKET,RI,02860,
19.0,BIRCH LN,SCITUATE,RI,02857,
25.0,USHER ST,CRANSTON,RI,02920,
441.0,NEW LONDON AVE,WARWICK,RI,02886,
681.0,N BROADWAY ST,EAST PROVIDENCE,RI,02914,
65.0,PARK AV,WESTERLY,RI,02891,
86.0,WISTERIA DR,COVENTRY,RI,02816,
145.0,NEW LONDON AVE,WARWICK,RI,02893,
170.0,WESTCOTE DR,SOUTH KINGSTOWN,RI,02879,
104.0,CALVERLY ST,PROVIDENCE,RI,02908,
20.0,MARTIN AVE,BARRINGTON,RI,02806,
65.0,PURITAN DR,WARWICK,RI,02888,
,TOMAQUAG RD,HOPKINTON,RI,02804,
101.0,BRIGHTWOOD AVE,NORTH PROVIDENCE,RI,02908,
1551.0,WESTMINSTER ST,PROVIDENCE,RI,02909,
236.0,ADAMS ST,WARWICK,RI,02888,
67.0,SAGE DR,CRANSTON,RI,02921,
85.0,EAST MATUNUCK FARM DR,SOUTH KINGSTOWN,RI,02879,
50.0,ALDEN DR,WEST WARWICK,RI,02893,
87.0,SUMMER ST,CENTRAL FALLS,RI,02863,
1295.0,SOUTH RD,EAST GREENWICH,RI,02818,
60.0,OAKLAND RD,RICHMOND,RI,02892,
531.0,HIGH MEADOW CT,BRISTOL,RI,02809,
102.0,NORWOOD AVE,WARWICK,RI,02888,
30.0,ROSE ST,NORTH PROVIDENCE,RI,02904,
10.0,BAYVIEW DR,EXETER,RI,02822,
8.0,GREEN VALLEY DR,JOHNSTON,RI,02919,
130.0,ALFRED DROWN RD,BARRINGTON,RI,02806,
21.0,GARDNER AVE,NORTH PROVIDENCE,RI,02911,
145.0,WELLES ST,WOONSOCKET,RI,02895,
75.0,WESTFIELD DR,EAST GREENWICH,RI,02818,
8.0,SEXTANT LN,NARRAGANSETT,RI,02882,
81.0,FOLLETT ST,NORTH SMITHFIELD,RI,02896,
26.0,JOHN ST,JOHNSTON,RI,02919,
31.0,DUFFIELD RD,BRISTOL,RI,02809,
1.0,JADE RD,COVENTRY,RI,02816,
503.0,GEORGE WATERMAN RD,JOHNSTON,RI,02919,
283.0,HOOPER ST,TIVERTON,RI,02878,
164.0,TURNER AVE,CRANSTON,RI,02920,
107.0,GOUGH AVE,WEST WARWICK,RI,02893,
4.0,WILSON ST,WESTERLY,RI,02891,
33.0,WALKER LN,COVENTRY,RI,02816,
163.0,LIBERTY ST,PAWTUCKET,RI,02861,
69.0,ADAMS POINT RD,BARRINGTON,RI,02806,
150.0,E BOURNE AVE,TIVERTON,RI,02878,
1710.0,WEST SHORE RD,WARWICK,RI,02889,
25.0,HOWLAND AVE,EAST PROVIDENCE,RI,02914,
80.0,RUGBY ST,CRANSTON,RI,02910,
86.0,OAKHURST AVE,WARWICK,RI,02889,
37.0,ENZO DR,COVENTRY,RI,02816,
55.0,WOODSTOCK DR,WARWICK,RI,02889,
144.0,NEWELL ST,WEST WARWICK,RI,02893,
118.0,MOUNT VIEW AVE,NORTH KINGSTOWN,RI,02852,
48.0,CARNATION ST,WOONSOCKET,RI,02895,
55.0,CROSSMAN ST,CENTRAL FALLS,RI,02863,
34.0,LANE E,COVENTRY,RI,02816,
42.0,SECLUDED DR,SOUTH KINGSTOWN,RI,02879,
67.0,BILLINGTON AVE,SOUTH KINGSTOWN,RI,02879,
3.0,SWEET PEA DR,CRANSTON,RI,02921,
87.0,BAGLEY ST,CENTRAL FALLS,RI,02863,
12.0,ANGELL RD,NARRAGANSETT,RI,02882,
1560.0,HARTFORD AVE,JOHNSTON,RI,02919,
465.0,GARDINER RD,RICHMOND,RI,02892,
93.0,WATERMAN AVE,JOHNSTON,RI,02919,
21.0,PEACH AVE,PROVIDENCE,RI,02906,
21.0,RICHMOND ST,CENTRAL FALLS,RI,02863,
1730.0,TARKILN RD,BURRILLVILLE,RI,02830,
43.0,ALDER RD,SOUTH KINGSTOWN,RI,02879,
50.0,OCEAN VIEW HWY,WESTERLY,RI,02891,
114.0,ROOSEVELT ST,PROVIDENCE,RI,02909,
65.0,WENDY WAY,WEST WARWICK,RI,02893,
,BISHOP HILL RD,JOHNSTON,RI,02919,
283.0,AUBURN ST,CRANSTON,RI,02910,
1840.0,OLD LOUISQUISSET PIKE,LINCOLN,RI,02865,
12.0,STEEPLE LN,LINCOLN,RI,02865,
152.0,COLUMBUS AVE,PAWTUCKET,RI,02860,
14.0,JAMES P MURPHY HWY,WEST WARWICK,RI,02893,
136.0,SHANNON DR,WARWICK,RI,02889,
31.0,LEAHY DR,BRISTOL,RI,02809,
1856.0,PHENIX AVE,CRANSTON,RI,02921,
,EDDIE DOWLING HWY,NORTH SMITHFIELD,RI,02896,
1201.0,HARTFORD PIKE,SCITUATE,RI,02857,
26.0,ELM ST,CUMBERLAND,RI,02864,
87.0,BRANDYWINE DR,WESTERLY,RI,02891,
352.0,SOWAMS RD,BARRINGTON,RI,02806,
3.0,AMANDA WY,PROVIDENCE,RI,02904,
,SPUR RD,FOSTER,RI,02825,
111.0,FOUNTAIN ST,PROVIDENCE,RI,02903,
17.0,HUNTERS RUN,NORTH PROVIDENCE,RI,02904,
55.0,SCOTT ST,PAWTUCKET,RI,02860,
14.0,RODNEY RD,WARWICK,RI,02889,
7.0,BRISTOL RD,NARRAGANSETT,RI,02882,
24.0,BUNTING RD,WARWICK,RI,02889,
3.0,CONNORS AVE,WESTERLY,RI,02891,
6.0,NIANTIC TRL,WEST GREENWICH,RI,02817,
119.0,PLAINWOODS RD,FOSTER,RI,02825,
4.0,DEERFIELD DR,BARRINGTON,RI,02806,
34.0,WATERCREST CT,COVENTRY,RI,02816,
539.0,LAKE WASHINGTON DR,GLOCESTER,RI,02814,
471.0,COMSTOCK PKWY,CRANSTON,RI,02921,
60.0,EDGEHILL RD,PROVIDENCE,RI,02906,
257.0,OAKLAWN AVE,CRANSTON,RI,02920,
59.0,RIDGEWOOD LN,SOUTH KINGSTOWN,RI,02879,
309.0,WINNISIMET DR,TIVERTON,RI,02878,
21.0,BATCHELLER AVE,CRANSTON,RI,02920,
174.0,GREEN END AVE,MIDDLETOWN,RI,02842,
16.0,2ND ST,PAWTUCKET,RI,02861,
4.0,HERITAGE RD,BRISTOL,RI,02809,
20.0,BIRCHWOOD DR,CUMBERLAND,RI,02864,
232.0,OLD OXFORD RD,NORTH SMITHFIELD,RI,02896,
170.0,LAUREL WOODS DR,NORTH SMITHFIELD,RI,02896,
113.0,HYBRID DR,CRANSTON,RI,02920,
76.0,MAIN ST,NORTH KINGSTOWN,RI,02852,
12.0,WATERMAN ST,BRISTOL,RI,02809,
1019.0,NOOSENECK HILL RD,WEST GREENWICH,RI,02817,
59.0,PINE TREE LN,SOUTH KINGSTOWN,RI,02879,
1012.0,EAST RD,TIVERTON,RI,02878,
,QUANNACUT RD,WESTERLY,RI,02891,
27.0,DAWN CT,SOUTH KINGSTOWN,RI,02879,
110.0,COLWELL ST,CRANSTON,RI,02920,
694.0,PARK AVE,CRANSTON,RI,02910,
104.0,ABERDEEN ST,WEST WARWICK,RI,02893,
14.0,MONEY HILL RD,GLOCESTER,RI,02814,
220.0,ASHAWAY RD,HOPKINTON,RI,02808,
12.0,WOODLAKE DR,JOHNSTON,RI,02919,
42.0,DONNA DR,CRANSTON,RI,02921,
58.0,CLINTON ST,PAWTUCKET,RI,02861,
110.0,GREENING LN,CRANSTON,RI,02920,
686.0,HOPE ST,BRISTOL,RI,02809,
45.0,SHERMAN LN,MIDDLETOWN,RI,02842,
43.0,WILSON ST,PROVIDENCE,RI,02907,
105.0,HOWARD AVE,COVENTRY,RI,02816,
,FAIRWEATHER AV,CRANSTON,RI,02910,
262.0,BROADWAY ST,PROVIDENCE,RI,02903,
291.0,WILLOW ST,WOONSOCKET,RI,02895,
31.0,AURORA DR,CUMBERLAND,RI,02864,
60.0,THAMES ST,NEWPORT,RI,02840,
114.0,FRANKLIN RD,SCITUATE,RI,02825,
91.0,MOCKINGBIRD DR,NORTH KINGSTOWN,RI,02852,
2.0,SOUTH KILLINGLY RD,FOSTER,RI,02825,
4.0,WAMPUM TRL,CUMBERLAND,RI,02864,
684.0,WILLETT AVE,EAST PROVIDENCE,RI,02915,
8.0,STIMSON AVE,PROVIDENCE,RI,02906,
212.0,FULLER AVE,CENTRAL FALLS,RI,02863,
3.0,MOHAWK TRL,NARRAGANSETT,RI,02882,
38.0,CAROL DR,HOPKINTON,RI,02832,
,WILLIAM T HENRY RD,SCITUATE,RI,02857,
741.0,PINE ST,CENTRAL FALLS,RI,02863,
724.0,HATCHERY RD,NORTH KINGSTOWN,RI,02852,
,S MAIN ST,BURRILLVILLE,RI,02859,
111.0,GRACE ST,CRANSTON,RI,02910,
152.0,GRACE ST,CRANSTON,RI,02910,
94.0,CALLA ST,PROVIDENCE,RI,02905,
9.0,ARMINGTON AVE,PROVIDENCE,RI,02908,
51.0,TRENTON ST,PROVIDENCE,RI,02906,
,DOVER AVE,EAST PROVIDENCE,RI,02914,
261.0,BETSEY WILLIAMS DR,WARWICK,RI,02889,
159.0,5TH ST,EAST PROVIDENCE,RI,02914,
640.0,WINTER ST,WOONSOCKET,RI,02895,
48.0,ANDREW COMSTOCK RD,WARWICK,RI,02886,
2028.0,WARWICK AVE,WARWICK,RI,02889,
,PUTNAM PIKE,GLOCESTER,RI,02814,
3.0,WYMAN ST,WEST WARWICK,RI,02893,
15.0,PRIVET ST,PAWTUCKET,RI,02860,
2.0,JAIME DR,JOHNSTON,RI,02919,
600.0,FISH HILL RD,WEST GREENWICH,RI,02817,
854.0,MATUNUCK BEACH RD,SOUTH KINGSTOWN,RI,02879,
,OLD OAK AV,CRANSTON,RI,02920,
6.0,OLIVE LN,BARRINGTON,RI,02806,
391.0,WOONASQUATUCKET AV,NORTH PROVIDENCE,RI,02911,
,BATTERSON AV,WESTERLY,RI,02891,
107.0,SHAW AVE,CRANSTON,RI,02905,
44.0,OLD FARM RD,LITTLE COMPTON,RI,02837,
7.0,ROCKWELL AV,NORTH PROVIDENCE,RI,02911,
714.0,HAZARD RD,WEST GREENWICH,RI,02817,
304.0,ROCKLAND RD,SCITUATE,RI,02857,
105.0,BOWDOIN ST,PROVIDENCE,RI,02909,
72.0,LISBON ST,PROVIDENCE,RI,02908,
,PECKHAM PL,BRISTOL,RI,02809,
12.0,JENNIFER LEE CT,WEST GREENWICH,RI,02817,
368.0,SNUFF MILL RD,NORTH KINGSTOWN,RI,02874,
535.0,INDIAN AVE,MIDDLETOWN,RI,02842,
28.0,NORRIS AVE,PAWTUCKET,RI,02861,
21.0,PINE GROVE AVE,LINCOLN,RI,02865,
559.0,ARMISTICE BLVD,PAWTUCKET,RI,02861,
126.0,AMANDA ST,CRANSTON,RI,02920,
71.0,ANNAWAMSCUTT DR,BRISTOL,RI,02809,
24.0,LANE B,COVENTRY,RI,02816,
69.0,APPLE TREE LN,WARWICK,RI,02888,
31.0,BONNET VIEW DR,NARRAGANSETT,RI,02882,
3.0,BREMEN AVE,WARWICK,RI,02889,
,AUSTIN FARM RD,EXETER,RI,02822,
9.0,PRISTINE DR,CUMBERLAND,RI,02864,
939.0,MAIN ST,HOPKINTON,RI,02832,
19.0,HILTON ST,TIVERTON,RI,02878,
17.0,BREWSTER ST,PROVIDENCE,RI,02906,
9.0,JEAN ST,MIDDLETOWN,RI,02842,
30.0,SALEM TRL,NARRAGANSETT,RI,02882,
145.0,COTTAGE ST,PAWTUCKET,RI,02860,
34.0,SUNSET AVE,NORTH PROVIDENCE,RI,02911,
634.0,ELMDALE RD,SCITUATE,RI,02857,
40.0,CHAMBERS ST,CUMBERLAND,RI,02864,
,CANAL ST,WESTERLY,RI,02891,
107.0,GRANDVIEW AV,LINCOLN,RI,02865,
3.0,OAK HILL DR,LINCOLN,RI,02865,
555.0,SMITHFIELD AVE,PAWTUCKET,RI,02860,
,VOSE ST,WOONSOCKET,RI,02895,
225.0,ORIOLE AVE,PAWTUCKET,RI,02860,
26.0,PREAKNESS DR,LINCOLN,RI,02865,
20.0,BRUSH HILL RD,NARRAGANSETT,RI,02882,
436.0,FRONT ST,LINCOLN,RI,02865,
10.0,ASHTON ST,WEST WARWICK,RI,02893,
84.0,NARRAGANSETT AVE,NARRAGANSETT,RI,02882,
1196.0,CHOPMIST HILL RD,SCITUATE,RI,02857,
,VICTORY HWY,BURRILLVILLE,RI,02858,
8.0,COTTAGE ST,LINCOLN,RI,02865,
66.0,ISLINGTON AVE,PORTSMOUTH,RI,02871,
38.0,GLENBRIDGE AVE,PROVIDENCE,RI,02909,
61.0,LORRAINE AVE,PROVIDENCE,RI,02906,
93.0,BENEFIT ST,PROVIDENCE,RI,02906,
13.0,CHARIHO DR,RICHMOND,RI,02898,
59.0,WATSON ST,CENTRAL FALLS,RI,02863,
1.0,MICHAEL DR,BRISTOL,RI,02809,
52.0,HILTON ST,PAWTUCKET,RI,02860,
183.0,BAY AVE,PRUDENCE ISLAND,RI,02872,
158.0,CHAPIN AVE,PROVIDENCE,RI,02909,
1739.0,SMITH ST,NORTH PROVIDENCE,RI,02911,
195.0,OLD FORGE RD,WARWICK,RI,02818,
26.0,APPLETON AVE,PAWTUCKET,RI,02860,
,BRISTOL FERRY RD,PORTSMOUTH,RI,02871,
275.0,FAIRFAX DR,WARWICK,RI,02888,
11.0,GOODALL PL,EAST PROVIDENCE,RI,02915,
53.0,PARADE ST,PROVIDENCE,RI,02909,
66.0,SHORE DR,CHARLESTOWN,RI,02813,
18.0,CLEARVIEW DR,RICHMOND,RI,02892,
897.0,MAIN ST,WEST WARWICK,RI,02893,
,N BROADWAY ST,EAST PROVIDENCE,RI,02914,
5.0,QUAIL CIR,SMITHFIELD,RI,02917,
71.0,PLEASANT ST,NORTH KINGSTOWN,RI,02852,
195.0,ROCKY HILL RD,SCITUATE,RI,02857,
192.0,COVE AVE,WARWICK,RI,02889,
57.0,SYLVIAN ST,CENTRAL FALLS,RI,02863,
37.0,BOWENS WHARF,NEWPORT,RI,02840,
1802.0,PHEASANT RUN,CUMBERLAND,RI,02864,
31.0,ARNOLD MILLS RD,CUMBERLAND,RI,02864,
116.0,PROSPECT ST,PAWTUCKET,RI,02860,
51.0,ROGER WILLIAMS GREEN ST,PROVIDENCE,RI,02904,
31.0,BURTON AVE,EAST PROVIDENCE,RI,02915,
4.0,BETSY WILLIAMS CT,JOHNSTON,RI,02828,
,NIANTIC HWY,CHARLESTOWN,RI,02813,
121.0,KING CHARLES DR,PORTSMOUTH,RI,02871,
34.0,WENDY LN,SOUTH KINGSTOWN,RI,02879,
72.0,MYRTLE ST,PAWTUCKET,RI,02860,
5.0,WALMER AVE,EAST PROVIDENCE,RI,02914,
20.0,SAUNDRA DR,WESTERLY,RI,02891,
35.0,LONG MEADOW DR,EAST GREENWICH,RI,02818,
97.0,MEMORIAL BLVD,NEWPORT,RI,02840,
7.0,REGINA DR,JOHNSTON,RI,02919,
429.0,RIVER RD,LINCOLN,RI,02865,
244.0,S MAIN ST,BURRILLVILLE,RI,02859,
58.0,BARRETT AVE,NORTH PROVIDENCE,RI,02904,
,NOOSENECK HILL RD,WEST GREENWICH,RI,02817,
248.0,SUCCOTASH RD,SOUTH KINGSTOWN,RI,02879,
329.0,SPRING ST,HOPKINTON,RI,02832,
930.0,JACKSON SCHOOLHOUSE RD,BURRILLVILLE,RI,02814,
41.0,CIRCLEDALE DR,CUMBERLAND,RI,02864,
,JENKS RD,COVENTRY,RI,02827,
1.0,CANYON DR,COVENTRY,RI,02816,
108.0,COYLE AVE,PAWTUCKET,RI,02861,
131.0,MULBERRY RD,BRISTOL,RI,02809,
11.0,STEPHANIE DR,COVENTRY,RI,02816,
40.0,SAUNDERS BROOK RD,GLOCESTER,RI,02814,
2.0,O'RIELEY CT,RICHMOND,RI,02894,
344.0,NAYATT RD,BARRINGTON,RI,02806,
80.0,PROVIDENCE AVE,EAST PROVIDENCE,RI,02915,
1745.0,EAGLEVILLE RD,TIVERTON,RI,02878,
25.0,CAMPBELL ST,WEST WARWICK,RI,02893,
199.0,SPOONER AVE,WARWICK,RI,02886,
49.0,PARK DR,EAST PROVIDENCE,RI,02915,
200.0,CHAD BROWN ST,PROVIDENCE,RI,02908,
33.0,NEWTON AVE,WESTERLY,RI,02891,
,CURTIS CORNER RD,SOUTH KINGSTOWN,RI,02879,
85.0,SCHOOL ST,EAST PROVIDENCE,RI,02914,
1.0,GROVE AVE,EAST PROVIDENCE,RI,02914,
,PIPPIN ORCHARD RD,CRANSTON,RI,02921,
125.0,WOODMIST WAY,NORTH KINGSTOWN,RI,02852,
41.0,LAURISTON ST,PROVIDENCE,RI,02906,
86.0,RODMAN ST,SOUTH KINGSTOWN,RI,02879,
1010.0,WARWICK AVE,WARWICK,RI,02888,
6.0,LANGWORTHY RD,WESTERLY,RI,02891,
32.0,DAMON AVE,WARWICK,RI,02889,
6.0,PLEASANT HILL RD,CRANSTON,RI,02910,
12.0,SALISBURY ST,PROVIDENCE,RI,02905,
11.0,MILL ST,BURRILLVILLE,RI,02858,
,ASA POND RD,SOUTH KINGSTOWN,RI,02879,
50.0,RIVER ST,EAST PROVIDENCE,RI,02915,
52.0,ABORN AVE,CUMBERLAND,RI,02864,
21.0,WILBUR AVE,WARREN,RI,02885,
51.0,GIBSON AVE,NARRAGANSETT,RI,02882,
15.0,FAIRFIELD AV,TIVERTON,RI,02878,
11.0,CENTRAL ST,LINCOLN,RI,02838,
199.0,CARNATION ST,PAWTUCKET,RI,02860,
14.0,CREIGHTON PL,COVENTRY,RI,02816,
465.0,GARDINER RD,RICHMOND,RI,02892,
72.0,KELLY ST,LINCOLN,RI,02865,
39.0,WABUN AVE,PROVIDENCE,RI,02908,
20.0,GREENVIEW RD,CRANSTON,RI,02920,
26.0,APPLE RIDGE RD,CUMBERLAND,RI,02864,
,MILL ST,NORTH SMITHFIELD,RI,02896,
32.0,STEERE DR,JOHNSTON,RI,02919,
,NONQUIT LN,TIVERTON,RI,02878,
74.0,FOREST VIEW LN,BURRILLVILLE,RI,02830,
6.0,THE OAKS AT HARRIS,SMITHFIELD,RI,02917,
1342.0,FRENCHTOWN RD,EAST GREENWICH,RI,02818,
25.0,FAIRFIELD AVE,EAST PROVIDENCE,RI,02915,
117.0,ALLAGASH TRL,NARRAGANSETT,RI,02882,
123.0,GRANT DR,NORTH KINGSTOWN,RI,02852,
62.0,LITTLE WOODS PATH,SOUTH KINGSTOWN,RI,02879,
52.0,CONGDON AVE,NORTH KINGSTOWN,RI,02852,
211.0,LOVE LN,WARWICK,RI,02886,
16.0,ALDEN DR,WEST WARWICK,RI,02893,
61.0,NORTHUP AVE,PROVIDENCE,RI,02904,
247.0,FARNUM RD,GLOCESTER,RI,02814,
186.0,OLD RIVER RD,LINCOLN,RI,02865,
149.0,RODMAN ST,SOUTH KINGSTOWN,RI,02879,
350.0,ILLINOIS ST,CENTRAL FALLS,RI,02863,
74.0,PLENTY ST,PROVIDENCE,RI,02907,
12.0,GALLATIN ST,PROVIDENCE,RI,02907,
5.0,LISAS WAY,COVENTRY,RI,02816,
76.0,ROBERT ST,WEST WARWICK,RI,02893,
4.0,CITY VIEW CIR,NORTH PROVIDENCE,RI,02908,
1105.0,THE MEADOWS,CUMBERLAND,RI,02864,
825.0,MIDDLEBRIDGE RD,SOUTH KINGSTOWN,RI,02879,
14.0,CLAY ST,CENTRAL FALLS,RI,02863,
82.0,GOODING ST,PAWTUCKET,RI,02860,
396.0,MAIN ST FISKVL,SCITUATE,RI,02831,
435.0,S LAKE RD,TIVERTON,RI,02878,
560.0,BROAD ST,CUMBERLAND,RI,02864,
109.0,CONGRESS ST,WOONSOCKET,RI,02895,
221.0,CHURCH POND DR,TIVERTON,RI,02878,
7.0,ALMEIDA TER,PORTSMOUTH,RI,02871,
1263.0,PLAINFIELD ST,JOHNSTON,RI,02919,
126.0,BENEDICT RD,WARWICK,RI,02888,
16120.0,PATRIOT WY,WEST GREENWICH,RI,02817,
970.0,TARKILN RD,BURRILLVILLE,RI,02830,
10.0,DONNA DR,CRANSTON,RI,02921,
146.0,DRYBROOK RD,WARWICK,RI,02889,
75.0,WOOD ST,BRISTOL,RI,02809,
79.0,MIANTONOMI AVE,MIDDLETOWN,RI,02842,
92.0,YALE AVE,WARWICK,RI,02888,
75.0,ROUNDS AVE,EAST PROVIDENCE,RI,02915,
154.0,ANDREWS AVE,WEST WARWICK,RI,02893,
137.0,PENN ST,PROVIDENCE,RI,02909,
25.0,MILES AVE,EAST PROVIDENCE,RI,02914,
253.0,LAUREL HILL AVE,PROVIDENCE,RI,02909,
18.0,CENTRAL ST,WEST WARWICK,RI,02893,
12.0,COLVINTOWN RD,COVENTRY,RI,02816,
132.0,STONY ACRE DR,CRANSTON,RI,02920,
6.0,PEPPERMINT TRL,COVENTRY,RI,02816,
27.0,WINCHECK POND EXT,HOPKINTON,RI,02832,
32.0,RHODE ISLAND AVE,NEWPORT,RI,02840,
231.0,POWER ST,PROVIDENCE,RI,02906,
457.0,BULLOCKS POINT AVE,EAST PROVIDENCE,RI,02915,
37.0,FAIRFIELD RD,CRANSTON,RI,02910,
68.0,LEADING ST,JOHNSTON,RI,02919,
74.0,BAYVIEW AVE,NORTH KINGSTOWN,RI,02852,
24.0,LANGDON AVE,PAWTUCKET,RI,02861,
52.0,KAY BLVD,NEWPORT,RI,02840,
62.0,MOUNT VIEW DR,CRANSTON,RI,02920,
186.0,LINWOOD AVE,PROVIDENCE,RI,02907,
150.0,BLOODGOOD ST,PAWTUCKET,RI,02861,
63.0,BERRY ST,CRANSTON,RI,02920,
20.0,DORAY DR,SCITUATE,RI,02831,
100.0,CRIPE ST,NORTH KINGSTOWN,RI,02852,
2.0,POPLAR AVE,RICHMOND,RI,02894,
150.0,COE ST,WOONSOCKET,RI,02895,
1.0,ORCHARD LN,NORTH PROVIDENCE,RI,02904,
1.0,DOWNING LN,WARWICK,RI,02886,
42.0,NEWLAND AVE,WOONSOCKET,RI,02895,
132.0,WALDO ST,PROVIDENCE,RI,02907,
286.0,GRANDVIEW AVE,WOONSOCKET,RI,02895,
,BICENTENNIAL WAY,NORTH PROVIDENCE,RI,02911,
17.0,WATER ST,WEST WARWICK,RI,02893,
5.0,ENOS CIR,CRANSTON,RI,02921,
14.0,MINNESOTA AVE,WARWICK,RI,02888,
2.0,VALENTE DR,CRANSTON,RI,02920,
123.0,WAYNE ST,PROVIDENCE,RI,02908,
12.0,COTTAGE AVE,NORTH PROVIDENCE,RI,02911,
247.0,COLONEL JOHN GARDNER RD,NARRAGANSETT,RI,02882,
55.0,SIXTH AVE,WOONSOCKET,RI,02895,
128.0,POND ST,PAWTUCKET,RI,02860,
6343.0,POST RD,NORTH KINGSTOWN,RI,02852,
57.0,GOVERNOR PAINE RD,PRUDENCE ISLAND,RI,02872,
,BROADWAY ST,NEWPORT,RI,02840,
255.0,CARRINGTON AVE,WOONSOCKET,RI,02895,
1381.0,MAIN ST,COVENTRY,RI,02816,
4.0,RYAN AVE,BRISTOL,RI,02809,
89.0,BATES ST,PAWTUCKET,RI,02861,
21.0,WEBSTER ST,WEST WARWICK,RI,02893,
45.0,FERNCREST AVE,CRANSTON,RI,02905,
228.0,GEORGE ALLEN RD,GLOCESTER,RI,02814,
5.0,LEDGE RD,BARRINGTON,RI,02806,
42.0,WHITE CAP DR,NORTH KINGSTOWN,RI,02852,
90.0,LEXINGTON AVE,CRANSTON,RI,02910,
227.0,MESSER ST,PROVIDENCE,RI,02909,
25.0,MICHELLE LN,CHARLESTOWN,RI,02813,
154.0,2ND ST,EAST PROVIDENCE,RI,02914,
39.0,MANTON ST,PAWTUCKET,RI,02861,
,SHEPARD AVE,NEWPORT,RI,02840,
11.0,WALKER RD,FOSTER,RI,02825,
44.0,OLD STONE CHURCH RD,LITTLE COMPTON,RI,02837,
31.0,SHERWOOD LN,BARRINGTON,RI,02806,
22.0,FIELDSVIEW RD,WESTERLY,RI,02808,
160.0,PENN ST,PROVIDENCE,RI,02909,
17.0,LOOKOUT AVE,NORTH PROVIDENCE,RI,02911,
,CUCUMBER HILL RD,FOSTER,RI,02825,
2040.0,MIDDLE RD,EAST GREENWICH,RI,02818,
50.0,LUPINE ST,PAWTUCKET,RI,02860,
,NIPMUC TRL,NORTH PROVIDENCE,RI,02904,
,POINT JUDITH RD,NARRAGANSETT,RI,02882,
21.0,BREAULT AVE,WOONSOCKET,RI,02895,
34.0,3RD ST,PROVIDENCE,RI,02906,
272.0,PUBLIC ST,PROVIDENCE,RI,02905,
169.0,ALEXANDER ST,CRANSTON,RI,02910,
6.0,MARSHALL LN,MIDDLETOWN,RI,02842,
127.0,SWAN RD,SMITHFIELD,RI,02917,
,PUTNAM PIKE,JOHNSTON,RI,02919,
1303.0,MANVILLE RD,WOONSOCKET,RI,02895,
184.0,CARNATION ST,PAWTUCKET,RI,02860,
11.0,FLEMING ST,EAST PROVIDENCE,RI,02914,
2824.0,PLAINFIELD PIKE,CRANSTON,RI,02919,
91.0,HOLIDAY CT,SOUTH KINGSTOWN,RI,02879,
23.0,MULBERRY CIR,JOHNSTON,RI,02919,
28.0,ROOSEVELT AVE,BURRILLVILLE,RI,02859,
29.0,MILL LN,PORTSMOUTH,RI,02871,
32.0,LAVAUGHN ST,PROVIDENCE,RI,02909,
38.0,HILLCREST AVE,PAWTUCKET,RI,02860,
566.0,ADMIRAL ST,PROVIDENCE,RI,02908,
21.0,CONNECTION ST,NEWPORT,RI,02840,
3.0,CONCORD CT,WESTERLY,RI,02891,
58.0,JANET DR,WARWICK,RI,02886,
101.0,N MAIN ST,PROVIDENCE,RI,02903,
189.0,BENEDICT ST,PROVIDENCE,RI,02909,
163.0,MIDWOOD ST,CRANSTON,RI,02910,
12.0,CYNTHIA RD,LINCOLN,RI,02865,
,FRIEL FARM WAY,HOPKINTON,RI,02804,
74.0,MAPLE LEAF RD,BURRILLVILLE,RI,02830,
130.0,FISK ST,PROVIDENCE,RI,02905,
575.0,WAYLAND AVE,PROVIDENCE,RI,02906,
2.0,DESOTO WAY,LINCOLN,RI,02865,
11.0,FEDERAL RD,BARRINGTON,RI,02806,
154.0,PILGRIM DR,WARWICK,RI,02888,
,TWIN LAKES AVE,COVENTRY,RI,02816,
53.0,TALLMAN AVE,PORTSMOUTH,RI,02871,
196.0,OLD RIVER RD,LINCOLN,RI,02865,
48.0,WANTON SHIPPEE RD,EAST GREENWICH,RI,02818,
21.0,SWEET HILL DR,JOHNSTON,RI,02919,
41.0,LEAWOOD DR,CRANSTON,RI,02920,
2530.0,DIAMOND HILL RD,CUMBERLAND,RI,02864,
414.0,WATERMAN AVE,EAST PROVIDENCE,RI,02914,
,ATLANTIC AVE,NARRAGANSETT,RI,02882,
665.0,BROADWAY ST,PAWTUCKET,RI,02860,
,MINISTERIAL RD,SOUTH KINGSTOWN,RI,02879,
,HARRIS AVE,PROVIDENCE,RI,02909,
51.0,WINDMILL ST,PROVIDENCE,RI,02904,
,JACKSON ST,WARWICK,RI,02888,
,LONG HWY,LITTLE COMPTON,RI,02837,
45.0,FALCON RIDGE DR,EXETER,RI,02822,
25.0,BROWN AVE,NORTH PROVIDENCE,RI,02911,
54.0,FOX HILL AV,BRISTOL,RI,02809,
262.0,HILLSIDE AVE,PAWTUCKET,RI,02860,
10.0,CLIFF TER,NEWPORT,RI,02840,
12.0,BAYBERRY RD,CRANSTON,RI,02920,
10.0,FACTORY ST,WEST WARWICK,RI,02893,
181.0,KNIGHT ST,WARWICK,RI,02886,
218.0,ELMORE AVE,WOONSOCKET,RI,02895,
46.0,HERSCHEL ST,PROVIDENCE,RI,02909,
17.0,HILLTOP DR,JOHNSTON,RI,02919,
20.0,BALDWIN RD,MIDDLETOWN,RI,02842,
120.0,TILLINGHAST RD,EAST GREENWICH,RI,02818,
204.0,ST JAMES CT,NORTH PROVIDENCE,RI,02904,
25.0,LAUREL AVE,COVENTRY,RI,02816,
138.0,LINCOLN AVE,CENTRAL FALLS,RI,02863,
20.0,BLACKSBURT CT,NORTH KINGSTOWN,RI,02874,
33.0,MAPLE LEAF RD,BURRILLVILLE,RI,02830,
40.0,ASYLUM RD,WARREN,RI,02885,
110.0,LAMBIE CIR,PORTSMOUTH,RI,02871,
1729.0,SMITH ST,NORTH PROVIDENCE,RI,02911,
17.0,2ND ST,NARRAGANSETT,RI,02882,
513.0,ACADEMY AVE,PROVIDENCE,RI,02908,
11.0,VICTORY ST,CUMBERLAND,RI,02864,
147.0,N ATTLEBORO RD,CUMBERLAND,RI,02864,
429.0,BERNON ST,WOONSOCKET,RI,02895,
154.0,FRANKLIN AVE,CRANSTON,RI,02920,
66.0,W ALLENTON RD,NORTH KINGSTOWN,RI,02852,
25.0,PARKER AVE,NEWPORT,RI,02840,
52.0,BRENTWOOD AVE,WARWICK,RI,02886,
72.0,ELLIS RD,NORTH KINGSTOWN,RI,02852,
251.0,MAIN ST,EXETER,RI,02822,
186.0,UNIVERSITY AVE,PROVIDENCE,RI,02906,
15.0,KING PHILLIP ST,PORTSMOUTH,RI,02871,
163.0,EDMAN ST,WARWICK,RI,02886,
36.0,FIRST SCHOOL ST,BRISTOL,RI,02809,
1775.0,TEN ROD RD,EXETER,RI,02822,
37.0,GLENBRIDGE AVE,PROVIDENCE,RI,02909,
145.0,CRESCENT RD,PAWTUCKET,RI,02861,
32.0,COLD SPRING PL,WOONSOCKET,RI,02895,
56.0,BENEDICT ST,PAWTUCKET,RI,02861,
249.0,EASTWOOD AVE,PROVIDENCE,RI,02909,
153.0,DIVISION ST,PAWTUCKET,RI,02860,
,OAK ST,WARREN,RI,02885,
,TOURTELLOT HILL RD,GLOCESTER,RI,02814,
28.0,SANFORD AVE,NORTH KINGSTOWN,RI,02852,
67.0,MORGAN ESTATES,JOHNSTON,RI,02919,
11.0,ARGYLE DR,WESTERLY,RI,02891,
479.0,WOOD ST,BRISTOL,RI,02809,
50.0,WINTHROP RD,EAST GREENWICH,RI,02818,
39.0,PRIMROSE DR,EAST PROVIDENCE,RI,02915,
218.0,CALLA ST,PROVIDENCE,RI,02905,
1876.0,MINISTERIAL RD,SOUTH KINGSTOWN,RI,02879,
30.0,MOHAWK TRL,NARRAGANSETT,RI,02882,
18.0,CHATWORTH AVE,WARWICK,RI,02886,
17.0,JOHN ST,CRANSTON,RI,02920,
,FIELD HILL RD,SCITUATE,RI,02825,
75.0,CHARLTON AVE,PAWTUCKET,RI,02860,
4.0,FALCONER ST,PROVIDENCE,RI,02907,
13.0,MAIN ST,LITTLE COMPTON,RI,02837,
1606.0,PINEWOOD DR,SMITHFIELD,RI,02917,
10.0,ESTEN ST,PROVIDENCE,RI,02908,
166.0,LITTLEFIELD ST,PAWTUCKET,RI,02861,
44.0,MASSASOIT AVE,BARRINGTON,RI,02806,
757.0,FLETCHER RD,NORTH KINGSTOWN,RI,02852,
47.0,SHANNON RD,EXETER,RI,02822,
15.0,BRANBERRY DR,WESTERLY,RI,02891,
565.0,SANDY LN,WARWICK,RI,02889,
24.0,MORNINGSIDE DR,NORTH KINGSTOWN,RI,02852,
32.0,STEPHEN HOPKINS CT,PROVIDENCE,RI,02904,
116.0,CANTON AVE,PORTSMOUTH,RI,02871,
81.0,E MAIN ST,WEST WARWICK,RI,02893,
1016.0,WILLIAMSBURG CIR,WARWICK,RI,02886,
22.0,JANE LN,BRISTOL,RI,02809,
125.0,RUTLAND ST,CRANSTON,RI,02920,
151.0,BISCUIT CITY RD,CHARLESTOWN,RI,02813,
50.0,MESHANTICUT VALLEY PKWY,CRANSTON,RI,02920,
25.0,STARBOARD TERR,NARRAGANSETT,RI,02882,
21.0,WASHINGTON AVE,WESTERLY,RI,02891,
18.0,WINTHROP DR,BARRINGTON,RI,02806,
104.0,PEPIN ST,WEST WARWICK,RI,02893,
113.0,MCGIRR ST,CUMBERLAND,RI,02864,
33.0,CLINTON ST,JOHNSTON,RI,02919,
6404.0,FLAT RIVER RD,COVENTRY,RI,02827,
27.0,ESMOND ST,SMITHFIELD,RI,02917,
98.0,ROUND POND RD,LITTLE COMPTON,RI,02837,
91.0,E DEMELLO DR,TIVERTON,RI,02878,
92.0,SUMMIT AVE,WEST WARWICK,RI,02893,
352.0,NAYATT RD,BARRINGTON,RI,02806,
25.0,OSCEOLA AVE,COVENTRY,RI,02816,
3.0,LEDGE RD,BARRINGTON,RI,02806,
,BAY LAWN AV,WARWICK,RI,02888,
,PLAINFIELD PIKE,CRANSTON,RI,02921,
14.0,SECOND ST,PORTSMOUTH,RI,02871,
241.0,PERRY HILL RD,COVENTRY,RI,02816,
146.0,ST AGNES AV,WOONSOCKET,RI,02895,
48.0,JOHN H CHAFEE BLVD,NEWPORT,RI,02840,
31.0,WEST ST,WARWICK,RI,02886,
522.0,QUISSET CT,WARWICK,RI,02886,
6.0,NINIGRET AVE,WESTERLY,RI,02891,
899.0,MAIN ST,WEST WARWICK,RI,02893,
96.0,OLD POCASSET RD,JOHNSTON,RI,02919,
15.0,PRISCILLA RD,JAMESTOWN,RI,02835,
,FILLMORE ST,WARWICK,RI,02888,
4.0,SHETLAND DR,WESTERLY,RI,02808,
87.0,LINWOOD AVE,PROVIDENCE,RI,02909,
,LIBERTY RD,EXETER,RI,02822,
25.0,GREGORY ST,SOUTH KINGSTOWN,RI,02879,
1.0,ARGYLE DR,WESTERLY,RI,02891,
63.0,OVERFIELD RD,EAST GREENWICH,RI,02818,
37.0,OLD DANIELSON PIKE,FOSTER,RI,02857,
156.0,WOOD ST,PROVIDENCE,RI,02909,
153.0,NEW LONDON TPKE,RICHMOND,RI,02898,
55.0,POTTER ST,EAST PROVIDENCE,RI,02914,
14.0,DARROW DR,WARWICK,RI,02886,
113.0,HILLTOP DR,CRANSTON,RI,02920,
255.0,PEARL ST,PROVIDENCE,RI,02907,
10.0,PAWTUCKET AVE,EAST PROVIDENCE,RI,02860,
145.0,PARK DR,EAST PROVIDENCE,RI,02915,
14.0,PROVIDENT PL,COVENTRY,RI,02816,
21.0,MOOSEHORN RD,EAST GREENWICH,RI,02818,
396.0,LANGDON ST,NORTH PROVIDENCE,RI,02904,
542.0,SPRING ST,HOPKINTON,RI,02822,
55.0,MAYFLOWER DR,CRANSTON,RI,02905,
314.0,BENEFIT ST,PROVIDENCE,RI,02903,
266.0,TOWER HILL RD,CUMBERLAND,RI,02864,
53.0,VINEYARD ST,PROVIDENCE,RI,02907,
,SPRING LAKE RD,BURRILLVILLE,RI,02830,
64.0,ROSEMERE RD,PAWTUCKET,RI,02861,
11.0,SURREY DR,WESTERLY,RI,02891,
284.0,BROOK ST,PROVIDENCE,RI,02906,
37.0,N BLOSSOM ST,EAST PROVIDENCE,RI,02914,
14.0,ALABAMA AVE,WARWICK,RI,02888,
204.0,MORIN HEIGHTS BLVD,WOONSOCKET,RI,02895,
20.0,LANCER LN,WEST WARWICK,RI,02893,
53.0,COLE ST,JAMESTOWN,RI,02835,
,PUTNAM HEIGHTS RD,GLOCESTER,RI,02814,
39.0,COTTAGE ST,CENTRAL FALLS,RI,02863,
15.0,TUPELO ST,BRISTOL,RI,02809,
242.0,CLARENCE ST,PROVIDENCE,RI,02909,
258.0,CENTRAL AVE,JOHNSTON,RI,02919,
24.0,OAK HILL DR,JOHNSTON,RI,02919,
833.0,DYER AVE,CRANSTON,RI,02920,
26.0,GREENWOOD LN,LINCOLN,RI,02865,
97.0,BENEFIT ST,PAWTUCKET,RI,02861,
62.0,AIRPORT RD,WESTERLY,RI,02891,
36.0,HOOD AVE,EAST PROVIDENCE,RI,02916,
110.0,STEERE ST,BURRILLVILLE,RI,02830,
21.0,BRADLEY ST,PAWTUCKET,RI,02861,
33.0,WHITE AVE,WARWICK,RI,02889,
,FORDSON AV,CRANSTON,RI,02910,
25.0,HARKNESS ST,PROVIDENCE,RI,02909,
38.0,FELSMERE AVE,PAWTUCKET,RI,02861,
99.0,BEN BROWN AVE,SCITUATE,RI,02831,
,CANAL ST,NORTH SMITHFIELD,RI,02896,
253.0,PALACE AVE,WARWICK,RI,02886,
35.0,GROVER ST,PROVIDENCE,RI,02909,
17.0,WALCOTT AVE,NARRAGANSETT,RI,02882,
,POST RD,SOUTH KINGSTOWN,RI,02879,
186.0,BAY VIEW AV,WARWICK,RI,02818,
45.0,OSCEOLA AVE,NARRAGANSETT,RI,02882,
39.0,TROY ST,PROVIDENCE,RI,02909,
854.0,MATUNUCK BEACH RD,SOUTH KINGSTOWN,RI,02879,
,ACCIARDO DR,GLOCESTER,RI,02814,
54.0,ETHAN ST,WARWICK,RI,02888,
76.0,WINCHESTER DR,SOUTH KINGSTOWN,RI,02879,
600.0,NARRAGANSETT PKWY,WARWICK,RI,02888,
11.0,INDIAN TRL,CRANSTON,RI,02921,
32.0,RAYMOND DR,CUMBERLAND,RI,02864,
85.0,ARMINGTON ST,CRANSTON,RI,02905,
149.0,OBED AVE,NORTH PROVIDENCE,RI,02904,
106.0,SCENIC WY,EXETER / EAST,RI,02822,
372.0,OLD RIVER RD,LINCOLN,RI,02838,
42.0,MAIN ST,NORTH SMITHFIELD,RI,02896,
230.0,MISHNOCK RD,WEST GREENWICH,RI,02817,
1789.0,BROAD ST,CRANSTON,RI,02905,
69.0,CRANDALL ST,PROVIDENCE,RI,02908,
26.0,LINDEN AVE,CUMBERLAND,RI,02864,
,ROSE HILL RD,SOUTH KINGSTOWN,RI,02879,
9.0,ALAN ST,TIVERTON,RI,02878,
34.0,WOODSIDE AVE,WEST WARWICK,RI,02893,
1090.0,SHERMAN FARM RD,BURRILLVILLE,RI,02830,
22.0,CODDINGTON WHF,NEWPORT,RI,02840,
730.0,VICTORY HWY,NORTH SMITHFIELD,RI,02896,
39.0,JERRY LN,NORTH KINGSTOWN,RI,02852,
28.0,TOMAHAWK TRL,CRANSTON,RI,02921,
220.0,POWER RD,PAWTUCKET,RI,02860,
156.0,CARPENTER ST,PROVIDENCE,RI,02903,
515.0,WARWICK AVE,WARWICK,RI,02888,
10.0,PASSPATAUG AVE,WESTERLY,RI,02891,
1433.0,CRANDALL RD,TIVERTON,RI,02878,
71.0,BRYANT RD,CRANSTON,RI,02910,
16.0,GOLINI DR,JOHNSTON,RI,02919,
175.0,KIMBERLY DR,WEST GREENWICH,RI,02817,
45.0,N FAIR ST,WARWICK,RI,02888,
,N BROADWAY ST,EAST PROVIDENCE,RI,02916,
14.0,SEAVIEW AVE,NEWPORT,RI,02840,
37.0,HOOVER ST,WEST WARWICK,RI,02893,
24.0,BRIDLE DR,LINCOLN,RI,02865,
91.0,SAINT PAUL ST,NORTH SMITHFIELD,RI,02896,
28.0,MOY ST,PROVIDENCE,RI,02904,
517.0,FAIRMOUNT ST,WOONSOCKET,RI,02895,
,RAILROAD ST,NORTH SMITHFIELD,RI,02896,
1101.0,CARLEY DR,COVENTRY,RI,02816,
100.0,VILLAGE GRN N,EAST PROVIDENCE,RI,02915,
108.0,EVERETT AVE,PROVIDENCE,RI,02906,
14.0,MARK DR,NORTH PROVIDENCE,RI,02904,
39.0,FOSS AVE,PAWTUCKET,RI,02860,
16.0,JOLLY LN,WESTERLY,RI,02891,
690.0,SOUTH RD,EAST GREENWICH,RI,02818,
676.0,WASHINGTON ST,COVENTRY,RI,02816,
7.0,ANSEL AVE,PROVIDENCE,RI,02907,
7.0,TALL PINES DR,BARRINGTON,RI,02806,
14.0,SCHILKE DR,WESTERLY,RI,02891,
120.0,GREELEY ST,PAWTUCKET,RI,02861,
181.0,BELLEVUE AVE,PROVIDENCE,RI,02907,
173.0,ALTHEA ST,PROVIDENCE,RI,02909,
9.0,BAYVIEW PARK,MIDDLETOWN,RI,02842,
51.0,AYRAULT ST,NEWPORT,RI,02840,
169.0,CADY AVE,WARWICK,RI,02889,
104.0,REDLAND AVE,EAST PROVIDENCE,RI,02916,
15.0,LOWELL DR,JOHNSTON,RI,02919,
