NUMBER,STREET,CITY,STATE,POSTCODE,UNIT
246.0,ROCKY SLOPE RD,Greenville,SC,29607,
409.0,TWELVE OAKS LN,TEGA CAY,SC,29708,
424.0,GOLDEN AMBER LN,Greenville,SC,29651,
145.0,SPEEDWAY DR,Greenville,SC,29644,
318.0,SAVANNA WOODS LN,WEST COLUMBIA,SC,29170,
314.0,SADDLEBROOKE RD,LEXINGTON,SC,29072,
4959.0,SANDLEWOOD DR,Myrtle Beach,SC,29579,
8.0,WINDING TRAIL LN, ,SC,29926,
183.0,HARLEYWOOD DR,ORANGEBURG,SC,29115,
413.0,SANTA CRUZ WAY,Greenville,SC,29680,
521.0,KINGSTON ST,SPARTANBURG,SC,29303,
20.0,ARCH STREET EXT,Greenville,SC,29617,
408.0,SASANQUA LN,LEXINGTON,SC,29073,
1910.0,NORTHLAKE DR,ANDERSON,SC,29625,
101.0,PARKVIEW ST,CLOVER,SC,29710,
75.0,BROOKFIELD OAKS DR,Greenville,SC,29607,300.0
200.0,SUMTER ST EXT,CLINTON,SC,29325,
106.0,BELMONT DR,Greenville,SC,29644,
224.0,FOSTER ST,ANDERSON,SC,29625,
115.0,KNOX ABBOTT DR,CAYCE,SC,29033,
2233.0,BREEZE HILL DR,AIKEN,SC,29803,
10.0,DUNE HOUSE LN,MOORINGS,SC,29928,87.0
105.0,DAVIDSON RD,Greenville,SC,29609,
1330.0,ASHLEY PARK DR,ROCK HILL,SC,29732,
685.0,MALLARD DR,SUMTER,SC,29150,
310.0,GROCE RD,Greenville,SC,29617,
701.0,KERSHAW DR,NORTH AUGUSTA,SC,29841,
112.0,SILVER LEAF DR,LEXINGTON,SC,29073,
110.0,TUCKER ST,WILLIAMSTON,SC,29697,
6910.0,HIGHWAY 76,PENDLETON,SC,29670,
1648.0,Desoto St,Unspecified,SC,29115,
2310.0,CALF PEN BAY RD,PINELAND,SC,29934,
509.0,HAYWOOD RD,Greenville,SC,29607,
127.0,HIWASSEE DR,Greenville,SC,29617,
103.0,CARLEY CT,PELZER,SC,29669,
397.0,ARMSTRONG RD,SENECA,SC,29678,
3701.0,POINSETT ST,North Myrtle Beach,SC,29582,
100.0,SARMIENTO LN,COUNTY,SC,29483,
4807.0,1900G OLD SPARTANBURG RD,Greenville,SC,29687,
210.0,SUGAR MILL RD,Greenville,SC,29650,
2045.0,JONESVILLE LOCKHART HWY,UNION,SC,29379,
522.0,CREIGHTON DR,Greenville,SC,29687,
428.0,E MAIN ST,LAURENS,SC,29360,
303.0,E FRANKLIN ST,ANDERSON,SC,29624,
113.0,WIGEON WAY,EASLEY,SC,29642,
11.0,SEA HORSE WAY, ,SC,29928,
3050.0,JOYCE ST,SUMTER,SC,29154,
319.0,GUNBOAT LN,Charleston,SC,29492,
260.0,PLEASANT OAK DR,AIKEN,SC,29803,
1007.0,TUBBS MOUNTAIN RD,Greenville,SC,29690,
0.0,BAMBERG RD,CORDOVA,SC,29039,
604.0,LEWIS ST,JOHNSONVILLE,SC,29555,
20.0,RAILROAD,WHITMIRE,SC,29178,
136.0,POPS DR,ORANGEBURG,SC,29115,
823.0,LIBERTY ST   E,YORK,SC,29745,
506.0,FRANK MOORER DR,SWANSEA,SC,29160,
13608.0,HWY 265,JEFFERSON,SC,29718,
53.0,DELANDER CT,PALMETTO BAY VILLAS,SC,29928,48.0
920.0,WRIGHT BLVD,Conway,SC,29527,
806.0,W MAULDIN ST,ANDERSON,SC,29625,
103.0,CABOT CT W,Greenwood,SC,29649,
245.0,OAK STONE DR,WEST UNION,SC,29696,
133.0,HEATHER DR,SUMMERVILLE,SC,29486,
803.0,POWDERHORN RD,Greenville,SC,29681,
977.0,BETHEL RD,ST STEPHEN,SC,29479,
303.0,VICKSBURG DR,SUMMERVILLE,SC,29486,
1610.0,LONGWOOD DR,ORANGEBURG,SC,29118,
23.0,UNITY LN,RUFFIN,SC,29475,
114.0,CANNONSMILL LN,COUNTY,SC,29485,
5709.0,COUNTRY CLUB DR,Myrtle Beach,SC,29577,
1405.0,S BELL ST,CLINTON,SC,29325,
402.0,BETHEL CHURCH RD,CLOVER,SC,29710,
925.0,FONTANNA AVE,WEST COLUMBIA,SC,29169,
5665.0,HWY 905,Conway,SC,29526,
1255.0,W  SUMTER ST,FLORENCE,SC,29501,
311.0,SIMPSON RD,ANDERSON,SC,29621,
2619.0,LANE AVE,ANDERSON,SC,29621,
8020.0,LEGARE RD,EDISTO ISLAND,SC,29438,
206.0,PRESIDENT CIR,SUMMERVILLE,SC,29483,
495.0,NELLIEFIELD TR,WANDO,SC,29492,
604.0,GRAHAM ST,FLORENCE,SC,29501,
152.0,LONE OAK CIR,ROCK HILL,SC,29730,
2909.0,PEACHWOOD CT,FORT MILL,SC,29715,
151.0,106E CENTURY DR,Greenville,SC,29607,
1828.0,FLEMING WOODS RD,Charleston,SC,29412,
516.0,SECTION FIVE CIR,Myrtle Beach,SC,29577,
604.0,S  WARREN ST,TIMMONSVILLE,SC,29161,
16.0,HOUSTON ST,GOOSE CREEK,SC,29445,
107.0,W  BROADWAY ST,JOHNSONVILLE,SC,29555,
16.0,A SENTELL RD,Greenville,SC,29611,
45.0,S HAMPTON DR,Charleston,SC,29407,
393.0,MEADOWLARK,Surfside Beach,SC,29575,
2585.0,NAVIGATOR CIR,DALZELL,SC,29040,
1710.0,E RIVER ST,ANDERSON,SC,29624,
134.0,CRAWDAD CT,MONCKS CORNER,SC,29461,
0.0,WILLARD RD,NEESES,SC,29107,
14.0,MCADOO AVE,Greenville,SC,29607,
31.0,LEFTY DR,CLINTON,SC,29325,
112.0,SECOND ST,SANTEE,SC,29142,
240.0,JAMIL RD,COLUMBIA,SC,29210,
19.0,MCHAN ST,Greenville,SC,29605,
709.0,QUILLEN AVE,Greenville,SC,29644,8.0
,CENTRE CIR,FORT MILL,SC,29715,101.0
8242.0,TIMBER RIDGE RD,Conway,SC,29526,
420.0,SEABOARD AVE,Greenwood,SC,29646,
348.0,SUN COLONY BLVD,Longs,SC,29568,
310.0,CHEYENNE CIR,NORTH AUGUSTA,SC,29841,
60.0,E PATTON RD,LAURENS,SC,29360,
330.0,CROSSING CT,Myrtle Beach,SC,29588,
331.0,BAKER ST,ROCK HILL,SC,29730,
1706.0,GOLDEN WAY,FLORENCE,SC,29505,
907.0,OLD BUNCOMBE RD,UNION,SC,29379,
143.0,CATLIN CIR,Greenville,SC,29607,
541.0,OLD FORT DR,COUNTY,SC,29456,
410.0,PARKDALE DR,SPARTANBURG,SC,29302,
107.0,SHILLINGFORD RD,IRMO,SC,29063,
8551.0,MARSH OVERLOOK,NORTH CHARLESTON,SC,29420,
618.0,5TH AVE S,North Myrtle Beach,SC,29582,
8444.0,FRAZIER RD,Conway,SC,29527,
223.0,SORIN CIR,ELLOREE,SC,29047,
101.0,W WALNUT ST,CLINTON,SC,29325,
2449.0,ROCK DOVE RD,Myrtle Beach,SC,29577,
21.0,EDGEWATER DR,SUMTER,SC,29150,
2719.0,GREENPOND CIRCLE,Conway,SC,29527,
116.0,MCDOWELL ST,Greenwood,SC,29649,
705.0,PUMP HOUSE RD,WESTMINSTER,SC,29693,
882.0,MAPLEWOOD LN,ROCK HILL,SC,29730,
126.0,OAK LOG LAKE RD,Conway,SC,29526,
267.0,FOX DEN DR,Murrells Inlet,SC,29576,
1750.0,REMOUNT RD,HANAHAN,SC,29410,
559.0,S IRWIN AVE,SPARTANBURG,SC,29306,
943.0,LAUREL MEADOW DR,TEGA CAY,SC,29708,
270.0,FLYNNS POINT RD,SENECA,SC,29678,
417.0,FLEETWOOD RD,YORK,SC,29745,
105.0,RAMAPO CT,Greenville,SC,29681,
127.0,SMITH MOTORS RD,BELTON,SC,29627,
531.0,TRUMAN DR,GOOSE CREEK,SC,29445,
0.0,EDWARDS ST,HOLLY HILL,SC,29059,
2056.0,EBINPORT RD,ROCK HILL,SC,29732,
505.0,SPARKLEBERRY LN,Summerville,SC,29456,
4451.0,HWY 554,Loris,SC,29569,
181.0,HIGHWOODS PLANTATION AVE,COUNTY,SC,29485,
101.0,SALUDA POINTE DR,LEXINGTON,SC,29072,
2150.0,CALIFORNIA RD,SHARON,SC,29742,
2273.0,CLUSTER CT,ORANGEBURG,SC,29118,
20.0,HABERSHAM CT,Greenville,SC,29681,
11.0,KATHRYAN CT,Greenville,SC,29605,
125.0,HAROLD LN,BELTON,SC,29627,
383.0,BROMLEY RD,ROCK HILL,SC,29730,
39.0,RAINTREE DR,HARDEEVILLE,SC,29927,
266.0,MCCLELLAN WAY,COUNTY,SC,29483,
1649.0,CHAMBERSIDE DR,ROCK HILL,SC,29730,
1785.0,RUBY LN,SUMTER,SC,29153,
215.0,CRESTMONT DR,County,SC,29649,
825.0,HERMAN WISE,NEWBERRY,SC,29108,
124.0,NORMAN DR,WEST COLUMBIA,SC,29170,
212.0,E  MYRTLE BEACH HWY,SCRANTON,SC,29591,7.0
116.0,JONQUIL DR,NORWAY,SC,29113,
396.0,RUM GULLY CIR,Murrells Inlet,SC,29576,
1340.0,LOG CABIN RD,Loris,SC,29569,
108.0,MCDANIEL GREENE,Greenville,SC,29601,
5.0,GRASSLAWN AVE,BARONY BEACH CLUB BLDG D/BAYBERRY/9300,SC,29928,
6.0,CRANEBILL DR,Greenville,SC,29680,
111.0,HOLLY ST,Summerville,SC,29485,
3391.0,WHETSTONE RD,NORTH,SC,29112,
27.0,SULPHUR SPRINGS RD,Greenville,SC,29617,
4.0,SORENTO CT,HANAHAN,SC,29410,
118.0,MODESTO LN,Greenville,SC,29681,
3951.0,HORSE PEN BAY RD,Aynor,SC,29511,
3265.0,WICKLOW LN,LAKE WYLIE,SC,29710,
33.0,OFFICE PARK RD,HARRIS TEETER,SC,29928,11.0
106.0,HUSH HOLE RD,Greenville,SC,29690,
108.0,ELLENTON DR,GOOSE CREEK,SC,29445,
4807.0,800E OLD SPARTANBURG RD,Greenville,SC,29687,
8800.0,DORCHESTER RD,NORTH CHARLESTON,SC,29420,901.0
160.0,GLYMPH,POMARIA,SC,29126,
407.0,72ND AVE N,Myrtle Beach,SC,29572,
4319.0,KEYS ST,ANDERSON,SC,29624,
1708.0,CANNON BOTTOM RD,BELTON,SC,29627,
30.0,OLLIE CT,REMBERT,SC,29128,
110.0,LAKEVIEW DR,LEXINGTON,SC,29073,
3022.0,CANDELA GROVE DR,Charleston,SC,29414,
3803.0,HICKORY NUT RIDGE DR,FLORENCE,SC,29501,
1070.0,BOARDWALK,SUMTER,SC,29150,
110.0,ABBEY CT,County,SC,29649,
85.0,GENTRY LN,WALTERBORO,SC,29488,
135.0,BRUTUS LN,Summerville,SC,29485,
105.0,BRIGHTON LN,Summerville,SC,29485,
177.0,GEORGIA RD,UNION,SC,29379,
207.0,CLEVELAND ST,Greenville,SC,29601,
196.0,AUTUMN RUN RD,COUNTY,SC,29477,
704.0,W  PALMETTO ST,FLORENCE,SC,29501,
511.0,GOFF CREEK CT,Myrtle Beach,SC,29579,
13103.0,DAVENTRY CIR,Greenville,SC,29650,
908.0,KING RICHARD DR,Charleston,SC,29407,
209.0,PROVENCE ST,Greenville,SC,29607,
201.0,CUMMINGS ST,LAURENS,SC,29360,
346.0,CARMEL RIDGE RD,SALEM,SC,29676,
1208.0,TOPSIDE DR,Charleston,SC,29414,
1018.0,BACONS BRIDGE RD,COUNTY,SC,29485,
505.0,TENNESSEE WALKER DR,CLOVER,SC,29710,
29572.0,HWY 1,McBEE,SC,29101,
745.0,LONDON DR,Charleston,SC,29412,
1223.0,VICTORY,NEWBERRY,SC,29108,
150.0,W TYGER BRIDGE RD,Greenville,SC,29687,
1008.0,WHITE PINE LN,TOWNVILLE,SC,29689,
814.0,CHESTNUT ST,FLORENCE,SC,29501,
6169.0,HWY 14,GRAY COURT,SC,29645,
,AMERICA ST,Charleston,SC,29403,
200.0,TIMBERCREEK CT,COLUMBIA,SC,29212,
199.0,LAWRENCE DR,COUNTY,SC,29483,
28.0,YEADON AVE,Charleston,SC,29407,
1600.0,RIVERLANE RD,ROCK HILL,SC,29730,
305.0,ROYAL PALM BLVD,Charleston,SC,29407,
206.0,CHURCH ST,CLOVER,SC,29710,
12.0,BOX TREE WAY,Greenville,SC,29605,
550.0,BRICK BARN LN,GOOSE CREEK,SC,29445,
3106.0,TALLGRASS BLF,ROCK HILL,SC,29732,
804.0,KINGS RD,ORANGEBURG,SC,29115,
1630.0,CANNON BOTTOM RD,BELTON,SC,29627,
521.0,AUBURN AVE,ANDERSON,SC,29626,
415.0,14F N MAIN ST,Greenville,SC,29601,
1591.0,SHILLINGS BRIDGE RD,ORANGEBURG,SC,29115,
2164.0,CHESTER HWY,YORK,SC,29745,
123.0,BOUNTY ST,CHARLESTON,SC,29492,
4976.0,WESCOTT BLVD,SUMMERVILLE,SC,29485,
3384.0,CALHOUN ST,BRANCHVILLE,SC,29432,
130.0,S MAIN ST,SUMMERVILLE,SC,29483,
30.0,11TH ST,Greenville,SC,29611,
4605.0,WILLISTON RD,WILLISTON,SC,29853,
137.0,SISKEN DR,WEST COLUMBIA,SC,29169,
190.0,R M FURTICK RD,SPRINGFIELD,SC,29146,
,LODGES LN,LAKE WYLIE,SC,29710,203.0
644.0,GRAHAM RD,LAKE CITY,SC,29560,
495.0,PELION RD,PELION,SC,29123,
585.0,RAINBOW FALLS RD,GRANITEVILLE,SC,29829,
258.0,RETHA DR,LAKE CITY,SC,29560,
1136.0,MILLHOUSE DR,ROCK HILL,SC,29730,
5117.0,CHARLOTTE HWY,LAKE WYLIE,SC,29710,
3049.0,LESSLIE HWY,ROCK HILL,SC,29730,
828.0,CLUB LN,SUMTER,SC,29154,
1830.0,MARTIN CIR,Myrtle Beach,SC,29579,
509.0,TAYRN DR,WANDO,SC,29492,
7486.0,C AUGUSTA RD,Greenville,SC,29673,
536.0,PALMETTO LN,ANDERSON,SC,29625,
26.0,HEATHWOOD DR,Charleston,SC,29407,
3102.0,SWEET PL,WANDO,SC,29492,
3920.0,OVERHILL DR,FLORENCE,SC,29505,
212.0,WOODHAVEN DR,PENDLETON,SC,29670,
27.0,FUDORA CIR,Greenville,SC,29681,
623.0,UNIVERSITY FOREST CIR,Conway,SC,29526,
118.0,WILDWOOD LN,MONCKS CORNER,SC,29461,
1137.0,FORT CONGAREE TRL,CAYCE,SC,29033,
400.0,SUNSET DR,ANDERSON,SC,29625,3.0
601.0,HIGHLAND GLEN CT,WALHALLA,SC,29691,
126.0,THOMAS PARK RD,NORTH AUGUSTA,SC,29841,
1007.0,BRADFORD LN,Longs,SC,29568,
101.0,JACKSON ST,CLINTON,SC,29325,
120.0,MCELMURRAY FARM RD,JACKSON,SC,29831,
1909.0,BRIGADOONE LN,FLORENCE,SC,29505,
18.0,ASCOT ALY,Charleston,SC,29401,
518.0,OSCAR ST,Greenville,SC,29601,
101.0,AUTUMN PL,YORK,SC,29745,
5.0,MAJESTIC OAK CT,Greenville,SC,29609,
5325.0,PEBBLE LN,Conway,SC,29526,
123.0,SOARING WAY,SUMMERVILLE,SC,29486,
240.0,DARCY AV,GOOSE CREEK,SC,29445,
500.0,WENWOOD RD,Greenville,SC,29607,913.0
2960.0,SHADELAND CIR,FLORENCE,SC,29501,
129.0,BEACON LIGHT RD,ST MATTHEWS,SC,29135,
2062.0,MARETT BLVD,ROCK HILL,SC,29732,
104.0,WINTERGREEN CT,LEXINGTON,SC,29072,
3.0,CATHERINE ST,LAURENS,SC,29360,
15.0,LANGLEY ST,PELZER,SC,29669,
3095.0,CEDRIC CT,FORT MILL,SC,29715,
6.0,BENDINGWOOD CT,Greenville,SC,29687,
129.0,PHILLIP DR,WEST COLUMBIA,SC,29170,
104.0,HELEN DR,SUMMERVILLE,SC,29483,
3520.0,POOLES MILL RD,SWANSEA,SC,29160,
414.0,BARN SWALLOW DR,Greenville,SC,29680,
5.0,RUTLEDGE BLVD,Charleston,SC,29401,
1520.0,BUSBY RD,ANDERSON,SC,29626,
1216.0,CHESAPEAK DR,Aynor,SC,29511,
990.0,CAROLINA AVE,ORANGEBURG,SC,29115,
735.0,CHERRY LN,ORANGEBURG,SC,29115,
1600.0,SEDGEFIELD DR,Murrells Inlet,SC,29576,
202.0,CRESTWOOD DR,AIKEN,SC,29803,
1004.0,STAFFORD AVE,NORTH,SC,29112,
490.0,WOOD RD,Greenville,SC,29687,
1249.0,CELEBRATION BLVD,FLORENCE,SC,29501,
10013.0,TOURNAMENT BLVD,Murrells Inlet,SC,29576,
739.0,LEVEE DR,MONCKS CORNER,SC,29461,
10.0,WEXFORD CLUB DR, ,SC,29928,
106.0,COMMERCIAL CIR,WESTMINSTER,SC,29693,
735.0,SOCIETY RD,MCCLELLANVILLE,SC,29458,
401.0,BRISTLECONE DR,LADSON,SC,29456,
513.0,CENTERVILLE RD,HARTSVILLE,SC,29550,
3106.0,EDWARDS RD,Greenville,SC,29687,
105.0,JEFFERY DR,ANDERSON,SC,29621,
239.0,TRADITION WAY,ROCK HILL,SC,29732,
3847.0,PANTHER AV,GOOSE CREEK,SC,29445,
2025.0,SIXTH AVE,Conway,SC,29527,
544.0,JIM ISGETT,HARTSVILLE,SC,29550,
2550.0,ANCHOR WATCH DR,WADMALAW,SC,29487,
1319.0,LUKE BOUKNIGHT RD,STARR,SC,29684,
303.0,GARNET ST,DARLINGTON,SC,29532,
408.0,CRAPS WEEKS RD,GILBERT,SC,29054,
6029.0,EDMUND HWY,LEXINGTON,SC,29073,
140.0,RICH DR,PELZER,SC,29669,
124.0,FIRETHORN DR,GOOSE CREEK,SC,29445,
81.0,SANDBAR LN,FOLLY BEACH,SC,29439,
172.0,CAROLINA POINTE WAY,Little River,SC,29566,
3015.0,ITHICA DR,SUMTER,SC,29154,
3568.0,STORM BRANCH RD,BEECH ISLAND,SC,29842,
2720.0,MOUNT OLIVET RD,HARTSVILLE,SC,29550,
101.0,COURTLAND DR,Greenville,SC,29617,
220.0,BAY BLOSSOM DR,WALTERBORO,SC,29488,
141.0,CLEVEIRVINE AVE,Greenville,SC,29607,
465.0,BEAR CREEK,LITTLE MOUNTAIN,SC,29075,
831.0,CLEVELAND ST,Greenville,SC,29601,218.0
199.0,BEAVER RUN,CHERAW,SC,29520,
101.0,W RESPITE LN,SUMMERVILLE,SC,29483,
353.0,BASSWOOD CT,Conway,SC,29526,
110.0,TALON DR,Conway,SC,29527,
704.0,SPRING LAKE LOOP,Greenville,SC,29681,
103.0,HENNING CT,Greenville,SC,29681,
2200.0,OLD SANDERS DR,Little River,SC,29566,
3415.0,SPENCER RD,REMBERT,SC,29128,
415.0,ROSEWOOD DR,FLORENCE,SC,29501,
3973.0,DANDELION AVE,COUNTY,SC,29418,
214.0,HOLLY CREST CIR,Greenville,SC,29681,
217.0,EVANSDALE WAY,Greenville,SC,29680,
1654.0,HARDY DR,ROCK HILL,SC,29732,
105.0,REDWOOD CIR,SPARTANBURG,SC,29301,
4280.0,NELSON RD,Little River,SC,29566,
3129.0,HIGHWAY 252,HONEA PATH,SC,29654,
205.0,HARTIN BLVD,SUMMERVILLE,SC,29486,
2.0,TASHA DR,PELZER,SC,29669,
2212.0,MAXCY ST,Charleston,SC,29412,
365.0,BRAKEWOOD DR,ROCK HILL,SC,29732,
859.0,GOLDEN PLOVER LN,ROCK HILL,SC,29732,
6.0,ROXTON LOOP,Greenville,SC,29681,
285.0,ASCAUGA LAKE RD,GRANITEVILLE,SC,29829,
395.0,ST JOHN ST,ORANGEBURG,SC,29115,
913.0,JEFFERSON RD,SUMTER,SC,29153,
1.0,BROAD ST,ORANGEBURG,SC,29115,
704.0,JOHNSON ST,Conway,SC,29527,
144.0,SIERRA LN,COUNTY,SC,29472,
819.0,DOYLE ST,WESTMINSTER,SC,29693,
11454.0,LONG CREEK DR,WESTMINSTER,SC,29693,
2805.0,WADE HAMPTON BLVD,Greenville,SC,29687,14.0
125.0,GUILFORD DR,Summerville,SC,29483,
248.0,GARVIN DR,WAGENER,SC,29164,
4.0,WOODBURN RIDGE RD,SPARTANBURG,SC,29302,
1717.0,PLATT SPRINGS RD,WEST COLUMBIA,SC,29169,
130.0,CROXTON RD,WILLIAMSTON,SC,29697,
492.0,SPANN ST,MOUNT PLEASANT,SC,29464,
419.0,FREEMAN LN,ROUND O,SC,29474,
427.0,WEST PALMS DR,Myrtle Beach,SC,29579,
10.0,STONEGATE DR, ,SC,29926,
540.0,LIVINGSTON TER,ORANGEBURG,SC,29118,
1240.0,JESSAMINE ST,CAYCE,SC,29033,
108.0,COLLINS ST,EASLEY,SC,29642,
3501.0,HIGHWAY 81 N,ANDERSON,SC,29621,131.0
108.0,HOLLY DR,SPARTANBURG,SC,29301,
711.0,WOODFIELD DR,ANDERSON,SC,29621,
103.0,QUAIL DR,SPARTANBURG,SC,29302,
6148.0,LISBON RD,MOUNTVILLE,SC,29370,
306.0,YELLOW JASMINE DR,SENECA,SC,29678,
1310.0,OAKLAND AVE,CAYCE,SC,29033,
1324.0,WINCHESTER DR,Charleston,SC,29407,
4803.0,B WHITE HORSE RD,Greenville,SC,29611,
102.0,CLEVELAND ST,Summerville,SC,29483,
1314.0,CENTERVILLE RD,ANDERSON,SC,29625,
109.0,BALSAM ST,UNION,SC,29379,
138.0,AMOS ST,SPARTANBURG,SC,29306,
6243.0,B WHITE HORSE RD,Greenville,SC,29611,
140.0,HIIDDEN PALMS BLVD,SUMMERVILLE,SC,29485,
103.0,SCHOOL ST,Greenville,SC,29651,239.0
607.0,E CHARLOTTE AVE,SUMTER,SC,29150,
13.0,RIKER ST,Charleston,SC,29403,
367.0,FIRENZE LP,Myrtle Beach,SC,29579,
823.0,CONGRESS ST   N,YORK,SC,29745,
468.0,WINDY RD,GILBERT,SC,29054,
4227.0,CONGRESSIONAL DR,Myrtle Beach,SC,29579,
4848.0,OAK LEAF RD,SUMMERVILLE,SC,29485,
907.0,LAKE CLUB DR,ROCK HILL,SC, ,
3863.0,CARLISLE CHESTER HWY,CARLISLE,SC,29031,
113.0,DUNMOW DR,COUNTY,SC,29485,
1501.0,ST GEORGE LN,Myrtle Beach,SC,29588,
1650.0,AVENUE A,Charleston,SC,29412,
123.0,SHELTON RD,WEST COLUMBIA,SC,29170,
1107.0,WOODTREE CT,COLUMBIA,SC,29212,
1081.0,RIVER RD,JOHNS ISLAND,SC,29455,
103.0,DRURY LN,Greenville,SC,29662,
204.0,GUTHRIE AVE,BELTON,SC,29627,
533.0,MEDORA LN,TEGA CAY,SC,29708,
101.0,ADELAIDE DR,Greenville,SC,29615,
379.0,RIKARD SCHOOL,PROSPERITY,SC,29127,
211.0,MCSWAIN DR,CLINTON,SC,29325,
412.0,RIDGEWAY ST,SUMTER,SC,29153,
1977.0,DOWNEY ST,ROCK HILL,SC,29732,
3209.0,GOLF COURSE RD,County,SC,29666,
1139.0,HUNTER TRAIL CT,ROCK HILL,SC,29730,
5.0,THAMES DR,Greenville,SC,29687,
0.0,RUNNING BROOK LN,NORTH,SC,29112,
20.0,CHEYNE ST,SUMTER,SC,29153,
616.0,MARRIA LN,JOHNSONVILLE,SC,29555,
1236.0,HORSESUGAR RD,CLOVER,SC,29710,
107.0,GOLF VIEW LN,Greenville,SC,29609,
1090.0,CHANDLER DR,ROCK HILL,SC,29732,
334.0,LAKE MARION LN,VANCE,SC,29163,
301.0,DAIRY FARM RD,WESTMINSTER,SC,29693,
426.0,TWELVE OAKS LN,TEGA CAY,SC,29708,
34.0,LAKE BREEZE SPUR RD,CROSS HILL,SC,29332,
1605.0,FARM SPRINGS RD,SUMMERVILLE,SC,29483,
7744.0,DOAR RD,AWENDAW,SC,29429,
6389.0,IDA LN,Conway,SC,29527,
1539.0,BURNSWICK DR,JOHNS ISLAND,SC,29455,
14.0,POWHATAN LN,CROSS HILL,SC,29332,
103.0,SHEFFIELD ST,NORTH AUGUSTA,SC,29841,
62.0,SALLY ST,WEDGEFIELD,SC,29168,
134.0,MELLARD DR,GOOSE CREEK,SC,29445,
108.0,WEBB ST,ANDERSON,SC,29624,
97.0,MARKET POINT DR,Greenville,SC,29607,1124.0
898.0,STALLION SPIRIT TR,CLOVER,SC,29710,
115.0,SINGING PINES DR,WEST COLUMBIA,SC,29170,
5183.0,TIM RUFF RD,LAKE WYLIE,SC,29710,
4886.0,OLD YORK RD,ROCK HILL,SC,29732,
,SPRINGSTEEN RD,ROCK HILL,SC,29730,311.0
172.0,OLD SANDY RUN RD,GASTON,SC,29053,
491.0,CHAPMAN RD,FOUNTAIN INN,SC,29644,
234.0,SHADY GROVE RD,COUNTY,SC,29018,
2450.0,CASTLEREAGH RD,Charleston,SC,29414,
404.0,COKER AV,HARTSVILLE,SC,29550,
6755.0,MT BETHEL GARMANY,NEWBERRY,SC,29108,
104.0,RAINBOW CIR,Greenville,SC,29662,23.0
103.0,ASHE ST,LEXINGTON,SC,29073,
3.0,23RD AV,ISLE OF PALMS,SC,29451,
5410.0,CANE SAVANNAH RD,WEDGEFIELD,SC,29168,
533.0,S GREEN ST,RIDGELAND,SC,29936,
317.0,SPRING MIST CT,LEXINGTON,SC,29072,
2820.0,DANNY RD,FLORENCE,SC,29501,
1124.0,COAKLEY RD,MOUNT PLEASANT,SC,29466,
316.0,WILLINGHAM RD,WILLIAMSTON,SC,29697,
8.0,SANDY LN,AIKEN,SC,29801,
6073.0,DONGOLA HWY,Conway,SC,29527,
,HAMILTONS HARBOR DR,LAKE WYLIE,SC,29710,932.0
1240.0,SOCIETY HILL RD,DARLINGTON,SC,29540,
65.0,CIRCLE DR,CAYCE,SC,29033,
300.0,WOODHAVEN DR,SEABROOK OF HH FRASIER CENTER,SC,29928,
189.0,JASPER SUTTON RD,GASTON,SC,29053,
1614.0,GIVHANS RD,COUNTY,SC,29472,
204.0,QUAIL RUN CIR,Greenville,SC,29644,
120.0,JORDAN SIMMONS RD,COUNTY,SC,29483,
449.0,TORY RD,PAGELAND,SC,29728,
1602.0,SEDGEFIELD DR,Murrells Inlet,SC,29576,
228.0,E  SHIRLEY RD,PAMPLICO,SC,29583,
301.0,DUNCAN RD,Greenville,SC,29690,
360.0,FOX RIDGE LN,MONCKS CORNER,SC,29461,
1550.0,GATOR TRAK,CHARLESTON,SC,29414,
926.0,CLEVELAND ST,Greenville,SC,29601,3201.0
1903.0,HALLE RD,Johns Island,SC,29455,
82.0,PADDLE BOAT LN,BRIGHTON BAY,SC,29928,
4.0,BAILEY KNOLL CT,Greenville,SC,29681,
252.0,MEETING ST,Charleston,SC,29401,
1844.0,OLD FOLLY RD,CHARLESTON,SC,29412,
4155.0,COLUMBIA RD,ORANGEBURG,SC,29118,
50.0,GLENWOOD RD,Greenville,SC,29615,104.0
794.0,DILLS BLUFF RD,CHARLESTON,SC,29412,
6033.0,MAYBANK HWY,WADMALAW,SC,29487,
2647.0,BATTLE TRAIL DR,Johns Island,SC,29455,
246.0,ADLEY WAY,Greenville,SC,29607,
1129.0,ESTATE DR,CLOVER,SC,29710,
5457.0,CHAPLINS LANDING RD,HOLLYWOOD,SC,29449,
4991.0,SCOTTS BRANCH RD,REMBERT,SC,29128,
4816.0,HARVEST MOON CT,SUMMERVILLE,SC,29485,
125.0,ALSTON CIR,GOOSE CREEK,SC,29445,
14.0,LOLANDRA AV,CHARLESTON,SC,29407,
559.0,TWO MILE RUN,Johns Island,SC,29455,
621.0,BROOKWOOD CIR,DARLINGTON,SC,29540,
453.0,JOHNSON RD,HONEA PATH,SC,29654,
105.0,GATHERING ISLAND RD,COUNTY,SC,29485,
11.0,CONYERS ST,SUMTER,SC,29150,
299.0,MILLER RD,Greenville,SC,29662,1.0
71.0,SUMMERFIELD CT,SUMMERFIELD VILLAS,SC,29926,712.0
5884.0,N  RHETT AV,HANAHAN,SC,29410,
1059.0,MINTER AVE,WARRENVILLE,SC,29851,
138.0,ANNIE HALLMAN RD,LEESVILLE,SC,29070,
253.0,CHEROKEE POND TRL,LEXINGTON,SC,29072,
278.0,LILLY LN,Loris,SC,29569,
4729.0,COTTONWOOD DR,Myrtle Beach,SC,29588,
406.0,BRYSON FORD RD,GRAY COURT,SC,29645,
1012.0,PHYSICIANS DR,Charleston,SC,29414,
142.0,ADTHAN CIR,GOOSE CREEK,SC,29445,
101.0,TRAILWOOD DR,Greenville,SC,29644,
342.0,DAMASCUS DR,COUNTY,SC,29483,
101.0,SHERWOOD ST,Greenville,SC,29601,
1030.0,SHOEBUCKLE RD,Loris,SC,29569,
120.0,BROADWATER LOOP,AIKEN,SC,29801,
132.0,HURSEY MILL POND,PAGELAND,SC,29728,
604.0,LAURENS DR,ANDERSON,SC,29621,
9075.0,DRAYTON ST,PINEWOOD,SC,29125,
6119.0,MORNING MIST END,TEGA CAY,SC,29708,
300.0,CAUGHMAN FARM LN,LEXINGTON,SC,29072,
4512.0,MOOREFIELD ST,Greenwood,SC,29653,
3020.0,LOXLEY LN,LADSON,SC,29456,
1732.0,ELM RD,CHARLESTON,SC,29414,
46.0,ANSON ST,Charleston,SC,29401,
409.0,GLEN EAGLES DR,Summerville,SC,29483,
1.0,DRAGSTRIP RD,NORTH,SC,29112,
116.0,SIMMONS AVE,SUMMERVILLE,SC,29483,
4823.0,STATE RD,RIDGEVILLE,SC,29472,
133.0,CAROLINA AVE,SUMTER,SC,29150,
25.0,DRAPER ST,Greenville,SC,29611,441.0
959.0,HARBORTOWNE RD,CHARLESTON,SC,29412,
246.0,RACING LN,COUNTY,SC,29448,
46.0,BROOKSIDE CIR,Greenville,SC,29609,
221.0,GARDA CLOSE,CHAPIN,SC,29036,
210.0,TRAMMELL DR,SENECA,SC,29672,
100.0,GAIL CT,SENECA,SC,29672,13.0
157.0,MAPLERIDGE DR,GOOSE CREEK,SC,29445,
101.0,N HUNTER ST,SENECA,SC,29678,1021.0
1028.0,ANDERSON RD   S,ROCK HILL,SC,29730,
459.0,ENOREE RD,Greenville,SC,29690,
302.0,OAKFIELD PL,MONCKS CORNER,SC,29461,
4210.0,ARBOR CREST CT,Greenville,SC,29644,
250.0,BETHLEHEM CIR,GRANITEVILLE,SC,29829,
1104.0,KRESS RD,YEMASSEE,SC,29945,
2439.0,HIERS CORNER RD,WALTERBORO,SC,29488,
125.0,FRAZIER LN,CORDOVA,SC,29039,
205.0,DURST AVE E,Greenwood,SC,29649,
1753.0,CROSS KEYS HWY,UNION,SC,29379,
317.0,SEVEN OAKS LN,SPARTANBURG,SC,29301,
1111.0,BROOKS POINTE CIR,Greenville,SC,29690,
2106.0,MEMORIAL RD,WILLISTON,SC,29853,
960.0,W BILLY FARROW HWY,HARTSVILLE,SC,29550,
641.0,ROBERSON LN,Loris,SC,29569,
825.0,SHELTER COVE CT,COLUMBIA,SC,29212,
2426.0,HWY 414,Greenville,SC,29690,
2760.0,HOLBROOK RD,FORT MILL,SC,29715,
465.0,S HWY 701,Loris,SC,29569,
4989.0,GREEN DOLPHIN WAY,JOHNS ISLAND,SC,29455,
3504.0,TWIN CHURCH RD,TIMMONSVILLE,SC,29161,3.0
1898.0,FLETCHER DR,SUMTER,SC,29153,
2519.0,TIFFANY TRL,CAYCE,SC,29033,
5.0,GLOVER ST,HARDEEVILLE,SC,29927,
,CHARLOTTE HWY,LAKE WYLIE,SC,29710,303.0
1822.0,CRYSTAL LN,WEST COLUMBIA,SC,29170,
466.0,STONEYCREEK LN,ROCK HILL,SC,29730,
31.0,CROSS YARD,Greenville,SC,29607,
2137.0,D O T AV,SCRANTON,SC,29591,
114.0,COMISKEY PARK CIR,SUMMERVILLE,SC,29485,
3676.0,LOWCOUNTRY HWY,YEMASSEE,SC,29945,
1895.0,VOX HWY,JOHNSONVILLE,SC,29555,
176.0,WEAVER ST,AIKEN,SC,29801,
9919.0,HIGHWAY 78,LADSON,SC,29456,
743.0,GLOSSY IBIS LN,JOHNS ISLAND,SC,29455,
805.0,BRIXTON CIR,Greenville,SC,29681,
75.0,W 26, ,SC, ,
1808.0,WINFIELD WAY,Charleston,SC,29414,
353.0,BARONY DR,Conway,SC,29526,
,PATRIOT PKWY,ROCK HILL,SC,29730,101.0
602.0,GAYLE ST,North Myrtle Beach,SC,29582,
2293.0,N CENTER RD,HARTSVILLE,SC,29550,
7.0,BROCK ST,PELZER,SC,29669,
105.0,CHERRY ST,BELTON,SC,29627,
35.0,MOUNT VISTA AVE,Greenville,SC,29605,
405.0,WISE FERRY RD,LEXINGTON,SC,29072,
3829.0,WANNAMAKER RD,Nichols,SC,29581,
174.0,PAT GARRETT DR,FOUNTAIN INN,SC,29644,
407.0,JASMIN DR,ANDERSON,SC,29626,
113.0,JOSIE CT,LEXINGTON,SC,29073,
1102.0,JORDAN ST,SUMTER,SC,29153,
113.0,BIG DOG LN,EUTAWVILLE,SC,29048,
328.0,PICKENS DR,PENDLETON,SC,29670,
491.0,OCEAN CREEK DR,Myrtle Beach,SC,29572,
4421.0,N HIGHWAY 17,AWENDAW,SC,29429,
208.0,Miracle Dr,Unspecified,SC,29048,
1226.0,TEAL AV,CHARLESTON,SC,29412,
105.0,N NELSON DR,Greenville,SC,29644,
2340.0,EMIL RD,WEDGEFIELD,SC,29168,
156.0,PINE CREEK COURT EXT,Greenville,SC,29605,
10.0,RUBY ST,GLOVERVILLE,SC,29828,
319.0,EASLER DR,ST STEPHEN,SC,29479,
11.0,REHOBETH CIR,Greenville,SC,29673,
1134.0,ABERCROMBIE RD,FOUNTAIN INN,SC,29644,
608.0,1ST AVE S,Myrtle Beach,SC,29577,
1907.0,TREE CIR,Surfside Beach,SC,29575,
825.0,COVELO LN,Myrtle Beach,SC,29579,
1500.0,W PARKER RD,Greenville,SC,29617,
3750.0,JUNIPER BAY RD,Conway,SC,29527,
3291.0,COPE RD,COPE,SC,29038,
,JOSIE LN,TEGA CAY,SC,29708,108.0
3359.0,KIRKWALL DR,SUMMERVILLE,SC,29485,
4255.0,HARBOUR LAKE DR,GOOSE CREEK,SC,29445,
85.0,PRESERVATION DR,Myrtle Beach,SC,29572,
2648.0,LINCO LN PARK DR,Conway,SC,29527,
348.0,ANVIL DRAW PL,ROCK HILL,SC,29730,
,NORTHCUTT RD,PELION,SC,29123,
1027.0,JERVEY POINT RD,WANDO,SC,29492,
392.0,MIKE DR,ORANGEBURG,SC,29118,
6116.0,HIGHWAY 24,TOWNVILLE,SC,29689,
,HERITAGE DR,North Myrtle Beach,SC,29582,
1088.0,BARGAIN DR,CROSS,SC,29436,
2756.0,COOPERS CT,Myrtle Beach,SC,29579,
451.0,EASTERN ISLE AV,SUMMERVILLE,SC,29486,
100.0,CHARLEY DR,ANDERSON,SC,29625,
418.0,MAGGIE RD,MOUNT PLEASANT,SC,29464,
2935.0,SCENIC DR,WEST COLUMBIA,SC,29170,
450.0,PLAYSIDE DR,BRANCHVILLE,SC,29432,
200.0,MERRIFIELD DR,Greenville,SC,29615,
,CYPRESS POINT DR,ROCK HILL,SC,29730,207.0
246.0,HAYWOOD ST,BUFFALO,SC,29321,
430.0,BERRY RD,Greenville,SC,29687,
14.0,BRUNNER CT,Greenville,SC,29650,
3735.0,LAKE SWAMP RD,DARLINGTON,SC,29532,
488.0,CHALET,PROSPERITY,SC,29127,
2193.0,CATTLE CREEK RD,ROWESVILLE,SC,29133,
6567.0,LONG BRANCH SWAMP RD,Nichols,SC,29581,
1662.0,CITADEL LN,Myrtle Beach,SC,29577,
109.0,HARTFORD PL,WEST COLUMBIA,SC,29172,
803.0,TEMPLE RD,LADSON,SC,29456,
193.0,HEATH DR,Longs,SC,29568,
118.0,BERKLEY DR,EASLEY,SC,29642,
504.0,35TH AVE N,Myrtle Beach,SC,29577,
5041.0,SONG SPARROW WAY,COUNTY,SC,29483,
112.0,ROLLING ROCK RD,COLUMBIA,SC,29212,
1.0,MAPLE ST,ORANGEBURG,SC,29115,
17.0,SEVIER ST,Greenville,SC,29605,
130.0,RIVER LANDING DR,CHARLESTON,SC,29492,8200.0
1499.0,JOHN C CALHOUN DR,ORANGEBURG,SC,29115,
342.0,BRADLEY BEND DR,MONCKS CORNER,SC,29461,
1500.0,S OAK ST,SENECA,SC,29678,212.0
6109.0,WATER LILY DR,Greenville,SC,29680,
117.0,HYACINTH ST,Summerville,SC,29483,
503.0,N HWY 52,MONCKS CORNER,SC,29461,
210.0,W 3RD NORTH ST,SUMMERVILLE,SC,29483,
101.0,OAK GROVE LAKE RD,Greenville,SC,29615,
215.0,EVERGREEN DR,WALHALLA,SC,29691,
159.0,CANDY LN,WESTMINSTER,SC,29693,
129.0,MIDDLEFIELD RD,LITTLE MOUNTAIN,SC,29075,
101.0,PEARL,PAGELAND,SC,29728,
1017.0,HOFFMAN RD,HARTSVILLE,SC,29550,
924.0,LEISURE POINT,PROSPERITY,SC,29127,
104.0,MIDWAY DR,Greenville,SC,29661,
265.0,GARDENERS CIR,JOHNS ISLAND,SC,29455,
107.0,HERD AVE,BELTON,SC,29627,
8506.0,STONEBRIDGE DR,NORTH CHARLESTON,SC,29420,
215.0,PINECREST DR,Greenville,SC,29662,
1.0,DEVILS ELBOW,Charleston,SC,29407,
5003.0,PADDY FIELD WAY,LADSON,SC,29456,
1035.0,COMANCHEE TRL,WEST COLUMBIA,SC,29169,
201.0,KENWOOD DR,WESTMINSTER,SC,29693,
1433.0,MARSHY BANKS DR,HARTSVILLE,SC,29550,
2202.0,HICKSON RD,SCRANTON,SC,29591,
106.0,FAIRFAX DR,Greenville,SC,29617,
4866.0,CAUSEY POND RD,AWENDAW,SC,29429,
1204.0,FARM LANE DR,HARTSVILLE,SC,29550,
26320.0,HWY 9,PAGELAND,SC,29728,
0.0,JAMISON AVE,ORANGEBURG,SC,29115,
102.0,DELANEY CIR,COUNTY,SC,29485,
438.0,HEMLOCK AV,ROCK HILL,SC,29730,
1000.0,WILLIAM HILTON PKWY,VILLAGE AT WEXFORD,SC,29928,201.0
,HARRISON RD,COUNTY,SC,29437,
421.0,S CHARLESTON RD,DARLINGTON,SC,29532,
257.0,STONEWALL JACKSON RD,WAGENER,SC,29164,
1304.0,BRIARWOOD RD,Greenwood,SC,29646,
128.0,FRANCES JONES BLVD, ,SC,0,
105.0,MIRACLE MILE DR,ANDERSON,SC,29621,
2889.0,ROSEDALE DR,ORANGEBURG,SC,29115,
704.0,67TH AVE N,Myrtle Beach,SC,29572,
4294.0,COTTAGEVILLE HWY,ROUND O,SC,29474,
2458.0,GLOVER RD,JOHNS ISLAND,SC,29455,
40.0,SMYTHE ST,PELZER,SC,29669,
16219.0,ACE BASIN PKWY,ROUND O,SC,29474,
1528.0,BENEDICT ST,CAYCE,SC,29033,
1506.0,HWY 15,Myrtle Beach,SC,29577,60.0
404.0,RICHWAY DR,Murrells Inlet,SC,29576,
238.0,WEXFORD PL,RIDGELAND,SC,29936,
806.0,JORDAN RD,North Myrtle Beach,SC,29582,
861.0,TYNE DR,FORT MILL,SC,29715,
505.0,PIN OAK DR,LEXINGTON,SC,29073,
31.0,REBELLION RD,Charleston,SC,29407,
606.0,CHACE AVE,Greenwood,SC,29646,
339.0,ANDERSON RD   N,ROCK HILL,SC,29730,
34.0,QUARTERMASTER DR,SALEM,SC,29676,
490.0,ALYSIA CT,ROCK HILL,SC,29732,
1153.0,CHEMUNG CT,Surfside Beach,SC,29575,
36.0,DEALLYON AVE,SPRINGWOOD VILLAS,SC,29928,25.0
2078.0,GOLD HILL RD,TEGA CAY,SC,29708,
1524.0,JUNIPER ST,Charleston,SC,29407,
1410.0,MILL POND RD,EARLY BRANCH,SC,29916,
406.0,PALMETTO DR,NORTH,SC,29112,
3511.0,LEBANON RD,EFFINGHAM,SC,29541,
50.0,GLOUCESTER RD, ,SC,29928,
103.0,VIRGINIA DR,WALHALLA,SC,29691,
4975.0,SEEWEE RD,AWENDAW,SC,29429,
10.0,CAPEWOOD RD,Greenville,SC,29680,115.0
20.0,SHRINERS KNOLL,NEWBERRY,SC,29108,
163.0,E STAGECOACH RD,CROSS HILL,SC,29332,
3.0,PARKSTON AVE,Greenville,SC,29605,
206.0,SHAWN CT,BELTON,SC,29627,
92.0,WESTEDGE ST,Charleston,SC,29403,
306.0,E CAROLINA AVE,CLINTON,SC,29325,
25.0,WEBB AVE,SUMTER,SC,29150,
344.0,POUND RD,GASTON,SC,29053,
1911.0,BRISTOL PKWY,ROCK HILL,SC,29732,
235.0,CYPRESS POINT,CHAPPELLS,SC,29037,
201.0,STARVIEW DR,Conway,SC,29526,
680.0,BEIDLER FOREST RD,COUNTY,SC,29437,
1048.0,JESSAMINE DR,MONCKS CORNER,SC,29461,
4409.0,ELDERWOOD DR,LADSON,SC,29456,
611.0,PINEWOOD,CHERAW,SC,29520,
1036.0,SPRING HILL RD,GILBERT,SC,29054,
207.0,MILLIONAIRE RD,Greenwood,SC,29666,
4275.0,AMBER LN,Galivants Ferry,SC,29544,
219.0,MEMORIAL AVE,SUMTER,SC,29153,
376.0,GIVENS CREEK TR,ROCK HILL,SC,29730,
9040.0,TEAL DR,Murrells Inlet,SC,29576,
2.0,MURDOCK LN,Greenville,SC,29651,
9.0,DAVIS ST,Greenville,SC,29609,
301.0,JULIOUS LN,LAKE CITY,SC,29560,
668.0,GLENDALYN AVE,SPARTANBURG,SC,29302,
3055.0,BREVARD DR,GRANITEVILLE,SC,29829,
44.0,BEECH BRANCH RD,GRAY COURT,SC,29645,
222.0,JARED DR,LAURENS,SC,29360,
419.0,W WHITNER ST,ANDERSON,SC,29624,50.0
117.0,JOHNNY REB DR,MONCKS CORNER,SC,29461,
171.0,RANCHETTE CIR,Myrtle Beach,SC,29588,
6222.0,PEPPER GRASS TR,RAVENEL,SC,29470,
21.0,CHURCH ST,Charleston,SC,29401,
103.0,ILDERTON ST,SUMMERVILLE,SC,29483,
1210.0,W  EVANS ST,FLORENCE,SC,29501,
255.0,LOST TRAIL DR,Greenville,SC,29356,
1789.0,DICK POND RD,Surfside Beach,SC,29575,
3.0,KEELIN LN,Greenville,SC,29650,
4320.0,N OLD HWY 14,Greenville,SC,29651,
2724.0,W  PALMETTO ST,FLORENCE,SC,29501,8.0
133.0,CAPERS ST,Greenville,SC,29605,
105.0,CHICKASAW RUN,WILLIAMSTON,SC,29697,
6.0,DEERFIELD CT, ,SC,29926,
618.0,37TH AVE S,North Myrtle Beach,SC,29582,
825.0,WOODSIDE AVE,Greenville,SC,29611,
701.0,E WHITNER ST,ANDERSON,SC,29624,
117.0,RIVERTOWN BLVD,Conway,SC,29527,
4110.0,EDENBOROUGH DR,Myrtle Beach,SC,29588,
114.0,SANTA ANA PL,WEST COLUMBIA,SC,29170,
1034.0,OUTAWAYS RD,AIKEN,SC,29803,
3.0,WIMBLEDON CT,PORT ROYAL VILLAGE,SC,29928,
671.0,LONGSTREET RD,ST MATTHEWS,SC,29135,
215.0,LENOX DR,Conway,SC,29526,
,DORSEY ST,WALTERBORO,SC,29488,
825.0,CRYSTAL SPRINGS DR,PELION,SC,29123,
2611.0,WHITEHALL AVE,ANDERSON,SC,29621,
1981.0,BROOKSTONE WAY,ROCK HILL,SC,29732,
160.0,LUPINE CIR,NORWAY,SC,29113,
181.0,WHITESIDE CIR,WEST COLUMBIA,SC,29169,
18.0,YOSEMITE CIR,SUMTER,SC,29154,
208.0,FOUR IRON DR,Summerville,SC,29483,
430.0,PHILLIPS MCCALL RD,Greenville,SC,29651,
2251.0,DYKMAN CIR,Little River,SC,29566,
536.0,SPRUCE HOLLOW LN,LAKE WYLIE,SC,29710,
108.0,FOX FARM WAY,Greenville,SC,29651,
454.0,CAROLINA SPRINGS RD,NORTH AUGUSTA,SC,29841,
969.0,DANTZLER ST,ORANGEBURG,SC,29115,
110.0,LANDSDALE DR,SPARTANBURG,SC,29302,
603.0,SPRING MEADOW WAY,Greenville,SC,29680,
716.0,LESTER PARRISH RD,BATESBURG,SC,29006,
1627.0,KALLARAMO RD,ROCK HILL,SC,29732,
229.0,BALFER DR,Greenville,SC,29615,
13.0,CREEK CT,AIKEN,SC,29803,
111.0,LIBRARY HILL LN,LEXINGTON,SC,29072,
179.0,TOOMERS HILL LN,WALTERBORO,SC,29488,
6635.0,J.J. ROBERTS DR,SUMTER,SC,29154,
305.0,TOLLGATE RD,Greenville,SC,29681,
2157.0,SHADY POND DR,LAKE WYLIE,SC,29710,
453.0,LONGLEAF DR,COUNTY,SC,29483,
,AMESBURY CT,CLOVER,SC,29710,205.0
134.0,WOFFORD RD,Greenville,SC,29687,
248.0,DOVE TRACE DR,WEST COLUMBIA,SC,29170,
508.0,FENTON PL,ROCK HILL,SC, ,
705.0,DUPRE DR,SPARTANBURG,SC,29307,
2204.0,COUNTRY CLUB RD,Greenville,SC,29651,
108.0,TERRAPIN CIR,SUMMERVILLE,SC,29486,
3050.0,OLD CHARLESTON RD,GILBERT,SC,29054,
1.0,MUSIC RD,HOLLY HILL,SC,29059,
109.0,BLUE JASMINE LN,Summerville,SC,29483,
112.0,MORELL DR,Greenville,SC,29681,
1224.0,FOREST DR,HARTSVILLE,SC,29550,
198.0,S RETREAT RD,WESTMINSTER,SC,29693,
1620.0,JUNIPER ST,Charleston,SC,29407,
8465.0,PATRIOT BLVD,NORTH CHARLESTON,SC,29420,
241.0,BELTLINE RD,UNION,SC,29379,
38.0,WATSON CEMETERY,RUBY,SC,29741,
2631.0,POINSETT HWY,Greenville,SC,29609,203.0
3.0,RIDDLE RD,Greenville,SC,29607,
107.0,WOODVIEW DR,LAURENS,SC,29360,
1295.0,RACE TRACK RD,SUMTER,SC,29153,
2906.0,OLIVE ST,ANDERSON,SC,29625,
815.0,E BUTLER RD,Greenville,SC,29607,311.0
44.0,WALDROP RD,Greenville,SC,29687,
22.0,HARBOURSIDE LN,DISNEY RESORT,SC,29928,1914.0
4388.0,BAYSHORE DR,Little River,SC,29566,
30060.0,HWY 1,McBEE,SC,29101,
202.0,CHESSWOOD DR,SENECA,SC,29678,
184.0,KEITH DR,WARRENVILLE,SC,29851,
3035.0,RHODODENDRON PL,LAKE WYLIE,SC,29710,
544.0,BRADLEY DR,NORTH AUGUSTA,SC,29841,
1128.0,LINERSVILLE RD,BUFFALO,SC,29321,
1653.0,DIARY DR,ROCK HILL,SC,29732,
3765.0,MYRTLE BEACH HWY,SUMTER,SC,29153,
1300.0,CENTRAL AVE,SUMMERVILLE,SC,29483,
801.0,LEMON GRASS CT,BROAD CREEK HEALTH CARE CENTER,SC,29928,232.0
1441.0,MAIN ST,BONNEAU,SC,29431,
738.0,HENDRICKS RD,EASLEY,SC,29642,
19.0,CROOKED CREEK CIR,Greenville,SC,29673,
116.0,ALSTON CIR,GOOSE CREEK,SC,29445,
282.0,SWEET ALYSSUM DR,LADSON,SC,29456,
213.0,OCEAN MARSH RD,JOHNS ISLAND,SC,29455,
315.0,VENTURE DR,WEST UNION,SC,29696,
300.0,S  WALLACE ST,LAKE CITY,SC,29560,30.0
36.0,EDGEWATER DR,SUMTER,SC,29150,
1429.0,COOL BROOK DR,DARLINGTON,SC,29532,
1018.0,RETREAT AV,MONCKS CORNER,SC,29461,
109.0,MILL ST,HARLEYVILLE,SC,29448,
65.0,GORDON ST,Charleston,SC,29403,
538.0,DANFIELD DR,CLOVER,SC,29710,
326.0,SECTION THREE CIR,Myrtle Beach,SC,29577,
17.0,HEADLANDS DR, ,SC,29926,
688.0,MOON SHADOW ST,AIKEN,SC,29803,
,INDIA HOOK RD,ROCK HILL,SC,29732,101.0
8023.0,RED ROCK WAY,GRANITEVILLE,SC,29829,
2969.0,MAGNOLIA ST,ORANGEBURG,SC,29115,
0.0,TODD CREEK RD,NEESES,SC,29107,
525.0,HEMLOCK AV,ROCK HILL,SC,29730,
,N OCEAN BLVD,Myrtle Beach,SC,29577,
24.0,BUNGALOW CT,AIKEN,SC,29803,
207.0,BREWER,PAGELAND,SC,29728,
101.0,FALCON DR,COUNTY,SC,29485,
403.0,IDLEWILD AVE,Greenville,SC,29605,
515.0,WESLEY CT,STARR,SC,29684,
126.0,CLEARBRANCH RD,CARLISLE,SC,29031,
610.0,PIEDMONT HWY,Greenville,SC,29673,
110.0,CURETON ST,Greenville,SC,29605,
505.0,NEW STATE RD,CAYCE,SC,29033,
2253.0,WAVERLY WOODS DR,FLORENCE,SC,29505,
0.0,HAYDEN RD,NORTH,SC,29112,
141.0,STEPHENSON LN,COLUMBIA,SC,29212,
207.0,MITCHELL ST,LAURENS,SC,29360,
721.0,MILLER RD,SUMTER,SC,29150,
,GREENWICH BLVD,LAKE WYLIE,SC,29710,122.0
714.0,3RD AVE N,Surfside Beach,SC,29575,
1399.0,W MAIN ST,WEST UNION,SC,29696,
373.0,GRADY DR,ROCK HILL,SC,29732,
,DREWSKY LN,FORT MILL,SC,29715,108.0
2965.0,REMINGTON DR,SUMTER,SC,29154,
105.0,QUEEN DR,ANDERSON,SC,29625,
717.0,BERKSHIRE AVE,Myrtle Beach,SC,29577,
1193.0,SHAWS FORK RD,AIKEN,SC,29805,
403.0,N  COIT ST,FLORENCE,SC,29501,
605.0,FAIRWAY DR,FLORENCE,SC,29501,
703.0,ROPER CREEK DR,Greenville,SC,29615,
204.0,KINGSTON RD,County,SC,29649,
201.0,W WASHINGTON ST,Greenville,SC,29601,804.0
2557.0,FLORENCE HARLLEE BLVD,FLORENCE,SC,29506,
110.0,S  PERRY ST,BATESBURG,SC,29006,
157.0,STATE POND RD,GASTON,SC,29053,
18.0,MCINTOSH RD, ,SC,29926,
,JEFFERSON AV,ROCK HILL,SC,29730,
118.0,CYPRESS WOODS CT,LEXINGTON,SC,29072,
7539.0,S HWY 905,Longs,SC,29568,
9601.0,SCARBOROUGH CT,SUMMERVILLE,SC,29485,
3307.0,NEW RD,Conway,SC,29527,
1015.0,FLINT HILL ST,ROCK HILL,SC,29730,
3611.0,W  CUMMINGS RD,TIMMONSVILLE,SC,29161,
2812.0,GRANDVIEW DR,Greenville,SC,29680,
1315.0,LEE RD,Aynor,SC,29511,
3460.0,HWY 45,Loris,SC,29569,
2074.0,EBINPORT RD,ROCK HILL,SC,29732,
354.0,HART CUT RD,Greenville,SC,29661,
237.0,PLATINUM DR,LEXINGTON,SC,29072,
906.0,W  CEDAR ST,FLORENCE,SC,29501,
118.0,LAUREL VIEW LN,Greenville,SC,29607,
0.0,PRITCHER DR,HOLLY HILL,SC,29059,
112.0,WYNNSUM TRL,LEXINGTON,SC,29073,
102.0,HONEY HORN DR,Greenville,SC,29681,
420.0,BETHEL SCHOOL RD,CLOVER,SC,29710,
20.0,KENT LN,Greenville,SC,29609,
5654.0,BACKWOODS DR,FLORENCE,SC,29506,
,ARCHIE ST,FORT MILL,SC,29715,
10304.0,PINE TRAIL LN,Summerville,SC,29486,
703.0,CUNNINGHAM ST,CHARLESTON,SC,29492,
301.0,POWELL MILL RD,SPARTANBURG,SC,29301,
352.0,HELIX RD,Greenwood,SC,29646,
2418.0,MARCHBANKS AVE,ANDERSON,SC,29621,
66.0,POPE AVE,CORAL SANDS NORTH,SC,29928,
216.0,SAWYER CIR,CHARLESTON,SC,29492,
1677.0,GREENFIELD RD,DARLINGTON,SC,29540,
2006.0,BRISTOL PKWY,ROCK HILL,SC,29732,
1018.0,LIVE OAK AV,MONCKS CORNER,SC,29461,
782.0,E BUTLER RD,Greenville,SC,29662,1015.0
7706.0,KINARD RD,Greenwood,SC,29666,
185.0,A SHELTON RD,Greenville,SC,29690,
586.0,MT GALLANT RD,ROCK HILL,SC,29730,
3333.0,WESTPHAL DR,JOHNS ISLAND,SC,29455,
3104.0,WATERWAY BLVD,ISLE OF PALMS,SC,29451,
516.0,PORTMAN LN   N,TEGA CAY,SC,29708,
3215.0,ENCLAVE PARIS DR,Greenville,SC,29609,
32.0,ORANGE ST,Greenville,SC,29609,
2704.0,DRAGSTRIP RD,NORTH,SC,29112,
1.0,MYRTLE DR,ORANGEBURG,SC,29115,
2600.0,E  BRIARWOOD DR,FLORENCE,SC,29505,
1138.0,VIPER RD,PINEVILLE,SC,29468,
110.0,CATFISH CIR,RIDGELAND,SC,29936,
230.0,LONGVIEW ST,LEXINGTON,SC,29073,
3776.0,BACK PEN RD,JOHNS ISLAND,SC,29455,
413.0,ELLEN ST,ANDERSON,SC,29624,
1954.0,SUZANNE ST,JOHNS ISLAND,SC,29455,
975.0,CHESTERFIELD HWY,CHERAW,SC,29520,
4052.0,LOBLOLLY AVE,Little River,SC,29566,
204.0,CAMERON CREEK LN,Greenville,SC,29681,
110.0,SUMTER ST,LAURENS,SC,29360,
613.0,PARKWOOD DR,ANDERSON,SC,29625,
307.0,ROSE GARDEN CT,ROCK HILL,SC,29732,
119.0,CURETON ST,Greenville,SC,29605,
6710.0,WISTERIA DR,Myrtle Beach,SC,29588,
241.0,MELANN PASS,LEXINGTON,SC,29073,
87.0,LINDA DR,LAURENS,SC,29360,
104.0,GREENPOINT DR,SUMMERVILLE,SC,29486,
304.0,SHELTER BAY,PROSPERITY,SC,29127,
320.0,SUGAR RIDGE CT,TEGA CAY,SC,29708,
115.0,PINE CIR,PELZER,SC,29669,
323.0,MAIN ST,SENECA,SC,29678,
1925.0,BACONS BRIDGE RD,Summerville,SC,29485,
215.0,THOMPSON RD,PENDLETON,SC,29670,
0.0,GOODSON LN,MCBEE,SC,29101,
3035.0,OLD POND RD,JOHNS ISLAND,SC,29455,
5.0,SEASIDE SPARROW, ,SC,29928,
4470.0,STARKS FERRY RD,SUMTER,SC,29154,
7022.0,CHELSEA DAY LN,TEGA CAY,SC,29708,
901.0,SAMARIA RD,SPRINGFIELD,SC,29146,
231.0,APPIAN DR,SPARTANBURG,SC,29306,
15.0,LENORA DR, ,SC,29926,
1727.0,INDIGO ISLAND DR,HANAHAN,SC,29410,
1409.0,STONEBRIAR LN,LAKE WYLIE,SC,29710,
116.0,PEMBERTON RD,COUNTY,SC,29483,
1920.0,MARLIN DR,LAKE WYLIE,SC,29710,
254.0,NOTABLE LN,ROCK HILL,SC,29732,
13.0,MEADOWLARK LN,CYPRESS,SC,29926,
130.0,CHARLESTOWNE WAY,ANDERSON,SC,29621,
842.0,BOB ADAMS RD,UNION,SC,29379,
209.0,TWIN LAKE RD,Greenville,SC,29609,
3049.0,HARRIS MILL DR,COUNTY,SC,29420,
,N HWY 701,Conway,SC,29526,
1.0,BOYER RD,HOLLY HILL,SC,29059,
61.0,JOURNEY RD,SENECA,SC,29678,
371.0,ORR DR,ROCK HILL,SC,29730,
1722.0,TWO NOTCH RD SE,AIKEN,SC,29803,
4320.0,KANGAROO LN,PINEWOOD,SC,29125,
118.0,ROSELLE AV,GOOSE CREEK,SC,29445,
2076.0,HAGAN DR,Green Sea,SC,29545,
3705.0,E  WINLARK DR,FLORENCE,SC,29506,
815.0,AMBER HILL CIR,CROSS HILL,SC,29332,
6459.0,HUCKS RD,Conway,SC,29526,
11192.0,JEFFERIES HWY,WALTERBORO,SC,29488,
0.0,NANCE ST,ORANGEBURG,SC,29115,
315.0,CONIFER CIR,LEXINGTON,SC,29073,
305.0,CRAYTON ST,ANDERSON,SC,29621,
228.0,EAGLE POINT RD,JOHNS ISLAND,SC,29455,
111.0,JOCASSEE TRC,LEXINGTON,SC,29072,
41.0,DIXIE CIR,Greenville,SC,29605,10.0
1055.0,EBENEZER AVENUE EXT,ROCK HILL,SC,29732,
450.0,BETHEL CH RD,LAURENS,SC,29360,
4100.0,BRIAR PATCH CT,Myrtle Beach,SC,29579,
368.0,PINE LOG RD,BEECH ISLAND,SC,29842,
40.0,GOVERNORS RD,RESIDENTS CLUB WEST,SC,29928,2830.0
110.0,PRESSLEY ST,CLOVER,SC,29710,
116.0,OAKVIEW DR,BELTON,SC,29627,
215.0,RICHFIELD TER,Greenville,SC,29650,
276.0,CAY RD,Loris,SC,29569,
213.0,HAMBY RD,STARR,SC,29684,
4.0,CASA LOMA DR,Greenville,SC,29687,
98.0,TURNBERRY CT,RIDGELAND,SC,29910,
2418.0,MARCHBANKS AVE,ANDERSON,SC,29621,
1100.0,RIVER BAY LN,Charleston,SC,29492,
2211.0,HUDSON RD,Greenville,SC,29650,916.0
133.0,WATERFRONT DR,BRANCHVILLE,SC,29018,
4.0,MCLENDON DR,Greenville,SC,29611,
179.0,RIVERS EDGE DR,Conway,SC,29526,
257.0,CALDWELL,PROSPERITY,SC,29127,
417.0,GEDDISVILLE RD,COUNTY,SC,29426,
3004.0,CAMBRIDGE RD,ANDERSON,SC,29625,
385.0,ADAMS RD,UNION,SC,29379,
124.0,SENNVILLE LN,LEXINGTON,SC,29073,
13206.0,PARKVIEW LN,Summerville,SC,29486,
929.0,TORSION LN,CLOVER,SC,29710,
108.0,DAWN ST,HARDEEVILLE,SC,29927,
110.0,GERALDSON DR,EUTAWVILLE,SC,29048,
336.0,GLENCOVE CT,LEXINGTON,SC,29072,
