NUMBER,STREET,CITY,STATE,POSTCODE,UNIT
5304.0,S DANBERRY DR,SIOUX FALLS,SD,57106,
716.0,W SHADY HILL ST,SIOUX FALLS,SD,57108,
4069.0,S TUSCANY CT,SIOUX FALLS,SD,57103,
46569.0,238TH ST,COLMAN,SD,57017,
177.0,S HARMON DR,MITCHELL,SD,57301,
106.0,RANNEY AVE,RAYMOND,SD,57258,
519.0,INDIANA ST,RAPID CITY,SD,57701,
623.0,POWDERHORN PASS,BROOKINGS,SD,57006,
812.0,E 4TH AVE,MITCHELL,SD,57301,
19328.0,466TH AVE,ESTELLINE,SD,57234,
3427.0,WESTVIEW LOOP,SPEARFISH,SD,57783,
3034.0,NEW ENGLAND ST,RAPID CITY,SD,57703,
3301.0,E RICE ST,SIOUX FALLS,SD,57103,
20079.0,CANNING RD,BLUNT,SD,57522,
719.0,N SANDBERG DR,SIOUX FALLS,SD,57110,
512.0,S GRANT ST,MILBANK,SD,57252,
112.0,15TH ST SE,WATERTOWN,SD,57201,
1317.0,E 12TH ST,SIOUX FALLS,SD,57103,
17.0,N 5TH ST,CUSTER,SD,57730,
2419.0,MINNEWASTA RD,RAPID CITY,SD,57702,
25562.0,CARROLL CREEK RD,CUSTER,SD,57730,
1533.0,MAIN ST,STURGIS,SD,57785,
2800.0,S STATICE AVE,SIOUX FALLS,SD,57106,
117.0,BENGAL DR,RAPID CITY,SD,57701,
17074.0,INDIAN CREEK RD,SCENIC,SD,57780,
110.0,SWISS DR,RAPID CITY,SD,57702,
1425.0,E 5TH ST,SIOUX FALLS,SD,57103,
208.0,5TH AVE NE,ABERDEEN,SD,57401,
48523.0,257TH ST,GARRETSON,SD,57030,
45851.0,294TH ST,CENTERVILLE,SD,57014,
32091.0,SD HIGHWAY 19,VERMILLION,SD,57069,
14.0,2ND ST NE,WATERTOWN,SD,57201,
107.0,16TH ST NW,WATERTOWN,SD,57201,
209.0,S SANBORN ST,CHAMBERLAIN,SD,57325,
19590.0,161ST ST,FAITH,SD,57626,
144.0,LOST LN,YANKTON,SD,57078,
1733.0,MARSHALL RD,ABERDEEN,SD,57401,
5907.0,PINE ST,BLACK HAWK,SD,57718,
707.0,N HUGHES AVE,BLUNT,SD,57522,
221.0,TWIN OAKS LN,BROOKINGS,SD,57006,
33673.0,228TH ST,FORT THOMPSON,SD,57339,
27095.0,TRAIL RIDGE CT,HARRISBURG,SD,57032,
2009.0,S SERTOMA AVE,SIOUX FALLS,SD,57106,
725.0,DILFER AVE,RAPID CITY,SD,57701,
256.0,W LAKE DR,ESTELLINE,SD,57234,
46740.0,265TH ST,SIOUX FALLS,SD,57107,
7616.0,W STONEY CREEK ST,SIOUX FALLS,SD,57106,
46543.0,200TH ST,BRUCE,SD,57220,
19600.0,N TWIN CREEK RD,HOWES,SD,57748,
1513.0,S VAN EPS AVE,SIOUX FALLS,SD,57105,
12621.0,DORIS DR,BLACK HAWK,SD,57718,
1000.0,EVERGREEN AVE,ONIDA,SD,57564,
620.0,N WEBER AVE,SIOUX FALLS,SD,57103,
812.0,W 13TH ST,SIOUX FALLS,SD,57104,
624.0,MAIN AVE,GARRETSON,SD,57030,
113.0,SURREY RD,FORT PIERRE,SD,57532,
22755.0,413TH AVE,ARTESIAN,SD,57314,
2003.0,HURLEY DR,STURGIS,SD,57785,
203.0,E SUMMIT AVE,SOUTH SHORE,SD,57263,
35004.0,224TH ST,GANN VALLEY,SD,57341,
48036.0,236TH ST,FLANDREAU,SD,57028,
7324.0,W 52ND ST,SIOUX FALLS,SD,57106,
47318.0,ROGNESS PL,RENNER,SD,57055,
24510.0,315TH AVE,KENNEBEC,SD,57544,
315.0,5TH AVE SE,ABERDEEN,SD,57401,
1620.0,E 3RD ST,SIOUX FALLS,SD,57103,
300.0,E GARFIELD AVE,GETTYSBURG,SD,57442,
1003.0,LAUREL ST,TYNDALL,SD,57066,
147.0,N 3RD ST,CUSTER,SD,57730,
1917.0,S GRINNELL AVE,SIOUX FALLS,SD,57106,
25359.0,CROSSWIND RD,CUSTER,SD,57730,
628.0,OREGON AVE SE,HURON,SD,57350,
502.0,SPRUCE ST,AGAR,SD,57520,
1212.0,N BAHNSON AVE,SIOUX FALLS,SD,57103,
2000.0,S DEVON DR,SIOUX FALLS,SD,57106,
44630.0,285TH ST,HURLEY,SD,57036,
2713.0,S PHILLIPS AVE,SIOUX FALLS,SD,57105,
6250.0,SOUTHSIDE DR,RAPID CITY,SD,57703,
807.0,EAGLE RUN,DELL RAPIDS,SD,57022,
203.0,MAIN ST,BRANDT,SD,57218,
30318.0,432ND AVE,LESTERVILLE,SD,57040,
408.0,US HWY 85,BUFFALO,SD,57720,
310.0,PORT CHARLOTTE AVE,FORT PIERRE,SD,57532,
510.0,E WATERTOWN ST,RAPID CITY,SD,57701,
441.0,HAUCK AVE,BOX ELDER,SD,57719,
319.0,N PARK,WATERTOWN,SD,57201,
808.0,9TH ST,BROOKINGS,SD,57006,
1760.0,S MELGAARD RD,ABERDEEN,SD,57401,
1516.0,E 24TH ST,SIOUX FALLS,SD,57105,
11015.0,WAGON BOX DR,BELLE FOURCHE,SD,57717,
30624.0,464 AVE,CENTERVILLE,SD,57014,
1635.0,30TH ST,BROOKINGS,SD,57006,
513.0,4TH ST,BRADLEY,SD,57217,
44610.0,273RD ST,MARION,SD,57043,
604.0,S JANA PL,SIOUX FALLS,SD,57106,
1985.0,COUNTRY RD,RAPID CITY,SD,57701,
602.0,W PLEASANT DR,PIERRE,SD,57501,
426.0,TELLURIDE LN,BROOKINGS,SD,57006,
2925.0,DAILY DR,MITCHELL,SD,57301,
709.0,NORRIS ST,WALL,SD,57790,
,1ST AVE W,MOBRIDGE,SD,57601,
5105.0,W 49TH ST,SIOUX FALLS,SD,57106,
31374.0,124TH ST,JAVA,SD,57452,
521.0,S MAIN ST,CHAMBERLAIN,SD,57325,
6525.0,W ESSEX TER,SIOUX FALLS,SD,57106,
9348.0,HERITAGE DR,BLACK HAWK,SD,57718,
47037.0,196TH ST,BRUCE,SD,57220,
3202.0,PARKVIEW DR,RAPID CITY,SD,57701,
44205.0,261ST ST,CANISTOTA,SD,57012,
208.0,N HIGH ST,MENNO,SD,57045,
506.0,SUNSET DR,DELL RAPIDS,SD,57022,
307.0,N LARIMER ST,PHILIP,SD,57567,
405.0,E PATHWAYS AVE S,LENNOX,SD,57039,
403.0,S EAST ST,GETTYSBURG,SD,57442,
101.0,NEVADA LN,OACOMA,SD,57365,
10223.0,US HIGHWAY 16,NEWCASTLE,SD,57735,
6109.0,W 58TH ST,SIOUX FALLS,SD,57106,
800.0,N CLIFF AVE,SIOUX FALLS,SD,57103,
2008.0,TWIN ELMS DR,RAPID CITY,SD,57702,
120.0,S VAN EPS AVE,SIOUX FALLS,SD,57103,
204.0,E 2ND ST,MILLER,SD,57362,
13183.0,335TH AVE,ROSCOE,SD,57471,
9470.0,RATH LN,BLACK HAWK,SD,57718,
46597.0,214TH ST,VOLGA,SD,57071,
922.0,E 7TH AVE,REDFIELD,SD,57469,
24167.0,DEWEY LN,HERMOSA,SD,57744,
1002.0,CHRISTINE AVE,BROOKINGS,SD,57006,
421.0,W 1ST AVE,LENNOX,SD,57039,
929.0,12TH ST S,BROOKINGS,SD,57006,
605.0,W 18TH ST,SIOUX FALLS,SD,57105,
511.0,W 1ST AVE,AVON,SD,57315,
41791.0,234TH ST,FEDORA,SD,57337,
874.0,CANARY LN,HURON,SD,57350,
1711.0,S PHILLIPS AVE,SIOUX FALLS,SD,57105,
1818.0,S CAMPBELL TRL,SIOUX FALLS,SD,57106,
134.0,MAIN AVE S,BROOKINGS,SD,57006,
37624.0,161ST ST,ATHOL,SD,57424,
25241.0,RENEGADE PASS RD,CUSTER,SD,57730,
3435.0,W 84TH PL,SIOUX FALLS,SD,57108,
4501.0,E 3RD ST,SIOUX FALLS,SD,57110,
6800.0,S LYNCREST AVE,SIOUX FALLS,SD,57108,
903.0,9TH AVE NE,WATERTOWN,SD,57201,
420.0,S HAWTHORNE AVE,SIOUX FALLS,SD,57104,
307.0,N BISMARK ST,PARKSTON,SD,57366,
508.0,S MAIN ST,TRIPP,SD,57376,
1021.0,ASH ST,WHITEWOOD,SD,57793,
220.0,N VAN BUREN AVE,PIERRE,SD,57501,
1105.0,CONKLIN ST,LEOLA,SD,57456,
1902.0,JUNCTION AVE,STURGIS,SD,57785,
1700.0,1ST AVE SW,WATERTOWN,SD,57201,
202.0,N 10TH ST,EUREKA,SD,57437,
5008.0,PIERRE ST,RAPID CITY,SD,57702,
,E COLLEGE AVE,RAPID CITY,SD,57701,
3763.0,PONDEROSA TRL,RAPID CITY,SD,57702,
36624.0,171ST ST,ROCKHAM,SD,57470,
1705.0,W 10TH ST,SIOUX FALLS,SD,57104,
313.0,E MAPLE ST,CANTON,SD,57013,
825.0,S MAPLE ST,WATERTOWN,SD,57201,
122.0,HILLCREST DR,RAPID CITY,SD,57701,
3803.0,S BANYAN AVE,SIOUX FALLS,SD,57110,
13040.0,164TH AVE,PRAIRIE CITY,SD,57649,
22602.0,S ROCHFORD RD,HILL CITY,SD,57745,
102.0,MURPHY ST,YANKTON,SD,57078,
3605.0,S LARCH AVE,SIOUX FALLS,SD,57106,
3437.0,KYLE ST,RAPID CITY,SD,57701,
1118.0,S WESTERN AVE,SIOUX FALLS,SD,57105,
904.0,BROKEN BOW TRL,BROOKINGS,SD,57006,
2201.0,N NORTH DR,SIOUX FALLS,SD,57104,
4590.0,TRAIL DR,RAPID CITY,SD,57703,
16539.0,OLD STONEVILLE RD,UNION CENTER,SD,57787,
108.0,BIRCH AVE,AURORA,SD,57002,
4949.0,S DUNLAP CT,SIOUX FALLS,SD,57106,
1207.0,W HURST AVE,MITCHELL,SD,57301,
801.0,9TH AVE,KADOKA,SD,57543,
1024.0,WOOD AVE,RAPID CITY,SD,57701,
10005.0,S HIGH MEADOWS DR,BLACK HAWK,SD,57718,
506.0,N PENNSYLVANIA ST,ABERDEEN,SD,57401,
303.0,3RD ST SW,DE SMET,SD,57231,
488.0,MAIN ST,HILL CITY,SD,57745,
507.0,W 3RD ST,YANKTON,SD,57078,
506.0,OAKMONT DR,VERMILLION,SD,57069,
1312.0,9TH ST,RAPID CITY,SD,57701,
5800.0,W WALDEN DR,SIOUX FALLS,SD,57106,
203.0,E 4TH AVE,MILBANK,SD,57252,
46958.0,PRAIRIE VIEW DR,BURBANK,SD,57010,
300.0,E WASHINGTON AVE,SALEM,SD,57058,
404.0,S 5TH ST,MILBANK,SD,57252,
416.0,E 2ND ST,REDFIELD,SD,57469,
4804.0,ENCHANTED PINES DR,RAPID CITY,SD,57701,
104.0,W SYCAMORE ST,PARKSTON,SD,57366,
691.0,DEADWOOD AVE,RAPID CITY,SD,57702,
316.0,5TH AVE SW,ABERDEEN,SD,57401,
48315.0,267TH ST,BRANDON,SD,57005,
40348.0,US HWY 14,HURON,SD,57350,
1009.0,9TH AVE SW,ABERDEEN,SD,57401,
1405.0,LAUREL ST,TYNDALL,SD,57066,
705.0,W ASH ST,PARKSTON,SD,57366,
110.0,CASE ST,YANKTON,SD,57078,
6013.0,CREEK DR,BLACK HAWK,SD,57718,
1516.0,BURLEIGH ST,YANKTON,SD,57078,
4801.0,S ARDEN AVE,SIOUX FALLS,SD,57103,
1721.0,11TH ST,RAPID CITY,SD,57701,
203.0,LINDLEY ST,LANGFORD,SD,57454,
311.0,E PIPESTONE AVE,FLANDREAU,SD,57028,
1425.0,N DAKOTA AVE,SIOUX FALLS,SD,57104,
28.0,MONROE ST,RAPID CITY,SD,57701,
901.0,S TOPAZ PL,SIOUX FALLS,SD,57106,
21.0,PARADISE DR,WATERTOWN,SD,57201,
25170.0,LITTLE ITALY RD,CUSTER,SD,57730,
400.0,2ND ST,HUDSON,SD,57034,
1430.0,CHARLES ST,SPEARFISH,SD,57783,
24962.0,US HIGHWAY 14 3 4,HAYES,SD,57537,
46845.0,265TH ST,SIOUX FALLS,SD,57106,
3422.0,S MINNESOTA AVE,SIOUX FALLS,SD,57105,
1306.0,S MAIN ST,ABERDEEN,SD,57401,
320.0,NW 2ND ST,MADISON,SD,57042,
602.0,E 6TH ST,GREGORY,SD,57533,
45481.0,SCHULZ RD,SISSETON,SD,57262,
802.0,N IRENE PL,SIOUX FALLS,SD,57107,
721.0,23RD AVE NE,ABERDEEN,SD,57401,
1710.0,S 8TH AVE,SIOUX FALLS,SD,57105,
503.0,2ND ST NE,LAKE PRESTON,SD,57249,
504.0,E LYNN AVE,CANTON,SD,57013,
515.0,NW 3RD ST,MADISON,SD,57042,
12326.0,LOHRE RD,SISSETON,SD,57262,
36429.0,111TH ST,LEOLA,SD,57456,
230.0,TWIN OAKS LN,BROOKINGS,SD,57006,
1005.0,S WEST CTR,MADISON,SD,57042,
29057.0,HOLLY RD,PIERRE,SD,57501,
734.0,E INVERNESS DR,SIOUX FALLS,SD,57108,
901.0,W HWY 14&34,FORT PIERRE,SD,57532,
1017.0,1ST AVE SW,WATERTOWN,SD,57201,
3112.0,S 5TH AVE,SIOUX FALLS,SD,57105,
401.0,E 5TH ST,BRIDGEWATER,SD,57319,
175.0,WILDWOOD DR,MISSION HILL,SD,57046,
6000.0,W 41ST ST,SIOUX FALLS,SD,57106,
1802.0,14TH AVE SE,WATERTOWN,SD,57201,
2513.0,LAUREL AVE,RAPID CITY,SD,57701,
200.0,N 2ND AVE,REVILLO,SD,57259,
117.0,RIDGEWAY DR,YANKTON COUNTY,SD,57078,
1003.0,5TH AVE E,MOBRIDGE,SD,57601,
3709.0,E 20TH ST,SIOUX FALLS,SD,57103,
408.0,S LINCOLN ST,MILBANK,SD,57252,
3104.0,W CRIMSON ST,SIOUX FALLS,SD,57108,
45932.0,291ST ST,CENTERVILLE,SD,57014,
2705.0,WISCONSIN AVE,RAPID CITY,SD,57701,
311.0,11TH ST E,LEMMON,SD,57638,
20.0,DEADWOOD AVE,RAPID CITY,SD,57702,
719.0,W 4TH ST,CANTON,SD,57013,
530.0,6TH ST,RAPID CITY,SD,57701,
702.0,OLD HOLLOW ST,SISSETON,SD,57262,
317.0,E GRAND XING,MOBRIDGE,SD,57601,
428.0,ROBBINS DR,RAPID CITY,SD,57701,
808.0,S WELLS ST,ABERDEEN,SD,57401,
11306.0,434TH AVE,LAKE CITY,SD,57247,
3905.0,E 21ST ST,SIOUX FALLS,SD,57103,
907.0,6TH ST,EUREKA,SD,57437,
39342.0,118TH ST,COLUMBIA,SD,57433,
23722.0,MULLIGAN MILE,RAPID CITY,SD,57702,
19723.0,481ST AVE,TORONTO,SD,57213,
24249.0,US HWY 14,MIDLAND,SD,57552,
39109.0,281ST ST,ARMOUR,SD,57313,
327.0,EVANS LN,SPEARFISH,SD,57783,
611.0,S LOWELL PL,PIERRE,SD,57501,
11296.0,PILGER MT RD,EDGEMONT,SD,57735,
410.0,5TH AVE NE,WATERTOWN,SD,57201,
1100.0,E 6TH ST,WINNER,SD,57580,
7621.0,DOROTHY DR,BLACK HAWK,SD,57718,
1218.0,WISCONSIN AVE SW,HURON,SD,57350,
6608.0,EASTRIDGE RD,BLACK HAWK,SD,57718,
107.0,DUBOISE LN,SPEARFISH,SD,57783,
18955.0,411TH AVE,CARPENTER,SD,57322,
6930.0,BLACK HAWK RD,BLACK HAWK,SD,57718,
127.0,LAMBEAU CT,RAPID CITY,SD,57701,
1507.0,S WASHINGTON ST,ABERDEEN,SD,57401,
45086.0,228TH ST,MADISON,SD,57042,
1220.0,N HOLLY AVE,SIOUX FALLS,SD,57104,
6903.0,AINSDALE CT,RAPID CITY,SD,57702,
407.0,BILL DAVIS ST,EGAN,SD,57024,
314.0,BRADDOCK,ARMOUR,SD,57313,
3808.0,S FLORENCE AVE,SIOUX FALLS,SD,57103,
2103.0,S HOLT AVE,SIOUX FALLS,SD,57103,
410.0,STAFFORD ST,SCOTLAND,SD,57059,
40167.0,218TH ST,HURON,SD,57350,
606.0,BRADDOCK ST,ARMOUR,SD,57313,
,CHARLES ST,DEADWOOD,SD,57732,
205.0,CALUMET AVE N,DE SMET,SD,57231,
140.0,11ST ST SW,WATERTOWN,SD,57201,
8.0,INDUSTRIAL PARK,REDFIELD,SD,57469,
209.0,W MAPLE ST,HARRISBURG,SD,57032,
22675.0,448TH AVE,RAMONA,SD,57054,
25456.0,SIDNEY PARK RD,CUSTER,SD,57730,
410.0,N MAIN AVE,BRIDGEWATER,SD,57319,
107.0,HIGH PRAIRIE DR,DELL RAPIDS,SD,57022,
11411.0,PASS CREEK RD,CUSTER,SD,57730,
11.0,CHARLES ST,DEADWOOD,SD,57732,
13100.0,BIG BEND RD,RAPID CITY,SD,57702,
705.0,E SILVER POND PL,SIOUX FALLS,SD,57108,
500.0,16TH ST NE,WATERTOWN,SD,57201,
1900.0,W 60TH ST N,SIOUX FALLS,SD,57107,
205.0,N WASHINGTON ST,VIBORG,SD,57070,
2505.0,PHEASANT RUN BLVD,ABERDEEN,SD,57401,
3407.0,CYPRESS ST,RAPID CITY,SD,57701,
220.0,GIRARD AVE,NEWELL,SD,57760,
529.0,S POPLAR ST,FREEMAN,SD,57029,
1007.0,16TH ST S,BROOKINGS,SD,57006,
1412.0,E OLD HICKORY ST,SIOUX FALLS,SD,57104,
7726.0,N WILD TURKEY DR,STURGIS,SD,57785,
11029.0,364TH AVE,LEOLA,SD,57456,
14499.0,APPLE DR,PIEDMONT,SD,57769,
1025.0,N CARBINE PL,SIOUX FALLS,SD,57103,
812.0,S 4TH ST,MILBANK,SD,57252,
125.0,7TH ST SE,WATERTOWN,SD,57201,
1605.0,W 33RD ST,SIOUX FALLS,SD,57105,
825.0,S LOWELL AVE,SIOUX FALLS,SD,57103,
1400.0,LEGEROS DR,BROOKINGS,SD,57006,
2601.0,MOUNTAIN MEADOW RD,RAPID CITY,SD,57702,
1085.0,N 4TH AVE,BOWDLE,SD,57428,
2501.0,W 39TH ST,SIOUX FALLS,SD,57105,
813.0,5TH AVE,BELLE FOURCHE,SD,57717,
22884.0,S ROCHFORD RD,HILL CITY,SD,57745,
3305.0,S GIBSON AVE,SIOUX FALLS,SD,57106,
31284.0,SD HIGHWAY 19,VERMILLION,SD,57069,
316.0,E DAKOTA AVE,PIERRE,SD,57501,
108.0,10TH AVE SE,ABERDEEN,SD,57401,
715.0,W 12TH ST,SIOUX FALLS,SD,57104,
129.0,S MENLO AVE,SIOUX FALLS,SD,57104,
22726.0,N RANDO CT,BOX ELDER,SD,57719,
712.0,1ST ST NW,WATERTOWN,SD,57201,
1101.0,SAINT JAMES ST,RAPID CITY,SD,57701,
215.0,COTEAU BLVD,SISSETON,SD,57262,
517.0,N DOMINIC AVE,SIOUX FALLS,SD,57107,
5116.0,S TOMAR RD,SIOUX FALLS,SD,57108,
814.0,E DOVE TRL,SIOUX FALLS,SD,57108,
5005.0,W EQUESTRIAN PL,SIOUX FALLS,SD,57106,
5205.0,MEMORIAL RD,RAPID CITY,SD,57702,
6042.0,SPRINGFIELD RD,RAPID CITY,SD,57703,
3556.0,W 91ST PL,SIOUX FALLS,SD,57108,
2709.0,S DULUTH AVE,SIOUX FALLS,SD,57105,
1020.0,CORNELL ST,VERMILLION,SD,57069,
3613.0,N GEMINI DR,SIOUX FALLS,SD,57107,
311.0,S MAIN ST,EMERY,SD,57332,
909.0,E 16TH ST,YANKTON,SD,57078,
5504.0,W 50TH ST,SIOUX FALLS,SD,57106,
1602.0,SUNRISE DR,YANKTON,SD,57078,
614.0,S ARCH ST,ABERDEEN,SD,57401,
24749.0,487TH AVE,GARRETSON,SD,57030,
12471.0,SKYLINE DR,CUSTER,SD,57730,
1.0,HAHN AVE,ROSHOLT,SD,57260,
1606.0,S SYCAMORE AVE,SIOUX FALLS,SD,57110,
5201.0,S LOOP PL,SIOUX FALLS,SD,57108,
2201.0,MINNEKAHTA AVE,HOT SPRINGS,SD,57747,
13789.0,BORGLUM RD,KEYSTONE,SD,57751,
315.0,W BROADWAY ST,VERMILLION,SD,57069,
2501.0,WINDSOR PL,PIERRE,SD,57501,
206.0,W MAPLE ST,PARKSTON,SD,57366,
17976.0,449TH AVE,HAYTI,SD,57241,
19550.0,MORGAN RD,HOWES,SD,57748,
7325.0,S EDINBURG PL,SIOUX FALLS,SD,57108,
204.0,MAPLE ST,YANKTON,SD,57078,
6716.0,S AVALON AVE,SIOUX FALLS,SD,57108,
46090.0,304TH ST,WAKONDA,SD,57073,
23712.0,POT RUSTLER LOOP,PENNCO,SD,57702,
8220.0,ELK CREEK RD,PIEDMONT,SD,57769,
1100.0,W 5TH ST,SIOUX FALLS,SD,57104,
4518.0,PATRICIA ST,RAPID CITY,SD,57703,
28897.0,PUCKETT ST,PIERRE,SD,57501,
5603.0,RAYTHUM LOOP,BROOKINGS,SD,57006,
10693.0,PASS CREEK RD,EDGEMONT,SD,57735,
1205.0,FERDIG AVE,YANKTON,SD,57078,
409.0,3RD AVE E,LEMMON,SD,57638,
1114.0,W MAIN ST,RAPID CITY,SD,57701,
429.0,E 6TH ST,PARKER,SD,57053,
2513.0,S ROOSEVELT CIR,SIOUX FALLS,SD,57106,
311.0,E STATE ST,MARION,SD,57043,
718.0,W 12TH ST,SIOUX FALLS,SD,57104,
19737.0,477TH AVE,TORONTO,SD,57268,
2802.0,RAWHIDE DR,RAPID CITY,SD,57702,
914.0,N MAIN ST,MOBRIDGE,SD,57601,
274.0,E RAILWAY AVE,WAUBAY,SD,57273,
48130.0,328TH ST,ELK POINT,SD,57025,
201.0,S LAFAYETTE ST,PARKSTON,SD,57366,
41905.0,257TH ST,ALEXANDRIA,SD,57311,
817.0,ARIZONA AVE SW,HURON,SD,57350,
1619.0,7TH AVE S,BROOKINGS,SD,57006,
736.0,MISSOULA ST,RAPID CITY,SD,57703,
101.0,N VAN DEMARK AVE,HARTFORD,SD,57033,
30423.0,US HWY 18,WINNER,SD,57580,
211.0,N WICKER ST,CANTON,SD,57013,
12750.0,DOMIVARA RD,RAPID CITY,SD,57702,
29349.0,478TH AVE,HUDSON,SD,57034,
1515.0,S DAKOTA ST,ABERDEEN,SD,57401,
1600.0,DAKOTA ST,YANKTON,SD,57078,
23860.0,BROCKETT LN,RAPID CITY,SD,57702,
13540.0,246TH AVE,TIMBER LAKE,SD,57656,
560.0,6TH ST,CORSICA,SD,57328,
19521.0,408TH AVE,YALE,SD,57386,
224.0,FRONT ST,BROOKINGS,SD,57006,
11108.0,N HIGH MDWS,BLACK HAWK,SD,57718,
26308.0,453RD AVE,CANISTOTA,SD,57012,
312.0,E 3RD AVE,WALL,SD,57790,
15006.0,LONG VIEW RD,PENNCO,SD,57761,
1139.0,EDMUNDS ST,STURGIS,SD,57785,
27272.0,458TH AVE,PARKER,SD,57053,
23008.0,CANDLELIGHT DR,RAPID CITY,SD,57703,
2502.0,13TH AVE SE,ABERDEEN,SD,57401,
3612.0,S KRIS DR,SIOUX FALLS,SD,57103,
700.0,E 4TH ST,FREEMAN,SD,57029,
816.0,16TH AVE NE,ABERDEEN,SD,57401,
320.0,20TH AVE,BROOKINGS,SD,57006,
1108.0,6TH AVE SE,ABERDEEN,SD,57401,
28646.0,408TH AVE,TRIPP,SD,57376,
215.0,E 6TH ST,CANTON,SD,57013,
20137.0,US HWY 281,WOLSEY,SD,57384,
2511.0,DEER BLVD,YANKTON,SD,57078,
21701.0,WICKSVILLE RD,NEW UNDERWOOD,SD,57761,
,S EUCLID AVE,SIOUX FALLS,SD,57104,
3712.0,S JESSE JAMES CT,SIOUX FALLS,SD,57103,
3862.0,PEBBLE BEACH CT,RAPID CITY,SD,57703,
604.0,TANGLEWOOD LN,BOX ELDER,SD,57719,
31182.0,149TH ST,HOVEN,SD,57450,
20471.0,478TH AVE,WHITE,SD,57276,
130.0,S 7TH ST,EMERY,SD,57332,
24449.0,446TH AVE,MONTROSE,SD,57048,
3.0,SUNRISE DR,WATERTOWN,SD,57201,
40383.0,157TH AVE    CONDE,CONDE,SD,57434,
505.0,N CARLA AVE,TEA,SD,57064,
4932.0,STONEY CREEK DR,RAPID CITY,SD,57702,
629.0,NOWLIN ST,RAPID CITY,SD,57701,
810.0,S MAIN ST,ONIDA,SD,57564,
218.0,E DIVISION ST,ARTESIAN,SD,57314,
17624.0,432ND AVE,CLARK,SD,57225,
2902.0,E REEN ST,PIERRE,SD,57501,
20888.0,ELK VALE RD,STURGIS,SD,57785,
4080.0,TOWER RD,RAPID CITY,SD,57701,
48557.0,WESTOVER PL,GARRETSON,SD,57030,
1817.0,SCOTT AVE,SPEARFISH,SD,57783,
400.0,LINCOLN LN,VOLGA,SD,57071,
905.0,COLLEGE AVE N,WESSINGTON SPRINGS,SD,57382,
23035.0,413TH AVE,ARTESIAN,SD,57314,
214.0,4TH ST NE,WESSINGTON SPRINGS,SD,57382,
4300.0,S BANYAN AVE,SIOUX FALLS,SD,57110,
209.0,S PLEASANT ST,CANTON,SD,57013,
402.0,1ST AVE S,CLEAR LAKE,SD,57226,
46059.0,292ND ST,CENTERVILLE,SD,57014,
1920.0,FRANK AVE SE,HURON,SD,57350,
1512.0,38TH ST,RAPID CITY,SD,57702,
120.0,SWISS DR,RAPID CITY,SD,57702,
16725.0,459TH AVE,WATERTOWN,SD,57201,
45259.0,290TH ST,VIBORG,SD,57070,
408.0,E PRAIRIE RD,EAGLE BUTTE,SD,57625,
25495.0,JEWEL RD,CUSTER,SD,57730,
915.0,SAINT CLOUD ST,RAPID CITY,SD,57701,
405.0,1ST ST E,BUFFALO,SD,57720,
712.0,4TH ST W,CLEAR LAKE,SD,57226,
1345.0,16TH ST NE,WATERTOWN,SD,57201,
3539.0,WESTVIEW DR,SPEARFISH,SD,57783,
608.0,N LINCOLN ST,CANTON,SD,57013,
1008.0,IZAAK WALTON RD,PIERRE,SD,57501,
1541.0,LAZELLE ST,STURGIS,SD,57785,
501.0,S 2ND ST,MILBANK,SD,57252,
114.0,BROAD ST,ALCESTER,SD,57001,
2612.0,SUSSEX RD,PIERRE,SD,57501,
23931.0,195TH AVE,PENNCO,SD,57790,
46406.0,275TH ST,LENNOX,SD,57039,
700.0,W BECK ST,WORTHING,SD,57077,
5912.0,S NATURE RUN PL,SIOUX FALLS,SD,57108,
609.0,AUGUSTANA AVE,HARRISBURG,SD,57032,
202.0,MERIWETHER LN,PIERRE,SD,57501,
47148.0,US HWY 12,TWIN BROOKS,SD,57269,
11742.0,W HWY 44,RAPID CITY,SD,57702,
707.0,W MCCABE AVE,MITCHELL,SD,57301,
1900.0,W RIVER BEND ST,BRANDON,SD,57005,
1002.0,S NEWPORT PL,SIOUX FALLS,SD,57106,
23849.0,EMERALD PINES DR,HILL CITY,SD,57745,
7511.0,S LOUISE AVE,SIOUX FALLS,SD,57108,
118.0,S YALE ST,VERMILLION,SD,57069,
31371.0,453RD AVE,GAYVILLE,SD,57031,
307.0,PARK DR,ARLINGTON,SD,57212,
22167.0,KINGS SCHOOL RD,MILESVILLE,SD,57553,
423.0,S MONTANA ST,MITCHELL,SD,57301,
501.0,E ALDER LN,SIOUX FALLS,SD,57105,
1921.0,11TH AVE SW,WATERTOWN,SD,57201,
801.0,W BAYBERRY CIR,SIOUX FALLS,SD,57108,
6521.0,W 5TH ST,SIOUX FALLS,SD,57107,
623.0,BISON TRL,NORTH SIOUX CITY,SD,57049,
14630.0,VESSEY LOOP,SCRANTON,SD,58653,
101.0,MADISON AVE,AURORA,SD,57002,
2013.0,W 13TH ST,SIOUX FALLS,SD,57104,
417.0,E ST FRANCIS ST,RAPID CITY,SD,57701,
207.0,S KLINE ST,ABERDEEN,SD,57401,
100.0,NORTH ST NW,WAGNER,SD,57380,
4601.0,E BELMONT ST,SIOUX FALLS,SD,57110,
121.0,RICHARD ST,YANKTON,SD,57078,
4390.0,W SUNNYSIDE DR,RAPID CITY,SD,57701,
209.0,E 2ND ST,FREEMAN,SD,57029,
2108.0,S JEFFERSON AVE,SIOUX FALLS,SD,57105,
312.0,ILLINOIS AVE,PLATTE,SD,57369,
202.0,W 2ND ST,GREGORY,SD,57533,
2012.0,S BARRET PL,SIOUX FALLS,SD,57106,
46675.0,272ND ST,TEA,SD,57064,
115.0,S WALL ST,LEAD,SD,57754,
905.0,E MAPLE ST,HARRISBURG,SD,57032,
309.0,3RD AVE,BIG STONE CITY,SD,57216,
3.0,N FAIRWAY DR,SIOUX FALLS,SD,57110,
812.0,S WEST AVE,SIOUX FALLS,SD,57104,
333.0,MULE DEER TRL,BOX ELDER,SD,57719,
28782.0,BAD RIVER RD,FORT PIERRE,SD,57532,
3024.0,S 5TH AVE,BOWDLE,SD,57428,
815.0,N DOLAND PL,SIOUX FALLS,SD,57107,
110.0,N 6TH ST,HOT SPRINGS,SD,57747,
923.0,LEMMON AVE,RAPID CITY,SD,57701,
44971.0,177TH ST,WATERTOWN,SD,57201,
217.0,6TH ST SE,WATERTOWN,SD,57201,
2711.0,FALCON CT,VERMILLION,SD,57069,
12724.0,GREEN ACRES RD,HOT SPRINGS,SD,57747,
3901.0,S THUNDERBIRD TRL,SIOUX FALLS,SD,57103,
303.0,E 3RD ST,TRIPP,SD,57376,
1301.0,N LINCOLN AVE,SIOUX FALLS,SD,57104,
1051.0,S WESTERN AVE,HARTFORD,SD,57033,
320.0,N W 4TH,MADISON,SD,57042,
701.0,MOUNTAIN VIEW RD,RAPID CITY,SD,57702,
1223.0,S DUNHAM CIR,SIOUX FALLS,SD,57106,
1329.0,DACAR ST,BELLE FOURCHE,SD,57717,
102.0,N BLAUVELT AVE,SIOUX FALLS,SD,57103,
611.0,TEDDY ST,HARRISBURG,SD,57032,
5004.0,S BRIARWOOD AVE,SIOUX FALLS,SD,57108,
317.0,10TH ST,EUREKA,SD,57437,
222.0,W OAK ST,NEW UNDERWOOD,SD,57761,
1621.0,HOPE ST,STURGIS,SD,57785,
403.0,N CRAWFORD RD,VERMILLION,SD,57069,
3101.0,S CARTER PL,SIOUX FALLS,SD,57105,
3.0,JOHN ST,DEADWOOD,SD,57732,
120.0,E JEFFERSON AVE,SALEM,SD,57058,
1900.0,S WHEATLAND AVE,SIOUX FALLS,SD,57106,
106.0,2ND AVE,BIG STONE CITY,SD,57216,
521.0,S MAIN ST,KIMBALL,SD,57355,
5816.0,W 49TH ST,SIOUX FALLS,SD,57106,
102.0,WALNUT ST,PIEDMONT,SD,57769,
203.0,LILAC AVE,AURORA,SD,57002,
1.0,PERCH RD,LAKE ANDES,SD,57356,
420.0,4TH ST SW,CONDE,SD,57434,
343.0,PARTRIDGE CR,DAKOTA DUNES,SD,57049,
1009.0,N MAIN ST,MOBRIDGE,SD,57601,
48044.0,256TH ST,GARRETSON,SD,57030,
1311.0,N DAKOTA AVE,SIOUX FALLS,SD,57104,
406.0,5TH AVE E,LEMMON,SD,57638,
515.0,S DAKOTA ST,ABERDEEN,SD,57401,
512.0,S 3RD ST,ABERDEEN,SD,57401,
817.0,W 2ND ST,SIOUX FALLS,SD,57104,
21696.0,409TH AVE,CAVOUR,SD,57324,
22291.0,448TH AVE,RAMONA,SD,57054,
1609.0,S 9TH AVE,SIOUX FALLS,SD,57105,
,LINCOLN,BOX ELDER,SD,57706,
24661.0,WHITE TAIL RIDGE RD,HERMOSA,SD,57744,
3420.0,14TH AVE SW,WATERTOWN,SD,57201,
600.0,DACE ST,VOLIN,SD,57072,
1143.0,8TH ST SW,HURON,SD,57350,
312.0,W 6TH AVE,MILBANK,SD,57252,
900.0,W 8TH ST,SIOUX FALLS,SD,57104,
812.0,S DOUGLAS PL,SIOUX FALLS,SD,57106,
1230.0,E 9TH ST,SIOUX FALLS,SD,57103,
2404.0,N WRIGHT AVE,SIOUX FALLS,SD,57107,
103.0,CHERRY CT,CHAMBERLAIN,SD,57325,
203.0,DAKOTA ST E,DOLAND,SD,57436,
2401.0,W 22ND ST,SIOUX FALLS,SD,57117,
73.0,S LAFAYETTE PL,SIOUX FALLS,SD,57110,
919.0,W 6TH ST,SIOUX FALLS,SD,57104,
824.0,MALLOW ST,RAPID CITY,SD,57701,
46901.0,MAIN ST,BURBANK,SD,57010,
1902.0,10TH AVE SW,WATERTOWN,SD,57201,
2704.0,LAKEVIEW DR,YANKTON,SD,57078,
831.0,EXPLORER ST,RAPID CITY,SD,57701,
13783.0,LATIGO LN,PIEDMONT,SD,57769,
2008.0,S BAHNSON AVE,SIOUX FALLS,SD,57103,
2105.0,E 1ST ST,SIOUX FALLS,SD,57103,
20928.0,455TH AVE,ARLINGTON,SD,57212,
7905.0,E OAKMONT PL,SIOUX FALLS,SD,57110,
107.0,S A AVE,NEW UNDERWOOD,SD,57761,
46789.0,BURBANK RD,BURBANK,SD,57010,
211.0,N PETERSON ST,VIBORG,SD,57070,
4409.0,W PANDA DR,SIOUX FALLS,SD,57107,
3736.0,N 6TH AVE,SIOUX FALLS,SD,57104,
10342.0,TIMBER TRL,EDGEMONT,SD,57735,
915.0,N SCOTLAND PL,SIOUX FALLS,SD,57107,
7205.0,E MYSTIC DR,SIOUX FALLS,SD,57110,
802.0,CHURCH ST,LAKE ANDES,SD,57356,
608.0,SHAMROCK DR,HARTFORD,SD,57033,
425.0,W 4TH ST,TEA,SD,57064,
704.0,BURGESS RD,YANKTON,SD,57078,
29323.0,SD HWY 50,WAGNER,SD,57380,
5123.0,AUTUMN PL,RAPID CITY,SD,57702,
225.0,HUMPHREY DR N,DOLAND,SD,57436,
709.0,E 7TH ST,DELL RAPIDS,SD,57022,
3701.0,S PILLSBERRY AVE,SIOUX FALLS,SD,57103,
606.0,W 13TH AVE,WEBSTER,SD,57274,
1919.0,PEBBLE BEACH CIR,BROOKINGS,SD,57006,
438.0,WILDER CT,BOX ELDER,SD,57719,
4325.0,N ALASKA AVE,SIOUX FALLS,SD,57107,
10931.0,COUNTRY CLUB RD,BELLE FOURCHE,SD,57717,
1308.0,E 70TH ST N,SIOUX FALLS,SD,57104,
815.0,35 ST CIR SE,WATERTOWN,SD,57201,
24681.0,S GARFIELD AVE,DELL RAPIDS,SD,57022,
2706.0,KNIGHT CT,RAPID CITY,SD,57702,
2311.0,JUDY AVE,RAPID CITY,SD,57702,
1209.0,S BLAUVELT AVE,SIOUX FALLS,SD,57105,
1516.0,E CRESTVIEW DR,SIOUX FALLS,SD,57103,
505.0,3RD ST NW,WATERTOWN,SD,57201,
1911.0,PINE ST,STURGIS,SD,57785,
705.0,S ROHL DR,SIOUX FALLS,SD,57103,
1840.0,LOMBARDY DR,RAPID CITY,SD,57703,
6408.0,W 53RD ST,SIOUX FALLS,SD,57106,
2008.0,BUFFALO ST,PIERRE,SD,57501,
108.0,S PLEASANT ST,CANTON,SD,57013,
3104.0,S TRENTON CIR,SIOUX FALLS,SD,57103,
5600.0,W DARDANELLA RD,SIOUX FALLS,SD,57106,
1538.0,N KEPP CT,RAPID CITY,SD,57701,
912.0,E MARINA AVE,PIERRE,SD,57501,
31008.0,266TH ST,IDEAL,SD,57541,
121.0,5TH AVE E,MOBRIDGE,SD,57601,
501.0,3RD ST,CHANCELLOR,SD,57015,
107.0,S 1ST AVE,ASHTON,SD,57424,
30075.0,US HWY 18,FAIRFAX,SD,57335,
972.0,OHIO AVE SW,HURON,SD,57350,
509.0,CALUMET AVE SE,DE SMET,SD,57231,
1008.0,DEER LN,BROOKINGS,SD,57006,
2331.0,ARROWHEAD DR,RAPID CITY,SD,57702,
6800.0,S HUGHES AVE,SIOUX FALLS,SD,57108,
17751.0,486TH AVE,GARY,SD,57237,
47432.0,SD HWY 127,ROSHOLT,SD,57260,
129.0,NEBRASKA ST,RAPID CITY,SD,57701,
45751.0,201ST ST,ARLINGTON,SD,57212,
1106.0,S 6TH ST,HOT SPRINGS,SD,57747,
200.0,N 9TH ST,ONIDA,SD,57564,
210.0,BROOK ST E,WESSINGTON,SD,57381,
509.0,N 2ND ST,BERESFORD,SD,57004,
1003.0,LOCUST ST,YANKTON,SD,57078,
504.0,S 1ST AVE,WOONSOCKET,SD,57385,
45572.0,255TH ST,HUMBOLDT,SD,57035,
529.0,BENTLEY AVE,BRADLEY,SD,57217,
1018.0,WESTERN AVE,BROOKINGS,SD,57006,
1109.0,N PENNSYLVANIA ST,ABERDEEN,SD,57401,
4235.0,FIELDSTONE DR,RAPID CITY,SD,57703,
,W 22ND ST,SIOUX FALLS,SD,57105,
4301.0,W 12TH ST,SIOUX FALLS,SD,57106,
409.0,E MAIN ST,CASTLEWOOD,SD,57223,
905.0,S 10TH AVE,SIOUX FALLS,SD,57104,
1900.0,S CLEVELAND AVE,SIOUX FALLS,SD,57103,
,SAINT JOSEPH ST,RAPID CITY,SD,57701,
712.0,W BOX ELDER RD,BOX ELDER,SD,57719,
207.0,7TH ST SW,HURON,SD,57350,
1111.0,43RD ST NW,WATERTOWN,SD,57201,
1106.0,1ST AVE NE,WATERTOWN,SD,57201,
4828.0,S SAMANTHA DR,SIOUX FALLS,SD,57106,
1301.0,W MOOR CROSS CIR,SIOUX FALLS,SD,57108,
3421.0,CHAMPION DR,RAPID CITY,SD,57701,
47176.0,255TH ST,RENNER,SD,57055,
1008.0,7TH ST W,CLEAR LAKE,SD,57226,
6717.0,W 61ST ST,SIOUX FALLS,SD,57106,
823.0,W KEMP AVE,WATERTOWN,SD,57201,
28855.0,HWY 1806,FT PIERRE,SD,57532,
3702.0,ELM AVE,RAPID CITY,SD,57701,
48322.0,249TH ST,SHERMAN,SD,57030,
862.0,ILLINOIS AVE SW,HURON,SD,57350,
208.0,W CUSTER AVE,GETTYSBURG,SD,57442,
3208.0,COUNTRY CLUB DR,RAPID CITY,SD,57702,
1111.0,KANSAS CITY ST,RAPID CITY,SD,57701,
910.0,PICOTTE ST,YANKTON,SD,57078,
207.0,8TH AVE S,CLEAR LAKE,SD,57226,
402.0,N CONGRESS ST,ABERDEEN,SD,57401,
427.0,E 4TH ST,PARKER,SD,57053,
1512.0,E CEDAR ST,BRANDON,SD,57005,
11392.0,US HIGHWAY 14A,LEAD,SD,57754,
14877.0,ANTELOPE CREEK RD,PENNCO,SD,57744,
205.0,E 14TH AVE,TYNDALL,SD,57066,
838.0,E SYCAMORE ST,RAPID CITY,SD,57701,
113.0,W PARK AVE,MILBANK,SD,57252,
2911.0,PIONEER DR,RAPID CITY,SD,57703,
5014.0,MISTY WOODS LN,RAPID CITY,SD,57701,
25.0,W LAFAYETTE ST,HAZEL,SD,57242,
211.0,ABERDEEN ST,HURON,SD,57350,
11449.0,359TH AVE,LEOLA,SD,57456,
7104.0,W PANAMA ST,SIOUX FALLS,SD,57106,
725.0,S PHILLIPS AVE,SIOUX FALLS,SD,57104,
1210.0,ELKHORN PEAK LN,SPEARFISH,SD,57783,
42027.0,310TH ST,SPRINGFIELD,SD,57062,
10430.0,BIG PINEY RD,RAPID CITY,SD,57702,
25748.0,463RD AVE,HARTFORD,SD,57033,
48354.0,US HWY 18,CANTON,SD,57013,
1013.0,S GRANDVIEW AVE,SIOUX FALLS,SD,57103,
3323.0,S FERNWOOD AVE,SIOUX FALLS,SD,57110,
44227.0,288TH ST,FREEMAN,SD,57029,
4.0,MACARTHUR ST,RAPID CITY,SD,57701,
4412.0,S HICKORY HILL RD,SIOUX FALLS,SD,57103,
436.0,S 18TH ST,HOT SPRINGS,SD,57747,
617.0,S LAKOTA CT,BRANDON,SD,57005,
4705.0,S ASH GROVE AVE,SIOUX FALLS,SD,57103,
705.0,N MONTGOMERY CT,SIOUX FALLS,SD,57103,
1211.0,OHIO AVE SW,HURON,SD,57350,
907.0,W 11TH ST,YANKTON,SD,57078,
1030.0,N MAIN AVE,SIOUX FALLS,SD,57104,
817.0,W 5TH AVE,MITCHELL,SD,57301,
5006.0,S BANEBERRY AVE,SIOUX FALLS,SD,57106,
1408.0,E 33RD ST,SIOUX FALLS,SD,57105,
309.0,CEDAR ST,YANKTON,SD,57078,
708.0,N SHEPHERD AVE,SIOUX FALLS,SD,57103,
23293.0,451ST AVE,MADISON,SD,57042,
309.0,S PROSPECT ST,BRYANT,SD,57221,
118.0,N PARK ST NE,WAGNER,SD,57380,
26711.0,455TH AVE,HUMBOLDT,SD,57035,
3006.0,E BRAGSTAD DR,SIOUX FALLS,SD,57103,
570.0,ADAMS DRIVE,BOX ELDER,SD,57719,
1.0,PO BOX,WOOD,SD,57585,
507.0,N GRAND AVE,PIERRE,SD,57501,
4531.0,E 26TH ST,SIOUX FALLS,SD,57110,
200.0,N 2ND AVE,CANISTOTA,SD,57012,
26669.0,HISLE RD,WANBLEE,SD,57577,
2910.0,TRAILWOOD LN,RAPID CITY,SD,57703,
303.0,N 3RD ST,ARLINGTON,SD,57212,
4752.0,WILLIAMS ST,RAPID CITY,SD,57703,
2221.0,N CAREER AVE,SIOUX FALLS,SD,57107,
214.0,N SHERMAN AVE,SIOUX FALLS,SD,57103,
381.0,J ST,CHAMBERLAIN,SD,57325,
305.0,7TH ST,TEA,SD,57064,
44624.0,202ND ST,LAKE PRESTON,SD,57249,
1622.0,S 8TH ST,ABERDEEN,SD,57401,
304.0,MAPLE ST,KADOKA,SD,57543,
805.0,NE 3RD ST,MADISON,SD,57042,
2010.0,E NYE ST,SIOUX FALLS,SD,57103,
430.0,S OTTAWA ST,IROQUOIS,SD,57353,
106.0,JOHNSTON CIR,DELL RAPIDS,SD,57022,
645.0,S 6TH ST,HOT SPRINGS,SD,57747,
312.0,ARTHUR AVE,ESTELLINE,SD,57234,
2211.0,E HWY 44,RAPID CITY,SD,57703,
701.0,S WILLOW AVE,SIOUX FALLS,SD,57104,
105.0,COWBOY ST,COLOME,SD,57528,
1122.0,NE 3RD ST,MADISON,SD,57042,
621.0,N LEE AVE,MADISON,SD,57042,
911.0,W 4TH AVE,MITCHELL,SD,57301,
19753.0,475TH AVE,WHITE,SD,57276,
209.0,E 5TH ST,FREEMAN,SD,57029,
37098.0,111TH ST,LEOLA,SD,57456,
29607.0,314TH AVE,COLOME,SD,57528,
44378.0,281ST ST,MARION,SD,57043,
30.0,BURNHAM AVE,DEADWOOD,SD,57732,
1009.0,ALLEN AVE,RAPID CITY,SD,57701,
804.0,SWAN LAKE DR,VIBORG,SD,57070,
909.0,E 61ST ST,SIOUX FALLS,SD,57108,
25237.0,480TH AVE,GARRETSON,SD,57030,
,MAIN ST,REDFIELD,SD,57469,
127131.0,W BRIDGE RD,ABERDEEN,SD,57401,
927.0,NORBECK COURT,BOX ELDER,SD,57719,
3617.0,REDER ST,RAPID CITY,SD,57702,
2404.0,W 37TH ST,SIOUX FALLS,SD,57105,
13490.0,VALLEY TOWNSHIP RD,VALE,SD,57788,
2149.0,MEADOW LN,RAPID CITY,SD,57703,
1408.0,ROYAL RD,ABERDEEN,SD,57401,
606.0,HIGH ST,PUKWANA,SD,57370,
4904.0,S SWEETBRIARDR,SIOUX FALLS,SD,57108,
5909.0,S GRAND PRAIRIE DR,SIOUX FALLS,SD,57108,
2000.0,W 18TH ST,SIOUX FALLS,SD,57104,
2817.0,W 95TH ST,SIOUX FALLS,SD,57108,
45053.0,BLUE JAY ST,LAKE NORDEN,SD,57248,
2909.0,E 21ST ST,SIOUX FALLS,SD,57103,
1216.0,N 2ND ST,ABERDEEN,SD,57401,
14252.0,W NIKE LOOP,RAPID CITY,SD,57701,
47000.0,250TH ST,BALTIC,SD,57003,
2821.0,WATER VIEW DR,ABERDEEN,SD,57401,
401.0,E 4TH ST,HARTFORD,SD,57033,
1601.0,S SILVER CREEK CIR,SIOUX FALLS,SD,57106,
2409.0,E 7TH ST,SIOUX FALLS,SD,57103,
5409.0,W CHELSEA DR,SIOUX FALLS,SD,57106,
808.0,E 50TH ST N,SIOUX FALLS,SD,57104,
1122.0,LINCOLN AVE NE,WATERTOWN,SD,57201,
621.0,N LEADALE AVE,SIOUX FALLS,SD,57103,
1005.0,LAFRAMBOISE DR,FORT PIERRE,SD,57532,
47175.0,155TH ST,STOCKHOLM,SD,57264,
636.0,STEELE AVE,RAPID CITY,SD,57701,
700.0,BAYBERRY ST,KADOKA,SD,57543,
27065.0,CODY TRL,TEA,SD,57064,
302.0,CARNEY AVE,REE HEIGHTS,SD,57371,
42477.0,289TH ST,OLIVET,SD,57052,
27150.0,SD HWY 115,HARRISBURG,SD,57032,
700.0,MAIN ST,FAULKTON,SD,57438,
304.0,W 5TH ST,HARTFORD,SD,57033,
1347.0,5TH ST,BROOKINGS,SD,57006,
12138.0,RAY SMITH DR,HILL CITY,SD,57745,
213.0,W MAIN ST,BISON,SD,57620,
401.0,21ST AVE NE,ABERDEEN,SD,57401,
35.0,PARADISE DR,WATERTOWN,SD,57201,
27504.0,365TH AVE,PLATTE,SD,57369,
5006.0,COAL BANK DR,RAPID CITY,SD,57701,
,8TH ST,BROOKINGS,SD,57006,
109.0,LINCOLN AVE NW,HURON,SD,57350,
509.0,E 4TH ST,REDFIELD,SD,57469,
45153.0,315TH ST,GAYVILLE,SD,57031,
115.0,N SANDBERG DR,SIOUX FALLS,SD,57110,
1703.0,W UNIVERSAL PL,SIOUX FALLS,SD,57104,
30345.0,RIVER RD,ALCESTER,SD,57001,
13848.0,SD HIGHWAY 40,HERMOSA,SD,57744,
564.0,DAKOTA AVE N,HURON,SD,57350,
3934.0,W CHICAGO ST,RAPID CITY,SD,57702,
12848.0,DAIRY LN,NISLAND,SD,57762,
4.0,9TH ST SE,WATERTOWN,SD,57201,
708.0,S EUCLID AVE,SIOUX FALLS,SD,57104,
306.0,W 9TH AVE,MITCHELL,SD,57301,
6803.0,S LOUISE AVE,SIOUX FALLS,SD,57108,
12785.0,REDIG RD,NEWELL,SD,57776,
509.0,N OLIVE AVE,MADISON,SD,57042,
20504.0,HWY 79,STURGIS,SD,57785,
44128.0,277TH ST,MARION,SD,57043,
900.0,S GORDON DR,SIOUX FALLS,SD,57110,
1053.0,S UNION AVE,MADISON,SD,57042,
501.0,BROADWAY AVE,VALLEY SPRINGS,SD,57068,
217.0,E 15TH ST,SIOUX FALLS,SD,57104,
1706.0,IVY ST,TYNDALL,SD,57066,
303.0,S MAPLE ST,WORTHING,SD,57077,
1326.0,4TH ST,BROOKINGS,SD,57006,
3620.0,PARKVIEW DR,RAPID CITY,SD,57701,
50.0,CLIFF ST,DEADWOOD,SD,57732,
1021.0,W 15TH ST,SIOUX FALLS,SD,57104,
2830.0,MARY ST,YANKTON,SD,57078,
5413.0,N 7TH AVE,SIOUX FALLS,SD,57104,
12361.0,MERRITT RD,STURGIS,SD,57785,
119.0,SD HIWAY 28,WILLOW LAKE,SD,57278,
2120.0,MOOSE DR,STURGIS,SD,57785,
913.0,E PAM RD,SIOUX FALLS,SD,57105,
511.0,17TH ST NE,WATERTOWN,SD,57201,
720.0,S JANA PL,SIOUX FALLS,SD,57106,
13050.0,BOGUS JIM RD,RAPID CITY,SD,57702,
44856.0,225TH ST,RAMONA,SD,57054,
816.0,N LINCOLN AVE,MADISON,SD,57042,
1105.0,11ST AVE NE,WATERTOWN,SD,57201,
27497.0,479TH AVE,HARRISBURG,SD,57032,
215.0,S PEARL ST,MENNO,SD,57045,
702.0,BROADWAY AVE,YANKTON,SD,57078,
22402.0,364TH AVE,WESSINGTON SPRINGS,SD,57382,
20758.0,464TH AVE,BRUCE,SD,57220,
120.0,QUARRY PINE DR,YANKTON,SD,57078,
730.0,N MINNESOTA ST,SALEM,SD,57058,
800.0,9TH AVE,KADOKA,SD,57543,
1836.0,14TH AVE SE,WATERTOWN,SD,57201,
26780.0,407TH AVE,DIMOCK,SD,57331,
410.0,WALNUT ST,YANKTON,SD,57078,
507.0,S PHILLIPS AVE,COLMAN,SD,57017,
216.0,N PINE ST,HENRY,SD,57243,
2335.0,ARROWHEAD DR,RAPID CITY,SD,57702,
,E WALNUT ST,SIOUX FALLS,SD,57103,
19660.0,303RD AVE,BLUNT,SD,57522,
1306.0,MAIN ST,TYNDALL,SD,57066,
301.0,1ST ST S,BRANDT,SD,57218,
217.0,44TH ST,RAPID CITY,SD,57702,
43.0,N MOUNTAIN AVE,CUSTER,SD,57730,
3560.0,MAYER AVE,STURGIS,SD,57785,
929.0,ROTUNDA LN S,BROOKINGS,SD,57006,
105.0,N MAIN ST,LAKE PRESTON,SD,57249,
1309.0,S MAJESTIC VIEW PL,SIOUX FALLS,SD,57103,
109.0,NOME ST,YANKTON,SD,57078,
618.0,BUTTE ST,BELLE FOURCHE,SD,57717,
20349.0,DEXTER LN,WHITEWOOD,SD,57793,
32027.0,WHITE ST,BURBANK,SD,57010,
1047.0,OAK DR NE,WATERTOWN,SD,57201,
1415.0,4TH AVE NW,WATERTOWN,SD,57201,
200.0,S JUNIPER AVE,MARION,SD,57043,
406.0,WILDWOOD DR,SPEARFISH,SD,57783,
1160.0,LAKE DR,BIG STONE CITY,SD,57216,
2204.0,S KIWANIS AVE,SIOUX FALLS,SD,57105,
24457.0,324TH AVE,RELIANCE,SD,57569,
31558.0,409TH AVE,SPRINGFIELD,SD,57062,
3415.0,LAWRENCE CT,RAPID CITY,SD,57701,
,SAINT FRANCIS ST,RAPID CITY,SD,57701,
215.0,N 42ND ST,RAPID CITY,SD,57702,
308.0,11TH ST,EUREKA,SD,57437,
515.0,S WALTS AVE,SIOUX FALLS,SD,57104,
2522.0,W 41ST ST,SIOUX FALLS,SD,57105,
210.0,MAIN ST,MURDO,SD,57559,
409.0,FRANKLIN ST,BURKE,SD,57523,
505.0,VALLEY DR,PHILIP,SD,57567,
26107.0,350TH AVE,CHAMBERLAIN,SD,57325,
2617.0,E AUGUSTA ST,BRANDON,SD,57005,
211.0,S LINCOLN AVE,MADISON,SD,57042,
313.0,W 7TH AVE,WEBSTER,SD,57274,
12321.0,MACKEY RD,BUFFALO,SD,57720,
200.0,E SETH ST,BRANDON,SD,57005,
621.0,ASTRACHAN AVE,VOLGA,SD,57071,
2109.0,E SOMMERSET PL,SIOUX FALLS,SD,57104,
1200.0,N LOWELL AVE,SIOUX FALLS,SD,57103,
6508.0,W ESSEX TER,SIOUX FALLS,SD,57106,
22462.0,408TH AVE,FORESTBURG,SD,57314,
43107.0,209TH ST,DE SMET,SD,57231,
31423.0,278TH ST,WINNER,SD,57580,
124.0,E BOX ELDER RD,BOX ELDER,SD,57719,
1120.0,IDAHO AVE SE,HURON,SD,57350,
512.0,W 3RD ST,WEBSTER,SD,57274,
503.0,SUNRISE ST,GARRETSON,SD,57030,
323.0,W CENTER ST,MADISON,SD,57042,
1920.0,N RICHARD PL,SIOUX FALLS,SD,57103,
12375.0,PONY EXPRESS PL,CUSTER,SD,57730,
21.0,ELM ST,WASTA,SD,57791,
31169.0,462ND AVE,VERMILLION,SD,57069,
1173.0,1ST ST NW,WATERTOWN,SD,57201,
734.0,W 9TH ST,WINNER,SD,57580,
4031.0,CANYON DR,RAPID CITY,SD,57702,
12992.0,464TH AVE,PEEVER,SD,57257,
38571.0,135TH ST,ABERDEEN,SD,57401,
107.0,E CENTER ST,TURTON,SD,57477,
2032.0,HARMONY HEIGHTS LN,RAPID CITY,SD,57702,
409.0,OHIO ST,WAKONDA,SD,57073,
43726.0,115TH ST,LAKE CITY,SD,57247,
27147.0,US HWY 281,CORSICA,SD,57328,
125.0,5TH ST,HARRISON,SD,57344,
823.0,WAMBLI DR,RAPID CITY,SD,57701,
309.0,S POPLAR ST,FREEMAN,SD,57029,
512.0,N FRANKLIN AVE,SIOUX FALLS,SD,57103,
814.0,N MAIN ST,GREGORY,SD,57533,
22408.0,406TH ST,ARTESIAN,SD,57314,
16455.0,376TH AVE,ATHOL,SD,57424,
411.0,E MAPLE ST,PARKSTON,SD,57366,
40406.0,SD HWY 34,FORESTBURG,SD,57314,
825.0,W 6TH ST,MITCHELL,SD,57301,
31715.0,US HWY 18,WINNER,SD,57580,
3401.0,E 31ST ST,SIOUX FALLS,SD,57103,
27273.0,469TH AVE,TEA,SD,57064,
5805.0,S KERRY AVE,SIOUX FALLS,SD,57106,
4404.0,E WALKER WAY,SIOUX FALLS,SD,57103,
70.0,N LAKE DR,WATERTOWN,SD,57201,
22654.0,151 AVE,BOX ELDER,SD,57719,
609.0,HICKORY LN,HARRISBURG,SD,57032,
6809.0,W 65TH ST,SIOUX FALLS,SD,57106,
1505.0,S FREDERICK DR,SIOUX FALLS,SD,57105,
822.0,1ST AVE SW,WATERTOWN,SD,57201,
11917.0,BIA HWY 700,SISSETON,SD,57262,
14405.0,479TH AVE,MILBANK,SD,57252,
417.0,JEFFERSON ST,BRUCE,SD,57220,
1009.0,DEADWOOD LOOP,BOX ELDER,SD,57719,
24345.0,HWY 87,PENNCO,SD,57730,
101.0,WOODS ST,SPRINGFIELD,SD,57062,
408.0,E 3RD ST,YANKTON,SD,57078,
706.0,E COMMERCIAL AVE,GETTYSBURG,SD,57442,
11602.0,LADNER RD,BUFFALO,SD,57720,
1101.0,N MAIN AVE,SIOUX FALLS,SD,57104,
78.0,HWY 1416,QUINN,SD,57790,
1.0,PRAIRIE DR,WAKONDA,SD,57073,
5108.0,E 28TH ST,SIOUX FALLS,SD,57110,
24777.0,CRESTON RD,HERMOSA,SD,57744,
730.0,S WILLOW AVE,SIOUX FALLS,SD,57104,
4217.0,N PENNSYLVANIA AVE,SIOUX FALLS,SD,57107,
205.0,S CLARK ST,VIBORG,SD,57070,
3305.0,E 28TH ST,SIOUX FALLS,SD,57103,
1517.0,ELMWOOD ST,MILBANK,SD,57252,
303.0,CROCUS CT,BOX ELDER,SD,57719,
20911.0,374TH AVE,WESSINGTON,SD,57381,
1253.0,FRANK AVE SE,HURON,SD,57350,
2027.0,17TH AVE S,BROOKINGS,SD,57006,
226.0,N 2ND ST,MILBANK,SD,57252,
2512.0,DUNHAM DR,YANKTON,SD,57078,
803.0,MAPLE DR,ONIDA,SD,57564,
2008.0,W 22ND ST,SIOUX FALLS,SD,57105,
402.0,S BLANCHE AVE,MADISON,SD,57042,
35918.0,227TH ST,GANN VALLEY,SD,57341,
411.0,MACEY AVE,HARRISBURG,SD,57032,
230.0,INDIAN HILLS RD,BROOKINGS,SD,57006,
311.0,LILLY LN,YANKTON,SD,57078,
704.0,LAZELLE ST,STURGIS,SD,57785,
25523.0,476TH AVE,GARRETSON,SD,57030,
30356.0,BISON RD,PRESHO,SD,57568,
605.0,5TH AVE W,SISSETON,SD,57262,
602.0,W 3RD AVE,FLANDREAU,SD,57028,
104.0,N 3RD ST,BERESFORD,SD,57004,
3112.0,GRANDVIEW DR,RAPID CITY,SD,57701,
697.0,MONTEREY TRL,DAKOTA DUNES,SD,57049,
5605.0,W 46TH ST,SIOUX FALLS,SD,57106,
1121.0,N LINCOLN AVE,SIOUX FALLS,SD,57104,
700.0,PARK ST,CENTERVILLE,SD,57014,
1117.0,S 2ND AVE,SIOUX FALLS,SD,57105,
32533.0,296TH ST,COLOME,SD,57528,
600.0,E CAPITOL AVE,PIERRE,SD,57501,
17749.0,482ND AVE,GARY,SD,57237,
47541.0,293RD ST,BERESFORD,SD,57004,
2308.0,E 18TH ST,SIOUX FALLS,SD,57103,
303.0,ST PATRICK ST,RAPID CITY,SD,57701,
513.0,N MAIN ST,WAUBAY,SD,57273,
1221.0,KANSAS CITY ST,RAPID CITY,SD,57701,
3219.0,S TYLER AVE,SIOUX FALLS,SD,57103,
1409.0,N LINCOLN AVE,SIOUX FALLS,SD,57104,
806.0,1ST AVE S,LAKE NORDEN,SD,57248,
3245.0,HARMONY LN,RAPID CITY,SD,57702,
216.0,10TH AVE,BELLE FOURCHE,SD,57717,
320.0,N HIGHLAND AVE,SIOUX FALLS,SD,57103,
45364.0,108TH ST,CLAIRE CITY,SD,57224,
3500.0,W NORIE PL,SIOUX FALLS,SD,57106,
267.0,S MAIN AVE,MARION,SD,57043,
310.0,N BOYD ST,ABERDEEN,SD,57401,
1.0,ILLINOIS AVE,PLATTE,SD,57369,
21260.0,UPPER TWO BIT RD,DEADWOOD,SD,57732,
2137.0,MAYWOOD DR,RAPID CITY,SD,57701,
43028.0,303RD ST,LESTERVILLE,SD,57040,
1618.0,NORWOOD DR,ABERDEEN,SD,57401,
705.0,N WEST AVE,SIOUX FALLS,SD,57104,
614.0,PIONEER AVE,COLMAN,SD,57017,
