NUMBER,STREET,CITY,STATE,POSTCODE,UNIT
4212.0,KIMBALL AVE,MEMPHIS,TN,38111,
111.0,BRETHERN CHURCH RD,Washington County,TN,37659,
106.0,ANTLER DR,Rutherford,TN,37130,
4400.0,SHORES RD,Rutherford,TN,37128,
415.0,E  10TH ST,CHATTANOOGA,TN,37403,
1200.0,CRANBERRY DR,Rutherford,TN,37129,
3101.0,W MARKET ST,Johnson City,TN,37604,220.0
4808.0,WHITTIER DR,OLD HICKORY,TN,37138,
101.0,MED-TECH PKWY,Johnson City,TN,37604,407.0
404.0,WILLIFORD ST,MEMPHIS,TN,38112,
1220.0,VERNON CV,MEMPHIS,TN,38122,
828.0,WHEELER AVE,CHATTANOOGA,TN,37406,
226.0,WELLINGTON DR,MADISON,TN,37115,
759.0,WADE RD,Sevier,TN,37865,
120.0,BELFOR CIR,ALCOA,TN,37701,
4334.0,DORAL DR,MURFREESBORO,TN,37127,
2202.0,E  14TH ST,CHATTANOOGA,TN,37404,
1650.0,DOLAN DR,MEMPHIS,TN,38116,
1191.0,E   HIGHWAY 11E,TALBOTT,TN,37877,
670.0,KEN PILKERTON DR,SMYRNA,TN,37167,
1104.0,GROVE MILL DR,LAVERGNE,TN,37086,
5310.0,INLET VIEW LN,CHATTANOOGA,TN,37343,
909.0,STEWART VALLEY DR,SMYRNA,TN,37167,
2508.0,RIDGECREST DR,CHATTANOOGA,TN,37406,
121.0,HARRISON LN,Sevier,TN,37865,
1089.0,N  LASSITER BARKER RD,Rutherford,TN,37149,
371.0,E JERE WHITSON RD,Putnam,TN,38501,
2106.0,OAK DR,MURFREESBORO,TN,37128,
1205.0,BOYNTON DR,CHATTANOOGA,TN,37402,22.0
734.0,BROWNLEE DR,NASHVILLE,TN,37205,
14208.0,AMBIANCE WAY,FRANKLIN,TN,37067,
265.0,STONEHAVEN CIR,FRANKLIN,TN,37064,
109.0,ROGERS LN,Sevier,TN,37876,
2115.0,N MAIN AV,Unicoi County,TN,37650,
3650.0,DILTON MANKIN RD,MURFREESBORO,TN,37127,
2658.0,JIM HOUSTON CT,MURFREESBORO,TN,37129,
9225.0,LAKEWOOD CIR,LAKESITE,TN,37379,
4559.0,S YELLOW BREECHES CREEK RD,Sevier,TN,37722,
5142.0,E   ALCOVE DR,GREENBACK,TN,37742,
0.0,HAMILTON TRL,Sullivan County,TN,37686,
1350.0,MACKEY BRANCH DR,CHATTANOOGA,TN,37421,114.0
3761.0,FOUNTAIN GATE ST,MEMPHIS,TN,38109,
6346.0,Old DAYTON PIKE,HAMILTON COUNTY,TN,37343,
4407.0,SUNNY MORNING CV,MEMPHIS,TN,38141,
1607.0,DICKENS CT,MURFREESBORO,TN,37129,
1414.0,OLD NILES FERRY RD,MARYVILLE,TN,37803,
5043.0,MIMOSA TRL,CHATTANOOGA,TN,37416,
4448.0,HANNAH FORD RD,Cheatham,TN,37143,
728.0,HARRISON FERRY RD,WHITE PINE,TN,37890,
0.0,GROVE ST,Carter County,TN,37601,
5184.0,ATHEY LN,CHATTANOOGA,TN,37416,
154.0,HICKS LN,SMYRNA,TN,37167,
9421.0,MORNING WOODS CV,MEMPHIS,TN,38016,
0.0,RACE STREET,Elizabethton,TN,37643,
6460.0,THUNDERBIRD DR,NASHVILLE,TN,37209,
3390.0,BROCKCREST CV,MEMPHIS,TN,38128,
629.0,READS LAKE RD,CHATTANOOGA,TN,37415,
2627.0,KEDZIE DR,MURFREESBORO,TN,37130,
348.0,FOUNTAIN CREST DR,MEMPHIS,TN,38120,
366.0,CARAWAY CV,MEMPHIS,TN,38117,
7473.0,WILKINSON RD,JOELTON,TN,37080,
490.0,FORTRESS BLVD,MURFREESBORO,TN,37128,
1406.0,SKYLINE DR,Johnson City,TN,37604,
1638.0,TOWNSEND BLVD,FRANKLIN,TN,37064,
132.0,BRADLEY GOUGE RD,Washington County,TN,37604,
2373.0,OAK HILL DR,MURFREESBORO,TN,37130,
1832.0,HARTWELL MNR N,COLLIERVILLE,TN,38017,
1217.0,AINLAY DR,NASHVILLE,TN,37217,
3659.0,S RUCKER RD,Murfreesboro,TN,37037,
4833.0,NINA MARIE AVE,MURFREESBORO,TN,37129,
2117.0,WOODCLIFF DR,Rutherford,TN,37167,
2336.0,TWAIN AVE,MEMPHIS,TN,38114,
1406.0,RIDGECREST RD,Johnson City,TN,37604,
110.0,MARY LEE WAY,Sevier,TN,37862,162.0
5510.0,MANCHESTER PIKE,Rutherford,TN,37127,
226.0,BROWNING RD,Washington County,TN,37690,
965.0,LITTLE SORREL RD,HAMILTON COUNTY,TN,37343,
5546.0,MASON RD,MEMPHIS,TN,38120,
618.0,STONEWALL ST,MEMPHIS,TN,38107,
4755.0,FRANKLIN RD,Murfreesboro,TN,37128,
1149.0,PALLWOOD RD,MEMPHIS,TN,38122,
1575.0,YORK AVE,MEMPHIS,TN,38104,
2791.0,PICKERING DR,MEMPHIS,TN,38115,
490.0,MORIE RD,DANDRIDGE,TN,37725,
909.0,FITZPATRICK RD,NASHVILLE,TN,37214,
210.0,MILL CREEK CT,SMYRNA,TN,37167,
7054.0,SILVER FOX ST, ,TN,37167,
579.0,CALLAWAY CT,CHATTANOOGA,TN,37421,
3218.0,GLEASON DR,EAST RIDGE,TN,37412,21.0
1742.0,MUDDY CREEK RD,DANDRIDGE,TN,37725,
85.0,ZACK WHITSON LN,Unicoi County,TN,37650,
8609.0,PEBBLESTONE DR,SODDY DAISY,TN,37379,
1118.0,DOUGLAS AVE,NASHVILLE,TN,37206,
2107.0,WESTCHESTER CIR,MEMPHIS,TN,38134,
3303.0,MASONWOOD DR,NASHVILLE,TN,37207,
1093.0,N  WATKINS ST,MEMPHIS,TN,38107,
202.0,TENNESSEE AVE,SIGNAL MOUNTAIN,TN,37377,
539.0,WHITECREST DR,MARYVILLE,TN,37801,
5321.0,RYAN ALLEN CIR,WHITES CREEK,TN,37189,
2542.0,NEWPORT HWY,Sevier,TN,37876,
7058.0,DANA MICHELLE LN,HAMILTON COUNTY,TN,37308,
116.0,COTTAGE PL,NASHVILLE,TN,37214,
300.0,N ROYAL OAKS BLVD,Franklin,TN,37067,
4435.0,ACADEMY RD,Putnam,TN,38506,
151.0,DUCKPOND DR,DANDRIDGE,TN,37725,
1515.0,AMBERWOOD CIR,MURFREESBORO,TN,37128,
1508.0,FORREST AVE,NASHVILLE,TN,37206,
813.0,NAYLOR AVE,MURFREESBORO,TN,37130,
1211.0,COLEMAN RD,Murfreesboro,TN,37127,
6766.0,KEYSTONE DR,MEMPHIS,TN,38115,
1443.0,TITUS RD,MEMPHIS,TN,38111,
506.0,TRUDY ST,Elizabethton,TN,37643,
115.0,PEBBLECREEK RD,FRANKLIN,TN,37064,
2105.0,N GREENWOOD DR,Johnson City,TN,37604,213.0
1415.0,LEO BAKER RD,Cheatham,TN,37043,
233.0,CROLL CT,CHATTANOOGA,TN,37410,
526.0,RACCOON TRL,CHATTANOOGA,TN,37419,
1400.0,GAINESBORO GRADE,Putnam,TN,38501,
2988.0,TUDOR ST,MEMPHIS,TN,38127,
1440.0,E  RAINES RD,MEMPHIS,TN,38116,
231.0,HILLCREST DR,Cheatham,TN,37015,
5420.0,SCHOOL DR,CHATTANOOGA,TN,37343,
1006.0,MOOREFIELD RD,COLLIERVILLE,TN,38017,
925.0,SHALLOWFORD RD,CHATTANOOGA,TN,37411,13.0
152.0,JAY ARMENTROUT RD,Washington County,TN,37659,
285.0,N  RUTHERFORD BLVD,MURFREESBORO,TN,37130,
911.0,HAMBLEN DR,MADISON,TN,37115,
508.0,ROCHESTER CLOSE,FRANKLIN,TN,37064,
3132.0,KETTLE CREEK DR,MEMPHIS,TN,38128,
201.0,ACKLEN PARK DR,NASHVILLE,TN,37203,32.0
2605.0,ALVINWOOD DR,NASHVILLE,TN,37214,
3992.0,ISLAND VIEW RD,SEVIERVILLE,TN,37876,
4668.0,PERCY RD,MEMPHIS,TN,38109,
1303.0,NEWSOME RD,Sevier,TN,37876,
700.0,MCCAIN DR,FRANKLIN,TN,37064,
13.0,FLORENCE ST,MEMPHIS,TN,38104,
420.0,W  CLARK BLVD,MURFREESBORO,TN,37129,
3601.0,PHILLIPS RD,Sevier,TN,37876,
128.0,WOODHAVEN,Carter County,TN,37658,
223.0,ROGER LEE LN,Sevier,TN,37865,
1131.0,VALLEY DR,Unicoi County,TN,37650,
2017.0,CLEARFIELD LN,CHATTANOOGA,TN,37405,
2911.0,ELMORE PARK RD,BARTLETT,TN,38134,
6331.0,LARAMIE CIR,CHATTANOOGA,TN,37421,
429.0,WAYNE AVE,CHATTANOOGA,TN,37405,
1914.0,RANDOLPH ST,CHATTANOOGA,TN,37404,
400.0,LAKECREST LN,Washington County,TN,37615,
101.0,GILLESPIE DR,Franklin,TN,37067,
2708.0,BRANTLEY PARK BLVD,Maryville,TN,37804,
5356.0,VIRGIL RD,BARTLETT,TN,38134,
475.0,SWANHOLME DR,MURFREESBORO,TN,37128,
11518.0,MELANIE LN,HAMILTON COUNTY,TN,37336,
892.0,FAIRGROUNDS RD,Cheatham,TN,37015,
4820.0,PENINSULA POINTE DR,HERMITAGE,TN,37076,
3003.0,10TH AVE,CHATTANOOGA,TN,37407,
3219.0,WINDSOR GREEN DR,MURFREESBORO,TN,37129,
2709.0,CITICO AVE,CHATTANOOGA,TN,37406,
2905.0,JUDY ANN DR,CHATTANOOGA,TN,37406,
609.0,W PINE ST,Johnson City,TN,37604,
3907.0,POINT CHURCH RD,MEMPHIS,TN,38127,
344.0,BEARFIELD RD,Washington County,TN,37641,
2401.0,WILDER ST,CHATTANOOGA,TN,37406,
4423.0,FLEMING RD,COLLIERVILLE,TN,38017,
101.0,MUELLER CT,HERMITAGE,TN,37076,
1458.0,BRYAN ST,MEMPHIS,TN,38108,
7944.0,CROSS RIDGE DR,GERMANTOWN,TN,38138,
1416.0,MOHER BLVD,FRANKLIN,TN,37069,
704.0,LAMONT ST,Johnson City,TN,37604,
1211.0,LOWER BROW RD,HAMILTON COUNTY,TN,37377,
601.0,BURGUNDY DR,MADISON,TN,37115,
1502.0,GRAYBAR LN,MURFREESBORO,TN,37129,
983.0,JOEL AVE,MEMPHIS,TN,38127,
503.0,SPRING VALLEY LN,CHATTANOOGA,TN,37415,
6100.0,CHAMPION RD,HAMILTON COUNTY,TN,37416,
916.0,BENTON AVE,NASHVILLE,TN,37204,
9623.0,PUTTER CV,LAKELAND,TN,38002,
3525.0,SHELBY CIR,EAST RIDGE,TN,37412,
4036.0,JUANITA DR,Putnam,TN,38506,
310.0,N ELM AV,Unicoi County,TN,37650,
794.0,E  MARTIN LUTHER KING BLVD,CHATTANOOGA,TN,37403,
1226.0,MILL CREEK RD,Sevier,TN,37863,
43.0,OLIVER CT,SIGNAL MOUNTAIN,TN,37377,
8020.0,SANDYWOOD LN,BARTLETT,TN,38133,
130.0,BALL DR,Washington County,TN,37690,
2819.0,ELAM RD,Murfreesboro,TN,37127,
915.0,ROBERT ROSE DR,MURFREESBORO,TN,37129,
2133.0,JUNE DR,NASHVILLE,TN,37214,
1203.0,E 8TH AV,Johnson City,TN,37601,4.0
4124.0,PREMIER DR,Murfreesboro,TN,37128,
119.0,ARNOLD RD,Washington County,TN,37659,
3548.0,GLENFALLS DR,HERMITAGE,TN,37076,
2102.0,E  25TH STREET PL,CHATTANOOGA,TN,37407,
1625.0,THATCHER RD,HAMILTON COUNTY,TN,37379,
9022.0,WHEELER DR,SPRING HILL,TN,37174,
2901.0,E  30TH ST,CHATTANOOGA,TN,37407,
7209.0,LA CASA DR,BARTLETT,TN,38133,
400.0,TENNESSEE CIR,Sevier,TN,37865,
1315.0,PINE BURR LN,CHATTANOOGA,TN,37419,
2849.0,JONES WAY,Sevier,TN,37764,
8634.0,HARMONY LN,SODDY DAISY,TN,37379,
602.0,BLAKE MOORE DR,LAVERGNE,TN,37086,
2702.0,GRASSY BRANCH RD,Sevier,TN,37876,
943.0,ELM ST,EAGLEVILLE,TN,37060,
1405.0,ROBINSON RD,OLD HICKORY,TN,37138,
2704.0,BLACKMAN RD,Rutherford,TN,37129,
,THUNDERBIRD DR,NASHVILLE,TN,37209,
2699.0,FESSEY CT,NASHVILLE,TN,37204,200.0
213.0,HERITAGE CROSSING DR,MARYVILLE,TN,37804,
2024.0,JOSE WAY,MURFREESBORO,TN,37130,
,SHADOW LN,NASHVILLE,TN,37206,
336.0,KNOB CREEK DOCK RD,Washington County,TN,37601,
124.0,ABERCAIRN DR,FRANKLIN,TN,37064,
319.0,SCIOTO RD,Unicoi County,TN,37692,
107.0,PAYNE ST,Carter County,TN,37643,
2435.0,UNDERWOOD ST,NASHVILLE,TN,37208,
1605.0,MADISON AVE,MARYVILLE,TN,37804,
1119.0,38TH AVE N,NASHVILLE,TN,37209,
1303.0,GALLATIN PIKE N,MADISON,TN,37115,
218.0,WALTER MARTIN RD,Washington County,TN,37681,
1405.0,RIVERWATCH CT,MURFREESBORO,TN,37128,8111.0
2267.0,LONGSTREET DR,MEMPHIS,TN,38114,
1109.0,HALE RD,DANDRIDGE,TN,37725,
533.0,JOSEPHINE ST,MEMPHIS,TN,38111,
822.0,HUGH FRENCH RD,NEW MARKET,TN,37820,
843.0,SYLVAN DR,CHATTANOOGA,TN,37411,
1282.0,GREENBROOK LN,CHATTANOOGA,TN,37343,
1508.0,COVINGTON DR,BRENTWOOD,TN,37027,
345.0,WINDING RIVER CIR,MEMPHIS,TN,38120,
1210.0,KENNEDY LN,WHITE PINE,TN,37890,
1512.0,INDEPENDENCE LN,CHATTANOOGA,TN,37421,
1931.0,SIPES AVE,MEMPHIS,TN,38127,
1125.0,MAGNOLIA DR,FRANKLIN,TN,37064,
2240.0,CLARKSDALE AVE,MEMPHIS,TN,38108,
1520.0,PASSAGE DR,MURFREESBORO,TN,37130,
3140.0,CHOCTAW AVE,MEMPHIS,TN,38111,
1411.0,DOWN RIVER DR,MEMPHIS,TN,38103,
1521.0,WALES AVE,MARYVILLE,TN,37804,
7946.0,OAK SPRING CV,MILLINGTON,TN,38053,
1101.0,DOWNS BLVD,Franklin,TN,37064,
1407.0,HIGHCREST DR,CHATTANOOGA,TN,37343,
3734.0,JOHN MALLETTE DR,NASHVILLE,TN,37218,
1815.0,POTTERS CT,MURFREESBORO,TN,37128,
1014.0,MUNA CT,SPRING HILL,TN,37174,
3860.0,KERSTON DR,MEMPHIS,TN,38128,
418.0,RUTH RIGGS WAY,MARYVILLE,TN,37801,
609.0,SUGARTREE LN,FRANKLIN,TN,37064,
304.0,JACKSON WAY CT,NASHVILLE,TN,37214,
129.0,WALNUT ST,CHATTANOOGA,TN,37403,28.0
1947.0,S  BARKSDALE ST,MEMPHIS,TN,38114,
3555.0,MURRAY KITTRELL RD,Murfreesboro,TN,37149,
1123.0,BEN GAMBLE RD,Jonesborough,TN,37659,
208.0,W POPLAR ST,Johnson City,TN,37604,
195.0,ATOLL WY,Washington County,TN,37659,
1511.0,CAMBRIDGE DR,MURFREESBORO,TN,37129,
1727.0,BRENT HILLS BLVD,Sevier,TN,37738,
793.0,SUTTON DR,CHATTANOOGA,TN,37343,
5555.0,HIXSON PIKE,CHATTANOOGA,TN,37343,421.0
2428.0,RAMBLEWOOD DR,Rutherford,TN,37129,
8901.0,FLORENCE RD,SMYRNA,TN,37167,
1226.0,SEARCY ST,MURFREESBORO,TN,37129,
3405.0,VESTRY AVE,Murfreesboro,TN,37129,
528.0,LAWSON RD,TOWNSEND,TN,37882,
,CENTENNIAL BLVD,NASHVILLE,TN,37209,
2696.0,BARFIELD RD,Rutherford,TN,37128,
112.0,SHEFFIELD CIR,Washington County,TN,37615,
2424.0,OOLTEWAH RINGGOLD RD,HAMILTON COUNTY,TN,37363,
220.0,INDIAN PARK DR,MURFREESBORO,TN,37128,
4320.0,PATRICK HENRY DR,LAVERGNE,TN,37086,
205.0,S  MOORE RD,CHATTANOOGA,TN,37411,
3440.0,RISEN STAR DR,MURFREESBORO,TN,37128,
599.0,QUEEN OAK ST,COLLIERVILLE,TN,38017,
1668.0,HOPEWELL RD,MEMPHIS,TN,38117,
0.0,JEWELL ST,Carter County,TN,37601,
1527.0,TOM MCCALL RD,MARYVILLE,TN,37801,
1508.0,S  MONTGOMERY ST,MEMPHIS,TN,38106,
1752.0,CARLYLE RD,MEMPHIS,TN,38127,
2141.0,ABERDEEN CIR,MURFREESBORO,TN,37130,
0.0,CRESCENT DR,Elizabethton,TN,37643,
8910.0,BURLESON LN,Murfreesboro,TN,37129,
3343.0,MEMORIAL BLVD,MURFREESBORO,TN,37129,
285.0,MEADOW LN,Murfreesboro,TN,37128,
8562.0,MARYSVILLE AVE,MEMPHIS,TN,38016,
3008.0,WOODSIDE ST,CHATTANOOGA,TN,37407,
6709.0,HICKORY TRACE CIR,CHATTANOOGA,TN,37421,
757.0,GLEN OAKS DR,FRANKLIN,TN,37067,
2207.0,GOLD POINT CIR N,HAMILTON COUNTY,TN,37343,
120.0,GENTRY MOUNTAIN RD,Unicoi County,TN,37650,
6184.0,PALOMINO DR,LAKELAND,TN,38002,
1931.0,ROLLING CREEK DR,MURFREESBORO,TN,37128,
777.0,COTTAGE PARK DR,NASHVILLE,TN,37207,
912.0,N HOLLY ST,Putnam,TN,38574,
824.0,CELLA ST,MEMPHIS,TN,38114,
4612.0,RAVENCREST CV S,BARTLETT,TN,38135,
277.0,FLEETS ISLAND DR,MEMPHIS,TN,38103,
4203.0,FAIRMONT AVE,MEMPHIS,TN,38108,
294.0,N  MONTGOMERY ST,MEMPHIS,TN,38104,
,CLIFTON CT,OLD HICKORY,TN,37138,
2317.0,PREACHER RD,NEW MARKET,TN,37820,
3154.0,ANTIOCH RD,Washington County,TN,37604,
1045.0,Memorial Dr,FRANKLIN,TN,37064,
7017.0,ROCKINGHAM DR,MEMPHIS,TN,38125,
1655.0,WILSON RD,MEMPHIS,TN,38116,
387.0,GROVEHURST LN,BRENTWOOD,TN,37027,
2628.0,JIM HOUSTON CT,MURFREESBORO,TN,37129,
404.0,LINCOLNSHIRE CIR,Sullivan County,TN,37663,
155.0,RIDGEBEND DR,Rutherford,TN,37128,
355.0,DAVIDS WAY,LAVERGNE,TN,37086,
1579.0,E  BROOKS RD,MEMPHIS,TN,38116,
3006.0,TIN CUP DR,MURFREESBORO,TN,37128,
1460.0,W  MOLLOY LN,MURFREESBORO,TN,37129,
519.0,EDWIN ST,NASHVILLE,TN,37207,
515.0,N  WALNUT AVE,MURFREESBORO,TN,37130,
3091.0,ALLISON AVE,MEMPHIS,TN,38112,
,ROSS HOLLOW RD,Cheatham,TN,37015,
209.0,AMOLEE LN,Sevier,TN,37876,
2304.0,PTARMIGAN CV,MEMPHIS,TN,38134,
901.0,WHITES SCHOOL RD,Sevier,TN,37876,
2841.0,WILDWOOD RD,MARYVILLE,TN,37804,
3247.0,SPEARS RD,NASHVILLE,TN,37207,
114.0,ONION LN,Johnson City,TN,37601,
2039.0,WOODGATE DR,GERMANTOWN,TN,38138,
131.0,NEAL BLVD,LAVERGNE,TN,37086,
,LEO BAKER RD,Cheatham,TN,37015,
403.0,ROY ST,CHATTANOOGA,TN,37409,
556.0,RYAN CIR,Putnam,TN,38501,
1621.0,SHELBY AVE,NASHVILLE,TN,37206,
9227.0,LAWFORD WAY,HAMILTON COUNTY,TN,37363,204.0
19205.0,CROWNE BROOK CIR,FRANKLIN,TN,37067,
3284.0,BLUEMONT DR,MEMPHIS,TN,38134,
7408.0,CASH LN,HAMILTON COUNTY,TN,37363,
5453.0,APPLE BLOSSOM DR,MEMPHIS,TN,38115,
2210.0,MONTICELLO DR,NASHVILLE,TN,37207,
7477.0,COMMONS BLVD,CHATTANOOGA,TN,37421,231.0
,HWY 12N,Cheatham,TN,37221,
3011.0,HUMMINGBIRD DR,NASHVILLE,TN,37218,
537.0,OWNBY TER,Sevier,TN,37738,
809.0,MADISON DR,LAVERGNE,TN,37086,
1516.0,HERITAGE LANDING DR,CHATTANOOGA,TN,37405,
3325.0,FRAWLEY ST,EAST RIDGE,TN,37411,
8521.0,BUCKHURST RD,MEMPHIS,TN,38016,
1980.0,BISHOP AVE,MURFREESBORO,TN,37127,
6527.0,HEATHERWOOD DR,MEMPHIS,TN,38141,
314.0,MCBRIEN RD,CHATTANOOGA,TN,37411,
1574.0,ONTARIO AVE,MEMPHIS,TN,38127,
207.0,CLEARLAKE DR,LAVERGNE,TN,37086,
1688.0,LOVEJOY LN,COLLIERVILLE,TN,38017,
903.0,GUNNERSON AVE,MURFREESBORO,TN,37130,
2219.0,ROCKINGHAM DR,MARYVILLE,TN,37803,
101.0,JULY CT,SMYRNA,TN,37167,
1393.0,GOLD AVE,MEMPHIS,TN,38106,
9263.0,GLENDA RD,GERMANTOWN,TN,38139,
1921.0,MEADOWLAND LN,LOUISVILLE,TN,37777,
2313.0,COOPER TER,NASHVILLE,TN,37216,
435.0,TABLE TOP RD,Putnam,TN,38574,
4801.0,ENTERPRISE LN,CHATTANOOGA,TN,37416,
805.0,CANAL ST,CHATTANOOGA,TN,37402,144.0
1212.0,3RD AVE S,NASHVILLE,TN,37210,
3201.0,ASPEN GROVE DR,FRANKLIN,TN,37067,
303.0,WINDELLWOOD CIR,SMYRNA,TN,37167,
991.0,BIERLY WAY,HAMILTON COUNTY,TN,37363,
6340.0,MURRAY LN,BRENTWOOD,TN,37027,
219.0,H HEATON RD,Carter County,TN,37643,
1010.0,SKYLINE DR,Putnam,TN,38574,
2337.0,STONECENTER LN,MURFREESBORO,TN,37128,
218.0,STOCKTON DR,Murfreesboro,TN,37128,
3701.0,ROSSVILLE BLVD,CHATTANOOGA,TN,37407,
1483.0,GOODBAR AVE,MEMPHIS,TN,38104,
304.0,DAY SPRINGS RD,Sevier,TN,37863,15.0
3862.0,S  QUAIL LN,CHATTANOOGA,TN,37415,
382.0,4TH AVE,Putnam,TN,38506,
403.0,WESTCHESTER CT,MURFREESBORO,TN,37129,
1724.0,HAYWOOD AVE,MEMPHIS,TN,38127,
5873.0,LAKE RESORT TER,CHATTANOOGA,TN,37415,
1155.0,OLD HEARTHSTONE CIR W,COLLIERVILLE,TN,38017,
1664.0,SOUTHERNWOOD DR,CHATTANOOGA,TN,37421,
3639.0,MIAMI CV,MEMPHIS,TN,38111,
6328.0,PATTON AVE,NASHVILLE,TN,37209,
1087.0,TOM BREEDEN RD,JEFFERSON CITY,TN,37760,
4417.0,OAKWOOD DR,CHATTANOOGA,TN,37416,1114.0
5722.0,BALLENMOOR DR,MEMPHIS,TN,38141,
507.0,DONALDSON RD,EAST RIDGE,TN,37411,
603.0,DEERSKIN DR,MEMPHIS,TN,38109,
3120.0,DEE DR,CHATTANOOGA,TN,37406,
0.0,CHEROKEE RD,Washington County,TN,37659,
1150.0,ANNES RD,Sevier,TN,37738,
4240.0,PUCKETT CREEK XING,MURFREESBORO,TN,37128,
,ABERNATHY RD,Cheatham,TN,37015,
1780.0,FITE RD,MEMPHIS,TN,38053,
3325.0,KINGS LN,NASHVILLE,TN,37218,
713.0,HOLLYHILL RD,Johnson City,TN,37604,
10316.0,ORVAL DR,HAMILTON COUNTY,TN,37379,
124.0,FOREST HILL DR,Carter County,TN,37604,
738.0,SCOUTVIEW RD,Cheatham,TN,37015,
812.0,BEXHILL CT N,HERMITAGE,TN,37076,
613.0,COLVILLE ST,CHATTANOOGA,TN,37405,
1626.0,MOORE CT,Murfreesboro,TN,37153,
4314.0,MARYMONT SPRINGS BLVD,MURFREESBORO,TN,37128,
6574.0,E  BRAINERD RD,CHATTANOOGA,TN,37421,
3663.0,DREHER LN,CHATTANOOGA,TN,37419,
7707.0,ASHERTON LN,CHATTANOOGA,TN,37421,
3847.0,NEWTON RD,MEMPHIS,TN,38128,
3823.0,GALLATIN PIKE,NASHVILLE,TN,37216,9.0
632.0,BLAKE MOORE DR,LAVERGNE,TN,37086,
315.0,CLUB DR,Sevier,TN,37862,5.0
4220.0,12TH AVE,CHATTANOOGA,TN,37407,
3432.0,FARMVILLE AVE,MEMPHIS,TN,38122,
1293.0,CAROLYN DR,MEMPHIS,TN,38111,
214.0,KITTRELL HALLS HILL RD,Rutherford,TN,37149,
9833.0,HIGHWAY 58,HAMILTON COUNTY,TN,37363,
740.0,HARRISON FERRY RD,WHITE PINE,TN,37890,
241.0,SEALS CROSSING WAY,MARYVILLE,TN,37803,
6035.0,VINCENTS LANDING DR,CHATTANOOGA,TN,37343,
4606.0,PRIMROSE CIR,MARYVILLE,TN,37804,
3260.0,SCHEIBLER RD,MEMPHIS,TN,38128,
333.0,E 12TH ST,Putnam,TN,38501,
125.0,CHEROKEE BLVD,CHATTANOOGA,TN,37405,
738.0,CAIRN CREEK DR,MEMPHIS,TN,38018,
144.0,GALLATIN PIKE S,MADISON,TN,37115,
542.0,WINOKA CV W,COLLIERVILLE,TN,38017,
3411.0,ALMAR KNOT DR,MURFREESBORO,TN,37128,
304.0,HARRELL ST,MEMPHIS,TN,38112,
105.0,HOWARD WOODY DR,LAVERGNE,TN,37086,
1204.0,LAKESHORE DR,MURFREESBORO,TN,37130,
65.0,WYN OAK,NASHVILLE,TN,37205,
5304.0,CENTRAL AVE,CHATTANOOGA,TN,37410,
135.0,BUCKLES RD,Carter County,TN,37643,
100.0,JAMES BLVD,SIGNAL MOUNTAIN,TN,37377,22.0
6603.0,FLORAL CT,MURFREESBORO,TN,37128,
821.0,INDUSTRIAL BLVD,SMYRNA,TN,37167,
1663.0,BROOKINS ST,MEMPHIS,TN,38108,
3307.0,BREVARD DR,MEMPHIS,TN,38116,
957.0,ESLINGER CT,Sevier,TN,37764,
629.0,TYBARBER AVE,Murfreesboro,TN,37129,
2716.0,BARSHA FIELDS LN,Maryville,TN,37804,
501.0,S  LYERLY ST,CHATTANOOGA,TN,37404,
3620.0,EVENING LIGHT DR,BARTLETT,TN,38135,
2021.0,CHADWELL OVERLOOK DR,MADISON,TN,37115,
182.0,BONNAFIELD DR,HERMITAGE,TN,37076,
64.0,N  COOPER ST,MEMPHIS,TN,38104,
1809.0,W LAKEVIEW DR,Johnson City,TN,37601,24.0
3537.0,PHILWOOD AVE,MEMPHIS,TN,38122,
1730.0,URBAN TRL,CHATTANOOGA,TN,37405,
1100.0,INMAN RD,MEMPHIS,TN,38111,
648.0,HUFFINE MANOR CIR,FRANKLIN,TN,37067,
205.0,EMILY CT,SMYRNA,TN,37167,
3757.0,EARLS COURT RD,MEMPHIS,TN,38118,
1225.0,NEELYS BEND RD,MADISON,TN,37115,
1362.0,DOLLY PARTON PKWY,Sevier,TN,37862,
1107.0,ESQUIRE CT,MURFREESBORO,TN,37130,
2054.0,WINCHESTER RD,MEMPHIS,TN,38116,
4.0,FLAMINGO CT,Johnson City,TN,37601,
826.0,SUMMIT AVE,EAST RIDGE,TN,37412,
1104.0,RUTHERFORD POINT CIR,LAVERGNE,TN,37086,1104.0
443.0,COURFIELD DR,FRANKLIN,TN,37064,
12322.0,MIDWAY CHURCH RD,HAMILTON COUNTY,TN,37379,
9051.0,WHEELER DR,SPRING HILL,TN,37174,
645.0,E  MCLEMORE AVE,MEMPHIS,TN,38106,
9715.0,CHESTNUT HILL LN,HAMILTON COUNTY,TN,37421,
2637.0,SWEET OAKS CIR,GERMANTOWN,TN,38138,
7173.0,AMBERLY WAY DR,CORDOVA,TN,38018,
9559.0,POWELLS CHAPEL RD,Rutherford,TN,37129,
865.0,MARIGOLD PL,Putnam,TN,38501,
2900.0,GORDON RD,CHATTANOOGA,TN,37419,
1405.0,RIVERWATCH CT,MURFREESBORO,TN,37128,2213.0
2021.0,CREEK STONE XING,Murfreesboro,TN,37037,
5981.0,MACLEOD DR,MEMPHIS,TN,38119,
3525.0,NEBRASKA AVE,NASHVILLE,TN,37209,
1807.0,OXFORD DR,MURFREESBORO,TN,37129,
,BUCKNER PL,NASHVILLE,TN,37209,
115.0,REECE TUNNEL CIR,Washington County,TN,37656,
737.0,GOLDEN PL,CHATTANOOGA,TN,37415,123.0
979.0,WILBEC RD,MEMPHIS,TN,38117,
849.0,LAUREL ST,MEMPHIS,TN,38114,
278.0,SAGEBRUSH WAY,MARYVILLE,TN,37801,
3115.0,MADISON AVE,MURFREESBORO,TN,37130,
201.0,EADS ST,EAST RIDGE,TN,37412,548.0
107.0,LILA CT,Murfreesboro,TN,37128,
2479.0,ELMORE PARK RD,BARTLETT,TN,38134,
1256.0,SANDY BOTTOM CIR,Sevier,TN,37862,
8629.0,SUMMIT PEAK WAY,COLLEGEDALE,TN,37363,
2919.0,NORTHLAKE DR,MARYVILLE,TN,37801,
,MOLLY RD,Cheatham,TN,37015,
748.0,ROBESON AVE,MEMPHIS,TN,38105,
115.0,DREVILLE DR,LAVERGNE,TN,37086,
3271.0,HICKORY VIEW PL,MEMPHIS,TN,38115,
3403.0,STEVE RD,MEMPHIS,TN,38111,
23.0,GROVE RUN PL,MEMPHIS,TN,38111,
1050.0,STRATFORD RD,MEMPHIS,TN,38122,
3525.0,RIDGEFIELD DR,Murfreesboro,TN,37129,
133.0,DEARMOND PL,Unicoi County,TN,37650,
6140.0,DAYTON BLVD,CHATTANOOGA,TN,37343,
104.0,WINDWOOD CIR,NASHVILLE,TN,37214,
0.0,BLUE EDWARDS RD,Carter County,TN,37658,
804.0,PORTSIDE PL,CHATTANOOGA,TN,37402,
2544.0,LISMORE DR,MURFREESBORO,TN,37127,
3606.0,HON DR,MURFREESBORO,TN,37128,
801.0,OAK ST,CHATTANOOGA,TN,37403,
672.0,ANNEX AVE,NASHVILLE,TN,37209,
2663.0,KINGSLEY CT,CHATTANOOGA,TN,37421,
4128.0,KINGSWAY DR,MEMPHIS,TN,38127,
8706.0,FOUNTAINVIEW CV,MEMPHIS,TN,38016,
9846.0,AUTUMN GLEN DR,HAMILTON COUNTY,TN,37379,
1050.0,SKI VIEW DR,Sevier,TN,37738,407.0
4639.0,CHUCK AVE,MEMPHIS,TN,38118,
,14TH AVE N,NASHVILLE,TN,37208,
512.0,HAMILTON RIDGE DR,MARYVILLE,TN,37801,
114.0,GALWAY CT,Johnson City,TN,37615,
8607.0,FARMER RD,HAMILTON COUNTY,TN,37363,
0.0,ALLISON RD,Sullivan County,TN,37686,
875.0,LIBBY ST,Rutherford,TN,37167,
5187.0,S  ANGELA RD,MEMPHIS,TN,38117,
528.0,WEEKS RD,Murfreesboro,TN,37127,
4496.0,MILL STREAM DR,MEMPHIS,TN,38116,
100.0,S DOSSETT DR,Johnson City,TN,37614,515.0
2809.0,FROGTOWN LN,MURFREESBORO,TN,37128,
4706.0,ALABAMA AVE,CHATTANOOGA,TN,37409,
868.0,J D TODD RD,Murfreesboro,TN,37129,
121.0,STONERS GLEN DR,HERMITAGE,TN,37076,
1309.0,WILLIE MITCHELL BLVD,MEMPHIS,TN,38106,
3251.0,TURKEY PEN BRANCH RD,MARYVILLE,TN,37803,
1210.0,PIN OAK DR,Sevier,TN,37862,35.0
220.0,CITYGREEN WAY,CHATTANOOGA,TN,37405,320.0
1703.0,BAGWELL AVE,CHATTANOOGA,TN,37343,
524.0,E  18TH ST,CHATTANOOGA,TN,37408,
1433.0,MIDDLEBOROUGH CT,MURFREESBORO,TN,37130,
2316.0,BAILEY AVE,CHATTANOOGA,TN,37404,
435.0,NINTH AVE,SMYRNA,TN,37167,
249.0,STONE TREE DR,MARYVILLE,TN,37801,
565.0,S  HOLMES ST,MEMPHIS,TN,38111,
1361.0,POPLAR RIDGE DR,MEMPHIS,TN,38120,
210.0,HILLWOOD BLVD,MURFREESBORO,TN,37129,
1455.0,WINTERBERRY DR,MURFREESBORO,TN,37130,
160.0,EAGLES GLEN DR,FRANKLIN,TN,37067,
3224.0,CALVIN CT,FRANKLIN,TN,37064,
106.0,HOLGATE CT,Murfreesboro,TN,37129,
0.0,MONCRIEF AVE,GOODLETTSVILLE,TN,37072,
1701.0,BROAD ST,CHATTANOOGA,TN,37408,444.0
10700.0,RALEIGH LAGRANGE RD,EADS,TN,38028,
5740.0,BRAINERD RD,CHATTANOOGA,TN,37411,
128.0,AVONDALE DR,SMYRNA,TN,37167,
24.0,S  MERTON ST,MEMPHIS,TN,38112,
7869.0,CLOVERBROOK LN,GERMANTOWN,TN,38138,
102.0,KINCHELOE RD,Washington County,TN,37656,
213.0,OVERLOOK DR,FRANKLIN,TN,37069,
1802.0,HAMILL RD,CHATTANOOGA,TN,37343,2.0
10896.0,BUNKER HILL RD,Rutherford,TN,37153,
8318.0,HERON CIR,HAMILTON COUNTY,TN,37363,
5211.0,ALABAMA AVE,NASHVILLE,TN,37209,
800.0,PETWAY AVE,NASHVILLE,TN,37206,
2215.0,E FAIRVIEW AV,Johnson City,TN,37601,
501.0,W OAKLAND AV,Johnson City,TN,37604,1.0
9521.0,BUTLER DR,BRENTWOOD,TN,37027,
101.0,DOUGLAS DR,EAST RIDGE,TN,37412,
2827.0,S RUTHERFORD BLVD,MURFREESBORO,TN,37130,
914.0,GLASS ST,FRANKLIN,TN,37064,
317.0,ALEXIS DR,SMYRNA,TN,37167,
108.0,NEWPORT DR,OLD HICKORY,TN,37138,
434.0,E  NORWOOD AVE,MEMPHIS,TN,38106,
6851.0,CEDAR GROVE RD,Rutherford,TN,37127,
156.0,E   STEPHENSON ST,ALCOA,TN,37701,
7691.0,SHALLOWFORD RD,CHATTANOOGA,TN,37421,
320.0,BRANCH DR,CHATTANOOGA,TN,37343,
420.0,WALTON LN,MADISON,TN,37115,
1400.0,MANOR DR,MURFREESBORO,TN,37130,
1614.0,EARL CT,MURFREESBORO,TN,37130,
403.0,W  MAIN ST,MURFREESBORO,TN,37130,
1475.0,HARBERT AVE,MEMPHIS,TN,38104,
3205.0,BARKSDALE CIR,LAVERGNE,TN,37086,
1770.0,S JEFFERSON AVE,Putnam,TN,38506,
1435.0,E NIR SHREIBMAN BLVD,LAVERGNE,TN,37086,
1213.0,BIRD NEST WAY,Sevier,TN,37862,
2219.0,CHESTERFIELD DR,MARYVILLE,TN,37803,
1009.0,LOWER STOW CT,BRENTWOOD,TN,37027,
987.0,GREENWOOD ST,MEMPHIS,TN,38106,
102.0,WINSFORD CT,Murfreesboro,TN,37130,
1400.0,N  CHAMBERLAIN AVE,CHATTANOOGA,TN,37406,
3913.0,7TH AVE,CHATTANOOGA,TN,37407,
6320.0,FRANCES DR,CHATTANOOGA,TN,37421,
1038.0,PUSHER PL,Murfreesboro,TN,37153,
4859.0,SHSHONE DR,OLD HICKORY,TN,37138,
5417.0,HUNTER RD,HAMILTON COUNTY,TN,37363,
8435.0,OLD DEXTER RD,MEMPHIS,TN,38016,
3742.0,BERRYHILL DR,MURFREESBORO,TN,37127,
3942.0,BISHOPS BRIDGE RD,MEMPHIS,TN,38118,
3815.0,HAWKINS MILL RD,MEMPHIS,TN,38128,
1012.0,RUSSELL ST,NASHVILLE,TN,37206,202.0
910.0,33RD AVE N,NASHVILLE,TN,37209,
6116.0,FISK AVE,CHATTANOOGA,TN,37421,
472.0,DOWNS BLVD,FRANKLIN,TN,37064,
131.0,PINE GROVE WAY,MARYVILLE,TN,37801,
508.0,CATO RIDGE CT,NASHVILLE,TN,37218,
143.0,GROVE PARK CIR,MEMPHIS,TN,38117,
328.0,DELTA RD,MEMPHIS,TN,38109,
149.0,SNYDER RD,Washington County,TN,37615,
1705.0,HEIMAN ST,NASHVILLE,TN,37208,
1011.0,CLOVER AVE,MURFREESBORO,TN,37130,
509.0,OCCONECHEE CIR,CHATTANOOGA,TN,37415,
606.0,BINGHAM ST,Elizabethton,TN,37643,
7063.0,CUTTER MILL RD,MEMPHIS,TN,38141,
1138.0,SHORTLEAF AVE,SMYRNA,TN,37167,
501.0,ROYAL OAKS CT,FRANKLIN,TN,37064,
1873.0,FARRINGTON ST,MEMPHIS,TN,38109,
600.0,DUSAN BLVD,MURFREESBORO,TN,37129,
3117.0,PARKER LN,CHATTANOOGA,TN,37419,
1698.0,POPLAR AVE,MEMPHIS,TN,38104,
713.0,VOSSWOOD DR,NASHVILLE,TN,37205,
1118.0,WESTWOOD AVE,CHATTANOOGA,TN,37405,
2153.0,VADEN VILLAGE DR,CHATTANOOGA,TN,37421,
821.0,WHEELER AVE,CHATTANOOGA,TN,37406,
1336.0,PARTEE CV,MEMPHIS,TN,38111,
1023.0,LICINIUS LN,MURFREESBORO,TN,37128,
413.0,CREEK OAK DR,MURFREESBORO,TN,37128,
8626.0,SUMMIT PEAK WAY,COLLEGEDALE,TN,37363,305.0
3540.0,SEVIERVILLE RD,MARYVILLE,TN,37804,
3612.0,WILLIAMS MILL RD,ROCKFORD,TN,37853,
2201.0,DEARBORN DR,NASHVILLE,TN,37214,
331.0,ASTOR WAY,FRANKLIN,TN,37064,
7710.0,E  BRAINERD RD,CHATTANOOGA,TN,37421,219.0
912.0,BEXHILL CT S,HERMITAGE,TN,37076,
2040.0,CARSONS WY,Sullivan County,TN,37686,
2790.0,WARWICK CT,SPRING HILL,TN,37179,
4165.0,FAXON AVE,MEMPHIS,TN,38122,
411.0,BUXTON CT, ,TN,37128,
241.0,WILSHIRE DR,Putnam,TN,38506,
3460.0,MORNING LIGHT CV,BARTLETT,TN,38135,
753.0,FLORENCE CIR,MADISON,TN,37115,
2411.0,CHARLESTON SQ,CHATTANOOGA,TN,37421,
6080.0,BAILEYS CREEK DR,MEMPHIS,TN,38053,
3165.0,FIELD RD,Murfreesboro,TN,37130,
1502.0,ALDER AVE,SMYRNA,TN,37167,
2309.0,DUNCAN AVE,CHATTANOOGA,TN,37404,
411.0,CYNTHIA LN,Sevier,TN,37865,
5230.0,Highway 153,CHATTANOOGA,TN,37343,
3813.0,NEVADA AVE,NASHVILLE,TN,37209,
105.0,DAVENPORT DR, ,TN,37128,
1317.0,3RD AVE N,NASHVILLE,TN,37208,
,JOSEPH AVE,NASHVILLE,TN,37207,
1103.0,BRYAN ST,OLD HICKORY,TN,37138,
1001.0,MASON TUCKER DR,SMYRNA,TN,37167,
1526.0,PEMBERTON LN,CORDOVA,TN,38016,
101.0,LYLE LN,NASHVILLE,TN,37210,
723.0,VILLAGE LOOP RD,Sevier,TN,37738,
400.0,E C ST,Elizabethton,TN,37643,
1023.0,CHEATHAM PL,NASHVILLE,TN,37208,
4518.0,HIXSON PIKE,CHATTANOOGA,TN,37343,
6032.0,PORT JAMAICA DR,HERMITAGE,TN,37076,
2838.0,WESTOVER DR,MARYVILLE,TN,37803,
752.0,BERRY RD,MEMPHIS,TN,38117,
5146.0,JOE BOND TRL,Rutherford,TN,37129,
874.0,LANCELOT LN,COLLIERVILLE,TN,38017,
5686.0,HEATHER OAK DR,ARLINGTON,TN,38002,
206.0,EDNA CT,Johnson City,TN,37604,73.0
3353.0,CORNERSTONE DR,MURFREESBORO,TN,37128,
101.0,HILL RD,Carter County,TN,37601,
1018.0,MONROE ST,NASHVILLE,TN,37208,
6010.0,OBRIEN AVE,NASHVILLE,TN,37209,
825.0,VAUGHN RD,MEMPHIS,TN,38122,
300.0,W  6TH ST,CHATTANOOGA,TN,37402,
4602.0,LEASH LN,MEMPHIS,TN,38141,
109.0,W  FLEETWOOD DR,LOOKOUT MOUNTAIN,TN,37350,
4181.0,WESTOVER AVE,MEMPHIS,TN,38108,
922.0,JOEL AVE,MEMPHIS,TN,38127,
3012.0,LOUNETTE ST,MEMPHIS,TN,38114,
1740.0,CHANDLER RD,LOUISVILLE,TN,37777,
4802.0,NEVADA AVE,NASHVILLE,TN,37209,
4713.0,GANN STORE RD,CHATTANOOGA,TN,37343,
9.0,MARY ANN DR,MEMPHIS,TN,38117,
6813.0,CHARLOTTE PIKE,NASHVILLE,TN,37209,3.0
9706.0,AUTUMN VIEW CIR,HAMILTON COUNTY,TN,37379,
4310.0,OAKLAND AVE,CHATTANOOGA,TN,37410,
2633.0,UNION HILL RD,JOELTON,TN,37080,
2033.0,WINCHESTER RD,MEMPHIS,TN,38116,
817.0,FLYNN ST,CHATTANOOGA,TN,37403,
811.0,LUPTON DR,CHATTANOOGA,TN,37415,
9211.0,MAGIC MOUNTAIN DR,HAMILTON COUNTY,TN,37421,
1118.0,CRICKET ST,LAVERGNE,TN,37086,
2074.0,BARRETTS RIDGE DR,Rutherford,TN,37130,
2354.0,CHESTOA PIKE,Unicoi County,TN,37650,
7158.0,HOLLAND LN,CHATTANOOGA,TN,37421,
915.0,SHADY FORK RD,CHATTANOOGA,TN,37421,
4239.0,MILLBRANCH RD,MEMPHIS,TN,38116,
425.0,BUNKER HILL RD,Sullivan County,TN,37618,
5289.0,VILLA DEL REY DR,MEMPHIS,TN,38116,
4236.0,COVINGTON PIKE,MEMPHIS,TN,38135,
3509.0,E   ATHERTON LN,WHITE PINE,TN,37890,
5911.0,HICKORY HILL DR,HAMILTON COUNTY,TN,37416,
1120.0,WALLER RD,BRENTWOOD,TN,37027,
201.0,POWELL PL,BRENTWOOD,TN,37027,
1502.0,BIRDSONG AVE,MEMPHIS,TN,38106,
412.0,NORFOLK DR,LAVERGNE,TN,37086,
1007.0,N BARTON ST,Johnson City,TN,37604,
2213.0,SAND CT,Sevier,TN,37876,
2806.0,AMSTERDAM LN,CHATTANOOGA,TN,37421,
1803.0,GLENROY AVE,CHATTANOOGA,TN,37405,
2300.0,WILSON ST,CHATTANOOGA,TN,37406,
11602.0,CHRISWOOD DR,ARLINGTON,TN,38002,
3112.0,INDUSTRIAL DR,Johnson City,TN,37604,
216.0,FAIRGROUND ST,Franklin,TN,37064,
,48TH AVE N,NASHVILLE,TN,37209,
115.0,PSALM PL,Rutherford,TN,37129,
3000.0,HANDLY AVE,Louisville,TN,37777,
5018.0,MINDEN RD,MEMPHIS,TN,38117,
4018.0,COMANCHE RD,MEMPHIS,TN,38118,
6876.0,LAGRANGE PINES DR,CORDOVA,TN,38018,
4626.0,WOODMORE VIEW CIR,CHATTANOOGA,TN,37411,
837.0,AILEY CHURCH LN,SEVIERVILLE,TN,37876,
8220.0,WHITES CREEK PIKE,JOELTON,TN,37080,
4731.0,COLCORD DR,COLLEGEDALE,TN,37363,
1087.0,BRIARCREST LN,Putnam,TN,38501,
199.0,W  CHERRY CIR,MEMPHIS,TN,38117,
644.0,HAROLD DR,MARYVILLE,TN,37803,
316.0,W MAIN ST,MURFREESBORO,TN,37130,
1016.0,KITTYWOOD CT,Murfreesboro,TN,37129,
3762.0,ALLANDALE RD,MEMPHIS,TN,38111,
1819.0,MOSLEY FERRY RD,Cheatham,TN,37035,
0.0,JAMES ROBERTSON PKWY,NASHVILLE,TN,37201,
110.0,TREMONT ST,CHATTANOOGA,TN,37405,314.0
695.0,RED BARK DR,COLLIERVILLE,TN,38017,
2701.0,S ROAN ST,Johnson City,TN,37601,172.0
4541.0,QUINCE RD,MEMPHIS,TN,38117,
112.0,LINGARD CT,Rutherford,TN,37153,
5507.0,ORLIN DR,CHATTANOOGA,TN,37411,
615.0,MYATT ST,SMYRNA,TN,37167,
1708.0,CEDAR LN,NASHVILLE,TN,37212,
3920.0,PUCKETT CREEK XING,MURFREESBORO,TN,37128,
383.0,CASSI RD,Washington County,TN,37641,
7.0,PERIWINKLE CT,Johnson City,TN,37615,
3727.0,IRONWOOD DR,MEMPHIS,TN,38115,
1803.0,BAKER RD,GOODLETTSVILLE,TN,37072,
3318.0,GRANITE SPRINGS WAY,MURFREESBORO,TN,37130,
7714.0,HOLIDAY HILLS CIR,CHATTANOOGA,TN,37416,
7103.0,WOLFTEVER LANDING DR,HAMILTON COUNTY,TN,37341,
255.0,ACORN OAKS CIR,CHATTANOOGA,TN,37405,101.0
2933.0,MEDICAL CENTER PKWY,MURFREESBORO,TN,37129,
2414.0,OOLTEWAH RINGGOLD RD,HAMILTON COUNTY,TN,37363,
126.0,GRAVITT RD,SODDY DAISY,TN,37379,
0.0,HWY 19E,Carter County,TN,37687,
5202.0,LAKE CT,BRENTWOOD,TN,37027,
118.0,CONSTITUTION AVE,LAVERGNE,TN,37086,
6921.0,POPLAR TREE CV,MEMPHIS,TN,38119,
8528.0,FESTIVAL LOOP,CHATTANOOGA,TN,37419,
5031.0,REPUBLIC AVE,MURFREESBORO,TN,37129,
1606.0,N TENNESSEE BLVD,MURFREESBORO,TN,37130,
5743.0,GRUBB RD,CHATTANOOGA,TN,37343,
9289.0,FLETCHER TRACE PKWY,LAKELAND,TN,38002,
9228.0,LAWFORD WAY,HAMILTON COUNTY,TN,37363,
6400.0,CAROLOT LN,BARTLETT,TN,38135,
6440.0,E  FORKED RIVER CV,BARTLETT,TN,38135,
4704.0,TOMAHAWK TRL,CHATTANOOGA,TN,37411,
914.0,14TH AVE S,NASHVILLE,TN,37212,
3092.0,VICWOOD DR,MURFREESBORO,TN,37128,
3016.0,LIMESTONE DR,LOUISVILLE,TN,37777,
863.0,CANAL ST,CHATTANOOGA,TN,37402,
600.0,WEAKLEY LN,SMYRNA,TN,37167,1207.0
5116.0,WOLFCHASE FARMS PKWY,BARTLETT,TN,38002,
4311.0,PRETORIA RUN,MURFREESBORO,TN,37128,
2263.0,LITTLE ROCK RD,Rutherford,TN,37060,
6999.0,HEARTHSIDE CV,MEMPHIS,TN,38119,
3045.0,SAINT CLOUD PL,MEMPHIS,TN,38127,
507.0,OXFORD RD,JEFFERSON CITY,TN,37760,
2981.0,LAKE PARK RD,MEMPHIS,TN,38127,
3833.0,TWIN ISLAND DR,MARYVILLE,TN,37804,
247.0,WILSHIRE DR,Putnam,TN,38506,
1438.0,E LAKEVIEW DR,Johnson City,TN,37601,201.0
306.0,CARTERTOWN RD,Sevier,TN,37738,
4956.0,DEMETER CV,MEMPHIS,TN,38118,
2217.0,ASPEN AVE,MURFREESBORO,TN,37130,
251.0,STOUT RD,Sullivan County,TN,37618,
5401.0,HIGH ST,HAMILTON COUNTY,TN,37363,
3763.0,BOONE WOOD CV,MILLINGTON,TN,38053,
1651.0,JED LN,HAMILTON COUNTY,TN,37343,
5347.0,LICKTON PIKE,GOODLETTSVILLE,TN,37072,
14624.0,STORMER RD,HAMILTON COUNTY,TN,37373,
4630.0,NEELY RD,MEMPHIS,TN,38109,
5005.0,WATSON RD,Putnam,TN,38506,
8110.0,GRAHAM RD,CHATTANOOGA,TN,37421,
4639.0,S  RENSHAW DR,MEMPHIS,TN,38122,
0.0,BROWN ST,NASHVILLE,TN,37203,
2616.0,TWISTED OAK CV S,MEMPHIS,TN,38016,
918.0,STONE CREST CIR,HAMILTON COUNTY,TN,37421,
3044.0,RANGE LINE RD,MEMPHIS,TN,38127,
311.0,30TH ST,OLD HICKORY,TN,37138,
1119.0,COURIER PL,SMYRNA,TN,37167,
8528.0,TRINITY RD,MEMPHIS,TN,38018,
1025.0,VETERANS PKWY,Murfreesboro,TN,37128,
6427.0,WASHINGTON CIR,HAMILTON COUNTY,TN,37416,
4094.0,DAY LILY TRL,CHATTANOOGA,TN,37415,
22.0,W  MEADOWBROOK DR,RED BANK,TN,37415,2.0
3957.0,VERNON AVE,MEMPHIS,TN,38122,
3826.0,BRANDYWINE CV,MEMPHIS,TN,38115,
2904.0,DELTA QUEEN DR,NASHVILLE,TN,37214,
,CHAPMANSBORO RD,Cheatham,TN,37179,
4007.0,MOSSY ROCK LN,FRANKLIN,TN,37064,
214.0,OLD SIAM RD,Elizabethton,TN,37643,
586.0,ANDERSON LN,MADISON,TN,37115,
6620.0,SHORECREST DR,HAMILTON COUNTY,TN,37341,
706.0,STALEY ST,MURFREESBORO,TN,37129,
702.0,MANUFACTURERS RD,CHATTANOOGA,TN,37405,
588.0,SHIRLEY RD,Rutherford,TN,37167,
6901.0,VALLEY VIEW DR,MEMPHIS,TN,38133,
4231.0,CHERRYDALE AVE,MEMPHIS,TN,38111,
2128.0,DELANO DR,CHATTANOOGA,TN,37406,
9157.0,STANDIFER GAP RD,HAMILTON COUNTY,TN,37421,
1704.0,HIDDEN HILLS RD,Sevier,TN,37738,410.0
178.0,HOWARD WOODY  DR,LAVERGNE,TN,37086,
3404.0,DAYTON BLVD,RED BANK,TN,37415,
128.0,FIVE OAKS DR,Carter County,TN,37604,
419.0,GREEN LN,WHITES CREEK,TN,37189,
1216.0,SHADOWLINE DR,MEMPHIS,TN,38109,
242.0,LAKE MEADOW DR,Washington County,TN,37615,
8129.0,HARRISON BAY RD,HAMILTON COUNTY,TN,37341,
173.0,MILLARD CABLE RD,Carter County,TN,37640,
8135.0,FLEETS RUN DR,MEMPHIS,TN,38018,
5530.0,INDIAN WARPATH RD,MARYVILLE,TN,37803,
1505.0,NATHAN HILLS DR,MARYVILLE,TN,37801,
3650.0,SHIPLEY RD,Putnam,TN,38501,
323.0,LAKE FARM RD,SMYRNA,TN,37167,
147.0,S  REESE ST,MEMPHIS,TN,38111,
6988.0,STILLBROOK DR,GERMANTOWN,TN,38138,
1039.0,OAK HILL DR,Putnam,TN,38501,
878.0,BALES HOLLOW RD,Sevier,TN,37865,
501.0,ORCHARD VALLEY WAY,Sevier,TN,37862,
920.0,MILFRED AVE,Putnam,TN,38501,
7016.0,OOLTEWAH GEORGETOWN RD,HAMILTON COUNTY,TN,37363,
614.0,DELLWOOD DR,SMYRNA,TN,37167,
2914.0,WATAUGA RD,Johnson City,TN,37601,507.0
3029.0,LEATHERWOOD DR,MURFREESBORO,TN,37128,
5959.0,SHALLOWFORD RD,CHATTANOOGA,TN,37421,209.0
106.0,HOPPER RD,Johnson City,TN,37604,
949.0,MAXEY ST,MEMPHIS,TN,38111,
3765.0,BROOKMEADE ST,MEMPHIS,TN,38127,
4208.0,WINTERBROOK RD,NASHVILLE,TN,37207,
448.0,HIDEAWAY RIDGE CIR,Sevier,TN,37862,
2103.0,GREENLAND DR,MURFREESBORO,TN,37130,
901.0,ROCKWAY DR,CHATTANOOGA,TN,37411,
3754.0,TOLLIVER WAY,Sevier,TN,37764,
1278.0,EDITH AVE,MEMPHIS,TN,38106,
7809.0,OOLTEWAH GEORGETOWN RD,HAMILTON COUNTY,TN,37363,
3831.0,WILCOX BLVD,CHATTANOOGA,TN,37411,85.0
355.0,WILTSHIRE DR,Washington County,TN,37615,
117.0,HUTSELL HILL WAY,MARYVILLE,TN,37803,
105.0,DELRAY AVE,RED BANK,TN,37405,
0.0,unknown,Carter County,TN,37687,
1281.0,WORTHINGTON ST,MEMPHIS,TN,38114,
5439.0,MCGILL RD,MEMPHIS,TN,38120,
2709.0,CITICO AVE,CHATTANOOGA,TN,37406,
1436.0,RED CEDAR LN,Sevier,TN,37876,
603.0,E NORTHFIELD BLVD,MURFREESBORO,TN,37130,
1622.0,CARPENTERS CAMPGROUND RD,MARYVILLE,TN,37803,
7136.0,TRANQUIL CREEK CV,MEMPHIS,TN,38125,
,CLIFF VIEW DR N,Cheatham,TN,37082,
2118.0,ACKLEN AVE,NASHVILLE,TN,37212,10.0
339.0,HIGH ST,MARYVILLE,TN,37804,
4103.0,DAYTON BLVD,RED BANK,TN,37415,57.0
,MT ZION RD,Cheatham,TN,37080,
1522.0,HUNTERS LN,NASHVILLE,TN,37207,
1422.0,RHONDA DR,Rutherford,TN,37037,
2022.0,BEAR CREEK CIR,Putnam,TN,38506,
5371.0,S  ANGELA LN,MEMPHIS,TN,38120,
616.0,STONEWATER BLVD,FRANKLIN,TN,37064,
2853.0,WHITEBIRCH DR,HERMITAGE,TN,37076,
4025.0,BREAKWATER DR,CHATTANOOGA,TN,37343,
2399.0,TEMPLE HILL RD,Unicoi County,TN,37650,
5552.0,GLENN HAVEN CT,Cheatham,TN,37143,
9700.0,MANOR VIEW CV,CORDOVA,TN,38018,
6220.0,SHALLOWFORD RD,CHATTANOOGA,TN,37421,
0.0,BILL JONES RD,Washington County,TN,37659,
7273.0,AVENTINE WAY,CHATTANOOGA,TN,37421,
611.0,HALES CHAPEL RD,Washington County,TN,37615,
149.0,GREYSTONE WAY,TOWNSEND,TN,37882,
,ASHLAND CITY HWY (OFF),Cheatham,TN,37055,
1115.0,SMOKYVIEW DR,Sevier,TN,37862,
132.0,RUBEN RD,SPRING HILL,TN,37174,
1232.0,JACKSON POND CIR,CORDOVA,TN,38018,
3198.0,SPOTTSWOOD AVE,MEMPHIS,TN,38111,
922.0,W THOMAS ALLEN RD,Putnam,TN,38501,
1705.0,CHICKAMAUGA LOOP,CHATTANOOGA,TN,37421,
1417.0,MIDDLEBOROUGH CT,MURFREESBORO,TN,37130,
1725.0,COACHMANS CT,BRENTWOOD,TN,37027,
1910.0,ROSEBROOK DR,CHATTANOOGA,TN,37421,
130.0,CRAIN RD,Unicoi County,TN,37657,
1332.0,STONEWALL ST,MEMPHIS,TN,38108,
500.0,HOUSTON ST,NASHVILLE,TN,37203,
7418.0,COTTON GROVE CT,MEMPHIS,TN,38119,
1210.0,STEPFIELDS CV,MURFREESBORO,TN,37130,
1821.0,STARR ST,Sevier,TN,37876,
4855.0,COLLEGE DR E,COLLEGEDALE,TN,37363,
8514.0,GRABERSBRIDGE CV,GERMANTOWN,TN,38139,
803.0,INDUSTRIAL BLVD,SMYRNA,TN,37167,
6957.0,GREAT VIEW DR N,MEMPHIS,TN,38134,
5231.0,ABIGAIL LN,HAMILTON COUNTY,TN,37416,
3192.0,PENN MEADE WAY,NASHVILLE,TN,37214,
3105.0,CLINTWOOD WAY,Sevier,TN,37863,58.0
3318.0,POPLAR ST,WHITE PINE,TN,37890,
1536.0,CANTERBURY LN,MURFREESBORO,TN,37130,
925.0,OLD BOONES CREEK RD,Washington County,TN,37659,
9460.0,WOODCUTTER LN,LAKELAND,TN,38002,
4581.0,BIDDLESDON LN,MEMPHIS,TN,38125,
722.0,ASHEVILLE HWY,Sevier,TN,37871,12.0
522.0,BENZING RD,ANTIOCH,TN,37013,
1136.0,CLIFFVIEW CIR,Washington County,TN,37615,
3177.0,BRETHREN CHURCH RD,WHITE PINE,TN,37890,
3083.0,FLEETBROOK DR,MEMPHIS,TN,38116,
1347.0,FORK RD,GREENBACK,TN,37742,
3723.0,N BRYAN WAY,Sevier,TN,37764,
3135.0,FORTENBERRY RD,Sevier,TN,37764,9.0
1704.0,15TH AVE S,NASHVILLE,TN,37212,
7269.0,ROURKE CIR,MEMPHIS,TN,38125,
5746.0,CITADEL CT,Rutherford,TN,37153,
12101.0,FORREST ST,ARLINGTON,TN,38002,
1829.0,CLOVER BROOK DR,JEFFERSON CITY,TN,37760,
1921.0,GREENWOOD AVE,NASHVILLE,TN,37206,
4307.0,CALUSA DR,MURFREESBORO,TN,37127,
201.0,ROXBURY CIR,CHATTANOOGA,TN,37343,
136.0,NEIL ST,MEMPHIS,TN,38112,
2506.0,E  MAIN ST,MURFREESBORO,TN,37127,
4015.0,EDWARDS AVE,NASHVILLE,TN,37216,
111.0,W COLLEGE ST,Jonesborough,TN,37659,
125.0,RITCHIE RD,Carter County,TN,37658,
1708.0,10TH AVE N,NASHVILLE,TN,37208,
2923.0,SAVANNAH WAY S,GERMANTOWN,TN,38138,
8704.0,DEBBIE KAY LN,MEMPHIS,TN,38018,
2618.0,BENTON AVE,CHATTANOOGA,TN,37406,
135.0,N  GREENWOOD AVE,CHATTANOOGA,TN,37404,
1504.0,E  16TH ST,CHATTANOOGA,TN,37404,
4632.0,BRINDLEY DR,MEMPHIS,TN,38128,
284.0,CROSS BREEZE DR,MEMPHIS,TN,38018,
7413.0,OLD TUCKALEECHEE RD,TOWNSEND,TN,37882,
101.0,ROSE HILL CT,FRANKLIN,TN,37069,
7008.0,RIVERWALK BLVD,Rutherford,TN,37130,
625.0,MELVILLE AVE,EAST RIDGE,TN,37412,
3025.0,TUCKALEECHEE PIKE,MARYVILLE,TN,37803,
514.0,FRARY ST,ALCOA,TN,37701,
1537.0,JETER WAY,Murfreesboro,TN,37129,
1032.0,MATTHEWS AVE,NASHVILLE,TN,37216,
1526.0,PATINA DR,COLLIERVILLE,TN,38017,
1645.0,PARKWAY,Sevier,TN,37862,430.0
1505.0,ELM RUN CT,NASHVILLE,TN,37214,
601.0,JOHNSTOWN DR,SMYRNA,TN,37167,
1201.0,ROCKY DELL LN,WALDEN,TN,37377,
100.0,CARTER CT,SMYRNA,TN,37167,
222.0,CIMA DR,GOODLETTSVILLE,TN,37072,
125.0,HOLLANDALE RD,LAVERGNE,TN,37086,
3027.0,HOLDERWOOD DR,MURFREESBORO,TN,37128,
3011.0,RUFFLE DR,BARTLETT,TN,38134,
469.0,S  FAWN CT,Rutherford,TN,37129,
4719.0,KATHERINE LN,MEMPHIS,TN,38141,
1139.0,NW BROAD ST,MURFREESBORO,TN,37129,
2204.0,GREEN POND RD,HAMILTON COUNTY,TN,37379,
2001.0,KATHRYN CT,CHATTANOOGA,TN,37421,
158.0,E HIGHLAND RD,Johnson City,TN,37601,207.0
208.0,PEYTON LEANN PT,LAVERGNE,TN,37086,
2850.0,FLORA AVE,MEMPHIS,TN,38114,
840.0,POWELL CV,COLLIERVILLE,TN,38017,
4001.0,N  HAWTHORNE ST,CHATTANOOGA,TN,37406,
2003.0,PLEASANT VIEW DR,Johnson City,TN,37604,34.0
402.0,DAHLIA DR,BRENTWOOD,TN,37027,
140.0,CONSTITUTION AVE,LAVERGNE,TN,37086,
1236.0,QUAIL HOLLOW CIR,Putnam,TN,38501,
152.0,CLAUDE GRAY RD,Washington County,TN,37604,
339.0,JOHN HENRY  DR,LAVERGNE,TN,37086,
1393.0,OLD HILLSBORO RD,FRANKLIN,TN,37069,
2621.0,PRINCE RUPERT LN,MEMPHIS,TN,38128,
1466.0,EYRIE CREST CV,MEMPHIS,TN,38016,
2617.0,HAWK EYE CT,MURFREESBORO,TN,37128,
220.0,WILSON AVE,MURFREESBORO,TN,37130,
0.0,MEADOWVIEW DR,Washington County,TN,37659,
4001.0,SHERLIN DR,EAST RIDGE,TN,37412,
1090.0,BAILEY FARMS RD,SODDY DAISY,TN,37379,
3451.0,ROCKWOOD AVE,MEMPHIS,TN,38122,
1322.0,N  RUTHERFORD BLVD,MURFREESBORO,TN,37130,
2130.0,KILBIRNIE DR,GERMANTOWN,TN,38139,
2311.0,RIDGECREST DR,NASHVILLE,TN,37216,
5584.0,TUCKER RD,COLLEGEDALE,TN,37363,
0.0,M KYKER RD,Washington County,TN,37690,
910.0,MASON TUCKER DR,SMYRNA,TN,37167,
1521.0,HICKORY VALLEY RD,CHATTANOOGA,TN,37421,
1722.0,SEVEN PINES LN,RED BANK,TN,37415,
3210.0,ORLEANS DR,NASHVILLE,TN,37212,6.0
755.0,SAINT ANDREWS DR,MURFREESBORO,TN,37128,
6705.0,SHALLOWFORD RD,CHATTANOOGA,TN,37421,
250.0,HAPPY VALLEY RD,Carter County,TN,37601,
4049.0,OAKBEND DR,MEMPHIS,TN,38115,
2108.0,PORT ROYAL DR,HAMILTON COUNTY,TN,37379,
8845.0,OAK HEDGE CV,MEMPHIS,TN,38018,
0.0,BARBER DR,GOODLETTSVILLE,TN,37072,
212.0,PEYTON LEANN PT,LAVERGNE,TN,37086,
2310.0,FOXMOOR LN,MEMPHIS,TN,38016,
708.0,SHADDEN RD,Washington County,TN,37615,
46.0,N  CREST RD,CHATTANOOGA,TN,37404,
1022.0,NISSAN DR,SMYRNA,TN,37167,
202.0,MAYFLOWER RD,Johnson City,TN,37601,6.0
13411.0,LISA LN,HAMILTON COUNTY,TN,37379,
4965.0,BLACK RD,MEMPHIS,TN,38117,
412.0,MATSON RD,Washington County,TN,37659,
216.0,VANTAGE WAY,FRANKLIN,TN,37067,
6266.0,MERRYWIND CV,MEMPHIS,TN,38115,
2104.0,STEEPLEBROOK DR,MEMPHIS,TN,38016,
1522.0,N  TENNESSEE BLVD,MURFREESBORO,TN,37130,
1584.0,FAWN CREEK RD,BRENTWOOD,TN,37027,
