NUMBER,STREET,CITY,STATE,POSTCODE,UNIT
0.0,FM 2351,Houston,TX,77546,
6757.0,UNDERHILL ST,Houston,TX,77092,
5124.0,PINEMONT PL,Houston,TX,77092,
4825.0,SOUTH FWY,FORT WORTH,TX,76115,
3223.0,LAURA LN,Statewide-Partial,TX,76513,
2307.0,PEACOCK DR,Statewide-Partial,TX, ,
1196.0,LAKE C R 248,Statewide-Partial,TX,79512,
2869.0,FM 1701,Statewide-Partial,TX,0,
1016.0,LYNN ST,Statewide-Partial,TX, ,
5186.0,CR 868D PRIVATE,Statewide-Partial,TX,77422,
15415.0,KATY FWY,Houston,TX,77094,
15705.0,MONONA CV,AUSTIN,TX,78717,
3120.0,PHILLIP DR,HURST,TX,76054,
1312.0,DECATUR CT,LEANDER,TX,78641,
3100.0,JEANETTA ST,Houston,TX,77063,
125.0,SHERWOOD DR,SAN MARCOS,TX,78666,
2604.0,CHETCO DR,AUSTIN,TX,78754,
1516.0,BAY AREA BLVD,Houston,TX,77058,
5724.0,COLORADO CT,HALTOM CITY,TX,76137,
3011.0,VOLLMER RD,Houston,TX,77092,
5502.0,LEDESMA RD,AUSTIN,TX,78721,
621.0,HALE ST, ,TX, ,
9130.0,SALLYS WAY,Statewide-Partial,TX,76009,
120.0,PINE VALLEY DR,Statewide-Partial,TX,76449,
15019.0,WOODHORN DR,Houston,TX,77062,
16749.0,ROCKY RIDGE RD,AUSTIN,TX,78734,
945.0,W   IH 10 FR,SCHULENBURG,TX,78956,
3314.0,BERKNER DR,Garland,TX,75044,
424.0,MARTIN,BONHAM,TX,75418,
2023.0,TREASURE MOUNTAIN DR,UNINCORPORATED,TX,77388,
107.0,NW MAIN ST,ENNIS,TX,75119,
267.0,SAGE RD,BASTROP,TX,78602,
65.0,SCEPTER RIDGE,SUGAR LAND,TX,77498,
633.0,DEEP ELM LN,Statewide-Partial,TX,76449,
5437.0,GARDEN CIR,ACTON,TX,76049,
11393.0,FM 775,LA VERNIA,TX,78121,
12763.0,FM 196,Statewide-Partial,TX,0,
1617.0,CATTLE TRL,AUSTIN,TX,78748,
1511.0,E STROKER RD,UNINCORPORATED,TX,77532,
7602.0,WINKLE WOOD LN,UNINCORPORATED,TX,77086,
9802.0,RUSTIC ROCK RD,LA PORTE,TX,77571,
643.0,C R 494,Statewide-Partial,TX,76444,
2992.0,AUSTIN BREEZE LN,LEAGUE CITY,TX,77573,
3215.0,PLUTO ST,Statewide-Partial,TX, ,
1402.0,SCHARPE ST,Houston,TX,77023,
3725.0,CHENAULT ST,FORT WORTH,TX,76111,
4222.0,HICKOK LN,HOUSTON,TX,77047,
4435.0,ADONIS DR,UNINCORPORATED,TX,77373,
205.0,E  PEARCE ST,Houston,TX,77520,
3703.0,BEVERLY LN,ARLINGTON,TX,76015,
10026.0,WOODICO CT,UNINCORPORATED,TX,77038,
1726.0,PEBBLE BEACH DR, ,TX,75067,
10351.0,STAN BROOK DR,UNINCORPORATED,TX,77089,
621.0,GRIGGS AVE,FORT WORTH,TX,76103,
5417.0,FURSMAN AVE,FORT WORTH,TX,76114,
710.0,DUNN ST,WAXAHACHIE,TX,75165,
13119.0,2ND ST,Statewide-Partial,TX, ,
513.0,CARTER ST,WHITEWRIGHT,TX, ,
13006.0,ESPLANADE ST,AUSTIN,TX,78727,
423.0,E CEDAR ST,SEGUIN,TX,78155,
21.0,FAIR OAKS ST,LEANDER,TX,78641,
3309.0,E FRESNO AVE,HIDALGO,TX, ,
6305.0,HERGOTZ LN,AUSTIN,TX,78742,
10027.0,RED WOLF LN,UNINCORPORATED,TX,77064,
2718.0,BOMAR AVE,FORT WORTH,TX,76103,
1502.0,OAK DR,Statewide-Partial,TX,78572,
1844.0,CAPRI LN,Houston,TX,77586,
8601.0,FM 3237,DRIFTWOOD,TX,78619,
8402.0,REBAWOOD DR,Houston,TX,77346,
158.0,W  FM 544,Statewide-Partial,TX,75094,
132.0,ERSKINE FERRY RD,SEGUIN,TX,78155,
10915.0,DOVE CREEK CIR,Houston,TX,77086,
900.0,THORNBERRY DR,MCKINNEY,TX,75071,
103.0,N  AVE L,Statewide-Partial,TX,79521,
1311.0,DEERFIELD RD,UNINCORPORATED,TX,77406,
3503.0,FRESHMEADOWS DR,HOUSTON,TX,77063,
3814.0,GREAT SPRINGS CT,UNINCORPORATED,TX,77494,
102.0,FIELDWOOD CT,Statewide-Partial,TX,75126,
2615.0,29TH ST N,TEXAS CITY,TX,77590,
8621.0,SEA ASH CIR,Round Rock,TX,78681,
3905.0,EDGEBROOK DR,Houston,TX,77521,
3606.0,COTTAGE LAKE CT,UNINCORPORATED,TX,77498,
3413.0,CONWAY ST,FORT WORTH,TX,76111,
11716.0,PALM GRV,MERCEDES,TX, ,
2607.0,TREEVIEW DR,ARLINGTON,TX,76016,
15130.0,PASO REAL DR,Houston,TX,77083,
0.0,PERSIMMON,UNINCORPORATED,TX,77520,
403.0,LAGUNA VISTA DR,Statewide-Partial,TX,75165,
18610.0,MORGANS FOREST LN,Houston,TX,77449,
400.0,S 25TH ST,COPPERAS COVE,TX,76522,
208.0,SERPENTINE LN,Williamson,TX,76537,
4715.0,PRINCETON ST,AMARILLO,TX,79109,
5900.0,FENCE ROW,AUSTIN,TX,78744,
708.0,PARK MEADOW LN,MCKINNEY,TX,75071,
4806.0,PILGRIM HARBOR DR,UNINCORPORATED,TX,77546,
20503.0,BLACK SPUR CT,UNINCORPORATED,TX,77406,
3008.0,HEMPHILL ST,FORT WORTH,TX,76110,
1101.0,EMERALD AVE,Statewide-Partial,TX, ,
6203.0,NICOLE CT,ARLINGTON,TX,76002,
5218.0,HOPEWELL DR,Garland,TX,75043,
202.0,EVERGREEN,Eddy,TX,76524,
1913.0,BELZISE TERR,FORT WORTH,TX,76104,
819.0,WHITNEY RD,SHERMAN,TX, ,
6100.0,CHOLLA DR,FORT WORTH,TX,76112,
2216.0,W 34TH ST,HOUSTON,TX,77018,
1218.0,FILL HOUSE CT,Rosenberg,TX,77469,
2212.0,FRANCIS ST,Houston,TX,77004,
10525.0,CRESCENDO LN,AUSTIN,TX,78747,
13214.0,VERDUN DR,Houston,TX,77049,
3823.0,NW STATE HIGHWAY 11,Texoma-Counties,TX,75418,
16718.0,TRANQUILITY PARK DR,UNINCORPORATED,TX,77429,
1109.0,PORT AU PRINCE DR,ARLINGTON,TX,76012,
4810.0,DANFIELD DR,Houston,TX,77053,
1409.0,HARROP AVE,Houston,TX,77506,
1528.0,SYRACUSE DR,Texoma-Counties,TX,75495,
1219.0,EL PRESIDENTE DR,Statewide-Partial,TX, ,
1602.0,GARTH RD,Houston,TX,77520,
11419.0,W BELLFORT ST,HOUSTON,TX,77099,
400.0,PVR 949,Williamson,TX,78641,
165.0,YAUPON DR,Williamson,TX,78634,
5404.0,DALLAS AVE,FORT WORTH,TX,76112,
1620.0,OXFORD DR,MANSFIELD,TX,76063,
1403.0,MILAM, ,TX, ,
232.0,KNOX ST,HOUSTON,TX,77007,
1700.0,WINDSOR RD,Statewide-Partial,TX,77422,
402.0,JASMINE LN,Statewide-Partial,TX,75165,
349.0,VZ COUNTY ROAD 3442,Statewide-Partial,TX,75169,
4624.0,ELIZABETH ST,Statewide-Partial,TX,0,92.0
5517.0,KNOLLRIDGE DR,Garland,TX,75043,
2619.0,GILLIOM DR,Houston,TX,77084,
2275.0,FM 933,Statewide-Partial,TX,76692,
2218.0,BUFFALO GAP,Williamson,TX,78641,
3006.0,ELM AVE,Statewide-Partial,TX,77414,
8110.0,BROKEN BRANCH DR,Round Rock,TX,78681,
11426.0,FAIRPOINT DR,Houston,TX,77099,
15118.0,PEACHMEADOW LN,UNINCORPORATED,TX,77530,
24.0,COUNTY ROAD 365,Statewide-Partial,TX,76240,
8202.0,TARBELL RD,HOUSTON,TX,77034,
1001.0,RHAMES AVE,BRENHAM,TX,77833,
9122.0,MONARCH FIELD LN,Houston,TX,77433,
2701.0,BROWNIE CAMPBELL RD,UNINCORPORATED,TX,77038,
6709.0,OVERBROOK DR,PARKER,TX,75002,
109.0,INDUSTRIAL BLVD,Williamson,TX,78613,
113.0,BALSAM ST,Williamson,TX,78634,
214.0,WESTBURY LN,Williamson,TX,78633,
13425.0,CHITTAMWOOD LN,FRISCO,TX,75035,
709.0,COVENT GARDEN PL,MIDLOTHIAN,TX,76065,
202.0,WEEPING OAKS LN,Houston,TX,77388,
201.0,N   CENTER ST,Statewide-Partial,TX,76427,
1.0,CORA CIR,NEW BRAUNFELS,TX,78130,
144.0,RIDGE TOP DR,Statewide-Partial,TX,76078,
11807.0,CASTLE RIDGE DR,HOUSTON,TX,77077,
1152.0,TOWER RD,SEGUIN,TX,78155,
910.0,SLATE VALLEY LN,Houston,TX,77373,
1413.0,S 17TH AVE,EDINBURG,TX, ,
3213.0,TITANIC,EL PASO,TX,79904,
3301.0,E DIVISION ST,ARLINGTON,TX,76011,
6762.0,COUNTY ROAD 890,Statewide-Partial,TX,75002,
2555.0,CENTRAL PKWY,HOUSTON,TX,77092,
5902.0,WATFORD BND,Rosenberg,TX,77471,
402.0,LAKESHORE DR,Houston,TX,77586,
301.0,W NORTHSIDE DR,FORT WORTH,TX,76164,
3917.0,FREDERICK  ST,Waco,TX,76707,
10610.0,DEERWOOD RD,HOUSTON,TX,77042,
701.0,VIENTO TROPICAL ST,PALMVIEW,TX, ,
5870.0,FLAMINGO DR,HOUSTON,TX,77033,
209.0,S  MAIN ST,Statewide-Partial,TX,76449,
3209.0,TAMARACK LN,DENTON,TX,76226,
5045.0,BEDFORDSHIRE DR,FORT WORTH,TX,76135,
11115.0,BROOK MILL CT,UNINCORPORATED,TX,77065,
600.0,VZ CR 2816,Vanzandt,TX,000000,
1051.0,CR 452,DELEON,TX,76444,
,CASTLEGATE,PARIS,TX,75460,
24.0,PRIVATE ROAD 43005,Statewide-Partial,TX,0,
321.0,CADDO LN,WEST TAWAKONI,TX,75474,
6647.0,TREBECK LN,UNINCORPORATED,TX,77379,
3120.0,TRUXILLO ST,Houston,TX,77004,
1919.0,ARMSTRONG DR,Statewide-Partial,TX,75002,
3932.0,SILVER SPRINGS DR,FORT WORTH,TX,76123,
424.0,N   MYRL ST,Statewide-Partial,TX,79739,
14817.0,BERT CAMERON,EL PASO,TX,79938,
7800.0,VIRGIL ST,Houston,TX,77088,
2307.0,THORNWILD PASS,AUSTIN,TX,78758,
3404.0,NW 25TH ST,SANSOM PARK,TX,76106,
1407.0,SLAY ST,Statewide-Partial,TX,76448,
995.0,CR 269,OGLESBY,TX,76561,
8518.0,SPRING GREEN DR,UNINCORPORATED,TX,77095,
841.0,GILLON DR,ARLINGTON,TX,76001,
3013.0,ROBINSON,TEXAS CITY,TX,77590,
122.0,LOYCIE CIR,Statewide-Partial,TX,75165,
6001.0,BIRCHHILL RD,WATAUGA,TX,76148,
116.0,NORTH DR,COPPERAS COVE,TX,76522,
15511.0,HINSDALE SPRINGS LN,Houston,TX,77053,
11919.0,MEADOWTRAIL LN,Meadows,TX,77477,
4909.0,LARIAT TR,NORTH RICHLAND HILLS,TX,76180,
6305.0,JOE RAMSEY BLVD,GREENVILLE,TX,75402,
6810.0,MEADOW RD,NORTH RICHLAND HILLS,TX,76182,
521.0,E  OAK ST,Statewide-Partial,TX,76008,
4202.0,KAREN LN,Statewide-Partial,TX, ,
520.0,NORTH RD,KENNEDALE,TX,76060,
2057.0,RED OAK CIR,Williamson,TX,78681,
1904.0,TUPPER LAKE LN,Statewide-Partial,TX,77414,
2121.0,ARIELLA DR,CEDAR PARK,TX,78613,
4219.0,KRENEK RD,UNINCORPORATED,TX,77532,
780.0,KINGFISHER LN,LEANDER,TX,78641,
1106.0,W SHARPSHIRE DR,WAXAHACHIE,TX,75165,
5205.0,EVERGREEN ST,Houston,TX,77401,
8622.0,BOLINGTON DR,UNINCORPORATED,TX,77083,
6509.0,KRUSE CT,ACTON,TX,76049,
736.0,COVERED BRIDGE DR,DRIFTWOOD,TX,78619,
419.0,LAND GRANT DR,UNINCORPORATED,TX,77406,
15511.0,BOWSPRIT LN,HOUSTON,TX,77062,
3212.0,KERBEY LN,AUSTIN,TX,78703,
719.0,PLAINWOOD DR,HOUSTON,TX,77079,
14822.0,BERNARD TIMBERS DR,Statewide-Partial,TX,77435,
1722.0,S ROSENBOROUGH LN,Williamson,TX,78665,
319.0,N  BROADWAY ST,Statewide-Partial,TX,76058,
5401.0,STEVENS RD,Statewide-Partial,TX,77578,
5147.0,CANDLEWOOD DR,LEAGUE CITY,TX,77573,
1806.0,BRIARPATH LN,ARLINGTON,TX,76018,
0.0,NAVIGATION BV,Houston,TX,77012,
1018.0,RED RIVER ST,AUSTIN,TX,78701,
10994.0,TX HIGHWAY 19,Statewide-Partial,TX,0,
10930.0,BRAES BAYOU DR,HOUSTON,TX,77071,
1039.0,COUNTY ROAD 1743,Statewide-Partial,TX,76431,
701.0,HAWTHORNE ST,Houston,TX,77006,
301.0,04TH  ST,Moody,TX,76557,
519.0,CHASEWOOD DR,GRAPEVINE,TX,76051,
4832.0,FM 982,PRINCETON,TX,75407,
2717.0,SILVER SPUR LN,LEANDER,TX,78641,
2023.0,CUTTER DR,LEAGUE CITY,TX,77573,
16922.0,MARKET ST,Houston,TX,77530,
129.0,WEST VIEW DR,Williamson,TX,78628,
1705.0,BUENA VISTA AVE,Garland,TX,75043,
4131.0,FALVEL COVE DR,Houston,TX,77389,
4412.0,OVERBROOK DR,CELINA,TX,75009,
8702.0,MONTICELLO DR,TEXAS CITY,TX,77591,
405.0,WINTERFIELD DR,Williamson,TX,78634,1104.0
304.0,N MAIN ST,BLUE RIDGE,TX,75424,
806.0,13TH ST,DEER PARK,TX,77536,
4818.0,CLIFFPOINT CT,UNINCORPORATED,TX,77449,
162.0,TIMBERLINE DR,Statewide-Partial,TX,76692,
16506.0,CYPRESS BROOK CT,Houston,TX,77429,
2400.0,COLD SPRINGS RD,FORT WORTH,TX,76106,
13310.0,S  HARBOUR BEND LN,Houston,TX,77044,
942.0,LONGFELLOW  ST,Waco,TX,76710,
2617.0,COLONIAL AVE,Waco,TX,76707,
3206.0,WHISPERING WOODS CT,Williamson,TX,78681,
1220.0,SELEY  ST,Waco,TX,76704,
2435.0,RIDGE RD,ROCKWALL,TX,75087,117.0
15511.0,STALLION POINT CIR,Houston,TX,77429,
1317.0,NASHUA ST,HOUSTON,TX,77008,
333.0,22ND ST,SAN LEON,TX,77539,
9127.0,ROYAL FOREST LN,WALLER,TX,77484,
8907.0,SPRINGVIEW LN,Houston,TX,77080,
300.0,CARL STERN DR,HUTTO,TX,78634,
3213.0,RUSTIC MEADOW TR,MANSFIELD,TX,76063,
1112.0,FINCHER ST,Statewide-Partial,TX,78572,
8202.0,WOODED TERRACE LN,UNINCORPORATED,TX,77338,
315.0,W HAMMOND ST,FORT WORTH,TX,76115,
21038.0,IRONCREST LN,UNINCORPORATED,TX,77388,
3110.0,CASON ST,WEST UNIVERSITY PLACE,TX,77005,
7801.0,SQUIRREL HOLLOW DR,GEORGETOWN,TX,78628,
719.0,COMMERCE ST,Statewide-Partial,TX,79057,
1500.0,MURRAY Street,Midland,TX,79701,
2.0,LAKE DR,Williamson,TX,78665,
3406.0,WATERSEDGE DR,Sugar Land,TX,77478,
129.0,SPRINGTREE BEND,CIBOLO,TX,78108,
708.0,S   6TH ST,Statewide-Partial,TX, ,
4061.0,RHEA RD,ACTON,TX,76049,
783.0,CR 417,COMANCHE,TX,76442,
811.0,CIRCLE COVE DR,Statewide-Partial,TX,75002,
249.0,COUNTY ROAD 22850,Statewide-Partial,TX,0,
1509.0,W LONGORIA ST,PHARR,TX, ,
311.0,ARMSTRONG ST,SAN MARCOS,TX,78666,
1842.0,FALL MEADOW DR,Missouri City,TX,77459,
4473.0,CR 1141,LEONARD,TX,75452,
522.0,TIMBERLAND DR,Statewide-Partial,TX,75154,
310.0,KINGS WAY DR,MANSFIELD,TX,76063,
2552.0,THANNISCH AVE,FORT WORTH,TX,76105,
19914.0,ANGELI DR,UNINCORPORATED,TX,77375,
19927.0,DRAKE SHADOWA LN,UNINCORPORATED,TX,77449,
1419.0,MONTROSE BLVD,Houston,TX,77019,
290.0,E HOLLEY,ALBA,TX,75410,
127.0,PANHANDLE DR,Statewide-Partial,TX,79065,
0.0,LAURELWOOD LN,Houston,TX,77375,
3386.0,FM 1502,Statewide-Partial,TX,0,
170.0,APPALOOSA RUN,Williamson,TX,78642,
2657.0,PILLORY POINTE,SCHERTZ,TX,78108,
6502.0,CHESTERFIELD AVE,AUSTIN,TX,78752,
2627.0,DIAMOND RIVER DR,ROSENBERG,TX,77471,
11113.0,DODGE CATTLE DR,Williamson,TX,78717,
1000.0,HIDEAWAY CT,Statewide-Partial,TX,75094,
236.0,CLEAR WATER PATH,BUDA,TX,78610,
19434.0,RIVER BOTTOM RD,UNINCORPORATED,TX,77449,
540.0,AMERICAN TRL,Williamson,TX,78641,
422.0,PEBBLECREEK DR,Garland,TX,75040,
1307.0,TY COBB PL,ROUND ROCK,TX,78665,
9368.0,SORBONNE,EL PASO,TX,79907,
3055.0,OAKWOOD DR,Statewide-Partial,TX,75009,
633.0,CONDOR TR,SAGINAW,TX,76131,
1719.0,HERITAGE SOUTH LN,UNINCORPORATED,TX,77406,
7912.0,FOREST POINT CT,NORTH RICHLAND HILLS,TX,76182,
100.0,LAKEWAY TRAILS,Statewide-Partial,TX,75069,
330.0,W QUITMAN,EMORY,TX,75440,
12117.0,BILOXI DR,FRISCO,TX,75035,
116.0,FLOWER ST,WAXAHACHIE,TX,75165,
6620.0,HWY 6,HITCHCOCK,TX,77563,
9320.0,CALIENTE DR,MCKINNEY,TX,75072,
1205.0,LINDSEY ST,DENTON,TX,76205,
3308.0,ALEXANDER  ST,Waco,TX,76708,
2739.0,PASADENA BLVD,PASADENA,TX,77502,
1548.0,SLEEPY HOLLOW DR,ALLEN,TX,75002,
609.0,ROLLING OAK DR,Williamson,TX,78664,
115.0,BRIDGE WATER Circle,Midland,TX,79707,
0.0,STUEBNER AIRLNE,Houston,TX,77091,
5943.0,SOUTHLARK ST,HOUSTON,TX,77033,
1715.0,CAMELLIA AVE,Statewide-Partial,TX,77488,
5209.0,SANDALWOOD DR,MCKINNEY,TX,75072,
1200.0,SUNRISE RD,Round Rock,TX,78664,
2418.0,S   1ST ST,Texoma-Counties,TX,75090,
115.0,TURMAN ST,MINEOLA,TX,75773,
111.0,MARIN CV,Williamson,TX,78641,
511.0,N HOLLY AVE,SHERMAN,TX,75092,
12501.0,HARRIS BRANCH PKWY,MANOR,TX,78653,
3835.0,TARTAN LN,Houston,TX,77025,
7407.0,HICKORY CANYON CT,UNINCORPORATED,TX,77396,
3006.0,CEDAR ELM LN,Round Rock,TX,78681,
70.0,CASA LN,COLLEYVILLE,TX,76034,
513.0,COMMERCE  ST,Statewide-Partial,TX,75496,
3996.0,INVERNESS DR,Houston,TX,77019,
1104.0,MAJESTIC HILLS BLVD,SPICEWOOD,TX,78669,
100.0,HOGAN DR,Statewide-Partial,TX,76442,
12447.0,SHADOWVISTA DR,Houston,TX,77082,
102.0,WILLINGHAM LOOP,Statewide-Partial,TX,76380,
658.0,W FOREST DR,HOUSTON,TX,77079,
13001.0,32ND ST,SANTA FE,TX,77510,
4743.0,POPPY DR E,FORT WORTH,TX,76137,
3022.0,PINE GULLY BLVD,Houston,TX,77017,
137.0,SUGAR CANE CIR,Statewide-Partial,TX,77566,
7600.0,CREEKBEND DR,HOUSTON,TX,77071,
3601.0,MESA DR,HOUSTON,TX,77013,
3019.0,RIVER RANCH SOUTH DR,UNINCORPORATED,TX,77471,
17461.0,STATE HIGHWAY 36   S,Statewide-Partial,TX,77879,
6405.0,SCHILLER ST,Houston,TX,77055,
8227.0,SPLIT OAK DR,Houston,TX,77040,
1007.0,TUCKER ST,MCKINNEY,TX,75069,
930.0,DEER HOLLOW BLVD,SOUTHLAKE,TX,76092,
335.0,MERION DR,AUSTIN,TX,78737,
17835.0,OLDE OAKS ESTATE CT,UNINCORPORATED,TX,77433,
211.0,E   4TH ST,Statewide-Partial,TX, ,
1001.0,W BLUEBONNET DR,SAN MARCOS,TX,78666,
1234.0,FINLEY ST,Statewide-Partial,TX,79065,
107.0,CENTER,CACTUS,TX,79013,
2202.0,TILLER ST,PASADENA,TX,77502,
19818.0,MISTY PINES DR,Houston,TX,77346,
292.0,WESTMINSTER DR,KYLE,TX,78640,
1225.0,WENDELL WY,Garland,TX,75043,
115.0,PRIVATE ROAD 828,Statewide-Partial,TX,76656,
425.0,M L KING,Statewide-Partial,TX,75428,
2222.0,WESTERLAND DR,Houston,TX,77063,
171.0,SE   1000,Statewide-Partial,TX, ,
0.0,MAYBERRY HEIGHTS DR,Houston,TX,77433,
1742.0,CEDAR KEYS DR, ,TX,75067,
10830.0,HEATHERCLIFF LN,Houston,TX,77075,
1003.0,BIG SPRING DR,CEDAR PARK,TX,78613,
3059.0,TRADINGHOUSE CREEK LN,LEAGUE CITY,TX,77573,
3816.0,AQUA LN,Round Rock,TX,78681,
311.0,BERTLOMA ST,Houston,TX,77502,
1914.0,BRINGHURST ST,Houston,TX,77020,
0.0,MIRAMAR HEIGHTS,UNINCORPORATED,TX,77479,
248.0,BUIE DR,EVERMAN,TX,76140,
4311.0,WHIPPOORWILL CIR,MISSOURI CITY,TX,77459,
18511.0,HALF MOON TRL,Houston,TX,77346,
6409.0,COOPER LN,AUSTIN,TX,78745,
8419.0,HARTFORD,EL PASO,TX,79907,
222.0,HOLMES RD,Houston,TX,77045,
2300.0,ZINNIA ST,MISSION,TX,78573,
224.0,PEEPLES,NAVASOTA,TX,77868,
5416.0,CARVER DR,FORT WORTH,TX,76107,
1215.0,CLOUDY SKY LN, ,TX,75067,
15102.0,MIMEBARK WAY,AUSTIN,TX,78724,
808.0,S LOUISIANA ST,AMARILLO,TX,79106,
604.0,TRACI  DR,COPPERAS COVE,TX,76522,
18909.0,MAHOGANY TRL,DALLAS,TX,75252,
1550.0,PARR ST,AMARILLO,TX,79106,
3365.0,PABLO CIR,Round Rock,TX,78665,
9110.0,EDGEBROOK ST,Houston,TX,77075,
140.0,CASTILLO VILLAGE  RD,Waco,TX,76708,
2312.0,PLYMOUTH COLONY DR,PROSPER,TX,75078,
12126.0,CREEKHURST DR,HOUSTON,TX,77099,
601.0,SPRABERRY Drive,Midland,TX,79703,
7610.0,MORGANS POND CT,UNINCORPORATED,TX,77389,
6913.0,CORSICANA ST,HOUSTON,TX,77020,
5226.0,LIBBEY LN,Houston,TX,77092,
6579.0,STATE HIGHWAY 90,Statewide-Partial,TX,77864,
15818.0,ALGER DR,HOUSTON,TX,77489,
1801.0,SANTA ALTO AVE,LEANDER,TX,78645,
131.0,CLAREMONT DR,OVILLA,TX,75154,
5909.0,AZLE AVE,SANSOM PARK,TX,76114,
19210.0,KELLY PINES CT,UNINCORPORATED,TX,77346,
0.0,7TH ST,Houston,TX,77547,
1622.0,AUDREY DR,Garland,TX,75040,
610.0,GREENHILL DR,Round Rock,TX,78665,
1142.0,LAKE C R 248,Statewide-Partial,TX,79512,
1258.0,COUNTY ROAD 352,Texoma-Counties,TX,76240,
426.0,S JOHNSON AVE,GIDDINGS,TX,78942,
6491.0,S  FM 2184,Statewide-Partial,TX,76569,
315.0,DURAZNO RD,Statewide-Partial,TX,77541,
3642.0,GOFORTH RD,KYLE,TX,78640,
802.0,SALEM DR,ARLINGTON,TX,76014,
515.0,E PALM VALLEY BLVD,Williamson,TX,78664,731.0
609.0,ENTERPRISE RD,FLOWER MOUND,TX,75028,
2903.0,BEANNA ST,AUSTIN,TX,78705,
120.0,HOUSTON ST,Mcgregor,TX,76657,
10284.0,SAIGON,EL PASO,TX,79925,
4154.0,PINE CREST TRL,Houston,TX,77059,
614.0,FM 3171,SCHULENBURG,TX,78956,
2505.0,OVILLA RD,RED OAK,TX,75154,
1302.0,SH 95,BASTROP,TX,78602,
5050.0,RONDO DR,FORT WORTH,TX,76106,
301.0,GWENDOLA DR,MCKINNEY,TX,75071,
1309.0,FRANCES ST,Statewide-Partial,TX, ,
9634.0,BLACKHAWK BLVD,HOUSTON,TX,77075,
18053.0,F M 707,Statewide-Partial,TX,79536,
1118.0,ELMORE ST,Statewide-Partial,TX,79007,
1309.0,PUGH DR,Houston,TX,77547,
2706.0,SEQUOIA ST,EDINBURG,TX, ,
0.0,SPOONHILL NEST LN,Houston,TX,77038,
,OMAHA LN,CADDO MILLS,TX,75135,
5204.0,CORNELL,EL PASO,TX,79924,
504.0,BARNES ST,Statewide-Partial,TX,75069,
5401.0,STUART CIR,AUSTIN,TX,78721,
6101.0,HERMANN RD,HOUSTON,TX,77050,
420.0,CAPRICORN ST,Statewide-Partial,TX,78572,
11903.0,LAKEWOOD WEST DR,Houston,TX,77429,
12910.0,LINCOLN RIDGE LN,Houston,TX,77085,
1303.0,BEAUFORT SEA DR,Houston,TX,77067,
10514.0,PIMLICO CT,UNINCORPORATED,TX,77038,
302.0,N  WINKLER,Statewide-Partial,TX,76454,
2005.0,WATERVIEW RD,Williamson,TX,78628,
9009.0,RICHMOND AVE,Houston,TX,77063,
710.0,RAMMS DR,Williamson,TX,76527,
9815.0,BRANDYWINE CIR,AUSTIN,TX,78750,
1005.0,VENESA STREET,EAGLE PASS,TX,78852,
945.0,SHEPHERD RD,GEORGETOWN,TX,78628,
6915.0,FLAMINGO DR,HOUSTON,TX,77087,
6300.0,W 43RD ST,HOUSTON,TX,77092,
707.0,E KINGSBURY ST,SEGUIN,TX,78155,
1025.0,IRA WARD LN,Statewide-Partial,TX,76240,
7900.0,N  STADIUM DR,Houston,TX,77030,
1532.0,HOMEWOOD CIR,Williamson,TX,78665,
14714.0,AUTUMN GLEN CT,UNINCORPORATED,TX,77429,
2606.0,KIPLANDS CT,Houston,TX,77014,
1014.0,EAST AVE,KATY,TX,77493,
2802.0,S BLUE MEADOW CIR,SUGAR LAND,TX,77479,
1931.0,HARVESTER DR,ROCKWALL,TX,75032,
6635.0,SPRING CYPRESS RD,UNINCORPORATED,TX,77379,
901.0,HAGGARD ST,PLANO,TX,75074,
631.0,DENALI DR,ARLINGTON,TX,76002,
11711.0,MARRS DR,UNINCORPORATED,TX,77065,
5038.0,ALLUM RD,HOUSTON,TX,77045,
640.0,CIRCLE DR,Statewide-Partial,TX,75140,
1921.0,BOSQUE DR,Garland,TX,75040,
319.0,OATIS AVE,DALHART,TX,79022,
4106.0,CRESCENT DR,ACTON,TX,76049,
19515.0,GLEN LANDING DR,Houston,TX,77449,
1004.0,CRESTHAVEN DR,EULESS,TX,76040,
2417.0,CRESTVIEW AVE,EDINBURG,TX, ,
5311.0,West   WADLEY Avenue,Midland,TX,79707,
5230.0,COUNTY ROAD 228,Statewide-Partial,TX,78113,
2622.0,MORGANFAIR LN,Houston,TX,77450,
12345.0,MORRIS DIDO NEWARK RD,TARRANT COUNTY,TX,76179,
16123.0,MENDOCINO DR,UNINCORPORATED,TX,77083,
304.0,ELM DR,Statewide-Partial,TX,75087,
1602.0,CYPRESS HOLLOW,PEARLAND,TX,77581,
370.0,ANDY THOMAS RD,Statewide-Partial,TX,75491,
8304.0,WESTWIND LN,NORTH RICHLAND HILLS,TX,76182,
6107.0,PEACH TREE CT,UNINCORPORATED,TX,77449,
4109.0,ARROYO TR,LAKE WORTH,TX,76135,
1416.0,MILES ST,Rosenberg,TX,77471,
2335.0,SUNFLOWER DR,ARLINGTON,TX,76014,
234.0,MOORE ST,Statewide-Partial,TX,77531,
3313.0,ROSEFINCH TRL,AUSTIN,TX,78746,
2006.0,HOLLOW HOOK RD,HOUSTON,TX,77080,
3509.0,EAGLES NEST ST,ROUND ROCK,TX,78665,
4512.0,MAXIE ST,Houston,TX,77007,
125.0,DILLEY ST, ,TX, ,
13431.0,NEVERMORE DR,UNINCORPORATED,TX,77429,
304.0,N COYOTE BLVD,LA JOYA,TX, ,
8217.0,LOCKSLEY RD,HOUSTON,TX,77078,
0.0,EMPIRE GOLD DR,Houston,TX,77433,
11912.0,SAINT THOMAS DR,DEL VALLE,TX,78617,
6030.0,CULROSS CLOSE,Houston,TX,77346,
21627.0,NOTTINGHILL DR,UNINCORPORATED,TX,77388,
2023.0,E MULBERRY ST,SHERMAN,TX, ,
751.0,COUNTY ROAD 1660,Statewide-Partial,TX,76431,
508.0,CASTLEBAY DR,SPICEWOOD,TX,78669,
4156.0,FM 180, ,TX, ,
1822.0,WELLINGTON ST,Statewide-Partial,TX,75401,
1217.0,POST OAK TRL,Statewide-Partial,TX,75409,
904.0,BLUEBIRD DR,MANCHACA,TX,78652,
6640.0,LISBURN LN,FRISCO,TX,75035,
4015.0,CR 63,Statewide-Partial,TX,77583,
0.0,PACIFIC DR,Houston,TX,77346,
1520.0,VZ COUNTY ROAD 3443,Statewide-Partial,TX,75169,
1383.0,W  BOOTH ST,Statewide-Partial,TX,75460,
113.0,CAMARO WAY,SAN MARCOS,TX,78666,
0.0,ALDINE WESTFIELD RD,Houston,TX,77073,
3742.0,MEADOW PLACE DR,Houston,TX,77082,
610.0,HOLBROOKE ST,Williamson,TX,78634,
2719.0,LEE ST,GREENVILLE,TX,75401,
811.0,E PRESTON ST,PHARR,TX, ,
1454.0,CARTWRIGHT RD,Statewide-Partial,TX,76651,
508.0,S FM 1047,Mills,TX,000000,
3622.0,WORELY DR,MISSOURI CITY,TX,77459,
7627.0,CABOT ST,HOUSTON,TX,77016,
4210.0,E PLEASANT FOREST ST,ARLINGTON,TX,76015,
2960.0,RUSK AVE,Houston,TX,77003,
2423.0,W  GREENS RD,Houston,TX,77067,
15.0,PUEBLO TRL,WIMBERLEY,TX,78676,
2144.0,US HIGHWAY 62-180W,Statewide-Partial,TX, ,
1105.0,OAK HOLLOW LN,Statewide-Partial,TX,75409,
2102.0,CYPRESS RUN DR,Sugar Land,TX,77478,
2206.0,SOUTHERN HILLS DR,LEAGUE CITY,TX,77573,
236.0,SKY ACRES DR,TARRANT COUNTY,TX,76114,
297.0,CEDAR LN,CEDAR CREEK,TX,78612,
84.0,KENNON CIR,Statewide-Partial,TX,76484,
,North   PECOS Street,Midland,TX,79705,
12941.0,SPRING CYPRESS RD,Houston,TX,77377,
1315.0,LEHRMANN RD,Statewide-Partial,TX,78933,
16421.0,PALLAZO DR,PFLUGERVILLE,TX,78660,
2607.0,E   LINCOLN AVE,Statewide-Partial,TX, ,
2969.0,FM 1027,Statewide-Partial,TX,76435,
8450.0,HILL CITY HWY,TOLAR,TX,76476,
275.0,QUAIL,MEADOWLAKES,TX,78654,
13870.0,SETTLEMENTS RD,Statewide-Partial,TX,76571,
,EMILIO CIRCLE,EAGLE PASS,TX,78852,
2615.0,F M 2035,Statewide-Partial,TX,79556,
2751.0,E FM 518,LEAGUE CITY,TX,77573,
108.0,WEST ST,Statewide-Partial,TX,76357,
524.0,DICKSON CIR,Statewide-Partial,TX,75090,
3129.0,MIERIANNE ST,UNINCORPORATED,TX,77093,
615.0,ORIOLE LOOP, ,TX,78953,
1302.0,GOSWELL LN,Houston,TX,77530,
8312.0,SHAVER,EL PASO,TX,79925,
2620.0,S SHEPHERD DR,HOUSTON,TX,77098,
809.0,BASS BLVD,EDINBURG,TX, ,
4850.0,CATHEY LN,Statewide-Partial,TX,77868,
5505.0,RAYBURN LN,AUSTIN,TX,78723,
156.0,TRUELOVE LN,Statewide-Partial,TX,76502,
4905.0,BROWNWOOD Drive,Midland,TX,79703,
3805.0,QUAIL VIEW DR,Statewide-Partial,TX,75071,
1215.0,WINSTON DR,Richmond,TX,77469,
1021.0,CIMARRON TRL,CANYON,TX,79015,
1307.0,BRIARPARK DR,Houston,TX,77042,
1304.0,DEXFORD DR,AUSTIN,TX,78753,
3819.0,E PIPER GROVE DR,UNINCORPORATED,TX,77449,
201.0,CHARLESTON DR,FRIENDSWOOD,TX,77546,
15712.0,SAYAN CV,AUSTIN,TX,78738,
4911.0,AMORGAS ISLE DR,UNINCORPORATED,TX,77388,
1120.0,VIOLET LN,KYLE,TX,78640,
904.0,MILWAUKEE ST,Houston,TX,77009,
14210.0,DUNCAN WOODS LN,Statewide-Partial,TX,77662,
117.0,COVER PT,Statewide-Partial,TX,78101,
211.0,LUCINDA DR,NEW BRAUNFELS,TX,78130,
16947.0,MORNING DUSK DR,UNINCORPORATED,TX,77407,
1010.0,SHAWNEE ST,Houston,TX,77034,
103.0,W 2ND,DODD CITY,TX,75438,
403.0,ARLEDGE AVE,Statewide-Partial,TX,75418,
7815.0,LONG SHADOWS DR,UNINCORPORATED,TX,77479,
156.0,LOMA ALTA ROAD,Statewide-Partial,TX,0,
10611.0,GREENCREEK DR,Houston,TX,77070,
6315.0,TULSA RD,HOUSTON,TX,77092,
120.0,E   NORTH LOOP BLVD,AUSTIN,TX,78751,
607.0,SKYVIEW TER,KYLE,TX,78640,
9957.0,LAUREL CHERRY DR,MCKINNEY,TX,75072,
100.0,CALLAHAN LN,LEANDER,TX,78641,
1702.0,ATLANTA ST,DEER PARK,TX,77536,
672.0,COUNTY ROAD 1209,Statewide-Partial,TX,0,
23935.0,BEAVERWOOD DR,Houston,TX,77373,
15962.0,BRAZOS DR,Statewide-Partial,TX,76502,
801.0,LITTLE CREEK DR,EULESS,TX,76039,
112.0,WILLOW RIDGE CIR,Statewide-Partial,TX,75092,
16926.0,E  CARAMEL APPLE TRL,Houston,TX,77433,
8404.0,SUNSET COVE DR,FORT WORTH,TX,76179,
24230.0,BAR KAY LN,UNINCORPORATED,TX,77447,
2720.0,LOTHIAN DR,CEDAR PARK,TX,78613,
322.0,GROVE LN,BUDA,TX,78610,
10315.0,BRIAR DR,Houston,TX,77042,
1307.0,N HOPSON ST,SHERMAN,TX,75092,
424.0,PR 1712,MICO,TX,78056,
2711.0,OAKMONT DR,Williamson,TX,78665,
2503.0,EVINRUDE DR,GRAPEVINE,TX,76051,
704.0,PUEBLO ST,SAN JUAN,TX, ,
245.0,AMES CV,KYLE,TX,78640,
1099.0,LAZAR DRIVE,EAGLE PASS,TX,78852,
811.0,LYNGROVE DR,HOUSTON,TX,77038,
0.0,ST EMANUEL ST,Houston,TX,77004,
,SILVER FOX CT,LONE OAK,TX,75453,
503.0,W  10TH ST,Statewide-Partial,TX,76058,
11018.0,HONEY SUCKLE HAVEN,UNINCORPORATED,TX,77433,
402.0,ALICE LN,DEER PARK,TX,77536,
4802.0,WATERBECK ST,Weston Lakes,TX,77441,
1910.0,S  DAIRY ASHFORD ST,Houston,TX,77077,
1201.0,S   2ND ST,Statewide-Partial,TX, ,
1006.0,SUBLETT  AVE,COPPERAS COVE,TX,76522,
0.0,SCHAFF,Houston,TX,77017,
984.0,BONE  RD,Valley Mills,TX,76689,
1013.0,PR 7040,LEXINGTON,TX,78947,
2355.0,CR 174,GATESVILLE,TX,76528,
4719.0,19TH ST,BACLIFF,TX,77518,
7023.0,RAMPART ST,Houston,TX,77081,
6518.0,MONTANA RIDGE CT,UNINCORPORATED,TX,77041,
1512.0,MUSTANG LOOP,Statewide-Partial,TX,77864,
1629.0,JASMINE LN,PLANO,TX,75074,
6612.0,CERVANTES AVE,FORT WORTH,TX,76133,
402.0,OLD ROOSTER CIR,Statewide-Partial,TX,75407,
8302.0,COASTWAY LN,Houston,TX,77075,
301.0,E  RUIZ AVE,Statewide-Partial,TX,79851,
1215.0,HUNTER ST,MISSION,TX,78572,
3609.0,MAHEJAN,PEARLAND,TX,77584,
1308.0,MARLBOROUGH DR,FORT WORTH,TX,76134,
3415.0,SAPLING OAK DR,Houston,TX,77082,
10810.0,LYNBROOK DR,HOUSTON,TX,77042,
2203.0,AMBER CREEK,PEARLAND,TX,77584,
,ANTON SALAS LOOP,LA GRANGE,TX,78945,
701.0,PECAN ST,Statewide-Partial,TX,75446,
1025.0,BEECHWOOD DR,DENTON,TX,76210,
3224.0,BLACK OAK LN,MISSION,TX,78572,
300.0,26TH ST,Statewide-Partial,TX,79549,
879.0,STATE HIGHWAY 83E,Statewide-Partial,TX, ,
205.0,SAN JOSE ST,Statewide-Partial,TX, ,
6311.0,SARAGOSA CROSSING LN,UNINCORPORATED,TX,77066,
167.0,FOREST LOOP,Statewide-Partial,TX,77515,
1504.0,GREENFIELD DR,ROUND ROCK,TX,78664,
141.0,ADDISON DR,Statewide-Partial,TX,76087,
4906.0,WHEELER RD,Statewide-Partial,TX,77657,
450.0,LAWRENCE RD,Statewide-Partial,TX,77630,
6738.0,ISLA DEL REY,EL PASO,TX,79912,
6205.0,SHUMARD OAK TRL,AUSTIN,TX,78735,
21702.0,CHERRY HOLLOW DR,LEANDER,TX,78641,
24114.0,KINGBRIAR DR,UNINCORPORATED,TX,77373,
455.0,JEANETTE ST,Beaumont,TX,77703,
912.0,E   MEADOWMERE LN,AUSTIN,TX,78758,
309.0,W  12TH AVE,Statewide-Partial,TX,79081,
2246.0,ENCHANTMENT LN,ALLEN,TX,75013,
45.0,BROOKMEADOW DR,WOODCREEK,TX,78676,
19726.0,MORNING GLORY TERRACE CT,Houston,TX,77433,
607.0,BAYOU ST,Houston,TX,77020,
18023.0,SURREY LAKE LN,UNINCORPORATED,TX,77407,
3501.0,FM 1960 RD E,Houston,TX,77338,
805.0,AVENUE K,Statewide-Partial,TX,78065,
2609.0,ASTER PASS,Williamson,TX,78613,
6241.0,TUSKEGEE ST,HOUSTON,TX,77091,
2243.0,NORTH BLVD,HOUSTON,TX,77098,
401.0,DIXIE DR,LEAGUE CITY,TX,77573,
6106.0,LARCHBROOK DR,Houston,TX,77049,
3313.0,WAYNE ST,Houston,TX,77026,
509.0,E   MONTEREY ST,Texoma-Counties,TX,75021,
230.0,MALONE ST,HOUSTON,TX,77007,
4208.0,SAYERS ST,HOUSTON,TX,77026,
1808.0,LOST MAPLES LOOP,CEDAR PARK,TX,78613,
,N IH 35 SVRD,PFLUGERVILLE,TX,78660,
,MAIN,WINDOM,TX,75492,
6610.0,VALDIVIA ST,PHARR,TX, ,
10422.0,WIGGINS ST,Houston,TX,77029,
1210.0,JENNIFER DR,Garland,TX,75042,
2703.0,ASHFORD TRAIL DR,HOUSTON,TX,77082,
377.0,E  EL CAMINO REAL,Statewide-Partial,TX,76087,
689.0,OPELOUSAS CT N,KELLER,TX,76248,
10614.0,HILLSDALE BRIDGE LN,UNINCORPORATED,TX,77498,
10307.0,MACBETH ST,UNINCORPORATED,TX,77532,
616.0,S   4TH ST,Statewide-Partial,TX,75418,
985.0,PELICAN LN,CRYSTAL BEACH,TX,77650,
874.0,SARA ROSE ST,Houston,TX,77018,
7719.0,FIR ST,HOUSTON,TX,77012,
1418.0,SUZANNE DR,ALLEN,TX,75002,
1956.0,COUNTY ROAD 3340,Statewide-Partial,TX,76539,
11943.0,FIREBIRD DR,HOUSTON,TX,77099,
4418.0,BETH DR,Statewide-Partial,TX, ,
2725.0,MELROSE DR,PLANO,TX,75075,
1413.0,BAYNES DR,MCKINNEY,TX,75071,
3407.0,PRUDENCE DR,Houston,TX,77045,
7712.0,STONEY POINT DR,PLANO,TX,75025,
23123.0,BERRY PINE DR,Houston,TX,77373,
15115.0,IRONWOOD MEADOW LN,Houston,TX,77429,
400.0,HORSESHOE TRL,Statewide-Partial,TX,77515,
2211.0,TWIN ELMS DR,ARLINGTON,TX,76012,
11702.0,BRYDAN DR,Houston,TX,77429,
3304.0,KINGSTON RD,AMARILLO,TX,79106,
2705.0,ARBUCKLE ST,WEST UNIVERSITY PLACE,TX,77005,
25118.0,AUGHTON DR,Houston,TX,77389,
2006.0,BRADY AVE,Statewide-Partial,TX,76801,
15814.0,PARKSLEY DR,HOUSTON,TX,77059,
404.0,W 7TH ST,SAN JUAN,TX,78589,
13610.0,US HWY 67,Statewide-Partial,TX,76875,
3101.0,S GARDENIA ST,PHARR,TX, ,
405.0,DRYSTONE TRL,Williamson,TX,78642,
1913.0,AVE I,Statewide-Partial,TX,77414,
201.0,S  NEVADA ST,Statewide-Partial,TX,77422,
18211.0,MUSCATELLI DR,UNINCORPORATED,TX, ,
19137.0,US HWY 281   N,Statewide-Partial,TX,76458,
5014.0,TEXOMA PKWY,Texoma-Counties,TX,75020,
130.0,COUNTY ROAD 899,Statewide-Partial,TX,75846,
3413.0,AQUAMARINE DR,ROUND ROCK,TX,78681,
106.0,MALUS CT,AUSTIN,TX,78734,
500.0,W  ROCK ISLAND AVE,Statewide-Partial,TX,76023,
315.0,KING ST,Houston,TX,77022,
616.0,S  COKE ST,Statewide-Partial,TX,76444,
219.0,FM 1144,Statewide-Partial,TX,78118,
8316.0,CUTTER HILL AVE,FORT WORTH,TX,76134,
9351.0,STARFIRE LN,Houston,TX,77036,
3233.0,BENTON CREEK RD,Statewide-Partial,TX,78055,
19506.0,NEHOC LN,Houston,TX,77346,
0.0,SLUMBER LN,Houston,TX,77532,
15902.0,CHANNELVIEW DR,UNINCORPORATED,TX,77530,
1716.0,ANN ST,SHERMAN,TX, ,
10410.0,TIMBEROAK DR,Houston,TX,77043,
18506.0,PLUMMERS LODGE LN,Houston,TX,77346,
19019.0,YOUPON HILL CT,UNINCORPORATED,TX,77084,
5721.0,SENECA DR,PLANO,TX,75094,
5638.0,RUE ST,HOUSTON,TX,77033,
346.0,E   BELKNAP ST,Statewide-Partial,TX,76458,
,COUNTY ROAD 630,BLUE RIDGE,TX,75424,
21.0,PVT 4024,Statewide-Partial,TX,77535,
10401.0,BESSEMER ST,HOUSTON,TX,77034,
5402.0,SWEETWIND LN,Houston,TX,77373,
1207.0,N 20TH ST,MCALLEN,TX, ,
14321.0,CASHEL FOREST DR,UNINCORPORATED,TX,77069,
0.0,HAVASU,UNINCORPORATED,TX,77433,
515.0,JENKINS ESTATES DR,Crawford,TX,76638,
6619.0,HUNTERS TRACE,UNINCORPORATED,TX,77521,
1505.0,HEARTHSTONE DR,PLANO,TX,75023,
7649.0,PARKWOOD LN,FORT WORTH,TX,76133,
6901.0,GALLATIN ST,Statewide-Partial,TX,75070,
2214.0,BROOK VIEW LN,SUGAR LAND,TX,77479,
1619.0,WILLOWBY DR,Houston,TX,77008,
295.0,SENDERO DR,Statewide-Partial,TX,78064,
0.0,ST HWY 64,Vanzandt,TX,000000,
236.0,TRADEMARK DR,BUDA,TX,78610,
1302.0,MOUNTAIN DEW,Horseshoe Bay,TX,78657,
5158.0,COUNTY ROAD 598,FARMERSVILLE,TX,75442,
,PARKER LN,AUSTIN,TX,78741,
1993.0,RANGER HWY,Statewide-Partial,TX,76088,
148.0,SPINCASTER LN,Texoma-Counties,TX,75076,
139.0,DEBORDE CIR,RED OAK,TX,75154,
7709.0,HIDDEN BROOK CT,AUSTIN,TX,78744,
18412.0,PENCIL CACTUS,Williamson,TX,78660,
3424.0,PALM ST,Houston,TX,77004,
3505.0,THOMASON,EL PASO,TX,79904,
15907.0,SIERRA VISTA DR,UNINCORPORATED,TX,77083,
4530.0,FM 1128,Statewide-Partial,TX,77584,
2600.0,COUNTY ROAD 211,Statewide-Partial,TX,76009,
1067.0,COUNTY ROAD 349,Statewide-Partial,TX,0,
15709.0,SAN SOLANO CT,AUSTIN,TX,78738,
1000.0,N MAIN ST,Williamson,TX,76574,
14635.0,NIMITZ ST,UNINCORPORATED,TX,77015,
14160.0,FM1696,BEDIAS,TX,77831,
7994.0,OLD DALLAS RD,West,TX,76691,
3025.0,STANFORD DR,PLANO,TX,75075,
18118.0,SAGO PALM DR,Statewide-Partial,TX, ,
418.0,LAKEHURST DR,Statewide-Partial,TX,75094,
6106.0,FM 2100 RD,UNINCORPORATED,TX,77532,
14430.0,TEXARKANA ST,UNINCORPORATED,TX,77015,
7418.0,STARBRIDGE DR,UNINCORPORATED,TX,77095,
1320.0,MAPLE ST,Statewide-Partial,TX,77575,
26390.0,FM 902,Statewide-Partial,TX,76233,
1102.0,GRAHAM ST,Statewide-Partial,TX,79095,
2866.0,FM 980,Statewide-Partial,TX,77320,
6840.0,FM 973,COUPLAND,TX,78615,
401.0,BEARD AVE,Statewide-Partial,TX,79029,
702.0,JANIS ST,ACTON,TX,76049,
6602.0,HARBOR TOWN DR,Houston,TX,77036,
10703.0,REDWOOD DR,Statewide-Partial,TX,77523,
4002.0,BLUE JASMINE CT,Houston,TX,77059,
0.0,ATASCOCITA RD,Houston,TX,77396,
9215.0,TACQUARD DR,HITCHCOCK,TX,77563,
18922.0,W  HARDY RD,Houston,TX,77073,
,CR361,"CT,F187S,C361",TX,78801,
113.0,JASON DR,FORNEY,TX,75126,
1203.0,BERTHEA ST,Houston,TX,77006,
2729.0,PORTLAND,EL PASO,TX,79930,
407.0,ADAMS AVE,WYLIE,TX,75098,
508.0,EVERGLADE DR,MANSFIELD,TX,76063,
484.0,W RIGSBY ST,VAN ALSTYNE,TX, ,
6.0,PINE VIEW ST,Statewide-Partial,TX,77515,
4708.0,ERATH AVE,Waco,TX,76710,
5900.0,FM 2269,BUCKHOLTS,TX,76518,
4701.0,HWY 36,GATESVILLE,TX,76528,
8316.0,EASTER ST,HOUSTON,TX,77088,
18725.0,SILENT WATER WAY,PFLUGERVILLE,TX,78660,
19500.0,W SH 29,Williamson,TX,78642,
100.0,SUMMER PARK BND,CEDAR PARK,TX,78613,
12.0,CHUCK WAGON CT,Statewide-Partial,TX,77515,
376.0,JIM LAMB RD,SHERMAN,TX,75090,
2836.0,ATRIUM DR,GRAND PRAIRIE,TX,75052,
815.0,SPEAR DR,WESLACO,TX, ,
7708.0,MARBLE RIDGE DR,AUSTIN,TX,78747,
708.0,TWIN OAK TRL,CEDAR PARK,TX,78613,
5929.0,WAMEGO LN,PLANO,TX,75094,
210.0,HARRISON AVE,Statewide-Partial,TX,76372,
9103.0,RIVER DALE CANYON LN,UNINCORPORATED,TX,77338,
6609.0,ASHEN LN,AUSTIN,TX,78747,
5873.0,PORTER RD,Statewide-Partial,TX, ,
540.0,PERKINS RD,Statewide-Partial,TX,76230,
2408.0,FUENTES DR,Statewide-Partial,TX,78574,
14602.0,WUNDERLICH DR,UNINCORPORATED,TX,77069,
4621.0,BUCKNELL DR,Garland,TX,75042,
28011.0,HAWKEYE RIDGE LN,UNINCORPORATED,TX,77494,
1037.0,SMITH RD,Statewide-Partial,TX,75459,
4608.0,ST HWY 6   S,Statewide-Partial,TX,79505,
211.0,CR 468,CASTROVILLE,TX,78009,
11027.0,MISTIC MOON CT,UNINCORPORATED,TX,77064,
1107.0,MAPLE,FRIONA,TX,79035,
10624.0,PACK SADDLE TR,FORT WORTH,TX,76108,
1406.0,West   WALL Street,Midland,TX,79701,
2075.0,FM 971,Williamson,TX,78626,
3515.0,LAKELAND DR,AUSTIN,TX,78731,
0.0,SNOOK LN,Houston,TX,77375,
1604.0,2ND AVE,CANYON,TX,79015,
7178.0,FALL CREEK HWY,Statewide-Partial,TX,76049,
102.0,BIRDIE,HSB LLANO CO,TX,78657,
1511.0,RAMBLING STONE DR,UNINCORPORATED,TX,77406,
6349.0,BROMPTON RD,WEST UNIVERSITY PLACE,TX,77005,
4311.0,OAK PARK DR,COTTONWOOD SHORES,TX,78657,
2740.0,OLD ANNETTA RD,Statewide-Partial,TX,76008,
520.0,WOLF RANCH PKWY,GEORGETOWN,TX,78628,
4806.0,BROKEN ELM DR,Houston,TX,77388,
12315.0,LONGWORTH LN,BUNKER HILL VILLAGE,TX,77024,
2390.0,JUANITA DR,Statewide-Partial,TX,75020,
4115.0,MEADOWBEND DR,Rosenberg,TX,77469,
4031.0,CARY CREEK DR,Houston,TX,77521,
834.0,BEL MAR ST,Sugar Land,TX,77478,
10559.0,SUMMERBROOK DR,UNINCORPORATED,TX,77038,
1806.0,LONE LYNX WAY,WYLIE,TX,75098,
6303.0,ECHO LAKES LN,MISSOURI CITY,TX,77459,
6635.0,LAROCKE TRL,SUGAR LAND,TX,77479,
16306.0,COLE BRIDGE LN,Houston,TX,77429,
824.0,WILKES ST,Houston,TX,77009,
2117.0,COTTON FARM TRL,Williamson,TX,78641,
20702.0,CYPRESS GREEN LN,UNINCORPORATED,TX,77433,
5487.0,COUNTY ROAD 924,NEVADA,TX,75173,
3.0,LANCER DR,MIDLOTHIAN,TX,76065,
17910.0,WESTERN PASS LN,UNINCORPORATED,TX,77095,
2217.0,GRACE AVE,FORT WORTH,TX,76111,
2010.0,HIDDEN TRAIL DR, ,TX,75067,
3329.0,AMERIGO PL,Williamson,TX,78665,
3014.0,HICKORY RDG,MELISSA,TX,75454,
10249.0,VINTAGE DR,FORT WORTH,TX,76244,
5606.0,INDIAN HILL DR,ARLINGTON,TX,76018,
3408.0,MONUMENT DR,Round Rock,TX,78681,
123.0,N  POST OAK LN,Houston,TX,77024,
7511.0,LEY RD,Houston,TX,77028,
3718.0,N  BRAESWOOD BLVD,Houston,TX,77025,
2801.0,S  LAKELINE BLVD,Williamson,TX,78613,12207.0
1817.0,LAKEVIEW DR,Statewide-Partial,TX,77879,
514.0,CLOVER FLAT RD,CEDAR PARK,TX,78613,
2210.0,N HWY 34,GREENVILLE,TX,75401,
1606.0,OLIVE ST,Houston,TX,77520,
0.0,GROVE ST,Houston,TX,77536,
1114.0,STONE PATH,NEW BRAUNFELS,TX,78130,
613.0,ODENVILLE DR,WYLIE,TX,75098,
3333.0,PIONEER CROSSING DR,ROUND ROCK,TX,78665,
10513.0,REDMOND RD,AUSTIN,TX,78739,
4103.0,WELLINGTON DR,COLLEYVILLE,TX,76034,
1822.0,RAINY MEADOWS DR,AUSTIN,TX,78758,
3212.0,PILGRIM DR,MELISSA,TX,75454,
21027.0,CORAL BRIDGE LN,Houston,TX,77388,
7405.0,GLEN FALLS ST,UNINCORPORATED,TX,77049,
22019.0,RUSTIC CANYON LN,UNINCORPORATED,TX,77469,
317.0,EMERALD GLENN LN,Statewide-Partial,TX,76258,
3414.0,FM 1398,Statewide-Partial,TX,0,
403.0,W AVENUE E,Garland,TX,75040,
809.0,RACHEL DR,Statewide-Partial,TX, ,
702.0,BENNINGTON ST,Houston,TX,77022,
11506.0,SAGEDOWNE LN,Houston,TX,77089,
11522.0,DEEP MEADOW DR,Houston,TX,77064,
700.0,ALMEDA GENOA RD,Houston,TX,77047,
8528.0,BRUSHY CREEK TR,FORT WORTH,TX,76118,
6120.0,TYNE ST,Houston,TX,77007,
121.0,BAILEY LOOP,KYLE,TX,78640,
0.0,FOX TRL,Houston,TX,77338,
1702.0,WEBSTER AVE,Waco,TX,76706,
1501.0,LAWNMONT DR,Round Rock,TX,78664,
7542.0,BRUSH WOOD DR,Houston,TX,77088,
1338.0,NEWSOME GLENN DR,Houston,TX,77090,
4707.0,URSULINE,GALVESTON,TX,77551,
111.0,E  FRANKLIN ST,Statewide-Partial,TX,76225,
8911.0,DISTANT WOODS DR,Houston,TX,77095,
409.0,ROGER GRAVES CIR,MCKINNEY,TX,75072,
15327.0,ENGLISH RIVER LOOP,Williamson,TX,78641,
7909.0,HOMEWOOD LN,HOUSTON,TX,77028,
16226.0,JORDYN LAKE DR,UNINCORPORATED,TX,77375,
12421.0,PECAN CT,HOUSTON,TX,77013,
10809.0,GULF FWY,Houston,TX,77034,
20008.0,CHAMPION FOREST DR,Houston,TX,77379,
616.0,S  HWY 287,Statewide-Partial,TX,79013,
12811.0,CLERMONT HARBOR CT,HOUSTON,TX,77045,
151.0,S MAIN ST,PROSPER,TX,75078,
911.0,SHAWNEE ST,HOUSTON,TX,77034,
1310.0,WESTGREEN BLVD,Houston,TX,77450,
103.0,MALCOM EDDY RD,ELGIN,TX,78621,
521.0,ELLIS DR,Statewide-Partial,TX,76088,
2314.0,LONG RIDGE LN,ARLINGTON,TX,76014,
4800.0,KELLY ELLIOTT RD,ARLINGTON,TX,76017,
224.0,WELLS BND,HUTTO,TX,78634,
1242.0,CHANDLER CIR,PROSPER,TX,75078,
2071.0,SUNSET LN, ,TX,75067,
15906.0,BERNINA LN,Houston,TX,77044,
2214.0,GRANITE BROOK LN,KATY,TX,77494,
2370.0,W AIRFIELD DR,GRAPEVINE,TX,76051,
4813.0,YELLOWSTONE DR,Houston,TX,77505,
3616.0,GINGER,PEARLAND,TX,77581,
107.0,FOX DR,GEORGETOWN,TX,78626,
6401.0,RANCHESTER DR,Houston,TX,77036,
4763.0,ENGLISH CROSSING RD,Statewide-Partial,TX,78063,
118.0,MUSTANG STAMPEDE DR,LA MARQUE,TX,77568,
1603.0,WHEATBERRY CT,ALLEN,TX,75002,
5512.0,ROLLING MEADOWS DR,FORT WORTH,TX,76123,
716.0,E  ESPERANZA AVE,Statewide-Partial,TX,78572,
11534.0,CYPRESSWOOD DR,Houston,TX,77070,
1655.0,BROOKLYN ST,Beaumont,TX,77701,
7122.0,NEFF ST,HOUSTON,TX,77074,
48.0,TWIN CO RD,Statewide-Partial,TX,79536,
2144.0,THORNBURY LN,Statewide-Partial,TX,75013,
2801.0,S  LAKELINE BLVD,Williamson,TX,78613,4102.0
10402.0,HWY 16,Statewide-Partial,TX,76442,
225.0,WYATT ST,Statewide-Partial,TX,75165,
1624.0,N   HOARD AVE,Statewide-Partial,TX,75090,
3612.0,TALLOW FOREST ST,LEAGUE CITY,TX,77539,
407.0,JEWEL LANDING,MISSOURI CITY,TX,77459,
1125.0,WOODLAWN AVE,GEORGETOWN,TX,78628,
1901.0,LAUREL PATH,Williamson,TX,78664,
1424.0,LAYTON AVE,HALTOM CITY,TX,76117,
1309.0,GOUGH ST,Statewide-Partial,TX,75069,
0.0,KICKAPOO RD,Houston,TX,77447,
505.0,SUSAN DR,KENNEDALE,TX,76060,
850.0,RUSTY CREEK LN,KINGSBURY,TX,78638,
6010.0,MORTON RD,KATY,TX,77493,
1248.0,FM 78,SCHERTZ,TX,78154,
1711.0,EVELYN ST,HOUSTON,TX,77009,
6752.0,MANITOWOC DR,PLANO,TX,75023,
2316.0,S   PACE BEND RD,SPICEWOOD,TX,78669,
9307.0,SINFONIA DR,UNINCORPORATED,TX,77040,
12915.0,IRONGATE AVE,AUSTIN,TX,78727,
0.0,R R PROPERTY,Houston,TX,77029,
5521.0,BORDLEY DR,HOUSTON,TX,77056,
264.0,PLEASANT ACRES DR,SEGUIN,TX,78155,
10968.0,TED WILLIAMS,EL PASO,TX,79934,
19415.0,SOUTHAVEN DR,UNINCORPORATED,TX,77084,
11326.0,SAGEWILLOW LN,Houston,TX,77089,
2310.0,RUBY ST,EDINBURG,TX, ,
7949.0,BLUE ST,HOUSTON,TX,77028,
214.0,COFFEE MILL CREEK RD,Williamson,TX,78633,
1500.0,S 10TH AVE,EDINBURG,TX, ,
7406.0,SKYLIGHT LN,Houston,TX,77095,
246.0,OLMO ST,SULLIVAN CITY,TX, ,
2912.0,OPEN RANGE DR,CELINA,TX,75009,
3304.0,ORCHARD BRIDGE LN,Rosenberg,TX,77471,
355.0,COUNTY ROAD 941,Statewide-Partial,TX,75860,
16031.0,RIGGING CT,UNINCORPORATED,TX,77532,
3023.0,LEXINGTON LAKE DR,Missouri City,TX,77459,
12357.0,GREEN ASH DR,FORT WORTH,TX,76244,
5702.0,SAM HOUSTON CIR,AUSTIN,TX,78731,
11222.0,HAZEN ST,Houston,TX,77072,
630.0,CALHOUN DR,NEW BRAUNFELS,TX,78130,
3516.0,VENEZIA VW,Williamson,TX,78641,
6706.0,SAINT AUGUSTINE ST,Houston,TX,77021,
4713.0,MANNING DR,COLLEYVILLE,TX,76034,
11105.0,EVANGELINE DR,Houston,TX,77013,
5201.0,TEDDINGTON PARK DR,PLANO,TX,75023,
15508.0,PLANE VIEW DR,Statewide-Partial,TX,77484,
1313.0,KELVING WAY,Statewide-Partial,TX,77488,
1523.0,SCHILDER DR,HOUSTON,TX,77093,
3901.0,MAGNOLIA CT,COLLEYVILLE,TX,76034,
16900.0,TRAILS END CV,LEANDER,TX,78641,
12717.0,HANNAHSVILLE LN,FORT WORTH,TX,76244,
11134.0,WHEATRIDGE DR,Houston,TX,77064,
25200.0,SILVER SPRINGS RD,Statewide-Partial,TX,77447,
2304.0,REED RD,HOUSTON,TX,77045,
13347.0,GRANADA ST,HOUSTON,TX,77015,
601.0,LAS BRISAS DR,MISSION,TX,78574,
1421.0,LAWRENCE ST,ROSENBERG,TX,77471,
329.0,CRESTVIEW DR,ARLINGTON,TX,76018,
0.0,BELLAIRE BLVD,Houston,TX,77072,
16410.0,14TH ST,UNINCORPORATED,TX,77429,
2610.0,SAN EDUARDO AVE,Statewide-Partial,TX, ,
,W MAPLE ST,FRISCO,TX,75033,
6822.0,FALLING WATERS DR,UNINCORPORATED,TX,77379,
24330.0,SILENT FLIGHT DR,Houston,TX,77494,
3344.0,COUNTY ROAD 3655,Statewide-Partial,TX,76426,
17711.0,EMERALD GARDEN LN,Houston,TX,77084,
1404.0,COUNTY ROAD 2333,Statewide-Partial,TX,0,
2111.0,WELCH ST,Houston,TX,77019,
1831.0,COUNTRY CLUB COVE DR,BAYTOWN,TX,77521,
436.0,SOUTH BROOK DR,LEANDER,TX,78641,
6415.0,WALDRON DR,Houston,TX,77084,
2326.0,POCO DR,Missouri City,TX,77489,
1201.0,CONWAY DR,SAN MARCOS,TX,78666,
