NUMBER,STREET,CITY,STATE,POSTCODE,UNIT
4860.0,W 4700  S,WEST VALLEY CITY,UT,84118,208.0
1210.0,E COLLEGE ST,MILLCREEK,UT,84117,
237.0,W 8600  S,MIDVALE,UT,84047,
1414.0,W 550  S,SYRACUSE,UT,84015,
4093.0,W 8370  S,WEST JORDAN CITY,UT,84088,
370.0,N 100  W,SALINA,UT,84654,
1228.0,E GORDON LN,WASHINGTON CITY,UT,84780,
90.0,S ORCHARD DR,CITY OF NORTH SALT LAKE,UT,84054,
1442.0,CRESCENT RD,PARK CITY (SUMMIT CO),UT,84060,
771.0,W SERRA WAY,SOUTH JORDAN,UT,84095,
820.0,S MONROE BLVD,OGDEN CITY,UT,84404,
280.0,W 1550  N,BOUNTIFUL,UT,84010,
873.0,S COUNTRY LN,FARMINGTON,UT,84025,
15.0,E LOST CREEK LN,MURRAY,UT,84107,
704.0,S UTAH VALLEY DR,AMERICAN FORK,UT,84003,
14747.0,S DRAPER POINTE WAY,DRAPER CITY (SL CO),UT,84020,306.0
555.0,S MAIN ST,MOAB CITY,UT,84532,
1332.0,S GLENEAGLES DR,SYRACUSE,UT,84075,
1740.0,E MAIN ST,GREEN RIVER,UT,84525,201.0
772.0,W RIDER DR,KANAB CITY,UT,84741,
5057.0,W SLATE ST,HERRIMAN TOWN,UT,84096,
645.0,S BULLION CANYON RD,MARYSVALE,UT,84750,
1525.0,S KENTUCKY DERBY WAY,KAYSVILLE,UT,84037,
1878.0,W 2185  S,WOODS CROSS CITY,UT,84087,
365.0,N 75  E,CITY OF NORTH SALT LAKE,UT,84054,
535.0,SADDLE VIEW WAY,PARK CITY (SUMMIT CO),UT,84060,22.0
4608.0,S WESTVIEW DR,MILLCREEK,UT,84124,
1845.0,W FARR WEST DR,FARR WEST CITY,UT,84404,
2339.0,W SILVER MEADOW WAY,WEST JORDAN CITY,UT,84088,
1497.0,S STAGHORN ST,TOQUERVILLE CITY,UT,84774,
257.0,N 1300  E,LAYTON,UT,84040,
3383.0,W BEAR CANYON LN,CEDAR HILLS,UT,84062,
195.0,E 100  N,PANGUITCH,UT,84759,
5216.0,W SUNSHINE DR,WEST VALLEY CITY,UT,84120,
268.0,W BRIDLE LN,STANSBURY PARK,UT,84074,
863.0,N MAPLE TREE CT,SALT LAKE CITY,UT,84116,
1983.0,S 2050  W,SYRACUSE,UT,84075,
495.0,E 700  N,DUCHESNE,UT,84021,
407.0,E 4140  S,MILLCREEK,UT,84107,
1025.0,S MAIN ST,SALT LAKE CITY,UT,84111,
181.0,W 1675  N,LAYTON,UT,84041,
794.0,E 400  S,AMERICAN FORK,UT,84003,
1030.0,W 2600  N,LAYTON,UT,84041,
426.0,E NICHOLS CANYON RD,CEDAR CITY,UT,84721,
385.0,N 725  W,OREM,UT,84057,
119.0,S SNOWMOBILE RD,BRIAN HEAD CITY,UT,84719,
493.0,W 300  S,SPANISH FORK,UT,84660,
3672.0,W 4310  S,WEST VALLEY CITY,UT,84120,
7049.0,S BROMLEY RD,WEST JORDAN CITY,UT,84084,
266.0,E 4350  S,WASHINGTON TERRACE,UT,84405,
186.0,E 1600  S,FARMINGTON,UT,84025,
1331.0,E ROYAL TROON DR,MILLCREEK,UT,84124,
2442.0,W 4975  S,ROY CITY,UT,84067,
2173.0,W 1710  N,ST GEORGE CITY,UT,84770,
2521.0,S HARTFORD ST,SALT LAKE CITY,UT,84106,
1522.0,S 870  W,PROVO,UT,84601,
2751.0,E 1400  S,SPANISH FORK,UT,84660,
113.0,E HILLSIDE AVE,SALT LAKE CITY,UT,84103,
574.0,E 1420  N,TOOELE,UT,84074,
331.0,E 4450  N,PROVO,UT,84604,
2162.0,S POLK AVE,OGDEN CITY,UT,84401,
10906.0,S PAMPAS DR,SANDY CITY,UT,84094,
2010.0,S 2500  E,SALT LAKE CITY,UT,84108,
2059.0,W 1800  N,ST GEORGE CITY,UT,84770,
1829.0,N 2000  W,CLINTON,UT,84015,
300.0,S 1600  E,PRICE,UT,84501,2826.0
1230.0,S 1100  W,WOODS CROSS CITY,UT,84087,
1042.0,E 3000  S,DANIEL ,UT,84032,
965.0,N 2500  W,HURRICANE CITY,UT,84737,
4725.0,S HOLLADAY WOOD LN,MILLCREEK,UT,84117,
355.0,E MAIN ST,CASTLE DALE,UT,84513,122.0
262.0,W DANIEL DR,OREM,UT,84057,
664.0,S HAYLIE LN,TOOELE,UT,84074,
215.0,E 200  S,NEPHI,UT,84648,
5346.0,S JORDAN CANAL RD,TAYLORSVILLE CITY,UT,84129,
4601.0,W 14000  N,CORNISH,UT,84308,
360.0,S 500  W,ESCALANTE,UT,84726,
1203.0,N 1800  W,LEHI,UT,84043,
1214.0,CANYON SPRINGS RD,SPRINGDALE,UT,84767,
3851.0,W COBBLE RIDGE DR,WEST JORDAN CITY,UT,84084,
51.0,N 1000  W,HURRICANE CITY,UT,84737,
3224.0,S 2045  E,MILLCREEK,UT,84109,
187.0,W GURR WELL RD,BRIAN HEAD CITY,UT,84719,
1732.0,W WARM RIVER DR,ST GEORGE CITY,UT,84790,
3504.0,W 5735  S,TAYLORSVILLE CITY,UT,84129,
287.0,W 1140  N,LOGAN CITY,UT,84341,
6426.0,S TAMRA DR,TAYLORSVILLE CITY,UT,84129,
8100.0,S WILLOW STREAM DR,COTTONWOOD HEIGHTS,UT,84093,
5168.0,S MOHAWK LN,OGDEN CITY,UT,84403,
165.0,S 250  E,CENTERFIELD,UT,84622,
1176.0,E 470  S,PLEASANT GROVE,UT,84062,
1455.0,S REGENT PARK RD,HURRICANE CITY,UT,84737,
3056.0,MINUTEMAN WAY,CLEARFIELD,UT,84056,
550.0,N MAIN ST,LOGAN CITY,UT,84321,
2081.0,E PINNACLE TERRACE WAY,COTTONWOOD HEIGHTS,UT,84121,101.0
13832.0,S BELLE ISIS BAY,HERRIMAN TOWN,UT,84096,
525.0,S RAY ST,GARDEN CITY,UT,84028,
3980.0,S 700  E,MILLCREEK,UT,84107,24.0
9864.0,N 6320  W,HIGHLAND,UT,84003,
6342.0,W MORING POINT WAY,SOUTH JORDAN,UT,84009,
2257.0,N 2575  W,FARR WEST CITY,UT,84404,
1027.0,E 5700  S,MURRAY,UT,84121,
263.0,E AILEE LN,MILLCREEK,UT,84107,
319.0,S 6150  W,HURRICANE CITY,UT,84737,
405.0,S 740  E,AMERICAN FORK,UT,84003,
1301.0,N QUAIL RUN LN,ELK RIDGE,UT,84651,
8808.0,S CHELSEA CIR,SANDY CITY,UT,84070,
4548.0,S ORCHARD AVE,SOUTH OGDEN,UT,84403,
2275.0,E 9800  S,SANDY CITY,UT,84092,
206.0,E 1525  N,LAYTON,UT,84041,
904.0,E 700  S,SALT LAKE CITY,UT,84102,1.0
479.0,N ALBERTA CT,MOAB CITY,UT,84532,
260.0,N 1240  W,ST GEORGE CITY,UT,84770,
1278.0,BAYCREST DR,SARATOGA SPRINGS,UT,84045,
11547.0,S 4340  W,SOUTH JORDAN,UT,84009,
4595.0,S 2770  E,HOLLADAY CITY,UT,84117,
467.0,N 3000  W,WEST POINT,UT,84015,
983.0,E CANFIELD DR,OGDEN CITY,UT,84404,
715.0,E ASHTON AVE,SALT LAKE CITY,UT,84106,
3683.0,W PLYMOUTH ROCK CV,LEHI,UT,84043,
2141.0,W ALESA ST,WEST VALLEY CITY,UT,84119,
67.0,E BLUE MEADOW LN,PANGUITCH,UT,84759,
5613.0,W BONICA LN,HERRIMAN TOWN,UT,84096,
1405.0,E 1120  S,PROVO,UT,84606,
269.0,N 300  W,ST GEORGE CITY,UT,84770,
1156.0,N 400  W,LOGAN CITY,UT,84341,
55.0,N 100  E,HYRUM,UT,84319,
3.0,E 2450  N,LAYTON,UT,84041,
185.0,W 100  S,PAROWAN,UT,84761,
72.0,S EAST RIDGE RD,MONA,UT,84645,
3364.0,W 4460  S,WEST VALLEY CITY,UT,84119,
1509.0,S GIBSON AVE,OGDEN CITY,UT,84404,
311.0,N 750  E,VINEYARD,UT,84057,
355.0,E 950  N,TOOELE,UT,84074,
4585.0,S IDLEWILD RD,MILLCREEK,UT,84124,
2154.0,W 2175  N,CLINTON,UT,84015,
3030.0,W 3600  S,CHARLESTON,UT,84032,
50.0,E 2500  S,ORDERVILLE,UT,84755,
4300.0,S DIANA WAY,MILLCREEK,UT,84124,
4507.0,N DREAMERS CV,ERDA,UT,84074,
4586.0,S AUTUMN VISTAS DR,WEST VALLEY CITY,UT,84128,
2588.0,S 900  E,SALT LAKE CITY,UT,84106,25.0
4823.0,W PILLAR DR,RIVERTON,UT,84096,
4365.0,S 3250  W,WEST HAVEN,UT,84401,
2278.0,W 4185  S,TAYLORSVILLE CITY,UT,84129,
69.0,E 200  N,KAYSVILLE,UT,84037,
255.0,W 1700  N,NORTH OGDEN CITY,UT,84404,
2184.0,E 2000  N,LAYTON,UT,84040,
2151.0,S 2060  E,SALT LAKE CITY,UT,84109,
317.0,E 20TH ST,OGDEN CITY,UT,84401,
584.0,E 5TH ST,OGDEN CITY,UT,84404,
2158.0,E VALLEY VIEW CT,LAYTON,UT,84040,
332.0,W 1070  S,VERNAL,UT,84078,
412.0,S WILLOW PINE LN,LAYTON,UT,84041,
1015.0,S RIVER RD,ST GEORGE CITY,UT,84790,
383.0,E 30  S,OREM,UT,84058,
3306.0,W 3800  S,WEST VALLEY CITY,UT,84119,
1379.0,N 150  E,HARRISVILLE,UT,84404,
11581.0,S KESTREL RISE RD,SOUTH JORDAN,UT,84009,
433.0,E 2260  N,PROVO,UT,84604,
2783.0,N 500  E,NORTH LOGAN,UT,84341,
1066.0,E 500  N,PROVO,UT,84606,
39.0,E SUMMER PL,SARATOGA SPRINGS,UT,84045,
934.0,W WOODSTOCK DR,CITY OF NORTH SALT LAKE,UT,84054,
350.0,W 200  N,ST GEORGE CITY,UT,84770,
3265.0,S RICHARDS ST,SOUTH SALT LAKE CITY,UT,84115,3.0
434.0,E 5350  S,WASHINGTON TERRACE,UT,84405,
48.0,S 800  E,PAYSON,UT,84651,
675.0,N 2575  W,WEST POINT,UT,84015,
562.0,W 1000  S,WOODS CROSS CITY,UT,84010,
1446.0,S 1615  E,OGDEN CITY,UT,84404,
77.0,N 1150  W,CEDAR CITY,UT,84720,
2651.0,W CARSON LN,WEST JORDAN CITY,UT,84084,
4389.0,S 500  W,MURRAY,UT,84123,
5498.0,S SOUTH WEBER DR,RIVERDALE,UT,84405,
1066.0,N WALBURK AVE,LAYTON,UT,84040,
917.0,S MAIN ST,LAYTON,UT,84041,
4756.0,S 2950  W,ROY CITY,UT,84067,
2188.0,E 8100  S,SOUTH WEBER,UT,84405,
580.0,N ALPINE BLVD,ALPINE,UT,84004,
350.0,E 700  S,SALT LAKE CITY,UT,84111,107.0
2430.0,S 1100  W,WOODS CROSS CITY,UT,84087,
3211.0,W 2200  N,PLAIN CITY,UT,84404,
3071.0,E GRANITE SLOPE LN,SANDY CITY,UT,84092,
311.0,N HIGHLAND DR,CEDAR CITY,UT,84721,
1755.0,S 440  W,WOODS CROSS CITY,UT,84010,
1984.0,PADDINGTON DR,PARK CITY,UT,84060,
4326.0,WASHINGTON ST,CLEARFIELD,UT,84056,
2764.0,W 3975  N,FARR WEST CITY,UT,84404,
843.0,E 300  S,PAYSON,UT,84651,
1877.0,E RIDGE RD,LAYTON,UT,84040,
1201.0,N 1250  E,LEHI,UT,84043,
1142.0,W 350  S,SPANISH FORK,UT,84660,
181.0,E 300  N,KANAB CITY,UT,84741,
1777.0,W 520  S,PROVO,UT,84601,
587.0,N FOXBORO DR,CITY OF NORTH SALT LAKE,UT,84054,
990.0,N LIBERTY AVE,OGDEN CITY,UT,84404,
2398.0,W 2650  N,CLINTON,UT,84015,
239.0,E SOUTH TEMPLE ST,SALT LAKE CITY,UT,84111,
2617.0,E 1650  N,LAYTON,UT,84040,
136.0,PARKWAY CIR,CLEARFIELD,UT,84015,
434.0,S 600  W,MILFORD,UT,84751,
6975.0,S UNION PARK CTR,COTTONWOOD HEIGHTS,UT,84047,180.0
3525.0,W ICE SKATE CIR,WEST JORDAN CITY,UT,84084,
665.0,E MAIN ST,WELLINGTON,UT,84542,
3529.0,W 3100  S,WEST VALLEY CITY,UT,84119,
6776.0,W PARKWAY BLVD,WEST VALLEY CITY,UT,84128,
979.0,E MANCHESTER RD,KAYSVILLE,UT,84037,
5377.0,W STONE CREEK DR,HIGHLAND,UT,84003,
699.0,W 1300  S,WOODS CROSS CITY,UT,84087,
247.0,S MAIN ST,HURRICANE CITY,UT,84737,
42.0,N GRANT AVE,AMERICAN FORK,UT,84003,
441.0,S 2080  E,SPRINGVILLE,UT,84663,
65.0,E COLUMBUS CT,SALT LAKE CITY,UT,84103,
2447.0,E RIO GRANDE DR,SPANISH FORK,UT,84660,
8032.0,S LISMORE LN,WEST JORDAN CITY,UT,84088,
8084.0,N ROCK CREEK COVE LN,EAGLE MOUNTAIN,UT,84005,
1337.0,E WOODLAND AVE,SALT LAKE CITY,UT,84106,
6140.0,W 10550  N,HIGHLAND,UT,84003,
630.0,S 1750  E,SPANISH FORK,UT,84660,
630.0,E NORMANDY LOOP LN,DRAPER CITY (SL CO),UT,84020,
3461.0,S 3570  E,MILLCREEK,UT,84109,
1274.0,N SONATA ST,SALT LAKE CITY,UT,84116,
8841.0,S REDWOOD RD,WEST JORDAN CITY,UT,84088,
2588.0,S ELIZABETH ST,SALT LAKE CITY,UT,84106,8.0
2116.0,N JONI DR,LAYTON,UT,84040,
1025.0,E 400  S,SALT LAKE CITY,UT,84102,4.0
950.0,PARK AVE,PARK CITY,UT,84060,135.0
1319.0,W 1950  N,CLINTON,UT,84015,
9923.0,S FLINT DR,SANDY CITY,UT,84094,
311.0,W CORNELL DR,MIDVALE,UT,84047,
1382.0,W 9950  S,SOUTH JORDAN,UT,84095,
5490.0,S 2350  W,ROY CITY,UT,84067,
12308.0,S MIDAS QUARRY RD,HERRIMAN TOWN,UT,84096,
1651.0,N 400  E,NORTH LOGAN,UT,84341,
525.0,E 39TH ST,SOUTH OGDEN,UT,84403,
21.0,QUIET MEADOW LN,MAPLETON,UT,84664,
1520.0,E FEDERAL HEIGHTS DR,SALT LAKE CITY,UT,84103,
2725.0,E 1170  S,ST GEORGE CITY,UT,84790,
282.0,E 1400  N,BOUNTIFUL,UT,84010,
111.0,N 200  E,SALEM,UT,84653,
1488.0,W 1460  N,PROVO,UT,84604,
8660.0,S IDA LN,SANDY CITY,UT,84093,
634.0,W 650  S,RICHFIELD CITY,UT,84701,
1231.0,E PARKWAY AVE,SALT LAKE CITY,UT,84106,
178.0,W MOJAVE HEIGHTS DR,ST GEORGE CITY,UT,84770,
825.0,N 660  W,WEST BOUNTIFUL,UT,84087,
1413.0,N OAKCREST CIR,CENTERVILLE,UT,84014,
1160.0,W 220  N,PROVO,UT,84601,
7478.0,S 2920  W,WEST JORDAN CITY,UT,84084,
1781.0,N 75  E,LAYTON,UT,84041,
579.0,E 300  N,KAYSVILLE,UT,84037,
2778.0,E 410  N,ST GEORGE CITY,UT,84790,
1189.0,E 700  S,ST GEORGE CITY,UT,84790,
5402.0,W LETICIA CT,WEST JORDAN CITY,UT,84081,
15287.0,S REINS WAY,BLUFFDALE (SL CO),UT,84065,
344.0,N DOVER LN,WASHINGTON CITY,UT,84780,
4911.0,S EASTLAKE DR,MURRAY,UT,84107,
464.0,W 720  S,TREMONTON,UT,84337,
501.0,W TEA ROSE CT,SARATOGA SPRINGS,UT,84045,
5959.0,S JAMAICA CIR,MURRAY,UT,84123,
152.0,E 800  N,TREMONTON,UT,84337,
2719.0,N EDGEWOOD DR,PROVO,UT,84604,
5519.0,W GRANTHAM LN,WEST VALLEY CITY,UT,84120,
9936.0,S GLACIER RIDGE DR,SANDY CITY,UT,84092,
3676.0,W 8030  S,WEST JORDAN CITY,UT,84088,
4145.0,S LAURELGREEN DR,WEST VALLEY CITY,UT,84120,
2664.0,N 330  E,NORTH LOGAN,UT,84341,
1529.0,E MURRAY HOLLADAY RD,MILLCREEK,UT,84117,
79.0,N 775  W,PAROWAN,UT,84761,
1126.0,E 100  S,SALT LAKE CITY,UT,84102,4.0
125.0,N 200  E,LAKETOWN,UT,84038,
470.0,S 1300  E,SALT LAKE CITY,UT,84102,38.0
1640.0,W ROENEWOOD CIR,TAYLORSVILLE CITY,UT,84123,
1881.0,E JUNIPER DR,EAGLE MOUNTAIN,UT,84005,
733.0,E 800  S,SALT LAKE CITY,UT,84102,
1147.0,W CLUBHOUSE DR,TAYLORSVILLE CITY,UT,84123,
126.0,N HAYSTACK MOUNTAIN DR,HEBER CITY,UT,84032,
6087.0,W 10550  N,HIGHLAND,UT,84003,
545.0,S MAPLE DR,WOODLAND HILLS,UT,84653,
406.0,E 10425  S,SANDY CITY,UT,84070,
1952.0,W 5600  S,ROY CITY,UT,84067,
1733.0,E SHADOW DR,EAGLE MOUNTAIN,UT,84005,
1401.0,W 1600  S,CEDAR CITY,UT,84720,
3024.0,S TIMERON DR,WEST VALLEY CITY,UT,84128,
14738.0,S QUIET GLEN DR,HERRIMAN TOWN,UT,84096,
2926.0,W CORONA CIR,WEST JORDAN CITY,UT,84084,
90.0,N WESTERN VIEW DR,CEDAR CITY,UT,84721,
60.0,S 200  E,MINERSVILLE,UT,84752,
360.0,W 200  N,LOGAN CITY,UT,84321,
4242.0,S TWIN RIVER WAY,TAYLORSVILLE CITY,UT,84123,
565.0,S 980  E,HEBER CITY,UT,84032,
833.0,N DOROTHEA WAY,SALT LAKE CITY,UT,84116,
9737.0,S 1600  W,SOUTH JORDAN,UT,84095,
5581.0,S EDGEBERRY DR,MURRAY,UT,84123,
4314.0,W WAPPAPELLO LN,SOUTH JORDAN,UT,84009,
35.0,S 100  E,ELMO,UT,84521,
11715.0,S STATE ST,DRAPER CITY (SL CO),UT,84020,
2921.0,W 1010  N,CLINTON,UT,84015,
7436.0,S 1475  E,SOUTH WEBER,UT,84405,
65.0,N 850  E,SALEM,UT,84653,
2214.0,E LOCH LOMOND DR,SARATOGA SPRINGS,UT,84043,
343.0,N 1150  E,KAYSVILLE,UT,84037,
8232.0,S SKY MEADOW DR,WEST JORDAN CITY,UT,84081,
3140.0,E HOLLY DR,ST GEORGE CITY,UT,84790,
3913.0,S 700  W,MILLCREEK,UT,84123,
605.0,W 720  S,TREMONTON,UT,84337,
1508.0,E FOREST GREEN DR,OGDEN CITY,UT,84403,
1056.0,E 4750  S,OGDEN CITY,UT,84403,
2625.0,E STRINGHAM AVE,SALT LAKE CITY,UT,84109,
3012.0,W KINGS MEADOW CT,RIVERTON,UT,84065,
872.0,E COTTONWOOD DR,HEBER CITY,UT,84032,
4000.0,S REDWOOD RD,WEST VALLEY CITY,UT,84123,
2375.0,S 300  E,SOUTH SALT LAKE CITY,UT,84115,
790.0,E SPRUCE MESA WAY,SANDY CITY,UT,84094,
115.0,W 29TH ST,OGDEN CITY,UT,84401,
25.0,W 700  N,NEPHI,UT,84648,
636.0,E FACTORY ST,GARLAND,UT,84312,
3098.0,W 525  N,WEST POINT,UT,84015,
4877.0,S 1025  E,OGDEN CITY,UT,84403,
1041.0,W 570  N,CITY OF NORTH SALT LAKE,UT,84054,
295.0,W 200  S,SMITHFIELD,UT,84335,
310.0,E 1230  N,SPRINGVILLE,UT,84663,
1288.0,E ERDA WAY,ERDA,UT,84074,
576.0,E 275  S,LAYTON,UT,84041,
437.0,E 1700  N,MONA,UT,84645,
842.0,E THREE FOUNTAINS DR,MURRAY,UT,84107,192.0
3810.0,S REDWOOD RD,WEST VALLEY CITY,UT,84119,
775.0,E 100  N,ENTERPRISE,UT,84725,
10.0,W 100  S,SALT LAKE CITY,UT,84101,250.0
11239.0,S MIDAS VIEW CIR,SOUTH JORDAN,UT,84095,
255.0,MAIN ST,PARK CITY,UT,84060,
14016.0,S SONORA WAY,BLUFFDALE (SL CO),UT,84065,
9647.0,S DUTCHESS PL,SOUTH JORDAN,UT,84095,
310.0,W 750  N,CLEARFIELD,UT,84015,
276.0,N 135  W,LINDON,UT,84042,
3845.0,W ROCKWOOD WAY,WEST VALLEY CITY,UT,84120,
77.0,S RIO BRAVO PL,WEST JORDAN CITY,UT,84088,
773.0,N CATHERINE ST,SALT LAKE CITY,UT,84116,
851.0,E 800  S,SALT LAKE CITY,UT,84102,
2957.0,W 3600  N,FARR WEST CITY,UT,84404,
1629.0,S 10  W,BOUNTIFUL,UT,84010,
1710.0,W 360  N,ST GEORGE CITY,UT,84770,
7656.0,S TELLUR DR,WEST JORDAN CITY,UT,84081,
180.0,S MAIN ST,COALVILLE,UT,84017,13.0
6885.0,S REDWOOD RD,WEST JORDAN CITY,UT,84084,
418.0,S 860  E,AMERICAN FORK,UT,84003,
1149.0,S HWY 106,FARMINGTON,UT,84025,
117.0,N MOUNTAIN VISTAS RD,KAYSVILLE,UT,84037,
195.0,E SHELLY LOUISE DR,SANDY CITY,UT,84070,
4717.0,E BROOKWOOD DR,EAGLE MOUNTAIN,UT,84005,
1848.0,E AMERICAN WAY,EAGLE MOUNTAIN,UT,84005,
42.0,E 300  N,REDMOND,UT,84652,
2882.0,W WESTCOVE DR,WEST VALLEY CITY,UT,84119,
325.0,S ORCHARD DR,CITY OF NORTH SALT LAKE,UT,84054,
221.0,E 2700  S,SOUTH SALT LAKE CITY,UT,84115,
2382.0,W 1100  S,SYRACUSE,UT,84075,
7871.0,RED TAIL CT,PARK CITY,UT,84060,
3780.0,W SADDLER DR,WEST JORDAN CITY,UT,84088,
2839.0,E HORSEMAN PARK DR,ST GEORGE CITY,UT,84790,
85.0,W 300  N,CLEARFIELD,UT,84015,
4172.0,W BERRIDALE CIR,SOUTH JORDAN,UT,84009,
756.0,W 1150  S,PROVO,UT,84601,
43.0,S 200  W,FOUNTAIN GREEN,UT,84632,
1290.0,W LEXINGTON ST,WASHINGTON CITY,UT,84780,
13542.0,S CERVINA WAY,RIVERTON,UT,84065,
4145.0,S 2785  W,WEST VALLEY CITY,UT,84119,
300.0,N FORT LN,LAYTON,UT,84041,
267.0,S DEL MAR CT,SALT LAKE CITY,UT,84101,
889.0,W 2700  S,SYRACUSE,UT,84075,
653.0,E 300  S,SALT LAKE CITY,UT,84102,
202.0,N SAGE CREST CIR,WASHINGTON CITY,UT,84780,
2080.0,E DELMONT DR,HOLLADAY CITY,UT,84117,
51.0,E INDUSTRIAL PARK DR,SPANISH FORK,UT,84660,
308.0,W ANTELOPE DR,LAYTON,UT,84041,
7815.0,S HIGHLAND DR,COTTONWOOD HEIGHTS,UT,84121,
773.0,W LITTLE MATTERHORN,TAYLORSVILLE CITY,UT,84123,
1178.0,W CEDAR KNOLLSOUTH DR,CEDAR CITY,UT,84720,
135.0,S 300  E,SALT LAKE CITY,UT,84111,
1026.0,W RAMBLER DR,SALT LAKE CITY,UT,84116,
1588.0,S MAIN ST,SALT LAKE CITY,UT,84115,102.0
2518.0,W PINE NEEDLE PL,TAYLORSVILLE CITY,UT,84129,
87.0,W 300  N,SALT LAKE CITY,UT,84103,407.0
896.0,E 630  N,HYDE PARK CITY,UT,84318,
732.0,E 550  S,OREM,UT,84097,
1855.0,S 200  E,CLEARFIELD,UT,84015,
947.0,E CANYON RD,OGDEN CITY,UT,84404,
2502.0,N CENTER ST,LEHI,UT,84043,
3738.0,S GRANGER DR,WEST VALLEY CITY,UT,84119,
639.0,N FALL CREEK DR,VINEYARD,UT,84058,
60.0,S 600  E,SALT LAKE CITY,UT,84102,250.0
2075.0,N JANICE DON CIR,PLEASANT GROVE,UT,84062,
2355.0,W 420  S,PROVO,UT,84601,
1356.0,N 200  W,OREM,UT,84057,
231.0,W GARDEN PARK DR,OREM,UT,84057,
2645.0,W 4900  S,ROY CITY,UT,84067,
662.0,S 700  W,BRIGHAM CITY,UT,84302,
679.0,E 4025  S,MILLCREEK,UT,84107,
7772.0,S BRIGHTON WAY,COTTONWOOD HEIGHTS,UT,84121,
652.0,S 200  W,HEBER CITY,UT,84032,
4934.0,W CINNAMON WOOD LN,SOUTH JORDAN,UT,84009,
1220.0,S 3600  W,SALT LAKE CITY,UT,84104,
1254.0,E 500  S,SALT LAKE CITY,UT,84102,
2704.0,W VALLEY VIEW DR,TREMONTON,UT,84337,
835.0,S WOLF CREEK RD,WASHINGTON CITY,UT,84780,
21.0,W 650  S,ST GEORGE CITY,UT,84770,
948.0,W 1220  N,CLINTON,UT,84015,
1607.0,E HARRISON AVE,SALT LAKE CITY,UT,84105,
3424.0,S IOWA AVE,OGDEN CITY,UT,84403,
1564.0,S HWY 89,WOODS CROSS CITY,UT,84087,
507.0,N 725  E,HYDE PARK CITY,UT,84318,
1981.0,S 1225  W,WOODS CROSS CITY,UT,84087,
2554.0,N TIMPVIEW DR,PROVO,UT,84604,
274.0,W 200  S,SALT LAKE CITY,UT,84101,
1324.0,S 1100  E,SALT LAKE CITY,UT,84105,
12101.0,S STATE ST,DRAPER CITY (SL CO),UT,84020,143.0
4728.0,E LEXI LOOP,EAGLE MOUNTAIN,UT,84005,
3511.0,PINYON CIR,NORTH LOGAN,UT,84341,
322.0,E 30TH ST,OGDEN CITY,UT,84401,
4976.0,W SWAN HILL CV,WEST JORDAN CITY,UT,84081,
3007.0,W 3825  S,WEST HAVEN,UT,84401,
2642.0,S 50  W,BOUNTIFUL,UT,84010,
569.0,S 640  W,CEDAR CITY,UT,84720,
504.0,S 1650  E,SPRINGVILLE,UT,84663,
2566.0,ANASAZI WAY,SPRINGDALE,UT,84767,
685.0,S 2220  W,PLEASANT GROVE,UT,84062,
8600.0,S 300  E,SANDY CITY,UT,84070,
10894.0,S BAY MEADOW CIR,SANDY CITY,UT,84092,
1725.0,E MURRAY HOLLADAY RD,MILLCREEK,UT,84117,
1150.0,W AMERICAN AVE,SALT LAKE CITY,UT,84104,
130.0,N WASHINGTON BLVD,OGDEN CITY,UT,84404,
280.0,E 300  N,BEAVER,UT,84713,
482.0,W 2280  N,LEHI,UT,84043,
5250.0,S COMMERCE DR,MURRAY,UT,84107,145.0
11423.0,S HOLLY SPRINGS DR,SOUTH JORDAN,UT,84009,
855.0,W 2175  N,LAYTON,UT,84041,
325.0,E PARRY ST,OGDEN CITY,UT,84404,
3913.0,W 9000  S,WEST JORDAN CITY,UT,84088,
921.0,S 180  W,HURRICANE CITY,UT,84737,
1045.0,N 150  W,OREM,UT,84057,
4609.0,S 6000  W,WEST VALLEY CITY,UT,84128,
390.0,N 6700  E,HUNTSVILLE,UT,84317,
799.0,W TAYLORS HILL CV,TAYLORSVILLE CITY,UT,84123,
436.0,W 1740  N,LOGAN CITY,UT,84341,
1515.0,N CHIMNEY ROCK RD,HEBER CITY,UT,84032,
210.0,N FAIRWIND CIR,WEST BOUNTIFUL,UT,84087,
65.0,W 800  N,PROVO,UT,84601,
395.0,E 100  N,PAYSON,UT,84651,
192.0,S FINCH CIR,MORGAN,UT,84050,
5345.0,W TIMPANOGOS HWY,HIGHLAND,UT,84003,
1039.0,E 600  S,ST GEORGE CITY,UT,84790,
790.0,E DUSTY ROCK CIR,SANDY CITY,UT,84094,
4920.0,S 2000  W,ROY CITY,UT,84067,
4488.0,S EDGEWARE LN,TAYLORSVILLE CITY,UT,84129,
1157.0,S PLANTATIONS DR,ST GEORGE CITY,UT,84770,
4127.0,W HELMSDALE CIR,SOUTH JORDAN,UT,84009,
1812.0,S WEST TEMPLE ST,SALT LAKE CITY,UT,84115,
4790.0,S CHERRY ST,MURRAY,UT,84123,
560.0,W MAIN ST,TREMONTON,UT,84337,
600.0,W MUTTON HOLLOW RD,KAYSVILLE,UT,84037,
365.0,W CENTER ST,LOGAN CITY,UT,84321,
3420.0,W 3800  S,WEST HAVEN,UT,84401,
845.0,E 275  N,LOGAN CITY,UT,84321,
351.0,W 285  N,WELLSVILLE,UT,84339,
1060.0,S 1400  E,FRUIT HEIGHTS,UT,84037,
496.0,E 370  N,DELTA CITY,UT,84624,
1676.0,N 2800  W,CLINTON,UT,84015,
797.0,S 810  E,ST GEORGE CITY,UT,84790,
12859.0,S 150  E,DRAPER CITY (SL CO),UT,84020,
1592.0,E SANDALWOOD DR,SOUTH WEBER,UT,84405,
740.0,N DURHAM DR,CITY OF NORTH SALT LAKE,UT,84054,
1142.0,W SIERRA VISTA,WEST VALLEY CITY,UT,84119,
1518.0,W MAIN ST,TREMONTON,UT,84337,
728.0,W 650  S,LEHI,UT,84043,
5252.0,W CLEMATIS WAY,WEST JORDAN CITY,UT,84081,
7819.0,S NORFOLK PINE WAY,SANDY CITY,UT,84094,
11438.0,S GADZOOKS DR,SANDY CITY,UT,84094,
12786.0,S ANN CHRISTINE CT,RIVERTON,UT,84065,
48.0,N COLLEGE WAY,CEDAR CITY,UT,84720,
115.0,W 860  N,SANTAQUIN CITY (UTAH CO),UT,84655,
517.0,W ORION RD,SARATOGA SPRINGS,UT,84045,
300.0,S 400  W,PAROWAN,UT,84761,
887.0,S CREEK SIDE PASS,ALPINE,UT,84004,
2647.0,W 6000  S,ROY CITY,UT,84067,
1297.0,N PAULOS BLVD,TOOELE,UT,84074,
745.0,S 320  W,PROVO,UT,84601,
1790.0,DEER VALLEY DR,PARK CITY (SUMMIT CO),UT,84060,504.0
72.0,E 200  S,EPHRAIM,UT,84627,
5301.0,S COBBLECREEK RD,MURRAY,UT,84117,
863.0,W CHERRY OAK CIR,MURRAY,UT,84123,
1254.0,E DOGWOOD DR,MAPLETON,UT,84664,
565.0,N 3625  W,LAYTON,UT,84041,
824.0,E 3375  S,MILLCREEK,UT,84106,
4638.0,S 3500  W,WEST HAVEN,UT,84401,
28.0,N BYWATER WAY,BRIGHAM CITY,UT,84302,
28.0,S 900  E,ST GEORGE CITY,UT,84770,
5189.0,S DANSHILL CIR,TAYLORSVILLE CITY,UT,84129,
5279.0,W BURNTSIDE AVE,SOUTH JORDAN,UT,84009,
120.0,N 350  W,AMERICAN FORK,UT,84003,
4345.0,S 125  W,WASHINGTON TERRACE,UT,84405,
1785.0,S 1600  E,SALT LAKE CITY,UT,84105,
10762.0,S FERN RIDGE DR,SOUTH JORDAN,UT,84009,
475.0,E 5600  S,MURRAY,UT,84107,4.0
353.0,E 20  S,IVINS TOWN,UT,84738,
3093.0,W ELMWOOD DR,RIVERTON,UT,84065,
2267.0,W 710  N,PROVO,UT,84601,
12091.0,S LAMPTON VIEW DR,RIVERTON,UT,84065,
330.0,E 700  S,SALT LAKE CITY,UT,84111,109.0
80.0,N WINDSOR RD,CEDAR CITY,UT,84720,
1507.0,W GOODWIN AVE,SALT LAKE CITY,UT,84116,
1427.0,W 1650  N,LAYTON,UT,84041,
1782.0,N 400  W,SUNSET,UT,84015,
925.0,E MAIN ST,WELLSVILLE,UT,84339,
1992.0,S 200  E,SALT LAKE CITY,UT,84115,
1482.0,N 40  W,SUNSET,UT,84015,
273.0,W HWY 68,BOUNTIFUL,UT,84010,
5308.0,S 900  E,MURRAY,UT,84117,24.0
10058.0,S BAGPIPER CIR,SOUTH JORDAN,UT,84009,
256.0,S 1225  E,BOUNTIFUL,UT,84010,
3845.0,W ROCKWOOD WAY,WEST VALLEY CITY,UT,84120,
1235.0,E 200  S,SALT LAKE CITY,UT,84102,205.0
548.0,E 4050  S,MILLCREEK,UT,84107,
1446.0,S STATE ST,PROVO,UT,84606,
2782.0,S HIGHWAY 89,PERRY CITY,UT,84302,
368.0,N LOST CREEK DR,ST GEORGE CITY,UT,84770,
4000.0,S HOLLOW RD,NIBLEY,UT,84321,
72.0,N 100  E,PROVO,UT,84606,
583.0,N 560  W,AMERICAN FORK,UT,84003,
470.0,W 300  N,HEBER CITY,UT,84032,
871.0,E 9400  S,SANDY CITY,UT,84094,
925.0,E EXECUTIVE PARK DR,MURRAY,UT,84117,
2181.0,W 1225  N,LAYTON,UT,84041,
63.0,W 350  S,OREM,UT,84058,
767.0,N 700  E,MAPLETON,UT,84664,
6150.0,W MILL VALLEY LN,WEST VALLEY CITY,UT,84118,
5915.0,S SULTAN CIR,MURRAY,UT,84107,
4791.0,S KINGS ROW DR,HOLLADAY CITY,UT,84117,8.0
1172.0,E BLACK BOULDER MESA RD,BOULDER,UT,84716,
267.0,N 100  W,GOSHEN,UT,84633,
295.0,N 400  E,BEAVER,UT,84713,
2142.0,W 1310  N,ST GEORGE CITY,UT,84770,
482.0,W 860  S,RICHFIELD CITY,UT,84701,
81.0,N ELK RIDGE DR,ELK RIDGE,UT,84651,
2998.0,W 9435  S,SOUTH JORDAN,UT,84095,
799.0,W JORDAN OAKS CT,SANDY CITY,UT,84070,
1634.0,E 25TH ST,OGDEN CITY,UT,84401,
3555.0,E COUNTRY HOLLOW DR,COTTONWOOD HEIGHTS,UT,84121,
1185.0,S UNIVERSITY AVE,PROVO,UT,84606,
2520.0,S 800  W,NIBLEY,UT,84321,
875.0,W 1550  S,LEHI,UT,84043,
449.0,S 200  E,MONTICELLO,UT,84535,9.0
2158.0,E 1075  N,LAYTON,UT,84040,
2338.0,N 2710  W,CLINTON,UT,84015,
2421.0,W 1000  N,TREMONTON,UT,84337,
2877.0,S 500  E,SOUTH SALT LAKE CITY,UT,84106,
1148.0,S MEADOW SAGE CIR,SALEM,UT,84653,
890.0,N NEWBERG PL,GARDEN CITY,UT,84028,3.0
380.0,N 500  W,MYTON,UT,84052,
580.0,N SUGAR FACTORY ROW RD,DELTA CITY,UT,84624,
1650.0,E 1000  N,LAYTON,UT,84040,
194.0,E 400  S,DELTA CITY,UT,84624,
451.0,S ROSE AVE,PRICE,UT,84501,
2045.0,W 30  N,CEDAR CITY,UT,84720,
2123.0,S 1070  W,SYRACUSE,UT,84075,
1420.0,E CANYON DR,SOUTH WEBER,UT,84405,
475.0,N 100  W,WELLSVILLE,UT,84339,
473.0,E 610  S,SANTAQUIN CITY (UTAH CO),UT,84655,
5476.0,W LILAC AVE,WEST JORDAN CITY,UT,84081,
650.0,N 400  E,BOUNTIFUL,UT,84010,
40.0,W 3450  S,SOUTH SALT LAKE CITY,UT,84115,
64.0,E 140  S,LA VERKIN CITY,UT,84745,
257.0,N 100  E,PROVO,UT,84606,
499.0,W 350  S,SPRINGVILLE,UT,84663,
1855.0,N 900  E,LAYTON,UT,84041,
583.0,E PHEASANT CIR,BOUNTIFUL,UT,84010,
1105.0,W YARROW LN,TAYLORSVILLE CITY,UT,84123,
490.0,E 500  S,PROVO,UT,84606,
2281.0,S LAKELINE DR,SALT LAKE CITY,UT,84109,
2223.0,N 1960  W,LEHI,UT,84043,
7088.0,S PALO VERDE WAY,COTTONWOOD HEIGHTS,UT,84121,13.0
8717.0,S INDIAN GULCH CV,WEST JORDAN CITY,UT,84081,
923.0,E RIDGE HILL LN,MIDVALE,UT,84047,
1862.0,N 2600  W,LEHI,UT,84043,
4260.0,W 9460  N,ELWOOD,UT,84337,
3377.0,W 4150  S,WEST HAVEN,UT,84401,
693.0,W 1450  S,SPRINGVILLE,UT,84663,
480.0,E WENDELL WAY,SOUTH SALT LAKE CITY,UT,84115,
1423.0,HOGAN MESA RD,BLANDING,UT,84512,
275.0,W 2855  S,SOUTH SALT LAKE CITY,UT,84115,
4588.0,W 2200  N,PLAIN CITY,UT,84404,
350.0,N 300  E,HUNTINGTON,UT,84528,6.0
4001.0,S 300  E,MILLCREEK,UT,84107,9.0
13412.0,S ELIOT DR,HERRIMAN TOWN,UT,84096,
1004.0,N SIR MICHAEL DR,SALT LAKE CITY,UT,84116,
1143.0,E 6720  S,COTTONWOOD HEIGHTS,UT,84121,23.0
434.0,E 640  S,VERNAL,UT,84078,
779.0,E SPRING MEADOW RD,MURRAY,UT,84107,
850.0,N HWY 89,CITY OF NORTH SALT LAKE,UT,84054,
4125.0,W BENVIEW DR,WEST VALLEY CITY,UT,84120,
590.0,E 300  N,PAYSON,UT,84651,
1613.0,S COUNTRY LN,LEHI,UT,84043,
776.0,W DIAGONAL ST,ST GEORGE CITY,UT,84770,
8253.0,S SKY MEADOW DR,WEST JORDAN CITY,UT,84081,
3763.0,S 250  W,BOUNTIFUL,UT,84010,
575.0,S 100  E,HEBER CITY,UT,84032,
1280.0,W 1600  S,LEWISTON,UT,84320,
182.0,N MAIN ST,KANAB CITY,UT,84741,
195.0,E BROADWAY,TOOELE,UT,84074,
1053.0,E FAIRWAY PL,CITY OF NORTH SALT LAKE,UT,84054,
14264.0,S ROSALEEN LN,HERRIMAN TOWN,UT,84096,
320.0,S 200  W,SALT LAKE CITY,UT,84101,
11051.0,S TRAILWOOD CV,SANDY CITY,UT,84092,
5983.0,S 4250  W,ROY CITY,UT,84067,
4477.0,S PORTER AVE,SOUTH OGDEN,UT,84403,
682.0,S MAIN ST,LOGAN CITY,UT,84321,
267.0,S 50  W,WELLINGTON,UT,84542,
1516.0,W GILDED FLICKER DR,ST GEORGE CITY,UT,84790,
82.0,W 800  S,SMITHFIELD,UT,84335,
4333.0,S BRICK OVEN WAY,MURRAY,UT,84107,
3665.0,W WINTHROPE CIR,WEST JORDAN CITY,UT,84088,
1661.0,N 600  W,WEST BOUNTIFUL,UT,84087,
4841.0,S 3900  W,ROY CITY,UT,84067,
1111.0,N 800  E,LOGAN CITY,UT,84341,
175.0,E 400  N,MONA,UT,84645,
125.0,W 2050  N,SPANISH FORK,UT,84660,
1121.0,E 300  S,PROVO,UT,84606,
7310.0,S UNION CREEK WAY,MIDVALE,UT,84047,
129.0,E DIAMOND ST,LAYTON,UT,84041,
1015.0,W GRANTS LN,SYRACUSE,UT,84075,
374.0,E 3360  S,SOUTH SALT LAKE CITY,UT,84115,56.0
1690.0,E ENSIGN CIR,COTTONWOOD HEIGHTS,UT,84121,
2977.0,E LOOKOUT DR,EAGLE MOUNTAIN,UT,84005,
129.0,E 2200  S,HEBER CITY,UT,84032,
6655.0,N SKY HEIGHTS DR,STANSBURY PARK,UT,84074,
1932.0,W DEAN CIR,KAYSVILLE,UT,84037,
281.0,E CRESTONE AVE,SOUTH SALT LAKE CITY,UT,84115,15.0
1328.0,S EDISON ST,SALT LAKE CITY,UT,84115,
7988.0,S LARSEN MEADOW LN,WEST JORDAN CITY,UT,84088,
2004.0,E SEGO LILY DR,SANDY CITY,UT,84092,
6677.0,S CUPECOY DR,COTTONWOOD HEIGHTS,UT,84121,
1928.0,E VACATION LN,WASHINGTON CITY,UT,84780,
14429.0,S MINUTEMAN DR,DRAPER CITY (SL CO),UT,84020,
655.0,E 2200  N,NORTH LOGAN,UT,84341,
1491.0,N 2950  W,LEHI,UT,84043,
30.0,E 900  N,PROVO,UT,84604,
1170.0,E 1000  S,SPANISH FORK,UT,84660,
2926.0,S JUDITH ST,SALT LAKE CITY,UT,84106,
245.0,W 300  S,FILLMORE,UT,84631,
311.0,W 3480  S,NIBLEY,UT,84321,
527.0,N 600  E,BRIGHAM CITY,UT,84302,
255.0,N 900  W,CLEVELAND,UT,84518,
1658.0,E 20TH ST,OGDEN CITY,UT,84401,
57.0,S ANGEL ST,LAYTON,UT,84041,
1903.0,W PHEASANT RUN DR,OREM,UT,84058,
4334.0,WASHINGTON ST,CLEARFIELD,UT,84056,
2064.0,S JAMES CIR,CLEARFIELD,UT,84015,
73.0,S 1350  E,HYRUM,UT,84319,
3699.0,W BANEBERRY WAY,TAYLORSVILLE CITY,UT,84129,
2929.0,S WALL AVE,OGDEN CITY,UT,84401,
2220.0,E MURRAY HOLLADAY RD,HOLLADAY CITY,UT,84117,141.0
140.0,S 300  W,KAYSVILLE,UT,84037,
176.0,N PINEHURST AVE,TOOELE,UT,84074,
417.0,S 250  E,RICHMOND,UT,84333,
151.0,E 200  N,BOUNTIFUL,UT,84010,
3123.0,W 1050  N,WEST POINT,UT,84015,
5409.0,S AVALON DR,MURRAY,UT,84107,
6167.0,W SUGARCANE DR,SOUTH JORDAN,UT,84009,
185.0,W CENTER ST,LOGAN CITY,UT,84321,
3424.0,N 775  W,LEHI,UT,84043,
7911.0,S ARES CT,WEST JORDAN CITY,UT,84081,
98.0,E INDUSTRIAL RD,WASHINGTON CITY,UT,84780,
252.0,W 5250  S,WASHINGTON TERRACE,UT,84405,
2254.0,W 1020  N,CLINTON,UT,84015,
6981.0,S INGLENOOK CV,MIDVALE,UT,84047,
1342.0,W 520  S,SPANISH FORK,UT,84660,
343.0,S 500  E,SALT LAKE CITY,UT,84102,
1728.0,N 1600  W,MAPLETON,UT,84664,
635.0,W 400  N,FOUNTAIN GREEN,UT,84632,
4463.0,W BRIDGESTONE DR,CEDAR HILLS,UT,84062,
1730.0,S COTTAM CT,ST GEORGE CITY,UT,84790,
2788.0,W 4400  S,ROY CITY,UT,84067,
9052.0,S 300  W,SANDY CITY,UT,84070,
1092.0,W 640  S,PAYSON,UT,84651,
9197.0,S WELBY HILLS DR,WEST JORDAN CITY,UT,84088,
417.0,E KELSEY VIEW LN,SOUTH SALT LAKE CITY,UT,84115,
1065.0,E 2ND ST,OGDEN CITY,UT,84404,
1365.0,W 1300  S,SALT LAKE CITY,UT,84104,
1043.0,W SEASONS VIEW CT,LEHI,UT,84043,
777.0,E 1000  N,LOGAN CITY,UT,84341,
411.0,N NOBLE RD,TOOELE,UT,84074,
174.0,E 6790  S,MIDVALE,UT,84047,
8114.0,N PLUM CREEK CIR,EAGLE MOUNTAIN,UT,84005,
314.0,E 3RD AVE,SALT LAKE CITY,UT,84103,
1681.0,N HICKORY LN,PROVO,UT,84604,
1542.0,E HIDDEN VALLEY RD,SANDY CITY,UT,84092,
1024.0,S REGENCY RD,CEDAR CITY,UT,84720,
586.0,S COMMERCE ST,HURRICANE CITY,UT,84737,
2535.0,W 600  N,TREMONTON,UT,84337,
1139.0,W LAFAYETTE DR,SALT LAKE CITY,UT,84116,
6346.0,W 4100  S,WEST VALLEY CITY,UT,84128,
1779.0,W 1390  S,SYRACUSE,UT,84075,
336.0,W LYNNWOOD DR,BOUNTIFUL,UT,84010,
184.0,S 700  W,LINDON,UT,84042,
1872.0,E 2100  N,LAYTON,UT,84040,
87.0,N HIGHLAND DR,CEDAR CITY,UT,84721,
5488.0,W TELLURIDE CV,WEST JORDAN CITY,UT,84081,
721.0,W 2900  N,PLEASANT GROVE,UT,84062,
4615.0,N 150  W,ENOCH,UT,84721,
1279.0,W ANDREW AVE,SALT LAKE CITY,UT,84104,
2784.0,FOUR LAKES DR,PARK CITY (SUMMIT CO),UT,84060,
151.0,W 2050  N,HARRISVILLE,UT,84414,
1711.0,W SPRINGWATER DR,OREM,UT,84058,
107.0,N SHADOW RIDGE DR,WASHINGTON CITY,UT,84780,
1788.0,E MUELLER RD,BOUNTIFUL,UT,84010,
2521.0,S GLENMARE ST,SALT LAKE CITY,UT,84106,
6018.0,S AFTON AVE,MURRAY,UT,84107,
363.0,E 520  S,MONROE,UT,84754,
5361.0,S ROBINWOOD CIR,TAYLORSVILLE CITY,UT,84129,
8912.0,S SHADY MEADOW DR,SANDY CITY,UT,84093,
970.0,S 1250  E,BRIGHAM CITY,UT,84302,
8694.0,S GRAND OAK DR,COTTONWOOD HEIGHTS,UT,84121,
10836.0,S WYNVIEW LN,SOUTH JORDAN,UT,84095,
10617.0,S 390  E,SANDY CITY,UT,84070,
225.0,S 300  E,SALT LAKE CITY,UT,84111,
305.0,W 200  N,BOUNTIFUL,UT,84010,
6853.0,S 3370  W,WEST JORDAN CITY,UT,84084,
1840.0,W 1100  N,ST GEORGE CITY,UT,84770,
74.0,W INGLENOOK DR,MIDVALE,UT,84047,
11515.0,S ALTA LOMA LN,SOUTH JORDAN,UT,84095,
2369.0,N 830  W,WEST BOUNTIFUL,UT,84087,
8820.0,S 3645  W,WEST JORDAN CITY,UT,84088,
2685.0,E PROVIDENCE CT,HOLLADAY CITY,UT,84121,
105.0,N SIERRA BONITA CT,MAPLETON,UT,84664,
324.0,N 2115  W,FARMINGTON,UT,84025,
1001.0,W 540  N,ST GEORGE CITY,UT,84770,
9769.0,S KALINA WAY,SANDY CITY,UT,84092,203.0
1050.0,N REDWOOD RD,SALT LAKE CITY,UT,84116,
716.0,N 600  W,PROVO,UT,84601,
495.0,N 100  E,PRICE,UT,84501,
218.0,S WILLOW PATCH RD,LEHI,UT,84043,
896.0,S 1780  W,OREM,UT,84058,
1610.0,E 1185  N,LOGAN CITY,UT,84341,
371.0,S MAIN ST,SMITHFIELD,UT,84335,
981.0,S PARKWAY DR,CITY OF NORTH SALT LAKE,UT,84054,
580.0,S 1100  E,ST GEORGE CITY,UT,84790,
971.0,N 375  W,LOGAN CITY,UT,84321,
1064.0,S OXFORD CIR,FRUIT HEIGHTS,UT,84037,
5136.0,S MILE HIGH CIR,OGDEN CITY,UT,84403,
755.0,E 500  S,SALT LAKE CITY,UT,84102,
465.0,W 470  N,SPANISH FORK,UT,84660,
655.0,N CASTLE ROCK DR,HYDE PARK CITY,UT,84318,
5087.0,W RAMBUTAN WAY,SOUTH JORDAN,UT,84009,
7858.0,S PEACHWOOD DR,SOUTH WEBER,UT,84405,
2932.0,S MAPLE WAY,WEST VALLEY CITY,UT,84119,
852.0,E 1ST AVE,SALT LAKE CITY,UT,84103,
7041.0,W 7800  S,WEST JORDAN CITY,UT,84081,
8942.0,S COBBLEGATE DR,SANDY CITY,UT,84094,
3621.0,E FLINT CREEK LN,EAGLE MOUNTAIN,UT,84005,
710.0,E 200  S,SALT LAKE CITY,UT,84102,
827.0,W 4300  S,RIVERDALE,UT,84405,
1333.0,W MORNING OAKS DR,TAYLORSVILLE CITY,UT,84123,
155.0,E EMERALD DR,LAYTON,UT,84041,
3325.0,S 3175  E,MILLCREEK,UT,84109,
1645.0,E 4190  S,MILLCREEK,UT,84124,
1676.0,W GARNET RIDGE DR,ST GEORGE CITY,UT,84790,
110.0,W 1700  N,CENTERVILLE,UT,84014,
3538.0,W 1550  N,WEST POINT,UT,84015,
11687.0,S STATE ST,DRAPER CITY (SL CO),UT,84020,
2896.0,E BLUE SPRUCE DR,HOLLADAY CITY,UT,84117,
11928.0,S DYNAMITE CIR,HERRIMAN TOWN,UT,84096,
2420.0,S STATE ST,ORDERVILLE,UT,84755,
1030.0,E 1150  S,SPRINGVILLE,UT,84663,
420.0,N 400  E,LEHI,UT,84043,
805.0,W LAYTON AVE,SALT LAKE CITY,UT,84104,
3354.0,S BAKER DR,OGDEN CITY,UT,84403,
3323.0,W TESS AVE,WEST VALLEY CITY,UT,84119,
280.0,W 1330  N,LOGAN CITY,UT,84341,
1609.0,E 1250  S,OGDEN CITY,UT,84404,
9245.0,S TEMPLE DR,WEST JORDAN CITY,UT,84088,
450.0,S NEBO ST,SPANISH FORK,UT,84660,
104.0,IVY ST,HELPER CITY,UT,84526,
6.0,E 4800  S,MURRAY,UT,84107,
107.0,3RD  W,EAST CARBON CITY,UT,84520,
9723.0,S CALDERA LN,SOUTH JORDAN,UT,84095,
723.0,W 1050  N,CEDAR CITY,UT,84721,
4879.0,S 3850  W,ROY CITY,UT,84067,
2323.0,S 800  W,WOODS CROSS CITY,UT,84087,
191.0,W 930  N,OREM,UT,84057,
9166.0,S WILDFIRE ROSE LN,SANDY CITY,UT,84070,
2004.0,N FAIRWAY DR,WASHINGTON CITY,UT,84780,
1904.0,E JADE DR,ST GEORGE CITY,UT,84790,
646.0,N 100  E,SPRINGVILLE,UT,84663,
671.0,W CASERIO CIR,WASHINGTON CITY,UT,84780,
569.0,N 400  E,AMERICAN FORK,UT,84003,
395.0,S 950  E,RIVER HEIGHTS,UT,84321,
1040.0,N 2200  W,SALT LAKE CITY,UT,84116,100.0
4194.0,S 2400  W,ROY CITY,UT,84067,
9271.0,S BRIGHTON VIEW DR,SANDY CITY,UT,84070,
228.0,S 300  E,SALT LAKE CITY,UT,84111,
2974.0,S GLORIA ST,MILLCREEK,UT,84109,
675.0,DEER VALLEY DR,PARK CITY,UT,84060,
1105.0,E 6720  S,COTTONWOOD HEIGHTS,UT,84121,12.0
10317.0,S 2260  E,SANDY CITY,UT,84092,
634.0,S RIDGE RD,SANTAQUIN CITY (UTAH CO),UT,84655,
3281.0,W WINDMILL WAY,LAYTON,UT,84041,
1594.0,W 400  S,SALT LAKE CITY,UT,84104,
10.0,N 600  E,PAYSON,UT,84651,
1036.0,N CAPISTRANO DR,SALT LAKE CITY,UT,84116,
2729.0,S 1000  E,SALT LAKE CITY,UT,84106,
142.0,W 1250  N,HARRISVILLE,UT,84404,
3138.0,W 9150  S,WEST JORDAN CITY,UT,84088,
1968.0,E LINCOLN LN,HOLLADAY CITY,UT,84124,
101.0,SEGURA CT,PARK CITY (SUMMIT CO),UT,84060,
2369.0,S 400  E,SOUTH SALT LAKE CITY,UT,84115,
31.0,E BLUE MEADOW CIR,PANGUITCH,UT,84759,
170.0,E BELMONT AVE,SALT LAKE CITY,UT,84111,11.0
800.0,COUNTRY CLUB DR,STANSBURY PARK,UT,84074,
14808.0,S STEEP MOUNTAIN DR,DRAPER CITY (SL CO),UT,84020,
935.0,E SOUTH TEMPLE ST,SALT LAKE CITY,UT,84102,
195.0,S 1700  W,WEST POINT,UT,84015,
6431.0,W 3860  S,WEST VALLEY CITY,UT,84128,
520.0,N MAIN ST,HELPER CITY,UT,84526,
2043.0,N MAIN ST,SUNSET,UT,84015,
6765.0,S ENCHANTED DR,MIDVALE,UT,84047,
475.0,E LOCUST ST,SANDY CITY,UT,84070,
12270.0,S 700  E,DRAPER CITY (SL CO),UT,84020,
6384.0,W BIRCH RUN RD,SOUTH JORDAN,UT,84009,
2341.0,S AUGUSTA DR,ST GEORGE CITY,UT,84790,
3720.0,S 4355  W,WEST VALLEY CITY,UT,84120,
35.0,W 200  S,EPHRAIM,UT,84627,
3076.0,N 650  E,NORTH OGDEN CITY,UT,84414,
404.0,S 1080  W,SYRACUSE,UT,84015,
5051.0,S 1900  W,ROY CITY,UT,84067,
3164.0,W LEMAY AVE,WEST VALLEY CITY,UT,84119,
3868.0,W 5100  S,ROY CITY,UT,84067,
400.0,W AIRPORT RD,HEBER CITY,UT,84032,
1634.0,E 12700  S,DRAPER CITY (SL CO),UT,84020,
3680.0,S CAROLYN ST,MILLCREEK,UT,84106,
938.0,N 940  W,OREM,UT,84057,
5046.0,W BOOT HILL DR,WEST VALLEY CITY,UT,84120,
278.0,S 100  E,RICHMOND,UT,84333,
135.0,S STATE ST,LINDON,UT,84042,
54.0,N FLINT ST,KAYSVILLE,UT,84037,
6490.0,S CASTLEFIELD LN,MURRAY,UT,84107,
1375.0,N 400  E,BOUNTIFUL,UT,84010,
445.0,S 930  E,SALEM,UT,84653,
902.0,S RIDGE RD,CEDAR CITY,UT,84720,
2001.0,S MAIN ST,BOUNTIFUL,UT,84010,
1240.0,W 1420  N,OREM,UT,84057,
5648.0,S 1150  W,RIVERDALE,UT,84405,26.0
295.0,N 200  E,GLENWOOD,UT,84730,
860.0,N FAIRFIELD RD,LAYTON,UT,84040,
13339.0,S WILBURTON DR,DRAPER CITY (SL CO),UT,84020,
649.0,W BULLDOG CIR,MURRAY,UT,84123,
480.0,E 2700  S,SOUTH SALT LAKE CITY,UT,84115,
3435.0,W 5700  S,TAYLORSVILLE CITY,UT,84129,
6082.0,N BURMESTER RD,GRANTSVILLE,UT,84029,
2838.0,W SHADY VIEW LN,LEHI,UT,84043,
2194.0,W 1300  S,LEHI,UT,84043,
1459.0,W WHITESTONE DR,ST GEORGE CITY,UT,84790,
948.0,S 200  E,RICHFIELD CITY,UT,84701,
1417.0,N OVERLAND TRAILS DR,WASHINGTON CITY,UT,84780,
554.0,E MINGO PARK DR,SANDY CITY,UT,84070,
1824.0,N 3300  E,LAYTON,UT,84040,
5341.0,S ROYAL AUTUMN CIR,TAYLORSVILLE CITY,UT,84129,
1061.0,E ORCHARD DR,BRIGHAM CITY,UT,84302,
545.0,W 600  S,LAYTON,UT,84041,
914.0,S 50  W,FARMINGTON,UT,84025,
1893.0,S 875  E,CLEARFIELD,UT,84015,
1577.0,E 6015  S,MURRAY,UT,84121,
58.0,WELBY ST,HELPER CITY,UT,84526,
711.0,E RIDGETOP CIR,CITY OF NORTH SALT LAKE,UT,84054,
405.0,N 300  W,FERRON,UT,84523,48.0
385.0,S VASELS RD,BRIAN HEAD CITY,UT,84719,
3671.0,W OAK CREST DR,LEHI,UT,84043,
754.0,E EDGEWOOD DR,SOUTH OGDEN,UT,84403,
1548.0,E ROOSEVELT AVE,SALT LAKE CITY,UT,84105,
2396.0,E BOXWOOD LN,EAGLE MOUNTAIN,UT,84005,
515.0,S 37TH ST,SOUTH OGDEN,UT,84403,
1733.0,W SHADE LN,RIVERTON,UT,84065,
722.0,W 1050  S,SPRINGVILLE,UT,84663,
509.0,E 10TH AVE,SALT LAKE CITY,UT,84103,
536.0,S STONE WAY,SANTAQUIN CITY (UTAH CO),UT,84655,
10542.0,S JORDAN GATEWAY,SOUTH JORDAN,UT,84095,320.0
3918.0,S 1845  W,WEST VALLEY CITY,UT,84119,
2235.0,W BONANZA WAY,SOUTH JORDAN,UT,84095,
2285.0,E CANYON RD,SPRINGVILLE,UT,84663,
1765.0,N SUNRISE DR,OREM,UT,84097,
1285.0,EMPIRE AVE,PARK CITY,UT,84060,13.0
1395.0,W 2850  S,SYRACUSE,UT,84075,
4518.0,S LORENVON DR,MILLCREEK,UT,84124,
921.0,S YARROW DR,MAPLETON,UT,84664,
305.0,W 600  N,LOGAN CITY,UT,84321,
589.0,W 3550  S,RIVERDALE,UT,84405,
7.0,E 400  S,SALT LAKE CITY,UT,84111,
2614.0,W 1850  S,WEST HAVEN,UT,84401,
200.0,N WASHINGTON BLVD,OGDEN CITY,UT,84404,
1601.0,W 400  S,SALT LAKE CITY,UT,84104,4.0
1693.0,N 400  W,LOGAN CITY,UT,84341,
3660.0,W WINTHROPE CIR,WEST JORDAN CITY,UT,84088,
3754.0,W BAWDEN AVE,WEST VALLEY CITY,UT,84120,
1358.0,AMBER RD,PARK CITY (SUMMIT CO),UT,84060,
3512.0,S 550  W,SYRACUSE,UT,84075,
7311.0,S GALAXY HILL RD,WEST JORDAN CITY,UT,84081,
901.0,W WILLOW BEND PASEO,FARMINGTON,UT,84025,
744.0,N 2450  W,LEHI,UT,84043,
1486.0,N TUWEAP DR,IVINS TOWN,UT,84738,
2746.0,S 1415  W,SYRACUSE,UT,84075,
135.0,S 300  E,BEAVER,UT,84713,
415.0,S UNIVERSITY ST,SALT LAKE CITY,UT,84102,
231.0,E SUNSHINE DR,SARATOGA SPRINGS,UT,84043,
139.0,N SIERRA BONITA CT,MAPLETON,UT,84664,
3378.0,W 2600  S,WEST VALLEY CITY,UT,84119,
131.0,N WYMOUNT TERRACE TER,PROVO,UT,84604,
805.0,E 400  S,SPRINGVILLE,UT,84663,
1160.0,S WASHINGTON FIELDS RD,WASHINGTON CITY,UT,84780,
531.0,W 1830  N,OREM,UT,84057,
335.0,S 2220  W,PLEASANT GROVE,UT,84062,
837.0,E 700  S,SALT LAKE CITY,UT,84102,
6191.0,S STATE ST,MURRAY,UT,84107,1760.0
357.0,E 8680  S,SANDY CITY,UT,84070,
1919.0,E SYLVAN AVE,SALT LAKE CITY,UT,84108,
758.0,S 750  W,SPRINGVILLE,UT,84663,
355.0,W 200  S,WASHINGTON CITY,UT,84780,
808.0,E 240  S,TOOELE,UT,84074,
1792.0,E SKI VIEW DR,SANDY CITY,UT,84092,
3255.0,S 7200  W,WEST VALLEY CITY,UT,84044,
4271.0,S GLOUCESTER CT,TAYLORSVILLE CITY,UT,84123,
3401.0,S 200  E,SOUTH SALT LAKE CITY,UT,84115,2.0
201.0,W 5600  S,WASHINGTON TERRACE,UT,84405,
7612.0,S CAMPUS VIEW DR,WEST JORDAN CITY,UT,84084,120.0
3670.0,E CENTER CREEK RD,INDEPENDENCE,UT,84032,
2491.0,N 250  W,SUNSET,UT,84015,
4063.0,W DEER MOUNTAIN DR,RIVERTON,UT,84065,
7918.0,S BEDROCK FLATS LN,WEST JORDAN CITY,UT,84081,
445.0,N HALE AVE,MOAB CITY,UT,84532,
145.0,N 670  E,AMERICAN FORK,UT,84003,
394.0,E DOREEN ST,MILLCREEK,UT,84107,
1149.0,S 780  W,PAYSON,UT,84651,
889.0,E CANYON RD,OGDEN CITY,UT,84404,
325.0,W 700  N,SALT LAKE CITY,UT,84103,23.0
1066.0,N WILLOW WIND DR,FARMINGTON,UT,84025,
11638.0,S JORDANAIR DR,SOUTH JORDAN,UT,84095,
15596.0,W 4100  N,ALTAMONT,UT,84001,
9527.0,S TEMPLE DR,SOUTH JORDAN,UT,84095,
671.0,W 4400  S,RIVERDALE,UT,84405,17.0
80.0,N SHOOTINGAR WAY,BRIAN HEAD CITY,UT,84719,
877.0,E 110  N,HEBER CITY,UT,84032,
8589.0,S MCINTYRE WAY,WEST JORDAN CITY,UT,84081,
1700.0,W 2700  N,PLEASANT VIEW,UT,84404,196.0
1786.0,E 10980  S,SANDY CITY,UT,84092,
2632.0,N 550  E,NORTH OGDEN CITY,UT,84414,
526.0,S EMERY ST,SALT LAKE CITY,UT,84104,
332.0,E HERBERT AVE,SALT LAKE CITY,UT,84111,1.0
1132.0,S CASTLE STONE CIR,WASHINGTON CITY,UT,84780,
703.0,N STONEY BROOK,FARMINGTON,UT,84025,
266.0,E 300  N,IVINS TOWN,UT,84738,
1935.0,S 1250  W,LOGAN CITY,UT,84321,
2345.0,S MAIN ST,CLEARFIELD,UT,84015,
4508.0,S COPPER RIVER DR,ST GEORGE CITY,UT,84790,
1501.0,E 400  N,LEHI,UT,84043,
946.0,E 1480  N,AMERICAN FORK,UT,84003,
2780.0,N 840  E,PROVO,UT,84604,
167.0,W NEWBURY LN,HARRISVILLE,UT,84414,
1888.0,W 3300  S,WEST VALLEY CITY,UT,84119,
1189.0,E 6200  S,MURRAY,UT,84121,
319.0,E 100  S,KANARRAVILLE,UT,84742,
1111.0,N 2000  W,FARR WEST CITY,UT,84404,11.0
2140.0,W 700  S,SYRACUSE,UT,84075,
7081.0,W 8170  S,WEST JORDAN CITY,UT,84081,
13532.0,S SKIPPERLING LN,RIVERTON,UT,84096,
576.0,W 1045  N,CEDAR CITY,UT,84721,
1558.0,S 600  E,SALT LAKE CITY,UT,84105,
1107.0,E CANYON DR,SOUTH WEBER,UT,84405,
84.0,E 2225  S,CLEARFIELD,UT,84015,
10545.0,N 6000  W,HIGHLAND,UT,84003,
165.0,W 530  N,LA VERKIN CITY,UT,84745,
2034.0,S 330  W,OREM,UT,84058,
11671.0,S NIGHT HERON RD,SOUTH JORDAN,UT,84009,
4158.0,W PASKAY DR,WEST VALLEY CITY,UT,84120,
6714.0,S ARTESIAN WAY,COTTONWOOD HEIGHTS,UT,84121,
170.0,E 7660  S,MIDVALE,UT,84047,
1242.0,E EARL WAY,SANDY CITY,UT,84094,
5508.0,W HIGHBURY PKWY,WEST VALLEY CITY,UT,84120,
3351.0,W COYBROOK DR,TAYLORSVILLE CITY,UT,84129,
676.0,W 700  N,ST GEORGE CITY,UT,84770,
174.0,E 4500  S,MURRAY,UT,84107,16.0
72.0,S 100  W,PAROWAN,UT,84761,
83.0,S 1375  E,FRUIT HEIGHTS,UT,84037,
3115.0,S AUTUMN BLAZE CV,WEST VALLEY CITY,UT,84128,
1637.0,N PRIMROSE DR,ST GEORGE CITY,UT,84770,
5596.0,S SANFORD DR,MURRAY,UT,84123,
140.0,E 2200  N,NORTH LOGAN,UT,84341,
430.0,S CENTER ST,CIRCLEVILLE,UT,84723,
4615.0,S SUNSTONE RD,TAYLORSVILLE CITY,UT,84123,
475.0,N REDWOOD RD,SALT LAKE CITY,UT,84116,79.0
494.0,W 275  N,CLEARFIELD,UT,84015,
2216.0,S FOOTHILL DR,SALT LAKE CITY,UT,84109,
1211.0,N NORTH COMPTON RD,FARMINGTON,UT,84025,
38006.0,W 3900  N,TABIONA,UT,84072,
