NUMBER,STREET,CITY,STATE,POSTCODE,UNIT
1698.0,DORCHESTER ST,FRANKLIN,VA,23851,
5020.0,BURNT OAK CIR,RICHMOND,VA,23234,
1068.0,SANFORD AVE,VIRGINIA BEACH,VA,23455,
437.0,GOTHAM RD,VIRGINIA BEACH,VA,23452,
4911.0,FALCON CREEK WAY,HAMPTON,VA,23666,
1111.0,WILLIAM STYRON SQ,NEWPORT NEWS,VA,23606,
623.0,GREEN MOUNTAIN RD,POUNDING MILL,VA,24637,
618.0,SUN CT,NEWPORT NEWS,VA,23605,
1201.0,SADDLEBRED DR,VIRGINIA BEACH,VA,23464,
129.0,SW SECOND ST,BURKEVILLE,VA,23922,
1722.0,WILLOW WOOD DR,NORFOLK,VA,23509,
14215.0,EGGBORNSVILLE RD,CULPEPER,VA,22701,
5755.0,BONDSOR LANE,RICHMOND,VA,23225,
506.0,ARABIAN CIR,YORKTOWN,VA,23693,
3209.0,RIDGE VIEW CT,WOODBRIDGE,VA,22192,
6374.0,POPWICKE CT,MANASSAS,VA,20112,
1394.0,GIBRALTAR CT,VIRGINIA BEACH,VA,23454,
3300.0,CHURCH RD,HENRICO,VA,23233,
4408.0,CORNICK AVE,CHESAPEAKE,VA,23325,
10305.0,ANNABERG CT,BURKE,VA,22015,
540.0,TARRYTOWN RD NW,CHRISTIANSBURG,VA,24073,
4110.0,GLOUSTER LN,FREDERICKSBURG,VA,22408,
4901.0,CABRETTA DR,MOSELEY,VA,23120,
318.0,W PERSINGER ST,COVINGTON,VA,24426,
41.0,KENNEDY ST,ALEXANDRIA,VA,22305,
20885.0,SIRK PLACE RD,BERGTON,VA,22811,
13628.0,HULL STREET RD,MIDLOTHIAN,VA,23112,
13915.0,VALLEY COUNTRY DR,CHANTILLY,VA,20151,
18.0,SPRINGVIEW BLVD,LURAY,VA,22835,
2496.0,PORTER HOLLOW RD,CASTLEWOOD,VA,24224,
220.0,WALNUT WOODS DR,LOUISA,VA,23093,
16014.0,INDUSTRIAL DR,MILFORD,VA,22514,
9329.0,MAYBROOK CT,ALEXANDRIA,VA,22309,
784.0,ELDEN ST,HERNDON,VA,20170,
6551.0,GARDNER HEIGHTS RD,NORTON,VA,24273,
119.0,ENDLESS CAVERNS RD,TIMBERVILLE,VA,22853,
5590.0,BAYLOR GROVE CT CT,PROVIDENCE FORGE,VA,23140,
1039.0,DUBOSE DR,NORFOLK,VA,23504,
2500.0,N LINCOLN ST,ARLINGTON,VA,22207,
1833.0,ELGIN DR,VIENNA,VA,22182,
92.0,PATRIOT DR,WAYNESBORO,VA,22980,
111.0,HANAMALEA LN,TOPPING,VA,23169,
522.0,S PINE ST,RICHMOND,VA,23220,
10569.0,CORAL BERRY DR,MANASSAS,VA,20110,
1076.0,DAKOTA RD,VANSANT,VA,24656,
23148.0,BROOKSBANK SQ,ASHBURN,VA,20148,
2558.0,MONTGOMERY RIDGE RD,CHARLOTTESVILLE,VA,22911,
43987.0,URBANCREST CT,ASHBURN,VA,20147,
304.0,TREY LN,CHESAPEAKE,VA,23322,
766.0,BILTMORE DR,VIRGINIA BEACH,VA,23454,
713.0,N 3RD ST,RICHMOND,VA,23219,
124.0,ESSEX GARDEN,TAPPAHANNOCK,VA,22560,
8.0,GREEN 0,PALMYRA,VA,22963,
14559.0,BETHANY CHURCH RD,MONTPELIER,VA,23192,
4893.0,LAKESHORE DR,DUBLIN,VA,24084,
3325.0,ROANOKE ST,CHRISTIANSBURG,VA,24073,
1325.0,SOUTH BERLES CREEK RD,RANDOLPH,VA,23962,
2704.0,FLEMING ST,ALEXANDRIA,VA,22306,
3744.0,ROXBURY LN,ALEXANDRIA,VA,22309,
287.0,RONI LN,LOUISA,VA,23093,
5001.0,GRAFTON ST,ALEXANDRIA,VA,22312,
39.0,ELM AVE,NEWPORT NEWS,VA,23601,
1275.0,WILD HAWTHORN WAY,RESTON,VA,20194,
518.0,N MADISON ST,ARLINGTON,VA,22203,
103.0,PENN ST SE,BLACKSBURG,VA,24060,
2546.0,POTOMAC HUNT LN,HENRICO,VA,23233,
343.0,VILLAGE RD,SHIPMAN,VA,22971,
3527.0,BERRYTOWN RD,ELKTON,VA,22827,
25.0,FLOWERDEW LN,SURRY,VA,23883,
1348.0,MALTBY AVE,NORFOLK,VA,23504,
201.0,RIVER RD S,COVINGTON,VA,24426,
20694.0,SOUTHWIND TER,ASHBURN,VA,20147,
1106.0,STUMP ST,RADFORD,VA,24141,
3367.0,SLATE RIVER MILL RD,DILLWYN,VA,23936,
716.0,21ST ST,VIRGINIA BEACH,VA,23451,
158.0,CRITTER LN,MATHEWS,VA,23109,
3104.0,KLINE DR,VIRGINIA BEACH,VA,23452,
621.0,CAPTAIN COOKE WAY,CHESAPEAKE,VA,23322,
7223.0,HIGHLAND ST,SPRINGFIELD,VA,22150,
1109.0,IRVING AVE,COLONIAL BEACH,VA,22443,
308.0,WEBB ST,SUFFOLK,VA,23434,
14602.0,SEASONS DR,CENTREVILLE,VA,20120,
1494.0,COTTONTOWN RD,FOREST,VA,24551,
915.0,D ST,CHESAPEAKE,VA,23324,
21.0,TAVERN RD,MINERAL,VA,23117,
5628.0,HAMPSHIRE LN,VIRGINIA BEACH,VA,23462,
93.0,FLOWERDEW LN,SURRY,VA,23883,
12787.0,ROCKINGHAM PIKE,ELKTON,VA,22827,
2110.0,RETREAT CT,VIRGINIA BEACH,VA,23454,
4732.0,DEER RUN CT,ALEXANDRIA,VA,22306,
41684.0,TRULY CIR,ALDIE,VA,20105,
601.0,BUZZARDS POINT RD,REEDVILLE,VA,22539,
419.0,BUNKER HILL ST,FREDERICKSBURG,VA,22401,
68.0,LAVENDER LN,ROCKY MOUNT,VA,24151,
3360.0,ROLLINGWOOD DR,WOODBRIDGE,VA,22192,
120.0,ROBINSON ST,GALAX,VA,24333,
875.0,GRAY AVE,HAMPTON,VA,23665,
2011.0,CRANBERRY LN,CULPEPER,VA,22701,
7507.0,BRISBANE DR,RICHMOND,VA,23225,
848.0,DUKE OF GLOUCESTER ST SW,ROANOKE,VA,24014,
2851.0,IRONBOUND RD,WILLIAMSBURG,VA,23185,
1254.0,PALL MALL ST,NORFOLK,VA,23513,
300.0,ALLEGHANY ST,BLACKSBURG,VA,24060,
525.0,BELMONT BAY DR,WOODBRIDGE,VA,22191,
16404.0,RICHMOND TPK,BOWLING GREEN,VA,22427,
9257.0,PURDY ROAD,JARRATT,VA,23867,
2100.0,MACLEOD ST,LYNCHBURG,VA,24503,
6408.0,WINDSOR AVE,ALEXANDRIA,VA,22315,
260.0,CRISPIN TRL,WINCHESTER,VA,22603,
1107.0,CRIST PL,VIRGINIA BEACH,VA,23454,
1310.0,ERICA RD,MONTROSS,VA,22520,
8.0,SHERRY DELL DR,HAMPTON,VA,23666,
971.0,WEEMS RD,WEEMS,VA,22576,
41.0,Y DR,DILLWYN,VA,23936,
3110.0,MT PLEASANT RD,BOYDTON,VA,23917,
5204.0,RANDALL AVE,HENRICO,VA,23231,
4460.0,BANBURY LN,ROANOKE,VA,24018,
6425.0,MERRIMAN RD,ROANOKE,VA,24018,
3311.0,INDIGO RD,CHESAPEAKE,VA,23325,
2512.0,ARCHDALE DR,VIRGINIA BEACH,VA,23456,
2554.0,CENTRE AVE NW,ROANOKE,VA,24017,
411.0,ORCHARD ST,SALEM,VA,24153,
4248.0,DC CANEY RIDGE RD,CLINTWOOD,VA,24228,
7215.0,CLEMENTS AVE,GLOUCESTER,VA,23061,
9226.0,VOLUNTEER DR,ALEXANDRIA,VA,22309,
2384.0,BULL CREEK RD,GRUNDY,VA,24614,
11923.0,SAFA CT,HERNDON,VA,20170,
1045.0,LYNDHURST RD,WAYNESBORO,VA,22980,
3206.0,ALDERSGATE DR,RICHMOND,VA,23223,
3464.0,COLONIAL AVE,ROANOKE,VA,24018,
19.0,ARLINGTON ST,STAUNTON,VA,24401,
102.0,MANGOHICK CIR,AYLETT,VA,23009,
46725.0,WOODMINT TER,STERLING,VA,20164,
1321.0,TIMBERBRANCH CT,CHARLOTTESVILLE,VA,22902,
5606.0,THORNSPRING RD,PULASKI,VA,24301,
108.0,DUNDEE PL,FREDERICKSBURG,VA,22405,
8021.0,PETER DRIVER LN,SINGERS GLEN,VA,22850,
804.0,WINFIELD CIR,PULASKI,VA,24301,
1505.0,GRAY ROCK RD,CHESAPEAKE,VA,23322,
2816.0,FAIRWAY FOREST DR,SALEM,VA,24153,
3406.0,BROOK ROAD,RICHMOND,VA,23227,
8300.0,SUDLEY RD,MANASSAS,VA,20109,
6514.0,MOOREFIELD STORE RD,STUART,VA,24171,
4603.0,CANDLELIGHT CT,GLEN ALLEN,VA,23060,
450.0,VINE ST,HARRISONBURG,VA,22802,
5424.0,REMUDA DR,RICHMOND,VA,23234,
5812.0,GLORYVINE CT,RICHMOND,VA,23234,
1252.0,N TOMCAT CT,VIRGINIA BEACH,VA,23454,
1822.0,ST CLAIRE LN,RICHMOND,VA,23223,
145.0,BRAND AVE,SALEM,VA,24153,
881.0,VINE ST,HARRISONBURG,VA,22802,
12758.0,WOOD HOLLOW DR,WOODBRIDGE,VA,22192,
10117.0,CAVALRY DR,FAIRFAX,VA,22030,
10401.0,BELMONT BLVD,LORTON,VA,22079,
17075.0,STEPHEN CIR,HANOVER,VA,23069,
5705.0,REGENT CIR,RICHMOND,VA,23225,
913.0,ORCHARD HILL DR,WINCHESTER,VA,22601,
18061.0,BEATON AVE,BOYKINS,VA,23827,
1175.0,QUAKER HILL DR,ALEXANDRIA,VA,22314,
12302.0,JAMES MADISON PKWY,KING GEORGE,VA,22485,
23040.0,BRITT WAY,CARROLLTON,VA,23314,
1578.0,DUGSPUR RD,CALLAWAY,VA,24067,
4402.0,HENDRICKS DR,WOODBRIDGE,VA,22193,
401.0,MERLIN WAY,FREDERICKSBURG,VA,22406,
459.0,GOOD NEIGHBORS RD NE,CHECK,VA,24072,
4320.0,BANBURY LN,ROANOKE,VA,24018,
2027.0,HACKNEY BRANCH RD,VANSANT,VA,24656,
11631.0,BAILEY MOUNTAIN TRL,MIDLOTHIAN,VA,23112,
12115.0,SPERRYVILLE PIKE,CULPEPER,VA,22701,
105.0,RUNAWAY BAY DR,VIRGINIA BEACH,VA,23452,
1569.0,CHELLIS FORD RD,LYNCH STATION,VA,24571,
8317.0,YOLANDA RD,HENRICO,VA,23229,
3150.0,WEST AVE,NEWPORT NEWS,VA,23607,
5889.0,EAST LEE HWY,DRAPER,VA,24324,
19444.0,YAMAHA CIR,BRISTOL,VA,24202,
2001.0,CHESHIRE FOREST CT,VIRGINIA BEACH,VA,23456,
9676.0,FARMSIDE PL,VIENNA,VA,22182,
75.0,MIDDLESEX RD,NEWPORT NEWS,VA,23606,
1020.0,THORNHILL RD,LEXINGTON,VA,24450,
336.0,OLD POINT RD,WHITE STONE,VA,22578,
40967.0,SPUR RUN LN,ALDIE,VA,20105,
1507.0,BRONWYN RD,HENRICO,VA,23238,
23160.0,SLEEPING WOODS CT,ALDIE,VA,20105,
1527.0,ATKINSON HOLLOW RD,VINTON,VA,24179,
78.0,CANDLER WOODS LN,RUSTBURG,VA,24588,
8103.0,POINTER LN,MANASSAS,VA,20109,
1166.0,S THOMAS ST,ARLINGTON,VA,22204,
7356.0,ATLEE RD,MECHANICSVILLE,VA,23111,
113.0,DOGWOOD ST SW,VIENNA,VA,22180,
3708.0,LATIMER CIR,NORFOLK,VA,23513,
5952.0,KIMBERLY ANNE WAY,ALEXANDRIA,VA,22310,
2907.0,CHARING CROSS RD,FALLS CHURCH,VA,22042,
3610.0,KING ST,ALEXANDRIA,VA,22302,
9113.0,BATTLE ST,MANASSAS,VA,20110,
101.0,TAZEWELL AVE,TAZEWELL,VA,24651,
117.0,IRIS DR,WAYNESBORO,VA,22980,
2505.0,GILMERTON RD,CHESAPEAKE,VA,23323,
6604.0,HUNTSMAN BLVD,SPRINGFIELD,VA,22152,
23141.0,HANWORTH ST,ASHBURN,VA,20148,
175.0,COLONY RD,NEWPORT NEWS,VA,23602,
915.0,BROOK AVE,SUFFOLK,VA,23434,
207.0,COTEN WAY,NEWPORT NEWS,VA,23608,
170.0,PEACH ORCHARD RD,LURAY,VA,22835,
105.0,LORAC CT,WILLIAMSBURG,VA,23185,
1389.0,CHAPMAN LANDING RD,WOODSTOCK,VA,22664,
281.0,FOX CHASE RD,WIRTZ,VA,24184,
4050.0,LAAR CT,FAIRFAX,VA,22033,
2051.0,HILLSIDE DR,FALLS CHURCH,VA,22043,
3729.0,ACOSTA RD,FAIRFAX,VA,22031,
3205.0,BRIDGE RD,SUFFOLK,VA,23435,
718.0,VINE ST,BEDFORD,VA,24523,
2834.0,GLEN AVE,NORFOLK,VA,23513,
606.0,MUDDY CREEK RD,CHESAPEAKE,VA,23324,
7199.0,NEW GROVE RD,KENBRIDGE,VA,23944,
6071.0,NEWINGTON PL,SUFFOLK,VA,23435,
101.0,LAVENDER LN,COEBURN,VA,24230,
9410.0,TUXFORD RD,RICHMOND,VA,23236,
114.0,FALWELL CT,DANVILLE,VA,24540,
224.0,N BAYLOR DR,STERLING,VA,20164,
3450.0,THE LOOP RD,HENRICO,VA,23231,
330.0,HIDENWOOD DR,NEWPORT NEWS,VA,23606,
481.0,SUMMIT RD,MARTINSVILLE,VA,24112,
8085.0,ORDINARY KEEPERS WY,MECHANICSVILLE,VA,23111,
37.0,HULLS CHAPEL RD,FREDERICKSBURG,VA,22406,
124.0,E 15TH ST,FRONT ROYAL,VA,22630,
10806.0,VIOLET CT,MANASSAS,VA,20109,
35059.0,GERMANNA HEIGHTS DR,LOCUST GROVE,VA,22508,
1381.0,MUD ST,CONCORD,VA,24538,
9468.0,LAPSTRAKE LN,BURKE,VA,22015,
600.0,DELEVAN ST,CHARLOTTESVILLE,VA,22903,
1613.0,GELDING CT,VIRGINIA BEACH,VA,23453,
5057.0,TWO CHIMNEYS CT,WOODBRIDGE,VA,22193,
819.0,PANACELLA DRIVE,ABINGDON,VA,24210,
4320.0,COVENTRY RD,BEALETON,VA,22712,
914.0,GREENWOOD AVE,DANVILLE,VA,24541,
2204.0,FOUNDERS VIEW LN,MIDLOTHIAN,VA,23113,
3401.0,ALLERTON CT,DUMFRIES,VA,22026,
2021.0,MAIN ST,LYNCHBURG,VA,24504,
6857.0,MASON KNOB TRL,ROANOKE,VA,24018,
150.0,W WASHINGTON ST,SUFFOLK,VA,23434,
9109.0,LAKE BRADDOCK DR,BURKE,VA,22015,
4423.0,DYES LN,SUMERDUCK,VA,22742,
18309.0,JEFFERSON DAVIS HWY,TRIANGLE,VA,22172,
62.0,LAKESIDE DR,HARTFIELD,VA,23071,
138.0,BLUFF RD,STRASBURG,VA,22657,
3051.0,PATRICK HENRY DR,FALLS CHURCH,VA,22044,
1438.0,DURE RD,NORFOLK,VA,23502,
145.0,ALLYSON DR,WILLIAMSBURG,VA,23188,
33.0,TRAIL RIDGE LN,FREDERICKSBURG,VA,22405,
9091.0,BASIL RD,KING GEORGE,VA,22485,
5304.0,PENICK RD,HENRICO,VA,23228,
4024.0,KIMBERLEY GLEN CT,CHANTILLY,VA,20151,
41.0,BARTER HILL ROAD,CUMBERLAND,VA,23040,
5394.0,THE FALLS RD,CREWE,VA,23930,
43377.0,HATTEN CROSS CT,ASHBURN,VA,20147,
2652.0,WOODCOCK CT,HERNDON,VA,20171,
4706.0,JACOBS GLENN DR,RICHMOND,VA,23236,
487.0,POPLAR ST,NARROWS,VA,24124,
15.0,SHORT BRANCH RD,STAFFORD,VA,22556,
6600.0,RIVER RD,PETERSBURG,VA,23803,
101.0,HARRIS RD,KILMARNOCK,VA,22482,
4218.0,STANBY CT,ALEXANDRIA,VA,22312,
210.0,FATIMAH DR,RED HOUSE,VA,23963,
25.0,N LIBERTY ST,HARRISONBURG,VA,22802,
1205.0,SOUTH ST,FRANKLIN,VA,23851,
17512.0,MILL CREEK RD,CHILHOWIE,VA,24319,
10525.0,BEACHCREST CT,CHESTERFIELD,VA,23832,
3206.0,MARGO LN,RICHMOND,VA,23237,
7511.0,TYNDALL DR,GLOUCESTER POINT,VA,23062,
8006.0,NORTHUMBERLAND RD,SPRINGFIELD,VA,22153,
11455.0,LYNX DR,KING GEORGE,VA,22485,
6585.0,STONEY POINT SOUTH S,NORFOLK,VA,23502,
6101.0,BARBOURSVILLE LN,RICHMOND,VA,23234,
1016.0,LORIE VALLEY DR,PENNINGTON GAP,VA,24277,
1006.0,WARRENTON RD,FREDERICKSBURG,VA,22406,
511.0,BRUMSEY CT SW,LEESBURG,VA,20175,
1508.0,SANGAREE CIR,VIRGINIA BEACH,VA,23464,
1176.0,MONDRIAN LOOP,VIRGINIA BEACH,VA,23453,
1417.0,N 25TH ST,RICHMOND,VA,23223,
9305.0,SUSQUEHANNA TL,ASHLAND,VA,23005,
5434.0,CHIEFTAIN CIR,ALEXANDRIA,VA,22312,
1325.0,LARK DR,CHATHAM,VA,24531,
7291.0,NEWPORT AVE,NORFOLK,VA,23505,
3510.0,WILLIAMSON RD NW,ROANOKE,VA,24012,
2436.0,THREE WILLOWS CT,HENRICO,VA,23294,
4690.0,CLAY BANK RD,GLOUCESTER,VA,23061,
2122.0,GREEN WATCH WAY,RESTON,VA,20191,
2400.0,BARNSIDE CIR,HENRICO,VA,23233,
344.0,GOODEARTH LN,GORE,VA,22637,
28418.0,NORTH FORK RIVER RD,SALTVILLE,VA,24370,
17143.0,BELLE ISLE DR,DUMFRIES,VA,22026,
3121.0,GLENWOOD RIDGE DR,RICHMOND,VA,23223,
4772.0,KEMPSVILLE GREENS PKWY,VIRGINIA BEACH,VA,23462,
113.0,JERICHO RD,SMITHFIELD,VA,23430,
211.0,BEAUFONT CT,RICHMOND,VA,23225,
5.0,EUCLID AVENUE EXT,BRISTOL,VA,24201,
437.0,THREE RIDGES,ROSELAND,VA,22967,
11800.0,LAURESTINE WAY,MANASSAS,VA,20109,
2356.0,BRECKENRIDGE CT,HARRISONBURG,VA,22801,
29199.0,OLD VALLEY PIKE,STRASBURG,VA,22657,
151.0,GEORGE DR,WINCHESTER,VA,22602,
3030.0,DANRETT LN,HENRICO,VA,23231,
11034.0,BEALE DR,WINDSOR,VA,23487,
202.0,CATALPA CT,SUFFOLK,VA,23435,
4214.0,WADSWORTH CT,ANNANDALE,VA,22003,
509.0,N DELPHINE AVE,WAYNESBORO,VA,22980,
31.0,VALE CIR,HARRISONBURG,VA,22801,
17175.0,NEW MARKET RD,TIMBERVILLE,VA,22853,
27.0,S BRAGG ST,ALEXANDRIA,VA,22312,
10913.0,LANTERN WAY,RICHMOND,VA,23236,
840.0,NEWPORT TER,BLACKSBURG,VA,24060,
10108.0,BREAWICK CT,SPOTSYLVANIA,VA,22553,
5103.0,SALEM ST,HENRICO,VA,23231,
100.0,GREENWOOD DR,GALAX,VA,24333,
1372.0,NORTHGATE SQ,RESTON,VA,20190,
16041.0,HAYES LN,WOODBRIDGE,VA,22191,
46.0,MARINERS COVE RD,HAMPTON,VA,23669,
8201.0,KING DR,DISPUTANTA,VA,23842,
343.0,POTOMAC SHORE DR,HEATHSVILLE,VA,22473,
5501.0,PIGNUT MOUNTAIN DR,WARRENTON,VA,20187,
7806.0,WAVERLEY MILL CT,GAINESVILLE,VA,20155,
3272.0,WILLOW GLEN DR,HERNDON,VA,20171,
9331.0,STONEHOUSE GLN,TOANO,VA,23168,
200.0,LITTLE FALLS ST,FALLS CHURCH,VA,22046,
1504.0,S FRANKLIN AVE,COVINGTON,VA,24426,
5326.0,HUNT MASTER DR,MIDLOTHIAN,VA,23112,
5804.0,WHITMORE RD,MC KENNEY,VA,23872,
1204.0,JEWELL AVE,PORTSMOUTH,VA,23701,
1122.0,IVANHOE RD,FRIES,VA,24330,
3579.0,MISSISSIPPI AVE,NORFOLK,VA,23502,
5417.0,OLD WARSON DR,RICHMOND,VA,23237,
9200.0,THORNTON ROLLING RD,FREDERICKSBURG,VA,22408,
15504.0,BARRINGTON PL,DUMFRIES,VA,22025,
216.0,TREE FERN DR,CHESAPEAKE,VA,23322,
1.0,DONAHOE CT,FREDERICKSBURG,VA,22407,
5900.0,PATTERSON AVE UNIT,RICHMOND,VA,23226,
281.0,BILLS LN,AFTON,VA,22920,
5275.0,BRADGEN CT,SPRINGFIELD,VA,22151,
353.0,HARVEST ST,NEWPORT NEWS,VA,23608,
40.0,SPRING E,WILLIAMSBURG,VA,23188,
106.0,WASHINGTON ST,SMITHFIELD,VA,23430,
311.0,CEDAR AVE,COLONIAL BEACH,VA,22443,
241.0,RANDOLPH ST,BRISTOL,VA,24201,
2666.0,PILOT VIEW DR,HILLSVILLE,VA,24343,
5441.0,HONEY RD,ELLISTON,VA,24087,
2411.0,CLIFTON ST NW,ROANOKE,VA,24017,
122.0,ATLANTIS LN,FRONT ROYAL,VA,22630,
5923.0,VIRGINIA AVE,PEMBROKE,VA,24136,
5386.0,N VALLEY PIKE,HARRISONBURG,VA,22802,
977.0,ATLANTIS DR,VIRGINIA BEACH,VA,23451,
7002.0,LITTLE RIVER TPKE,ANNANDALE,VA,22003,
42471.0,MALACHITE TER,ASHBURN,VA,20148,
454.0,WALNUT AVE SE,ROANOKE,VA,24014,
4436.0,RAZOR HILL RD,BEALETON,VA,22712,
5501.0,CHESTNUT AVE,NEWPORT NEWS,VA,23605,
120.0,LOBLOLLY DR,CASCADE,VA,24069,
6516.0,RAFTELIS RD,BURKE,VA,22015,
1252.0,OVERTON DR,MINERAL,VA,23117,
127.0,CADLE LN,HARROGATE,VA,37752,
973.0,TURTLE POND LN,VIRGINIA BEACH,VA,23462,
3625.0,ELM FARM RD,WOODBRIDGE,VA,22192,
612.0,IRONWOOD DR,YORKTOWN,VA,23693,
21629.0,FRAME SQ,ASHBURN,VA,20148,
634.0,FAIRFIELD BLVD,HAMPTON,VA,23669,
370.0,RODGERS RD,SUTHERLIN,VA,24594,
24.0,W PRESTON ST,HAMPTON,VA,23669,
19.0,CLOVERLEAF CT,FREDERICKSBURG,VA,22406,
10364.0,LATNEY RD,FAIRFAX,VA,22032,
1524.0,SOMERSET DR,LYNCHBURG,VA,24503,
7216.0,MEADOWVIEW DR,RADFORD,VA,24141,
620.0,EIGHT WOODS LN,CHARLOTTESVILLE,VA,22903,
1421.0,BREMERTON LN,KESWICK,VA,22947,
220.0,BREMBLE DR,MONETA,VA,24121,
14.0,DENA DR,WILLIAMSBURG,VA,23188,
795.0,SCARLET DR,DALEVILLE,VA,24083,
205.0,POPLAR RD,FREDERICKSBURG,VA,22406,
8567.0,RICHMOND HWY,ALEXANDRIA,VA,22309,
42228.0,BANFF SPRINGS PL,CHANTILLY,VA,20152,
4081.0,SPRING GARDEN RD,CHATHAM,VA,24531,
941.0,NEWBURGH CT,VIRGINIA BEACH,VA,23451,
9166.0,STONECREEK CLUB PL,CHESTERFIELD,VA,23832,
4261.0,CALEDON RD,KING GEORGE,VA,22485,
3035.0,VIRGILINA RD,VIRGILINA,VA,24598,
927.0,HIGHWAY FORTY-SEVEN,CHASE CITY,VA,23924,
2606.0,PLEASANT AVE,NORFOLK,VA,23518,
1315.0,FRANKLIN ST,FREDERICKSBURG,VA,22401,
11415.0,HOLLOW TIMBER CT,RESTON,VA,20194,
50.0,MOORESVILLE PARK LN,CLARKSVILLE,VA,23927,
2966.0,QUEENSLAND DR,HENRICO,VA,23294,
11161.0,STAINSBY CT,BRISTOW,VA,20136,
21088.0,WASHINGTON ST,ONLEY,VA,23418,
10800.0,SUNSET HILLS DR,RICHMOND,VA,23236,
103.0,LITCHFIELD ST NW,COEBURN,VA,24230,
7822.0,MULBERRY BOTTOM LN,SPRINGFIELD,VA,22153,
46848.0,TRUMPET CIR,STERLING,VA,20164,
115.0,FEDERAL ST,LYNCHBURG,VA,24504,
1004.0,FAIRVIEW,CHATHAM,VA,24531,
310.0,KENYON ST,LYNCHBURG,VA,24501,
1820.0,PEAKS ROAD,PROSPECT,VA,23960,
11819.0,SUNFLOWER LN,RICHMOND,VA,23236,
1614.0,RIPON PL,ALEXANDRIA,VA,22302,
1878.0,EDEN LN,CHARLOTTESVILLE,VA,22901,
4000.0,LUCY LONG DR,HARRISONBURG,VA,22801,
9826.0,N* WAGSTAFF CIR,RICHMOND,VA,23236,
4199.0,RIDGE RD,QUICKSBURG,VA,22847,
31.0,S LEWIS ST,STAUNTON,VA,24401,
400.0,S VIRGINIA AVE,FALLS CHURCH,VA,22046,
899.0,PORT REPUBLIC RD,HARRISONBURG,VA,22801,
611.0,FAIRYSTONE CT,HENRICO,VA,23075,
3416.0,HICKORY NECK BLVD,TOANO,VA,23168,
1116.0,NEWELL AVE,NORFOLK,VA,23518,
15370.0,WRIGHT RD,AMELIA COURT HOUSE,VA,23002,
5608.0,POWELL GROVE DR,MIDLOTHIAN,VA,23112,
113.0,RIGGERS DR,WINCHESTER,VA,22603,
2100.0,SETERRA ST,BIG STONE GAP,VA,24219,
105.0,NOTTOWAY DR,STEPHENS CITY,VA,22655,
8010.0,CANOVA SPRINGS PL,MANASSAS,VA,20112,
4800.0,N WATERSIDE DR,LANEXA,VA,23089,
12000.0,SOUTHERN POINTS CT,CHESTERFIELD,VA,23838,
3604.0,JURGENSEN DR,TRIANGLE,VA,22172,
233.0,SPARROW RD,CHESAPEAKE,VA,23325,
5632.0,CAMPUS RIDGE DR,WISE,VA,24293,
2388.0,ROBINETTE VALLEY RD,DUFFIELD,VA,24244,
178.0,SALISBURY LN,GATE CITY,VA,24251,
108.0,RIDGECREST CIR,WILLIAMSBURG,VA,23185,
502.0,CATINA WAY,NEWPORT NEWS,VA,23602,
612.0,CRESCENTWOOD ARCH,CHESAPEAKE,VA,23320,
1193.0,WATER WHEEL RD,GALAX,VA,24333,
1170.0,RAINTREE DR,CHARLOTTESVILLE,VA,22901,
7001.0,LOISDALE RD,SPRINGFIELD,VA,22150,
620.0,DELAWARE AVE,VIRGINIA BEACH,VA,23451,
100.0,FAIRWIND DR,CHESAPEAKE,VA,23320,
6930.0,PARTRIDGE CT,HAYES,VA,23072,
2321.0,CAROLINA RD,CHESAPEAKE,VA,23322,
12444.0,ERICA HILL LN,FAIRFAX,VA,22033,
610.0,ENGLAND ST,ASHLAND,VA,23005,
903.0,MYRTLE RD,MARTINSVILLE,VA,24112,
5316.0,HILLSIDE WAY,WILLIAMSBURG,VA,23185,
658.0,CORNING CT,VIRGINIA BEACH,VA,23451,
1501.0,KING ST,ALEXANDRIA,VA,22314,
6621.0,MIDLOTHIAN TPKE,RICHMOND,VA,23225,
15190.0,LEICESTERSHIRE ST,WOODBRIDGE,VA,22191,
455.0,BRUSHFORK RD,FALLS MILLS,VA,24613,
6231.0,28TH ST N,ARLINGTON,VA,22207,
2206.0,E OLD MOUNTAIN RD,MINERAL,VA,23117,
106.0,RAINTREE BLVD,STAFFORD,VA,22556,
12021.0,MENTE RD,MANASSAS,VA,20112,
122.0,HOUSTON ST,LEXINGTON,VA,24450,
5300.0,FILLMORE AVE,ALEXANDRIA,VA,22311,
118.0,RIVERVIEW AVE,PORTSMOUTH,VA,23704,
610.0,DECATUR ST,RICHMOND,VA,23224,
166.0,ALAN DR,NEWPORT NEWS,VA,23602,
1718.0,ROKEBY AVE,CHESAPEAKE,VA,23320,
5191.0,WESTERLY DR,VIRGINIA BEACH,VA,23464,
3613.0,ROYAL PALM ARCH,VIRGINIA BEACH,VA,23452,
200.0,6TH ST NW,NORTON,VA,24273,
4820.0,COVE GARDEN RD,NORTH GARDEN,VA,22959,
3341.0,ROSEWOOD AVE,RICHMOND,VA,23221,
5001.0,STRAUSS CT,FREDERICKSBURG,VA,22407,
1421.0,GEORGE WASHINGTON HWY N,CHESAPEAKE,VA,23323,
1322.0,RIVERLAND RD SE,ROANOKE,VA,24014,
10813.0,ASHLEY OAK TER,CHESTER,VA,23831,
504.0,BUCHANAN ST,BRISTOL,VA,24201,
420.0,RIVER BEND RD,GREAT FALLS,VA,22066,
2140.0,LOCKARD AVE,CHESAPEAKE,VA,23320,
22979.0,JOHNSON RD,JETERSVILLE,VA,23083,
42724.0,POCOSIN CT,ASHBURN,VA,20148,
2109.0,N 23RD ST,RICHMOND,VA,23223,
351.0,MILL CREEK LN,MOUNT JACKSON,VA,22842,
7908.0,CAPISTRANO DR,RICHMOND,VA,23227,
14119.0,ALCORN WAY,MIDLOTHIAN,VA,23114,
1528.0,GEORGE WASHINGTON MEMORIAL HWY,GLOUCESTER POINT,VA,23062,
1714.0,KINDERHOOK RD,STANARDSVILLE,VA,22973,
13.0,INDIAN SPRINGS DR,NEWPORT NEWS,VA,23606,
1008.0,THRIVE PL,CHESAPEAKE,VA,23323,
1710.0,ABERCROMBY CT,RESTON,VA,20190,
10518.0,LEESBURG PIKE,VIENNA,VA,22182,
524.0,AYLESBURY DR,VIRGINIA BEACH,VA,23462,
192.0,HARPERS CREEK LN,TYRO,VA,22976,
27.0,ASHLAWN CT,FRONT ROYAL,VA,22630,
551.0,MT OLIVET RD,GALAX,VA,24333,
405.0,DUPLIN ST,VIRGINIA BEACH,VA,23452,
216.0,HUNTERS CREEK RD,FOREST,VA,24551,
705.0,4TH ST,MARTINSVILLE,VA,24112,
3229.0,TRANQUILITY LN,HERNDON,VA,20171,
1749.0,EVERGREEN DR,SPENCER,VA,24165,
5444.0,PINE GROVE AVE,NORFOLK,VA,23502,
1015.0,FAIRYSTONE PARK HWY,STANLEYTOWN,VA,24168,
2640.0,PORTUGEE RD,SANDSTON,VA,23150,
1460.0,MOUNT VIEW RD,DANVILLE,VA,24540,
1921.0,POPES HEAD ARCH,VIRGINIA BEACH,VA,23464,
3021.0,RIVERMONT DR,FRONT ROYAL,VA,22630,
3533.0,DEVON DR,FALLS CHURCH,VA,22042,
9001.0,ELLYSON TRCE,QUINTON,VA,23141,
2008.0,N PARHAM RD,HENRICO,VA,23229,
136.0,PALM DR,NORTH TAZEWELL,VA,24630,
241.0,DEER RUN DR,GORDONSVILLE,VA,22942,
8491.0,KIRBY ST,MANASSAS,VA,20110,
1914.0,ELMSMERE AVE,RICHMOND,VA,23227,
3832.0,OLD STEVENS RD NW,ROANOKE,VA,24017,
117.0,ROSEGILL RD,RICHMOND,VA,23236,
13634.0,OLD CHATWOOD PL,CHANTILLY,VA,20151,
62.0,MELVILLE DR,SURRY,VA,23883,
5102.0,FUTURA AVE,HENRICO,VA,23231,
2460.0,HUNTING HORN WAY,VIRGINIA BEACH,VA,23456,
7417.0,PEBBLE LAKE DR,MECHANICSVILLE,VA,23111,
624.0,S MAIN ST,CHATHAM,VA,24531,
489.0,BEALES WHARF RD,MONTROSS,VA,22520,
829.0,FIVE FORKS RD,VIRGINIA BEACH,VA,23455,
3400.0,HOLLOW WOOD CT,CHESTERFIELD,VA,23832,
2645.0,KING WILLIAM RD,AYLETT,VA,23009,
13839.0,REDSTONE DR,WOODBRIDGE,VA,22193,
4135.0,LEAKE AVE,RICHMOND,VA,23224,
8304.0,SHARONWAY DR,GLEN ALLEN,VA,23060,
505.0,JEFFERSON ST,DANVILLE,VA,24541,
12425.0,VILLAGE LOOP,CULPEPER,VA,22701,
1640.0,IRVIN ST,VIENNA,VA,22182,
21.0,MILLARD CT,STERLING,VA,20165,
3007.0,CUNNINGHAM DR,ALEXANDRIA,VA,22309,
2607.0,PILKINGTON RD,POWHATAN,VA,23139,
3338.0,CIRCLE BROOK DR,ROANOKE,VA,24018,
4651.0,PHILLIPS FARM RD,RADFORD,VA,24141,
12033.0,FORBES GLEN DR,HERNDON,VA,20170,
20511.0,FOUNDATION PLACE RD,PETERSBURG,VA,23803,
1804.0,WAKE FOREST DR,RICHMOND,VA,23226,
1537.0,MATSON DR,MARION,VA,24354,
966.0,OLD WHITE HILL RD,STUARTS DRAFT,VA,24477,
2425.0,GREENWOOD DR,PORTSMOUTH,VA,23702,
2340.0,MEADOWS LNDG,CHESAPEAKE,VA,23321,
204.0,LYNNHAVEN AVE,COLONIAL BEACH,VA,22443,
179.0,HOLLYWOOD RD,PAMPLIN,VA,23958,
318.0,ROSEBUD RUN,AYLETT,VA,23009,
1832.0,HYLTON AVE,WOODBRIDGE,VA,22191,
5450.0,STEEP RDG,CROZET,VA,22932,
42721.0,OGILVIE SQ,ASHBURN,VA,20148,
1248.0,DANIEL RD,AXTON,VA,24054,
15636.0,AVEBURY MANOR PL,LEESBURG,VA,20176,
341.0,MEADOW RIVER DR,ROCKY MOUNT,VA,24151,
1447.0,BOWLER CREEK RD,PAMPLIN,VA,23958,
512.0,W 33RD ST,RICHMOND,VA,23225,
230.0,KENSINGTON DR,ELKTON,VA,22827,
7263.0,SPRING HILL FARM LN,MECHANICSVILLE,VA,23116,
2.0,LC AMPHIBIOUS DR,NORFOLK,VA,23521,
38590.0,PHEASANTHILL LN,HAMILTON,VA,20158,
1204.0,RIDGECREST DR,DANVILLE,VA,24540,
7904.0,MAPLEWOOD DR,MANASSAS,VA,20111,
628.0,DAINGERFIELD LNDG,CHAMPLAIN,VA,22438,
16462.0,INDUSTRIAL DR,MILFORD,VA,22514,
201.0,MOSS AVE,SEAFORD,VA,23696,
16865.0,MIRANDA LN,WOODBRIDGE,VA,22191,
112.0,WALTON PARK RD,MIDLOTHIAN,VA,23114,
1603.0,SECOND ST,RADFORD,VA,24141,
4401.0,HASTINGS CT,FREDERICKSBURG,VA,22408,
3500.0,7TH ST S,ARLINGTON,VA,22204,
7307.0,GEO WASH MEM HWY,YORKTOWN,VA,23692,
133.0,DAISY LN,DUGSPUR,VA,24325,
351.0,TANGLEWOOD DR,NORTH TAZEWELL,VA,24630,
208.0,WINDMERE TRL,MONETA,VA,24121,
10436.0,CALUMET GROVE DR,FAIRFAX,VA,22032,
19923.0,GOOSE POND RD,DINWIDDIE,VA,23841,
107.0,N SUNSET DR,BROADWAY,VA,22815,
3707.0,ROBERTS LN,ARLINGTON,VA,22207,
280.0,RIVER VIEW LN,FABER,VA,22938,
848.0,24TH ST,NEWPORT NEWS,VA,23607,
738.0,KEEL CT,NEWPORT NEWS,VA,23608,
31278.0,ASKEW ST,FRANKLIN,VA,23851,
20492.0,CASABLANCA DR,ASHBURN,VA,20147,
9925.0,STONE WOOD CT,BURKE,VA,22015,
6.0,MANCHESTER CT,FREDERICKSBURG,VA,22408,
1567.0,TUCKER HILL RD,KINSALE,VA,22488,
6749.0,QUARTERDECK LN,VIRGINIA BEACH,VA,23451,
656.0,LOCUST DR,CASCADE,VA,24069,
204.0,EXETER AVE,PETERSBURG,VA,23805,
10911.0,LANSDOWNE TER,MIDLOTHIAN,VA,23113,
11187.0,ROCKVILLE RD,ROCKVILLE,VA,23146,
3044.0,STONES CHAPEL RD,ELK CREEK,VA,24326,
175.0,WESTBROOK LN,MARTINSVILLE,VA,24112,
9309.0,S WHITT DR,MANASSAS,VA,20111,
136.0,CHALCEDONY LN,WINCHESTER,VA,22602,
1520.0,MAURY ST,RICHMOND,VA,23224,
2245.0,SEMINOLE LN,CHARLOTTESVILLE,VA,22901,
2159.0,ROCK CLIFF RD,BEDFORD,VA,24523,
15218.0,FOUNTAIN RD,ASHLAND,VA,23005,
7372.0,ROKEBY DR,MANASSAS,VA,20109,
3400.0,BAINBRIDGE DR,HOPEWELL,VA,23860,
3.0,TINDALLS WAY,HAMPTON,VA,23666,
1047.0,DEPOT LN,NATHALIE,VA,24577,
2513.0,HUNGARY SPRING RD,HENRICO,VA,23294,
6.0,STRAWBERRY ST,RICHMOND,VA,23220,
6521.0,ARMFIELD ROAD,RICHMOND,VA,23225,
30.0,DOGWOOD ST,HAMPTON,VA,23669,
2590.0,GREENSPRINGS RD,WILLIAMSBURG,VA,23185,
8826.0,RIVER RD,PETERSBURG,VA,23803,
3421.0,HOLLY RD,ANNANDALE,VA,22003,
5.0,W FEDERAL ST,MIDDLEBURG,VA,20117,
2308.0,ROSETTA ST,RICHMOND,VA,23223,
599.0,BLOUNT POINT RD,NEWPORT NEWS,VA,23606,
7.0,LITTLE CHURCH RD,PORTSMOUTH,VA,23703,
113.0,PHILRAY CT,RICHMOND,VA,23236,
5348.0,ALTON DR,VIRGINIA BEACH,VA,23464,
3224.0,NORFOLK LN,FALLS CHURCH,VA,22042,
131.0,THOMPSON ROAD,FARMVILLE,VA,23901,
2319.0,FLEETWOOD CT,MIDLOTHIAN,VA,23112,
18763.0,PIER TRAIL DR,TRIANGLE,VA,22172,
15150.0,MILLTOWN RD,WATERFORD,VA,20197,
182.0,EUSTACE RD,STAFFORD,VA,22554,
4608.0,EASTOVER AVE,HENRICO,VA,23231,
68.0,DEVON DR,RUCKERSVILLE,VA,22968,
4010.0,ARCADIA RD,ALEXANDRIA,VA,22312,
85.0,WEST SQUARE DR,HENRICO,VA,23238,
2739.0,WILLIS RD,MEADOWS OF DAN,VA,24120,
3120.0,HARRIS LN,CHINCOTEAGUE ISLAND,VA,23336,
218.0,DON WHITEHEAD DR,APPALACHIA,VA,24216,
6527.0,BYRNES DR,MCLEAN,VA,22101,
1019.0,HALLIAHURST AVE,VINTON,VA,24179,
2413.0,HAPPY HOLLOW RD,BREAKS,VA,24607,
509.0,TWIN RIDGE MARINA RD,HENRY,VA,24102,
5525.0,CATLETT RD,MIDLAND,VA,22728,
6591.0,QUAIL HOLLOW DR,HAYES,VA,23072,
1599.0,BINGHAM MOUNTAIN RD,STANARDSVILLE,VA,22973,
5901.0,MOUNT EAGLE DR,ALEXANDRIA,VA,22303,
43442.0,FIRESTONE PL,LEESBURG,VA,20176,
3103.0,CHESAPEAKE DR,DUMFRIES,VA,22026,
3107.0,WARFIELD ESTATES CT,CHESTER,VA,23831,
213.0,UPPER BROOK TER,PURCELLVILLE,VA,20132,
5408.0,WILLIAMS RD,SUTHERLAND,VA,23885,
928.0,HOWBERT AVE SW,ROANOKE,VA,24015,
712.0,E 16TH ST,RICHMOND,VA,23224,
4506.0,19TH ST N,ARLINGTON,VA,22207,
3036.0,S GLEBE RD,ARLINGTON,VA,22206,
2221.0,EASLEY AVE,LYNCHBURG,VA,24501,
1450.0,ROSE ANN LN,HENRICO,VA,23075,
43453.0,INTERVAL ST,CHANTILLY,VA,20152,
7307.0,COURTHOUSE RD,LOUISA,VA,23093,
205.0,HUNTSMAN RD,SANDSTON,VA,23150,
4173.0,SUNNYSIDE RD,CAPE CHARLES,VA,23310,
1900.0,FLYWAY BR,CHESAPEAKE,VA,23322,
1601.0,DALE AVE,ALTAVISTA,VA,24517,
451.0,HILL MEADOW DR,VIRGINIA BEACH,VA,23454,
12851.0,CARA DR,WOODBRIDGE,VA,22192,
3095.0,MT OLIVET RD,PULASKI,VA,24301,
807.0,PARKVIEW AVE,MARTINSVILLE,VA,24112,
11966.0,DE LAVIAL ST,CHESTER,VA,23831,
904.0,VINE ST,HERNDON,VA,20170,
21.0,BALLANTRAE CT,STAFFORD,VA,22554,
1022.0,ORCHARD ST,FOREST,VA,24551,
5025.0,LC GELA DR,NORFOLK,VA,23521,
4682.0,KELL LN,ALEXANDRIA,VA,22311,
24490.0,LENAH RD,ALDIE,VA,20105,
922.0,SMARTTS LN NE,LEESBURG,VA,20176,
1837.0,FENDALL AVE,CHARLOTTESVILLE,VA,22903,
2362.0,BEL CREST CIR,MIDLOTHIAN,VA,23113,
2821.0,MARLBORO AVE,NORFOLK,VA,23504,
269.0,CRAWFORD DR,MONETA,VA,24121,
1007.0,MADISON ST,ALEXANDRIA,VA,22314,
1556.0,STEWARDS WAY,VIRGINIA BEACH,VA,23453,
104.0,SPRING RD,WILLIAMSBURG,VA,23185,
275.0,ARROW LN,WYTHEVILLE,VA,24382,
3054.0,WILD BLUE INDIGO CT,FAIRFAX,VA,22031,
17295.0,ARROWOOD PL,ROUND HILL,VA,20141,
15265.0,AVENS CREEK DR,HAYMARKET,VA,20169,
1157.0,SIR GEORGE CIR,VIRGINIA BEACH,VA,23452,
204.0,LAFAYETTE ST,WILLIAMSBURG,VA,23185,
1673.0,SUNKEN MEADOW RD,SPRING GROVE,VA,23881,
10867.0,WILLOW HILL CT,CHESTERFIELD,VA,23832,
1349.0,WHITTIER RD,VIRGINIA BEACH,VA,23454,
128.0,GOAT TOWN RD,EWING,VA,24248,
2822.0,23RD RD N,ARLINGTON,VA,22201,
5619.0,PAIGE RD,GLOUCESTER,VA,23061,
8809.0,MONITOR WAY,NORFOLK,VA,23503,
6603.0,MULROY ST,MCLEAN,VA,22101,
15130.0,HEATHER MILL LN,HAYMARKET,VA,20169,
2421.0,MANSFIELD ST NE,ROANOKE,VA,24012,
4404.0,ARGONNE DR,FAIRFAX,VA,22032,
7404.0,DICKENSON ST,SPRINGFIELD,VA,22150,
6816.0,MARYE RD,SPOTSYLVANIA,VA,22551,
3134.0,LAKE VILLAGE DR,RICHMOND,VA,23235,
20642.0,GOLDEN RIDGE DR,ASHBURN,VA,20147,
5021.0,RIVERSIDE DR,RICHMOND,VA,23225,
308.0,HUGHES ST,DANVILLE,VA,24541,
43416.0,CHORLEY WOOD ST,CHANTILLY,VA,20152,
112.0,CRESCENT ST,BLUEFIELD,VA,24605,
8631.0,KERRY LN,SPRINGFIELD,VA,22152,
2408.0,GRETTER PL,ALEXANDRIA,VA,22311,
14259.0,SHARPSHINNED DR,GAINESVILLE,VA,20155,
1914.0,PANSY ST,LYNCHBURG,VA,24503,
909.0,SUMMERFIELD CRES,CHESAPEAKE,VA,23322,
12216.0,WALBOROUGH LN,GLEN ALLEN,VA,23059,
830.0,HULL ST,RICHMOND,VA,23224,
3722.0,HUNTLEY MEADOWS LN,ALEXANDRIA,VA,22306,
908.0,19TH ST S,ARLINGTON,VA,22202,
8317.0,CENTREVILLE RD,MANASSAS,VA,20111,
2910.0,WILLSTON PL,FALLS CHURCH,VA,22044,
768.0,TRIANGLE ST,BLACKSBURG,VA,24060,
1640.0,WOODS VISTA DR,CHRISTIANSBURG,VA,24073,
9464.0,ABRAM PENN HWY,BASSETT,VA,24055,
312.0,HUGHES ST,DANVILLE,VA,24541,
1214.0,GREYCOURT AVE,RICHMOND,VA,23227,
459.0,WALKER RD,GREAT FALLS,VA,22066,
12202.0,W RIVER RD,AYLETT,VA,23009,
2450.0,STONE POST TER,HENRICO,VA,23233,
165.0,BLUE RIDGE DR,ORANGE,VA,22960,
318.0,WILMER AVE,RICHMOND,VA,23227,
282.0,LEAFWOOD LN,WILLIAMSBURG,VA,23188,
559.0,VALLEY RD,SALTVILLE,VA,24370,
200.0,AMESBURY LN,NEWPORT NEWS,VA,23606,
172.0,BANKS DR,WINCHESTER,VA,22602,
425.0,NETWORK STA,CHESAPEAKE,VA,23320,
43247.0,HATTONTOWN WOODS TER,ASHBURN,VA,20148,
333.0,DECLARATION LN,SUFFOLK,VA,23434,
18279.0,DEMOCRACY AVE,RUTHER GLEN,VA,22546,
311.0,THIRD AVE,SALTVILLE,VA,24370,
9024.0,PROCTORS RUN CT,RICHMOND,VA,23237,
1213.0,UNIVERSITY CITY BLVD,BLACKSBURG,VA,24060,
8412.0,WEST BOULEVARD DR,ALEXANDRIA,VA,22308,
1646.0,STOWE RD,RESTON,VA,20194,
12411.0,WASHINGTON BRICE RD,FAIRFAX,VA,22033,
631.0,WILSON RD,CHESAPEAKE,VA,23324,
10.0,CHAMBERLAIN LP,LEXINGTON,VA,24450,
2964.0,WILSON AVE,OAKTON,VA,22124,
3354.0,GLADE CREEK BLVD NE,ROANOKE,VA,24012,
442.0,TWIN POPLARS LOOP,FABER,VA,22938,
3225.0,DEERFIELD CT,WILLIAMSBURG,VA,23185,
5203.0,LUNSFORD MILL RD,HILTONS,VA,24258,
4479.0,NANNEYS CREEK CT,VIRGINIA BEACH,VA,23457,
128.0,IVY LN,DALEVILLE,VA,24083,
12918.0,QUEENSGATE RD,MIDLOTHIAN,VA,23114,
65.0,JEFFERSON ST,VERONA,VA,24482,
209.0,20TH ST SW,ROANOKE,VA,24016,
682.0,CARWILE RD,RUSTBURG,VA,24588,
40.0,SOUTH AVE,HARRISONBURG,VA,22801,
2678.0,CAMP CREEK RD,CLINTWOOD,VA,24228,
235.0,MEADOWS LN,WYTHEVILLE,VA,24382,
7501.0,DELL DR,RICHMOND,VA,23235,
22473.0,CABIN POINT RD,DISPUTANTA,VA,23842,
12120.0,OLD CHULA RD,AMELIA COURT HOUSE,VA,23002,
15420.0,COSBY RD,CHESTERFIELD,VA,23832,
429.0,BRACY ST,FRANKLIN,VA,23851,
404.0,LANCASTER CREEK DR,LANCASTER,VA,22503,
1512.0,LONNA DR NW,ROANOKE,VA,24019,
1624.0,CAMERON'S LANDING BLVD,HOPEWELL,VA,23860,
682.0,OAK SPRINGS DR,AYLETT,VA,23009,
99.0,DIANNE DR,LYNCHBURG,VA,24504,
174.0,WINDSOR DR,FISHERSVILLE,VA,22939,
8750.0,QUARRY RD,MANASSAS,VA,20110,
4031.0,MAJESTIC LN,FAIRFAX,VA,22033,
6902.0,SPROUSE CT,SPRINGFIELD,VA,22153,
2850.0,MEADOW LN,FALLS CHURCH,VA,22042,
5001.0,COLES POINT RD,HAGUE,VA,22469,
13113.0,POST OAK RD,SPOTSYLVANIA,VA,22551,
6574.0,JENKINS LN,GLOUCESTER,VA,23061,
3356.0,WESTERN BRANCH BLVD,CHESAPEAKE,VA,23321,
9700.0,CLARK PL,MANASSAS,VA,20110,
162.0,CHEROKEE DR,NEWPORT NEWS,VA,23602,
4921.0,GLENDALE RD,GALAX,VA,24333,
36892.0,PLUM CREEK RD,GLADE SPRING,VA,24340,
9.0,WHIPPOORWILL LN,BASSETT,VA,24055,
2371.0,UNION HALL SCHOOL RD,CHATHAM,VA,24531,
18077.0,LEE HWY,AMISSVILLE,VA,20106,
109.0,W EDMONDSON ST,CULPEPER,VA,22701,
2248.0,VALE AVE NE,ROANOKE,VA,24012,
1910.0,ROCK POINT DR,POWHATAN,VA,23139,
2049.0,RENAN RD,GRETNA,VA,24557,
1418.0,STONE RIVER RD,RICHMOND,VA,23235,
5149.0,OVERLAND DR,ROANOKE,VA,24018,
6016.0,OLD MANOR CT,ROANOKE,VA,24019,
635.0,N WASHINGTON HW,ASHLAND,VA,23005,
16.0,KIMBERLY AVE,DANVILLE,VA,24541,
16143.0,ROYALTON RD,AMELIA COURT HOUSE,VA,23002,
2021.0,HOOVER LN,ALEXANDRIA,VA,22308,
2081.0,HIGHWAY SIXTEEN,MARION,VA,24354,
713.0,CONSTANTINE CT,WARRENTON,VA,20186,
2509.0,LAUREL GROVE RD,WINCHESTER,VA,22602,
3538.0,MARTHA CUSTIS DR,ALEXANDRIA,VA,22302,
1518.0,CENTRE AVE,PORTSMOUTH,VA,23704,
11006.0,KOMAN CIR,MANASSAS,VA,20109,
14579.0,DRY BREAD RD,EMPORIA,VA,23847,
1010.0,CEDAR HILLS DR,LYNCHBURG,VA,24503,
1301.0,PARK AVE,LYNCHBURG,VA,24501,
57.0,LAUREL WAY,WEEMS,VA,22576,
4408.0,ISLAND PL,ANNANDALE,VA,22003,
3627.0,COOK AVE NE,ROANOKE,VA,24012,
1340.0,SOLOMAN RD,VINTON,VA,24179,
1093.0,TOWNE CREEK RD,FERRUM,VA,24088,
12255.0,GRANADA WAY,WOODBRIDGE,VA,22192,
14732.0,WINTERFIELD CT,CENTREVILLE,VA,20120,
3829.0,W* HUNDRED RD,CHESTER,VA,23831,
13737.0,MAPLEDALE AVE,WOODBRIDGE,VA,22193,
4625.0,SLIPPERY ROCK LN,COLUMBIA,VA,23038,
128.0,MILLER LANE,CUMBERLAND,VA,23040,
122.0,RIVERSIDE DR,GALAX,VA,24333,
7976.0,COMMUNITY DR,MANASSAS,VA,20109,
13710.0,MAPLE SUGAR LN,HERNDON,VA,20171,
2536.0,INGLEWOOD RD SW,ROANOKE,VA,24015,
12259.0,CHARLES LACEY DR,MANASSAS,VA,20112,
1104.0,FLAT ROCK RD,ALBERTA,VA,23821,
18096.0,PHILLIPS RD,BRISTOL,VA,24202,
6602.0,CHARLES GREEN SQ,ALEXANDRIA,VA,22315,
5528.0,CURTIS BREATHWAITE LN,VIRGINIA BEACH,VA,23462,
1210.0,TRANQUILITY VIA NW,CHRISTIANSBURG,VA,24073,
208.0,BEDFORD RD,WAYNESBORO,VA,22980,
7567.0,DUNCAN GAP RD,WISE,VA,24293,
2219.0,ACADEMY RD,POWHATAN,VA,23139,
23459.0,LONGOLLEN WOODS TER,ASHBURN,VA,20148,
12820.0,BRENTTOWN CT,NOKESVILLE,VA,20181,
623.0,POWHATAN ST,GLASGOW,VA,24555,
670.0,AQUA VISTA DR,NEWPORT NEWS,VA,23607,
809.0,N HENRY ST,ALEXANDRIA,VA,22314,
9118.0,PRINCE JAMES TURN,CHESTERFIELD,VA,23832,
7881.0,BLUE GRAY CIR,MANASSAS,VA,20109,
829.0,MONTEBELLO CIR,CHESAPEAKE,VA,23322,
2716.0,TERRY DR,GLEN ALLEN,VA,23060,
1513.0,VILLAGE FIELD DR,HENRICO,VA,23231,
9814.0,SHEADS CT,BURKE,VA,22015,
15067.0,JARRELL PL,WOODBRIDGE,VA,22193,
219.0,LAKEVIEW DR,NEWPORT NEWS,VA,23602,
13026.0,HARVEST PL,CLIFTON,VA,20124,
224.0,FAIRWOOD DR,RICHMOND,VA,23235,
17632.0,OVERLOOK RD,DUMFRIES,VA,22026,
4175.0,WILLIAM STYRON SQ,NEWPORT NEWS,VA,23606,
2040.0,CHESTNUT GROVE RD,WINCHESTER,VA,22603,
2821.0,TROTTERS LN,MIDLOTHIAN,VA,23113,
791.0,WAGON TRAIL RD,RIDGEWAY,VA,24148,
10823.0,GAMBRIL DR,MANASSAS,VA,20109,
1060.0,RIDGEWAY DR,CHRISTIANSBURG,VA,24073,
113.0,ELLIOTT RD,YORKTOWN,VA,23693,
232.0,BIRCHSIDE CIR,LOCUST GROVE,VA,22508,
6013.0,BEVERLEYS MILL RD,BROAD RUN,VA,20137,
303.0,BROWNS LN,YORKTOWN,VA,23690,
45007.0,GRADUATE TER,ASHBURN,VA,20147,
1100.0,SEABRIGHT CT,VIRGINIA BEACH,VA,23454,
10004.0,SCOTTS RIDGE CT,GLEN ALLEN,VA,23059,
14.0,HODGES DR,HAMPTON,VA,23666,
139.0,COLLEGE ST,CLARKSVILLE,VA,23927,
104.0,ELMWOOD LN,WILLIAMSBURG,VA,23188,
4608.0,RACRETE RD,RICHMOND,VA,23230,
597.0,CHOPTANK LN,NEWPORT NEWS,VA,23602,
7800.0,CARSLEY CT,LORTON,VA,22079,
1621.0,LEE HWY,PULASKI,VA,24301,
14517.0,PICCOLO LN,WOODBRIDGE,VA,22191,
29.0,MADISON CHSE,HAMPTON,VA,23666,
2001.0,MUD PIKE,CHRISTIANSBURG,VA,24073,
2259.0,OLD TAVERN RD,POWHATAN,VA,23139,
10495.0,SPOTSWOOD TRL,RUCKERSVILLE,VA,22968,
13579.0,RYTON RIDGE LN,GAINESVILLE,VA,20155,
2331.0,NEW POINT COMFORT HWY,MATHEWS,VA,23109,
7122.0,LACKAWANNA DR,SPRINGFIELD,VA,22150,
6437.0,VALE ST,ALEXANDRIA,VA,22312,
304.0,COVEY RD,AMHERST,VA,24521,
32.0,DIGGS LN,STUARTS DRAFT,VA,24477,
8925.0,JUNE ST,MANASSAS,VA,20111,
2728.0,CEMETERY RD,GLEN ALLEN,VA,23060,
2814.0,BENDING OAK DR,HAMPTON,VA,23666,
4718.0,NAIRN LN,CHESTER,VA,23831,
1500.0,CARLTON AVE,CHARLOTTESVILLE,VA,22902,
205.0,LANCASTER GATE LN,MIDLOTHIAN,VA,23113,
10523.0,RIVES AVE,MC KENNEY,VA,23872,
4031.0,FRANCIS LEE DR,VIRGINIA BEACH,VA,23452,
327.0,SMOKETREE LN,LYNCHBURG,VA,24502,
16483.0,HILLSBORO RD,PURCELLVILLE,VA,20132,
1603.0,N 27TH ST,RICHMOND,VA,23223,
1416.0,GRAY FOX RD,MANAKIN SABOT,VA,23103,
109.0,TABB LN,YORKTOWN,VA,23693,
12146.0,CAPTIVA CT,RESTON,VA,20191,
5134.0,POWELL VALLEY RD,BIG STONE GAP,VA,24219,
300.0,ALBEMARLE SQ,CHARLOTTESVILLE,VA,22901,
12750.0,NETTLES DR,NEWPORT NEWS,VA,23606,
610.0,ELEVENTH ST,RADFORD,VA,24141,
8759.0,VILLAGE GREEN CT,ALEXANDRIA,VA,22309,
453.0,HICKS AVE,NORFOLK,VA,23502,
604.0,BOULEVARD,COLONIAL HEIGHTS,VA,23834,
4413.0,STANBROOK DR,RICHMOND,VA,23234,
24671.0,NETTLE MILL SQ,ALDIE,VA,20105,
620.0,PLUM ST,PETERSBURG,VA,23803,
26021.0,BRAIDED MANE TER,ALDIE,VA,20105,
3920.0,BIG BETHEL RD,YORKTOWN,VA,23693,
7305.0,FATHOM CT,BURKE,VA,22015,
754.0,LANCER DR,PORTSMOUTH,VA,23701,
893.0,KING WILLIAM DR,CHARLOTTESVILLE,VA,22901,
863.0,LIBERTY WAY,CHESTER,VA,23836,
920.0,EARLY ST,LYNCHBURG,VA,24503,
5604.0,TURNERS CREEK RD,FERRUM,VA,24088,
16.0,W BROOKLAND PARK BLVD,RICHMOND,VA,23222,
1220.0,IVYSTONE WAY,CHESAPEAKE,VA,23320,
208.0,GLOVER ST,FREDERICKSBURG,VA,22401,
2091.0,ROANOKE ST,CHRISTIANSBURG,VA,24073,
5812.0,DAWES AVE,ALEXANDRIA,VA,22311,
1400.0,LOCKSDALE CT,CHESAPEAKE,VA,23322,
404.0,E MONROE AVE,ALEXANDRIA,VA,22301,
3212.0,SCARBOROUGH WAY,VIRGINIA BEACH,VA,23453,
19341.0,CROSS KEYS RD,BOYKINS,VA,23827,
551.0,HICO DR,MADISON HEIGHTS,VA,24572,
4428.0,PHEASANT RIDGE RD SW,ROANOKE,VA,24014,
1025.0,ENTERPRISE CT,VIRGINIA BEACH,VA,23454,
1359.0,40TH ST,NORFOLK,VA,23508,
4004.0,MCTYRES COVE TER,MIDLOTHIAN,VA,23112,
10387.0,RAPIDAN LN,MANASSAS,VA,20109,
8124.0,JOLIMA AVE,NORFOLK,VA,23518,
21386.0,POTOMAC VIEW RD,STERLING,VA,20164,
440.0,WHARTON CIR,WINCHESTER,VA,22601,
1520.0,EAGLETON LN,VIRGINIA BEACH,VA,23455,
1812.0,CASCADE CT,VIRGINIA BEACH,VA,23453,
192.0,NEWTOWN RD,VIRGINIA BEACH,VA,23462,
624.0,FAIRLAND AVE,HAMPTON,VA,23661,
3758.0,SOUTHWAY DR SW,ROANOKE,VA,24014,
5866.0,BLAINE DR,ALEXANDRIA,VA,22303,
88.0,RAINWATER LN,FREDERICKSBURG,VA,22406,
7405.0,FALMOUTH ST,SPRINGFIELD,VA,22150,
12696.0,AUTUMN CREST DR,HERNDON,VA,20171,
5224.0,LINDSAY ST,FAIRFAX,VA,22032,
3902.0,MCTYRES COVE CT,MIDLOTHIAN,VA,23112,
846.0,MAIN ST,REEDVILLE,VA,22539,
4900.0,TERRET CT,VIRGINIA BEACH,VA,23464,
13211.0,PARSON LN,FAIRFAX,VA,22033,
1984.0,NORTHGATE COMMERCE PKWY,SUFFOLK,VA,23435,
225.0,FINDERS WAY,CHARLOTTESVILLE,VA,22901,
2617.0,BENEFIT RD,CHESAPEAKE,VA,23322,
3531.0,WOLFTOWN-HOOD RD,MADISON,VA,22727,
7030.0,ELLINGHAM CIR,ALEXANDRIA,VA,22315,
9353.0,WILDERNESS RD,BLAND,VA,24315,
415.0,QUEENS ROW ST,HERNDON,VA,20170,
120.0,SUN BEAU CT,NEW MARKET,VA,22844,
1329.0,22ND ST,NEWPORT NEWS,VA,23607,
41940.0,CINNABAR SQ,ALDIE,VA,20105,
11101.0,HULL STREET RD,MIDLOTHIAN,VA,23112,
125.0,COUCH LN,CASTLEWOOD,VA,24224,
718.0,JEFFERSON ST,DANVILLE,VA,24541,
12087.0,TANGO LN,WOODBRIDGE,VA,22193,
2216.0,BUCKINGHAM GRN,NEWPORT NEWS,VA,23602,
326.0,VINE ST,HARRISONBURG,VA,22802,
1325.0,PAULEY-FLATWOOD RD,AUSTINVILLE,VA,24312,
4001.0,DAM NECK RD,VIRGINIA BEACH,VA,23456,
722.0,FORBES ST,NORFOLK,VA,23504,
82.0,STARLING CT,HENRICO,VA,23229,
4700.0,GOODVIEW RD,GOODVIEW,VA,24095,
3725.0,TEMPLETON PL,ALEXANDRIA,VA,22304,
7283.0,HILLARY ST,ALEXANDRIA,VA,22315,
233.0,ARNETT BLVD,DANVILLE,VA,24540,
6099.0,COMMUNITY DR,CHINCOTEAGUE ISLAND,VA,23336,
206.0,SPRING DR,COLLINSVILLE,VA,24078,
3656.0,SANDPIPER RD,VIRGINIA BEACH,VA,23456,
2235.0,WALNUT HOLLOW RD,LYNCHBURG,VA,24503,
4351.0,WILSON VALLEY DR,FAIRFAX,VA,22033,
1675.0,CUBBAGE HOLLOW RD,STANLEY,VA,22851,
2812.0,OLD LEE HWY,VIENNA,VA,22180,
500.0,JEFFERSON ST,WINCHESTER,VA,22601,
220.0,THRASHER RD,CHESAPEAKE,VA,23320,
6001.0,POTOMAC DR,KING GEORGE,VA,22485,
120.0,BOWMAN AVE,WOODSTOCK,VA,22664,
6231.0,ROCKY FORD LN,RUTHER GLEN,VA,22546,
2374.0,SHEPHERDS MILL RD,BERRYVILLE,VA,22611,
13401.0,YARDLEY LN,WOODBRIDGE,VA,22191,
5614.0,TRAFALGAR ARCH,PORTSMOUTH,VA,23703,
1601.0,WHITE MOUNTAIN DR,CHESTER,VA,23836,
867.0,BOBS HOLE RD,TOPPING,VA,23169,
6101.0,DORCHESTER ST,SPRINGFIELD,VA,22150,
9902.0,BOTSFORD RD,MANASSAS,VA,20109,
204.0,TURNER ST NE,BLACKSBURG,VA,24060,
400.0,PLEASANT VIEW LN,BRUINGTON,VA,23023,
2421.0,MOOREFIELD BRIDGE RD,DANVILLE,VA,24541,
2525.0,ATLANTIC AVE,VIRGINIA BEACH,VA,23451,
2712.0,ALEXANDER AVE,RICHMOND,VA,23234,
324.0,VIRGINIA LEE BLVD,BLACKSTONE,VA,23824,
193.0,DREWS LN,CEDAR BLUFF,VA,24609,
2013.0,N ARMISTEAD AVE,HAMPTON,VA,23666,
15848.0,BRADFORD RD,CULPEPER,VA,22701,
1417.0,KEY DR,ALEXANDRIA,VA,22302,
639.0,N TAZEWELL ST,ARLINGTON,VA,22203,
10911.0,COMERS ROCK RD,TROUTDALE,VA,24378,
6419.0,LITTLE POTTERS LN,ALEXANDRIA,VA,22310,
802.0,DUNWOOD CT,CHESAPEAKE,VA,23322,
6046.0,PLEASANT VALLEY RD,LYNCHBURG,VA,24504,
1109.0,AUBUCHON RD,RICHMOND,VA,23223,
7147.0,PENNYS TOWN CT,ANNANDALE,VA,22003,
1205.0,N VAN DORN ST,ALEXANDRIA,VA,22304,
3043.0,FEDERAL HILL DR,FALLS CHURCH,VA,22044,
1527.0,MELON ST,NORFOLK,VA,23523,
2920.0,BLITHE DR,CHESTER,VA,23831,
3636.0,MILBURY RUN ST,HENRICO,VA,23233,
450.0,DUNLIN CT,MIDLOTHIAN,VA,23114,
640.0,CEDAR LEVEL RD,HOPEWELL,VA,23860,
417.0,KILMARNOCK DR,HENRICO,VA,23229,
115.0,W THOMAS ST,DANVILLE,VA,24540,
9736.0,PEPPERTREE RD,SPOTSYLVANIA,VA,22553,
420.0,APPOMATTOX ST,NORFOLK,VA,23523,
2776.0,LITTLE CREEK RD,DUBLIN,VA,24084,
3289.0,CRANBERRY RD,WOODLAWN,VA,24381,
703.0,TOWNSIDE RD SW,ROANOKE,VA,24014,
2603.0,S WALTER REED DR,ARLINGTON,VA,22206,
112.0,CHURCH ST,RIDGEWAY,VA,24148,
5710.0,UNION MILL RD,CLIFTON,VA,20124,
161.0,TERRACE RD,PENNINGTON GAP,VA,24277,
13909.0,PREACHER CHAPMAN PL,CENTREVILLE,VA,20121,
3182.0,PEAKS RD,BEDFORD,VA,24523,
1717.0,LANCING DR,SALEM,VA,24153,
7603.0,SOUTH VALLEY DR,FAIRFAX STATION,VA,22039,
500.0,JUDAH WAY,CHESAPEAKE,VA,23320,
214.0,PINEHURST DR,SMITHFIELD,VA,23430,
1219.0,WEST LAKE RD,SPOUT SPRING,VA,24593,
7205.0,GRAY HEIGHTS CT,ALEXANDRIA,VA,22315,
