NUMBER,STREET,CITY,STATE,POSTCODE,UNIT
3.0,3RD AV N E OF,MABTON,WA,98935,
4209.0,W WALNUT AVE,YAKIMA,WA,98908,
1805.0,RHODODENDRON DR,WOODLAND,WA,98674,
1942.0,1ST AVE,LONGVIEW,WA,98632,
419.0,CARLON LOOP RD,LONGVIEW,WA,98632,
3145.0,E 32nd Ave,Spokane,WA,99223,
5642.0,ARIEL CT,Bellingham,WA,98248,
9917.0,SE 18TH CIR,VANCOUVER,WA,98664,
13.0,Central St,Brewster,WA,98812,
1304.0,N Columbus St,Spokane,WA,99202,
12801.0,NE 189TH ST,BOTHELL,WA,98011,
1501.0,NE 99TH ST,VANCOUVER,WA,98665,
609.0,W TWELFTH ST,PORT ANGELES,WA,98362,
227.0,E Cleveland Ave,Spokane,WA,99207,
131.0,WASHINGTON ST,HARRAH,WA,98933,
200.0,CHARVET RD, ,WA, ,
604.0,S 7TH AVE,YAKIMA,WA,98902,
391.0,KING RD,KELSO,WA,98626,
2381.0,WESLEY RD,WHITE SWAN,WA,98952,
2800.0,NE 174TH AVE,VANCOUVER,WA,98682,
4753.0,GREEN MOUNTAIN RD,KALAMA,WA,98625,
3404.0,S Lincoln Dr,Spokane,WA,99203,
6615.0,NE 56TH WAY,VANCOUVER,WA,98661,
4514.0,NE 103RD ST,VANCOUVER,WA,98686,
1216.0,COLUMBIA AVE,SUNNYSIDE,WA,98944,
1707.0,E LaCrosse Ave,Spokane,WA,99207,
15707.0,SE 34TH CIR,VANCOUVER,WA,98683,
,GRAND RIDGE WY,PORT ANGELES,WA,98362,
23614.0,22ND DR SE,BOTHELL,WA,98021,
2606.0,NE 92ND AVE,VANCOUVER,WA,98662,
36753.0,NE 212TH AVE,YACOLT,WA,98675,
1700.0,NORRIS RD,VANCOUVER,WA,98661,
12104.0,NW 7TH AVE,VANCOUVER,WA,98685,
533.0,VISTA DEL MAR DR,SEQUIM,WA,98382,
73.0,ROMAN RD,PORT ANGELES,WA,98362,
10800.0,SE 17TH CIR,VANCOUVER,WA,98664,
1609.0,S 26TH AVE,YAKIMA,WA,98902,
531.0,E FOURTH,PORT ANGELES,WA,98362,
334.0,GRANT RD,SEQUIM,WA,98382,
6403.0,NE 32ND ST,VANCOUVER,WA,98661,
5209.0,S Madelia St,Spokane,WA,99223,
8719.0,N Hill N Dale St,Spokane,WA,99218,
1017.0,W Frederick Ave,Spokane,WA,99205,
3921.0,DIAMOND PT RD,SEQUIM,WA,98382,
16019.0,NE 35TH ST,VANCOUVER,WA,98682,
372.0,RIVER RD,SEQUIM,WA,98382,
16600.0,NE 65TH CIR,VANCOUVER,WA,98682,
402.0,NW 5TH AVE,KELSO,WA,98626,
1600.0,E ILLINOIS ST,Bellingham,WA,98226,
1411.0,ROOSEVELT AVE,YAKIMA,WA,98902,
3622.0,E 23rd Ave,Spokane,WA,99223,
3132.0,NW 3RD AVE,CAMAS,WA,98607,
323.0,COWLITZ DR,KELSO,WA,98626,
10203.0,NE 75TH ST,VANCOUVER,WA,98662,
1515.0,S F ST,PORT ANGELES,WA,98363,
200.0,OAK POINT RD,LONGVIEW,WA,98632,
13.0,CURTIS LN,LONGVIEW,WA,98632,
4244.0,OCEAN BEACH HWY,LONGVIEW,WA,98632,104.0
2404.0,MERIDIAN ST,Bellingham,WA,98225,
800.0,N Hamilton St,Spokane,WA,99202,
7300.0,NE 16TH AVE,VANCOUVER,WA,98665,
2312.0,E Gordon Ave,Spokane,WA,99207,
7800.0,NE 103RD AVE,VANCOUVER,WA,98662,
21812.0,NE 91ST CIR,VANCOUVER,WA,98682,
525.0,N ELM ST,TOPPENISH,WA,98948,
,S SECOND AVE,SEQUIM,WA,98382,
0.0,UN-ASSIGNED, ,WA, ,
4538.0,FREMONT ST,Bellingham,WA,98229,
42.0,BOLSTER WY,SEQUIM,WA,98382,
2404.0,BOISE ST,Richland,WA,99352,
706.0,N 5TH ST,GRANDVIEW,WA,98930,
12513.0,NE 76TH ST,VANCOUVER,WA,98682,
4618.0,NE 93RD ST,VANCOUVER,WA,98665,
3611.0,SE 177TH AVE,VANCOUVER,WA,98683,
3483.0,NOAHS WAY,Bellingham,WA,98226,
10210.0,N Moore St,Spokane,WA,99208,
6008.0,W LINCOLN AVE,YAKIMA,WA,98908,
2521.0,PARK ST,Bellingham,WA,98225,
4125.0,N Maple St,Spokane,WA,99205,
319.0,NE 123RD AVE,VANCOUVER,WA,98684,
1933.0,E Dalke Ave,Spokane,WA,99208,
6912.0,NE 131ST AVE,VANCOUVER,WA,98682,
3108.0,W Trinity Pl,Spokane,WA,99224,
6411.0,N Altamont St,Spokane,WA,99217,
203.0,E Queen Ave,Spokane,WA,99207,
812.0,EDSON ST,Bellingham,WA,98264,
3707.0,E Fairview Ave,Spokane,WA,99217,
182.0,HAWKS WY,SEQUIM,WA,98382,
1903.0,WILLIAMS BLVD,Richland,WA,99354,
530.0,FRANKLIN AVE,SUNNYSIDE,WA,98944,
273.0,N SHEPHERD RD,WASHOUGAL,WA,98671,
3201.0,P ST,VANCOUVER,WA,98663,
415.0,E Wellesley Ave,Spokane,WA,99207,
805.0,TERRACE HEIGHTS DR, ,WA, ,
778.0,SE FAIRWINDS LOOP,VANCOUVER,WA,98661,
5600.0,KLOOCHMAN WAY, ,WA, ,
6303.0,NE 84TH PL,VANCOUVER,WA,98662,
2607.0,NE WHITMAN AVE,VANCOUVER,WA,98662,
4020.0,W Custer Dr,Spokane,WA,99224,
2513.0,DUPORTAIL ST,Richland,WA,99352,
21824.0,33RD DR SE,BOTHELL,WA,98021,
250.0,GRABER RD, ,WA, ,
5800.0,Rock Island Rd,Rock Island,WA,98850,
11605.0,NE 128TH PL,VANCOUVER,WA,98682,
905.0,E Wellesley Ave,Spokane,WA,99207,
15604.0,NE 90TH ST,VANCOUVER,WA,98682,
1294.0,E 18TH ST,LA CENTER,WA,98629,
517.0,SPRING VISTA PL,Bellingham,WA,98226,
103.0,FLORENCE ST,KELSO,WA,98626,
305.0,E ALEXANDER ST,YACOLT,WA,98675,
1024.0,COUNTRY CT,Richland,WA,99352,
11607.0,GILBERT ROAD, ,WA, ,
425.0,W 7TH ST,LA CENTER,WA,98629,
5023.0,N Post St,Spokane,WA,99205,
2585.0,W 10TH ST,WASHOUGAL,WA,98671,
1414.0,POTTER AVE,Richland,WA,99354,
147.0,EMERALD DR,SEQUIM,WA,98382,
178.0,SELL LN,Richland,WA,99352,
11330.0,E RIVERSIDE DR,BOTHELL,WA,98011,43.0
282.0,19TH AVE,LONGVIEW,WA,98632,
8627.0,NW GREENBRIAR DR,VANCOUVER,WA,98665,
4502.0,N Calispel St,Spokane,WA,99205,
234.0,FOREST LN,Bellingham,WA,98225,
2600.0,Fancher Lndg,East Wenatchee,WA,98802,
222.0,MIDDLEFIELD RD,Bellingham,WA,98225,
1149.0,OLYMPUS AVE,PORT ANGELES,WA,98362,
806.0,E SIXTH ST,PORT ANGELES,WA,98362,
,HWY 101,PORT ANGELES,WA,98363,
12810.0,NE 117TH CIR,VANCOUVER,WA,98682,
1980.0,N MAHONIA PL,Bellingham,WA,98229,
744.0,NW VALLEY ST,CAMAS,WA,98607,
735.0,238TH ST SE,BOTHELL,WA,98021,
109.0,PENINSULA DR,KELSO,WA,98626,
1937.0,LAKE CREST DR,Bellingham,WA,98229,
3306.0,W Excell Ave,Spokane,WA,99208,
9904.0,NE 28TH PL,VANCOUVER,WA,98686,
1514.0,E Rockwood Blvd,Spokane,WA,99203,
911.0,COLUMBIA RIDGE DR,VANCOUVER,WA,98664,
10903.0,SE EVERGREEN HWY,VANCOUVER,WA,98664,
1316.0,N Madelia St,Spokane,WA,99202,
921.0,E CEDAR ST,SEQUIM,WA,98382,
24320.0,3RD PL W,BOTHELL,WA,98021,
2069.0,W SEQUIM BAY RD,SEQUIM,WA,98382,
6408.0,TIETON DR,YAKIMA,WA,98908,
0.0,UN-ASSIGNED, ,WA, ,
3250.0,NORTHWEST AVE,Bellingham,WA,98225,
866.0,SCHAFFRAN RD,CASTLE ROCK,WA,98611,
5351.0,N Fairmount Pl,Spokane,WA,99205,
2204.0,NE 102ND AVE,VANCOUVER,WA,98664,
411.0,PLEASANT VLY RD,YAKIMA,WA,98908,
13193.0,HWY 112,SEKIU,WA,98381,
2185.0,3rd St NE,East Wenatchee,WA,98802,
706.0,BURCHAM ST,KELSO,WA,98626,
21816.0,32ND AVE SE,BOTHELL,WA,98021,
3309.0,NE 148TH AVE,VANCOUVER,WA,98682,
7714.0,NE 147TH AVE,VANCOUVER,WA,98682,
1412.0,STEVENS DR,Richland,WA,99354,
1800.0,Sunset Hwy,East Wenatchee,WA,98802,
6101.0,103rd Dr SE,Snohomish,WA,98290,
,SALMON DR,FORKS,WA,98331,
10516.0,NE 68TH AVE,VANCOUVER,WA,98686,
9433.0,NE 146TH CIR,BOTHELL,WA,98011,103.0
17413.0,SE 17TH WAY,VANCOUVER,WA,98683,
3605.0,LUMMI SHORE DR,Bellingham,WA,98226,
15704.0,SE MEADOW PARK CIR,VANCOUVER,WA,98683,
10405.0,NE 86TH AVE,VANCOUVER,WA,98662,
0.0,UN-ASSIGNED, ,WA, ,
5328.0,N Walnut St,Spokane,WA,99205,
15013.0,NE COLUMBINE DR,VANCOUVER,WA,98682,
426.0,W Euclid Ave,Spokane,WA,99205,
6216.0,NE 40TH ST,VANCOUVER,WA,98661,
29.0,SHERBURNE RD,SEQUIM,WA,98382,
1510.0,NW 16TH AVE,BATTLE GROUND,WA,98604,
0.0,LAKEVIEW RD,SELAH,WA,98942,
0.0,BUMPING LAKE ROAD, ,WA, ,
918.0,E Garland Ave,Spokane,WA,99207,
3710.0,N Washington St,Spokane,WA,99205,
502.0,E JONES ST,YACOLT,WA,98675,
321.0,SE 14TH ST,BATTLE GROUND,WA,98604,
4020.0,W Princeton Ave,Spokane,WA,99205,
120.0,ROLEY CT,KELSO,WA,98626,
220.0,29TH AVE,LONGVIEW,WA,98632,
23717.0,NE ELKHORN DR,BRUSH PRAIRIE,WA,98606,
10510.0,NE 22ND ST,VANCOUVER,WA,98664,
3649.0,LUMMI SHORE DR,Bellingham,WA,98226,
418.0,CHESTNUT ST,TOPPENISH,WA,98948,
2581.0,OLD INLAND EMPIRE HWY,GRANDVIEW,WA,98930,
1428.0,W 9th Ave,Spokane,WA,99204,
502.0,WRIGHT AVE,Richland,WA,99352,
5837.0,CHURCH RD,Bellingham,WA,98248,
0.0,MAYHEW/WHEELER,SUNNYSIDE,WA,98944,
3709.0,NE 158TH CT,VANCOUVER,WA,98682,
208.0,S 49TH ST,YAKIMA,WA,98901,
5604.0,NE 111TH ST,VANCOUVER,WA,98686,
2688.0,NW NORWOOD ST,CAMAS,WA,98607,
0.0,ELLIOT RD,COWICHE,WA,98923,
21528.0,16TH DR SE,BOTHELL,WA,98021,101.0
11801.0,NE 189TH ST,BATTLE GROUND,WA,98604,
1107.0,WASHINGTON AVE,TOPPENISH,WA,98948,
10304.0,NE 4TH ST,VANCOUVER,WA,98664,
1030.0,C ST,Bellingham,WA,98225,
1890.0,BRADEN RD,GRANDVIEW,WA,98930,
10720.0,NE 16TH ST,VANCOUVER,WA,98664,
5618.0,NE 99TH ST,VANCOUVER,WA,98665,
1904.0,JADWIN AVE,Richland,WA,99354,
1336.0,THAYER DR,Richland,WA,99354,
314.0,S 9TH AVE,YAKIMA,WA,98902,
1136.0,W SMITH RD,Bellingham,WA,98226,
27716.0,NE 132ND AVE,BATTLE GROUND,WA,98604,
3567.0,CEDAR CT,WASHOUGAL,WA,98671,
1803.0,NE 70TH ST,VANCOUVER,WA,98665,
4105.0,BERMUDA RD,Richland,WA,99338,
410.0,EUCLID AVE,GRANDVIEW,WA,98930,
3411.0,F ST,VANCOUVER,WA,98663,
114.0,S J ST,TOPPENISH,WA,98948,
716.0,COAST ST,Richland,WA,99354,
3003.0,NE 157TH ST,VANCOUVER,WA,98686,
2416.0,211TH ST SE,BOTHELL,WA,98021,
4008.0,GIBBONS ST,VANCOUVER,WA,98661,
15209.0,NE 35TH CIR,VANCOUVER,WA,98682,
140.0,TRAVIS LN,Richland,WA,99338,
1280.0,GARDEN CIR,Bellingham,WA,98264,
605.0,NW 24TH ST,BATTLE GROUND,WA,98604,
,SWALLOW HILL RD,SEQUIM,WA,98382,
325.0,234TH PL SW,BOTHELL,WA,98021,
3814.0,NE 53RD CIR,VANCOUVER,WA,98661,
101.0,BAKER FARM RD,PORT ANGELES,WA,98362,
123.0,E Sanson Ave,Spokane,WA,99207,
1106.0,MCMURRAY ST,Richland,WA,99354,
1612.0,NE 129TH AVE,VANCOUVER,WA,98684,
3221.0,E 43rd Ave,Spokane,WA,99223,
701.0,COLUMBIA ST,VANCOUVER,WA,98660,
2112.0,NE 236TH ST,RIDGEFIELD,WA,98642,
402.0,N Chelan Ave,Waterville,WA,98858,
11413.0,NE 29TH CIR,VANCOUVER,WA,98682,
1419.0,MAHAN AVE,Richland,WA,99354,
1323.0,S 11TH AVE,YAKIMA,WA,98902,
1925.0,W Northwest Blvd,Spokane,WA,99205,
18608.0,NE 213TH AVE,BRUSH PRAIRIE,WA,98606,
1427.0,DUPORTAIL ST,Richland,WA,99352,
1022.0,W ELEVENTH ST,PORT ANGELES,WA,98363,
2441.0,HARRIS AVE,Richland,WA,99354,
808.0,N Iowa Ave,East Wenatchee,WA,98802,
11815.0,SE MILL PLAIN BLVD,VANCOUVER,WA,98684,
200.0,BIG SKY RD,WOODLAND,WA,98674,
15304.0,NE 18TH AVE,VANCOUVER,WA,98686,
1127.0,Grant Rd,East Wenatchee,WA,98802,
2905.0,SE 161ST AVE,VANCOUVER,WA,98683,
2825.0,JAMES ST,Bellingham,WA,98225,
20606.0,32ND DR SE,BOTHELL,WA,98012,
804.0,W FOURTEENTH ST,PORT ANGELES,WA,98363,
2304.0,SW 9TH CIR,BATTLE GROUND,WA,98604,
91.0,RIVER RD,SEQUIM,WA,98382,
1930.0,MAHAN AVE,Richland,WA,99354,
1525.0,E 19th Ave,Spokane,WA,99203,
3024.0,NW PARKER ST,CAMAS,WA,98607,
735.0,11th St NE,East Wenatchee,WA,98802,
1646.0,JADWIN AVE,Richland,WA,99354,
8613.0,NE 14TH AVE,VANCOUVER,WA,98665,
18513.0,89TH AVE NE,BOTHELL,WA,98011,
10804.0,NE 104TH CIR,VANCOUVER,WA,98662,
691.0,LONETREE LN,Richland,WA,99352,
361.0,BERNDT BLUFF RD,YAKIMA,WA,98908,
2229.0,HARRIS AVE,Richland,WA,99354,
127.0,RIDGECREST LN,LONGVIEW,WA,98632,
3509.0,SE 198TH AVE,CAMAS,WA,98607,
2906.0,S 35TH AVE,YAKIMA,WA,98903,
4612.0,GLENMOOR CIR,YAKIMA,WA,98908,
7304.0,AVALANCHE CT,YAKIMA,WA,98908,
701.0,Rd 8 NW,Waterville,WA,98858,
1435.0,DIVISION ST,CAMAS,WA,98607,
322.0,N WHITE SWAN RD,HARRAH,WA,98933,
2101.0,E Thurston Ave,Spokane,WA,99203,
123.0,2ND ST,Bellingham,WA,98295,
14521.0,111TH AVE NE,KIRKLAND,WA,98034,
620.0,TIBBLING RD,SELAH,WA,98942,
2809.0,E Central Ave,Spokane,WA,99208,
149.0,RUBY PL,KELSO,WA,98626,
0.0,YAKIMA TRAINING CENTER,YAKIMA,WA,98901,
2205.0,S 10TH AVE,UNION GAP,WA,98903,
1507.0,S 5TH AVE,YAKIMA,WA,98902,
525.0,TOMLINSON RD,SUNNYSIDE,WA,98944,
3900.0,NICHOLSON RD,VANCOUVER,WA,98661,
1830.0,RYLEE DR,Richland,WA,99352,
808.0,COLUMBIA RIDGE DR,VANCOUVER,WA,98664,
2112.0,NE 91ST ST,VANCOUVER,WA,98665,
2916.0,W Francis Ave,Spokane,WA,99205,
511.0,QUEEN ANNE BLVD,YAKIMA,WA,98902,
222.0,MERRICK AVE,SUNNYSIDE,WA,98944,
3700.0,SE 165TH AVE,VANCOUVER,WA,98683,
1440.0,PEACE PORTAL DR,Bellingham,WA,98230,
3791.0,GREENVILLE ST,Bellingham,WA,98226,
13204.0,NE 21ST ST,VANCOUVER,WA,98684,
8903.0,NE 28TH AVE,VANCOUVER,WA,98665,
234.0,23RD AVE,LONGVIEW,WA,98632,
5023.0,N Martin St,Spokane,WA,99207,
6317.0,NW 196TH ST,RIDGEFIELD,WA,98642,
19.0,Willwood Dr,East Wenatchee,WA,98802,
40.0,E Glass Ave,Spokane,WA,99207,
305.0,CONCORD ST,ZILLAH,WA,98953,
1118.0,W Cleveland Ave,Spokane,WA,99205,
2801.0,APPALOOSA WAY,Richland,WA,99352,
7206.0,W CHESTNUT AVE,YAKIMA,WA,98908,
4000.0,NE 109TH AVE,VANCOUVER,WA,98682,
15200.0,COTTONWOOD CANYON RD,YAKIMA,WA,98908,
990.0,DEKKER RD, ,WA, ,
101.0,SHEETS RD,YAKIMA,WA,98901,
3317.0,CHANDLER PKWY,Bellingham,WA,98226,
1821.0,W Liberty Ave,Spokane,WA,99205,
623.0,SE 130TH CT,VANCOUVER,WA,98683,
20225.0,124TH AVE NE,BOTHELL,WA,98011,
15005.0,NE 21ST ST,VANCOUVER,WA,98684,
841.0,HAZEL DELL RD,CASTLE ROCK,WA,98611,
11004.0,NE 145TH ST,KIRKLAND,WA,98034,
821.0,E FIR ST,SEQUIM,WA,98382,
11106.0,NE 92ND CIR,VANCOUVER,WA,98662,
61.0,W LOMA VISTA RD,SEQUIM,WA,98382,
8505.0,GROVE AVE,YAKIMA,WA,98908,
217.0,N 78TH AVE,YAKIMA,WA,98908,
1427.0,MCPHERSON AVE,Richland,WA,99354,
5545.0,E EVERGREEN BLVD,VANCOUVER,WA,98661,
1304.0,E Carlisle Ave,Spokane,WA,99207,
7203.0,N Wiscomb Ct,Spokane,WA,99208,
1825.0,W Pacific Ave,Spokane,WA,99204,
1709.0,NE 78TH ST,VANCOUVER,WA,98665,
1505.0,E Gordon Ave,Spokane,WA,99207,
0.0,GRAY/GRANDVIEW PAVEMENT,GRANDVIEW,WA,98930,
3128.0,E Ermina Ave,Spokane,WA,99207,
506.0,PALMER CT,Bellingham,WA,98264,
2100.0,NE 159TH ST,RIDGEFIELD,WA,98642,
2604.0,E Foxwood Dr,Spokane,WA,99223,
2028.0,W 1st Ave,Spokane,WA,99204,
1112.0,TENNANT WAY,LONGVIEW,WA,98632,
1618.0,W Spofford Ave,Spokane,WA,99205,
141.0,W KINGSBURY RD,KELSO,WA,98626,
7.0,W 27th Ave,Spokane,WA,99203,
2108.0,NE 180TH PL,VANCOUVER,WA,98684,
212.0,N 21ST AVE,YAKIMA,WA,98902,
2907.0,N Dakota St,Spokane,WA,99207,
3660.0,W Rosamond Ave,Spokane,WA,99224,
455.0,J ST,WASHOUGAL,WA,98671,
747.0,Eastmont Ave,East Wenatchee,WA,98802,
750.0,SUN ACRES RD,ZILLAH,WA,98953,
2202.0,S 80TH AVE,YAKIMA,WA,98908,
7909.0,NW 1ST AVE,VANCOUVER,WA,98665,
773.0,SE RUSSELL ST,CAMAS,WA,98607,
2105.0,N Fancher Rd,Spokane,WA,99212,
2900.0,NW 113TH ST,VANCOUVER,WA,98685,
2108.0,W Sinto Ave,Spokane,WA,99201,
171.0,CHILDERS LN,SEQUIM,WA,98382,
4706.0,RICHEY RD,YAKIMA,WA,98908,
213.0,Taylor St,Snohomish,WA,98290,
17312.0,SE 25TH WAY,VANCOUVER,WA,98683,
905.0,S 4TH AVE,YAKIMA,WA,98902,
616.0,S 13TH AVE,YAKIMA,WA,98902,
95.0,Eastmont Ave,East Wenatchee,WA,98802,
0.0,UN-ASSIGNED, ,WA, ,
2504.0,THOMPSON AVE,VANCOUVER,WA,98660,
821.0,N LIBERTY RD, ,WA, ,
,HWY 101,BEAVER,WA,98305,
107.0,LEIF DR,KELSO,WA,98626,
1925.0,HORN RAPIDS RD,Richland,WA,99354,
18708.0,126TH AVE NE,BOTHELL,WA,98011,2601.0
401.0,S Kentucky Ave,East Wenatchee,WA,98802,
702.0,E EDISON AVE,SUNNYSIDE,WA,98944,
1107.0,GILLMORE AVE,Richland,WA,99352,
920.0,S MAIN ST,MABTON,WA,98935,
0.0,UN-ASSIGNED, ,WA, ,
2021.0,HOXIE AVE,Richland,WA,99354,
409.0,E Q ST,YAKIMA,WA,98901,
4183.0,SALTSPRING DR,Bellingham,WA,98248,
4450.0,COLUMBIA HEIGHTS RD,LONGVIEW,WA,98632,
4329.0,INDIGO LN,Bellingham,WA,98226,
0.0,UN-ASSIGNED, ,WA, ,
8318.0,N Parkway Dr,Spokane,WA,99208,
19113.0,NE 23RD ST,VANCOUVER,WA,98684,
6904.0,S Parkridge Blvd,Spokane,WA,99224,
2726.0,E Joseph Ave,Spokane,WA,99208,
103.0,ADAMS DR,KELSO,WA,98626,
4110.0,SUCIA DR,Bellingham,WA,98248,
14109.0,NE 81ST CIR,VANCOUVER,WA,98682,
432.0,POWER PLANT RD,PORT ANGELES,WA,98363,
1026.0,SMITH AVE,Richland,WA,99354,
30617.0,NE 132ND AVE,BATTLE GROUND,WA,98604,
5704.0,W LINCOLN AVE,YAKIMA,WA,98908,
0.0,UN-ASSIGNED, ,WA, ,
1923.0,8th St NE,East Wenatchee,WA,98802,
3380.0,A ST,WASHOUGAL,WA,98671,
3315.0,N Park Blvd,Spokane,WA,99205,
6923.0,WILLOW GROVE RD,LONGVIEW,WA,98632,
,HWY 101,PORT ANGELES,WA,98363,
601.0,NW 72ND CIR,VANCOUVER,WA,98665,
13302.0,NE 91ST ST,VANCOUVER,WA,98682,
312.0,BENHAM ST,Richland,WA,99352,
4026.0,FIR ST,Bellingham,WA,98229,
923.0,N 4TH AVE,YAKIMA,WA,98902,
1020.0,E SEVENTH ST,PORT ANGELES,WA,98362,
11909.0,NE 87TH AVE,VANCOUVER,WA,98662,
5704.0,WHITMAN ST,YAKIMA,WA,98903,
1026.0,19TH AVE,LONGVIEW,WA,98632,
2001.0,SUNRISE ST,KELSO,WA,98626,
9333.0,NE 176TH ST,BOTHELL,WA,98011,
1908.0,E Boone Ave,Spokane,WA,99202,
7711.0,N Panorama Dr,Spokane,WA,99208,
201.0,RED HAWK RD,SEQUIM,WA,98382,
0.0,UN-ASSIGNED, ,WA, ,
21.0,GRAUEL-RAMAPO RD,PORT ANGELES,WA,98363,
807.0,E Sharp Ave,Spokane,WA,99202,
5142.0,LABOUNTY DR,Bellingham,WA,98248,
1113.0,E 37TH ST,VANCOUVER,WA,98663,
186.0,CHUCKANUT POINT RD,Bellingham,WA,98229,
10733.0,VALLEY VIEW RD,BOTHELL,WA,98011,
1674.0,PISA LN,Richland,WA,99352,
5675.0,ROSEMARY AVE,Bellingham,WA,98248,
412.0,BARTH AVE,Richland,WA,99352,
14416.0,SE 9TH ST,VANCOUVER,WA,98683,
,BOGACHIEL WY,FORKS,WA,98331,
1224.0,E Newark Ave,Spokane,WA,99202,
2595.0,LEWIS RIVER RD,WOODLAND,WA,98674,
3609.0,E Olympic Ave,Spokane,WA,99217,
23114.0,NE 189TH CT,BATTLE GROUND,WA,98604,
3704.0,NE 98TH AVE,VANCOUVER,WA,98662,
3626.0,N Madison St,Spokane,WA,99205,
511.0,W Cleveland Ave,Spokane,WA,99205,
1103.0,S 7TH AVE,YAKIMA,WA,98902,
162.0,STUART DR,PORT ANGELES,WA,98362,
231.0,STUDEBAKER SPUR 2,CASTLE ROCK,WA,98611,
38817.0,NE 41ST AVE,LA CENTER,WA,98629,
904.0,W 16th Ave,Spokane,WA,99203,
228.0,ALPHA DR,LONGVIEW,WA,98632,
1450.0,WESTSIDE HWY,KELSO,WA,98626,
718.0,N 15TH AVE,YAKIMA,WA,98902,
4726.0,PENNSYLVANIA ST,LONGVIEW,WA,98632,
114.0,HEMLOCK AVE,SUNNYSIDE,WA,98944,
911.0,E ADAMS ST,YAKIMA,WA,98901,
732.0,E KELLOGG RD,Bellingham,WA,98226,
5516.0,N Oak St,Spokane,WA,99205,
127.0,2ND AVE,GRANGER,WA,98932,
1474.0,JONAGOLD DR,Richland,WA,99352,
600.0,W E AVE,LA CENTER,WA,98629,
2801.0,HARRAH RD, ,WA, ,
821.0,W Riverside Ave,Spokane,WA,99201,
1105.0,MARSHALL AVE,Richland,WA,99354,
1916.0,S 9TH AVE,UNION GAP,WA,98903,
,DEER RIDGE LN,SEQUIM,WA,98382,
2825.0,W Olympic Ave,Spokane,WA,99205,
8015.0,NE 90TH AVE,VANCOUVER,WA,98662,
2110.0,I ST,Bellingham,WA,98225,
8505.0,NE 28TH PL,VANCOUVER,WA,98665,
8716.0,NE SUNSET WAY,VANCOUVER,WA,98662,
628.0,W 26th Ave,Spokane,WA,99203,
296.0,ELM ST,KALAMA,WA,98625,
504.0,N LARK DR,RIDGEFIELD,WA,98642,
4208.0,N Hawthorne St,Spokane,WA,99205,
2810.0,E Ferry Ave,Spokane,WA,99202,
0.0,MC CULLOUGH RD, ,WA, ,
24807.0,NE 204TH ST,BATTLE GROUND,WA,98604,
26801.0,NE 9TH ST,CAMAS,WA,98607,
1199.0,S SILVER LAKE RD,CASTLE ROCK,WA,98611,
15012.0,NW 1ST AVE,VANCOUVER,WA,98685,
526.0,W Joseph Ave,Spokane,WA,99205,
201.0,N 43RD PL,RIDGEFIELD,WA,98642,
2311.0,N Madison St,Spokane,WA,99205,
6613.0,NE 75TH ST,VANCOUVER,WA,98661,
5110.0,DUBOIS DR,VANCOUVER,WA,98661,
1112.0,Cherry Cir,East Wenatchee,WA,98802,
15408.0,NE 13TH CIR,VANCOUVER,WA,98684,
1512.0,N COLUMBIA RIDGE WAY,WASHOUGAL,WA,98671,
1450.0,WHITEHORN ST,Bellingham,WA,98248,
0.0,Tyrone Pl,Ephrata,WA,98823,
3604.0,CANYON EDGE DR,PORT ANGELES,WA,98362,
8919.0,NE 41ST AVE,VANCOUVER,WA,98665,
12516.0,NE 198TH ST,BOTHELL,WA,98011,
10012.0,NE 41ST CT,VANCOUVER,WA,98686,
16611.0,121ST AVE NE,BOTHELL,WA,98011,
3941.0,LAKEMONT RD,Bellingham,WA,98226,
3419.0,E 21ST ST,VANCOUVER,WA,98661,
330.0,CANYON RIM CT,Richland,WA,99352,
443.0,RIPPEE LN,YAKIMA,WA,98908,
1800.0,MCMURRAY AVE,Richland,WA,99354,
2318.0,IRON ST,Bellingham,WA,98225,
4241.0,SPRINGCREEK LN,Bellingham,WA,98226,
3421.0,OAK ST,LONGVIEW,WA,98632,
15509.0,SE MILL PLAIN BLVD,VANCOUVER,WA,98684,
7204.0,NE 125TH AVE,VANCOUVER,WA,98682,
13001.0,NE 53RD ST,VANCOUVER,WA,98682,
17810.0,SE 16TH ST,VANCOUVER,WA,98683,
1410.0,N HERON DR,RIDGEFIELD,WA,98642,
4217.0,NW DAHLIA LOOP,CAMAS,WA,98607,
913.0,BASS ST,Bellingham,WA,98229,
20900.0,NE 265TH ST,BATTLE GROUND,WA,98604,
911.0,225TH PL SE,BOTHELL,WA,98021,
0.0,UN-ASSIGNED, ,WA, ,
170.0,ENGLEWOOD DR,Richland,WA,99352,
256608.0,HWY 101,PORT ANGELES,WA,98362,
410.0,EVERGREEN LP,FORKS,WA,98331,
0.0,CANAL ST/SWAN RD, ,WA, ,
801.0,NW 72ND ST,VANCOUVER,WA,98665,
9609.0,NE 164TH AVE,VANCOUVER,WA,98682,
18004.0,NE COLE WITTER RD,BATTLE GROUND,WA,98604,
1399.0,BRADLEY LN,Bellingham,WA,98225,
1316.0,KING ST,Bellingham,WA,98229,
1115.0,S 19TH AVE,YAKIMA,WA,98902,
2536.0,DAVISON AVE,Richland,WA,99354,
5.0,E 8th Ave,Spokane,WA,99202,
0.0,WANDLING RD, ,WA, ,
635.0,BRIAR RD,Bellingham,WA,98225,
1805.0,NE 72ND CIR,VANCOUVER,WA,98665,
4625.0,EVERSON GOSHEN RD,Bellingham,WA,98226,
1208.0,S 9TH AVE,YAKIMA,WA,98902,
3924.0,S Grand Blvd,Spokane,WA,99203,
202.0,S 58TH ST,YAKIMA,WA,98901,
2114.0,S 68TH AVE,YAKIMA,WA,98903,
18212.0,NE 26TH ST,VANCOUVER,WA,98684,
1800.0,X ST,VANCOUVER,WA,98661,
4030.0,LATERAL 1 ROAD,WAPATO,WA,98951,
403.0,CURTIS ST,WHITE SWAN,WA,98952,
113.0,FARVIEW DR,VANCOUVER,WA,98661,
1214.0,S 14TH AVE,YAKIMA,WA,98902,
105.0,S 1ST ST,SUNNYSIDE,WA,98944,
0.0,MARSH/BUTTERFIELD, ,WA, ,
3346.0,G ST,WASHOUGAL,WA,98671,
7.0,TERRY CT,LONGVIEW,WA,98632,
0.0,UN-ASSIGNED, ,WA, ,
30.0,E Dalton Ave,Spokane,WA,99207,
14.0,SE 9TH CIR,BATTLE GROUND,WA,98604,
1994.0,S BAGLEY CREEK RD,PORT ANGELES,WA,98362,
105.0,OLYMPIC AVE,MOXEE,WA,98936,
182.0,BLYN HOLLOW RD,SEQUIM,WA,98382,
0.0,JENSEN RD N OF, ,WA, ,
12608.0,NW 33RD AVE,VANCOUVER,WA,98685,
0.0,RESERVOIR LOOP RD,SELAH,WA,98942,
1101.0,NW 19TH AVE,BATTLE GROUND,WA,98604,
301.0,S 3RD ST,YAKIMA,WA,98901,
2309.0,W Longfellow Ave,Spokane,WA,99205,
921.0,16TH ST,Bellingham,WA,98225,
8343.0,LA PUSH RD,FORKS,WA,98331,
2725.0,HUMBOLDT ST,Bellingham,WA,98225,
3320.0,W Hoffman Ave,Spokane,WA,99205,
63.0,RIDGECLIFF DR,Richland,WA,99352,
2723.0,NW 30TH CIR,CAMAS,WA,98607,
3508.0,E 50th Ave,Spokane,WA,99223,
1657.0,E Gordon Ave,Spokane,WA,99207,
200.0,VILLAGE GREEN,SEQUIM,WA,98382,
710.0,VERBENA LN,Bellingham,WA,98226,
330.0,3RD AVE,PARKER,WA,98939,
3310.0,NE 132ND AVE,VANCOUVER,WA,98682,
0.0,CONRAD ROAD, ,WA, ,
1765.0,FIR ST,LONGVIEW,WA,98632,
1218.0,GARFIELD AVE,YAKIMA,WA,98902,
300.0,E GROVER ST,Bellingham,WA,98264,
12302.0,NE FOURTH PLAIN BLVD,VANCOUVER,WA,98682,
1900.0,STEVENS DR,Richland,WA,99354,617.0
3926.0,IRON GATE RD,Bellingham,WA,98226,
9703.0,NW 4TH AVE,VANCOUVER,WA,98665,
922.0,E Olympic Ave,Spokane,WA,99207,
2217.0,NE 179TH ST,RIDGEFIELD,WA,98642,
2325.0,4th St SE,East Wenatchee,WA,98802,
3520.0,S Davison Blvd,Spokane,WA,99224,
3150.0,COWICHE MILL RD,COWICHE,WA,98923,
8228.0,CHILLIWACK RD,Bellingham,WA,98230,
17101.0,NE 13TH PL,RIDGEFIELD,WA,98642,
242.0,CYPRESS ST,LONGVIEW,WA,98632,
559.0,MIDWOOD CT,Bellingham,WA,98229,
9213.0,NE 151ST ST,BOTHELL,WA,98011,
12817.0,NE 101ST ST,VANCOUVER,WA,98682,
3303.0,OLIVE WAY,LONGVIEW,WA,98632,
2718.0,E Nora Ave,Spokane,WA,99207,
187.0,OWL CREEK RD,KELSO,WA,98626,
1411.0,E 19th Ave,Spokane,WA,99203,
185.0,J SHEA WY,PORT ANGELES,WA,98362,
17705.0,NE 159TH ST,BRUSH PRAIRIE,WA,98606,
4189.0,MCCALLISTER PL,WASHOUGAL,WA,98671,
10807.0,NE CREST AVE,VANCOUVER,WA,98685,
1560.0,NAGLER RD,SELAH,WA,98942,
12606.0,NE 183RD ST,BOTHELL,WA,98011,1424.0
2539.0,NW LAKE RD,CAMAS,WA,98607,
105.0,FOURTEENTH CT,SEQUIM,WA,98382,
3403.0,XAVIER AVE,VANCOUVER,WA,98660,
4510.0,W Belmont Dr,Spokane,WA,99208,
10.0,CASCADE DR,SEQUIM,WA,98382,
4230.0,HOFF RD,Bellingham,WA,98225,
2868.0,SE 2ND AVE,CAMAS,WA,98607,
600.0,HAZEN RD, ,WA, ,
401.0,KITCHEN DR,KELSO,WA,98626,
3020.0,BLUFFS DR,Richland,WA,99354,
730.0,E ST,WASHOUGAL,WA,98671,
113.0,E NINTH ST,PORT ANGELES,WA,98362,
403.0,& 405 LAURELVIEW,SELAH,WA,98942,
140.0,TASHAS LN,YAKIMA,WA,98901,
273942.0,HWY 101,SEQUIM,WA,98382,
250.0,GAGE BLVD,Richland,WA,99352,4022.0
204.0,A N 41ST ST,YAKIMA,WA,98901,
105.0,SEATTLE AVE,MOXEE,WA,98936,
2126.0,CASCADE WAY,LONGVIEW,WA,98632,
3112.0,SE 197TH CT,CAMAS,WA,98607,
7420.0,NW 1ST PL,VANCOUVER,WA,98665,
351.0,MOUNT BAKER DR,SEQUIM,WA,98382,
82.0,BUDS WY,SEQUIM,WA,98382,
6228.0,N Belt St,Spokane,WA,99205,
1001.0,NW 90TH ST,VANCOUVER,WA,98665,
11509.0,NE 94TH ST,VANCOUVER,WA,98662,
14008.0,NE 31ST CT,VANCOUVER,WA,98686,
294.0,PIPER ST,Richland,WA,99352,
512.0,S Mason Ave,East Wenatchee,WA,98802,
32300.0,NE CC LANDON RD,YACOLT,WA,98675,
1740.0,S Rockwood Blvd,Spokane,WA,99203,
2613.0,W MAPLEWOOD AVE,Bellingham,WA,98225,
0.0,S 33RD ST,YAKIMA,WA,98901,
1234.0,E SEQUIM BAY RD,SEQUIM,WA,98382,
4003.0,SILVER BEACH AVE,Bellingham,WA,98226,
2906.0,E Rich Ave,Spokane,WA,99207,
420.0,SWAN RD,SUNNYSIDE,WA,98944,
2935.0,Rd 28.5,Grand Coulee,WA,99133,
11207.0,NE 32ND AVE,VANCOUVER,WA,98686,
1630.0,N FALCON DR,RIDGEFIELD,WA,98642,
4410.0,N Stevens St,Spokane,WA,99205,
210.0,NE 52ND ST,VANCOUVER,WA,98663,
1221.0,W Jackson Ave,Spokane,WA,99205,
186.0,CHEYENNE DR,WOODLAND,WA,98674,
29404.0,NE 132ND AVE,BATTLE GROUND,WA,98604,
160.0,VAN GIESEN ST,Richland,WA,99354,309.0
959.0,Briarwood Dr,East Wenatchee,WA,98802,
313.0,W 36TH ST,VANCOUVER,WA,98660,
909.0,MILL ST,KELSO,WA,98626,
4219.0,NE 139TH ST,VANCOUVER,WA,98686,
415.0,NW 277TH CIR,RIDGEFIELD,WA,98642,
440.0,WILDCAT RD,PORT ANGELES,WA,98363,
4011.0,W Heroy Ave,Spokane,WA,99205,
0.0,SMITH RD W OF, ,WA, ,
215.0,W 2nd Ave,Mansfield,WA,98830,
618.0,WASHOUGAL RIVER RD,WASHOUGAL,WA,98671,
6510.0,S Machias Rd,Snohomish,WA,98290,
605.0,E Francis Ave,Spokane,WA,99208,
15509.0,NE 90TH ST,VANCOUVER,WA,98682,
251.0,S FIFTH AVE,SEQUIM,WA,98382,
2971.0,SONORAN DR,Richland,WA,99354,
15513.0,NE 76TH WAY,VANCOUVER,WA,98682,
1205.0,COUNTRY RIDGE DR,Richland,WA,99352,
6227.0,ARGYLE ST,Bellingham,WA,98248,
1801.0,35TH ST,Bellingham,WA,98229,
18214.0,NE COLE WITTER RD,BATTLE GROUND,WA,98604,
12105.0,NE 171ST PL,BOTHELL,WA,98011,
1327.0,DELAWARE AVE,Richland,WA,99352,
420.0,NE 100TH AVE,VANCOUVER,WA,98664,
10518.0,NE 183RD ST,BATTLE GROUND,WA,98604,
4106.0,SE 201ST AVE,CAMAS,WA,98607,
2643.0,EAGLEWATCH LOOP,Richland,WA,99354,
1508.0,SE SOLOMON LOOP,VANCOUVER,WA,98683,
0.0,EKELMAN RD/MIERAS, ,WA, ,
,SNOW RIDGE LN,PORT ANGELES,WA,98362,
2534.0,YEW ST,Bellingham,WA,98226,
1525.0,HUNT AVE,Richland,WA,99354,
8813.0,NE 25TH AVE,VANCOUVER,WA,98665,
2461.0,BATTELLE BLVD,Richland,WA,99354,
111.0,KELLOGG RD,ARIEL,WA,98603,
4104.0,FARVIEW DR,VANCOUVER,WA,98661,
20701.0,31ST DR SE,BOTHELL,WA,98012,
309.0,E Shenandoah Dr,Spokane,WA,99208,
148.0,ALPHA DR,LONGVIEW,WA,98632,
1109.0,S ALBERT ST,PORT ANGELES,WA,98362,
1318.0,ROOSEVELT AVE,YAKIMA,WA,98902,
6803.0,S Woodhaven Ct,Spokane,WA,99224,
24108.0,4TH AVE SE,BOTHELL,WA,98021,
,SHUWAH RD,FORKS,WA,98331,
815.0,JEFFERSON AVE,TOPPENISH,WA,98948,
,BEACH DR,SEQUIM,WA,98382,
5655.0,4th St SE,East Wenatchee,WA,98802,
5963.0,JENJAR AVE,Bellingham,WA,98248,
1107.0,WILLOW ST,YAKIMA,WA,98902,
105.0,S BEECH ST,TOPPENISH,WA,98948,
,W TWELFTH ST,PORT ANGELES,WA,98363,
2455.0,GEORGE WASHINGTON WAY,Richland,WA,99354,
654.0,S Ralph St,Spokane,WA,99202,
1208.0,NW 23RD AVE,CAMAS,WA,98607,
16307.0,NE 205TH AVE,BRUSH PRAIRIE,WA,98606,
1209.0,E MAPLEWOOD AVE,Bellingham,WA,98225,
111.0,W 23rd Ave,Spokane,WA,99203,
8683.0,BENSON RD,Bellingham,WA,98264,
25.0,E DIVISION ST,FORKS,WA,98331,
901.0,S 6TH AVE,YAKIMA,WA,98902,
3403.0,A ST,WASHOUGAL,WA,98671,
1908.0,W 3rd Ave,Spokane,WA,99204,
27340.0,HWY 12,NACHES,WA,98937,
6104.0,NE 19TH AVE,VANCOUVER,WA,98665,
1412.0,OLD SPIRIT LK HWY CONN,CASTLE ROCK,WA,98611,
23507.0,MERIDIAN AVE S,BOTHELL,WA,98021,
9909.0,NE HIGHWAY 99,VANCOUVER,WA,98685,
37114.0,NE BEAVER BROOK RD,YACOLT,WA,98675,
3436.0,W Cora Ave,Spokane,WA,99205,
10604.0,NE 44TH ST,VANCOUVER,WA,98682,
2712.0,NW 100TH ST,VANCOUVER,WA,98685,
1325.0,E Rockwood Blvd,Spokane,WA,99203,
3100.0,STANTON RD, ,WA, ,
2039.0,W SEQUIM BAY RD,SEQUIM,WA,98382,
596.0,HUNTER ST,Richland,WA,99352,
317.0,E 17th Ave,Spokane,WA,99203,
7300.0,NE VANCOUVER MALL DR,VANCOUVER,WA,98662,
6619.0,NE 163RD AVE,VANCOUVER,WA,98682,
6507.0,PORTAL WAY,Bellingham,WA,98248,
903.0,BOUCHER LN, ,WA, ,
103.0,VIEW RIDGE, ,WA, ,
1914.0,H ST,VANCOUVER,WA,98663,
417.0,NW 1ST AVE,KELSO,WA,98626,
18700.0,101ST AVE NE,BOTHELL,WA,98011,9.0
2520.0,NE 65TH AVE,VANCOUVER,WA,98661,
610.0,NE 90TH AVE,VANCOUVER,WA,98664,
505.0,N PINE AVE,YACOLT,WA,98675,
,N BEVERAGE ST,SEQUIM,WA,98382,
2866.0,WEST SHORE DR,Bellingham,WA,98262,
15506.0,NE 14TH ST,VANCOUVER,WA,98684,
17101.0,123RD PL NE,BOTHELL,WA,98011,
17912.0,NE 72ND ST,VANCOUVER,WA,98682,
1809.0,SE 154TH AVE,VANCOUVER,WA,98683,
,JAKE HALL RD,SEQUIM,WA,98382,
2971.0,CROSSWATER LOOP,Richland,WA,99354,
9802.0,NE 76TH WAY,VANCOUVER,WA,98662,
1251.0,THREE CRABS RD,SEQUIM,WA,98382,
16905.0,SE 4TH ST,VANCOUVER,WA,98684,
,HEATH RD,SEQUIM,WA,98382,
34609.0,SE 31ST WAY,WASHOUGAL,WA,98671,
4409.0,NORTHWEST DR,Bellingham,WA,98226,
521.0,CASCADE ST,Richland,WA,99354,
10319.0,NE 58TH ST,VANCOUVER,WA,98662,
2914.0,S Lamonte St,Spokane,WA,99203,
2541.0,NORTHLAKE AVE,LONGVIEW,WA,98632,
50.0,JADWIN AVE,Richland,WA,99352,52.0
801.0,YEW ST,Bellingham,WA,98229,
1781.0,N WENAS RD,SELAH,WA,98942,
1733.0,Pine Ave,Snohomish,WA,98290,
1508.0,NE 109TH AVE,VANCOUVER,WA,98664,
917.0,ANN AVE,SUNNYSIDE,WA,98944,
7411.0,NE 165TH AVE,VANCOUVER,WA,98682,
147.0,VIEW POINT DR,LONGVIEW,WA,98632,
602.0,NE 107TH ST,VANCOUVER,WA,98685,
15504.0,SE 19TH CIR,VANCOUVER,WA,98683,
107.0,S Roland Ave,East Wenatchee,WA,98802,
1218.0,S 9TH AVE,YAKIMA,WA,98902,
3208.0,E 42nd Ave,Spokane,WA,99223,
3901.0,NE BEASLEY RD,LA CENTER,WA,98629,
1303.0,ROCK AVE,YAKIMA,WA,98902,
5330.0,N Alameda Blvd,Spokane,WA,99205,
15518.0,119TH AVE NE,BOTHELL,WA,98011,
310.0,N 27TH AVE,YAKIMA,WA,98902,
4604.0,QUINN CT,Bellingham,WA,98226,
5220.0,NW 16TH CIR,CAMAS,WA,98607,
100.0,LORRAINE DR,SEQUIM,WA,98382,
2816.0,HARRIS STREET RD,KELSO,WA,98626,
0.0,UN-ASSIGNED, ,WA, ,
2902.0,FLORIDA ST,LONGVIEW,WA,98632,
1517.0,NE 199TH ST,RIDGEFIELD,WA,98642,
708.0,NE 389TH ST,WOODLAND,WA,98674,
2820.0,E ST,WASHOUGAL,WA,98671,
30005.0,NE HANTWICK RD,YACOLT,WA,98675,
323.0,HULSE RD,PORT ANGELES,WA,98362,
1216.0,ST PAUL ST,Bellingham,WA,98229,
0.0,N OF HW 24 E OF MOX, ,WA, ,
521.0,E 11th Ave,Spokane,WA,99202,
2088.0,8th St NE,East Wenatchee,WA,98802,
2513.0,HEWLETT CT,Bellingham,WA,98229,
1207.0,W Cleveland Ave,Spokane,WA,99205,
5610.0,W Old Fort Dr,Spokane,WA,99208,
2011.0,E 49th Ave,Spokane,WA,99223,
18011.0,NE 225TH ST,BATTLE GROUND,WA,98604,
1720.0,E Francis Ave,Spokane,WA,99208,
700.0,NE 159TH CT,VANCOUVER,WA,98684,
39.0,NW BARR ST,CASTLE ROCK,WA,98611,
2424.0,TIGER LN,Richland,WA,99352,
316.0,NACHES AVE,NACHES,WA,98937,
117.0,OGDEN ST,Richland,WA,99352,
5413.0,S Ravencrest Cir,Spokane,WA,99224,
334.0,S FOREST ST,Bellingham,WA,98225,
1007.0,E Baldwin Ave,Spokane,WA,99207,
0.0,SR-82, ,WA, ,
503.0,SECOR RD,SEQUIM,WA,98382,
10011.0,N Moore St,Spokane,WA,99208,
174.0,YELTON DR,LONGVIEW,WA,98632,
25516.0,NE RAWSON RD,BRUSH PRAIRIE,WA,98606,
5901.0,NE 127TH AVE,VANCOUVER,WA,98682,
2606.0,H ST,Bellingham,WA,98225,
3810.0,MCLEAN DR,YAKIMA,WA,98902,
703.0,E Ermina Ave,Spokane,WA,99207,
6471.0,TRIGG WOODS LN,Bellingham,WA,98248,
,OLALLIE TRL,PORT ANGELES,WA,98363,
816.0,S 8TH ST,YAKIMA,WA,98901,
1718.0,S DUSKY DR,RIDGEFIELD,WA,98642,
2470.0,3rd St NE,East Wenatchee,WA,98802,
1701.0,ELLIS ST,Bellingham,WA,98225,
501.0,W 1ST ST,WAPATO,WA,98951,
,MATSON RD,PORT ANGELES,WA,98362,
21826.0,34TH DR SE,BOTHELL,WA,98021,
707.0,TIETON DR,YAKIMA,WA,98902,
209.0,S CHESTNUT ST,TOPPENISH,WA,98948,
9480.0,LATERAL A RD,WAPATO,WA,98951,
7003.0,MISSISSIPPI DR,VANCOUVER,WA,98664,
110.0,NE 10TH ST,BATTLE GROUND,WA,98604,
2003.0,W Shannon Ave,Spokane,WA,99205,
3003.0,QUEENSGATE DR,Richland,WA,99352,
15401.0,NE 86TH ST,VANCOUVER,WA,98682,
,MAP #E-4, ,WA, ,
3714.0,S Latawah St,Spokane,WA,99203,
632.0,FOX HOLLOW RD,SEQUIM,WA,98382,
4497.0,MORESBY WAY,Bellingham,WA,98248,
3719.0,TREE FARM LN,Bellingham,WA,98226,
4009.0,S Grand Blvd,Spokane,WA,99203,
4615.0,HILLTOP WY,YAKIMA,WA,98908,
1320.0,CLEARBROOK DR,Bellingham,WA,98229,
90.0,S Grover Ave,East Wenatchee,WA,98802,
1630.0,228TH ST SE,BOTHELL,WA,98021,
503.0,E SPRUCE ST,YAKIMA,WA,98901,
112.0,Ridgemont Dr,East Wenatchee,WA,98802,
124.0,MOTOR AVE,PORT ANGELES,WA,98362,
3333.0,228TH ST SE,BOTHELL,WA,98021,64.0
303.0,2nd St SE,East Wenatchee,WA,98802,
322.0,BALTIMORE WAY,VANCOUVER,WA,98664,
12033.0,WOODINVILLE DR,BOTHELL,WA,98011,58.0
9300.0,NW 15TH AVE,VANCOUVER,WA,98665,
23727.0,7TH AVE W,BOTHELL,WA,98021,
1208.0,Maple Ave,Snohomish,WA,98290,
221.0,TWIN PEAKS RD,SELAH,WA,98942,
2532.0,NW 29TH AVE,CAMAS,WA,98607,
3409.0,L ST,VANCOUVER,WA,98663,
1382.0,JAMESTOWN RD,SEQUIM,WA,98382,
5320.0,NE 83RD PL,VANCOUVER,WA,98662,
1808.0,UNDINE LN,Bellingham,WA,98226,
1333.0,HAUPT AVE,Richland,WA,99354,
17001.0,SE 27TH ST,VANCOUVER,WA,98683,
3211.0,FAIRMOUNT AVE,VANCOUVER,WA,98661,
104.0,NW 95TH CIR,VANCOUVER,WA,98665,
9612.0,NE 84TH WAY,VANCOUVER,WA,98662,
39.0,LEWIS ROAD,MAP # L 9-A,WA,MAP # L 9-A,
306.0,HUNTER RD,LONGVIEW,WA,98632,
1430.0,8th St NE,East Wenatchee,WA,98802,
122.0,E Dalton Ave,Spokane,WA,99207,
1211.0,ADAIR DR,Richland,WA,99352,
4225.0,E 25th Ave,Spokane,WA,99223,
4821.0,S Myrtle St,Spokane,WA,99223,
4528.0,ORCAS WAY,Bellingham,WA,98248,
3701.0,NE 97TH AVE,VANCOUVER,WA,98662,
16312.0,NE 92ND AVE,BATTLE GROUND,WA,98604,
620.0,DAYTON DR,SUNNYSIDE,WA,98944,
1320.0,Park Ave,Snohomish,WA,98290,
1720.0,HARRIS AVE,Bellingham,WA,98225,
6607.0,ALPINE WAY,YAKIMA,WA,98908,
13321.0,US HWY 12,NACHES,WA,98937,
6804.0,W PRASCH AVE,YAKIMA,WA,98908,
1266.0,MONREAN LOOP,Richland,WA,99352,
2428.0,N Washington St,Spokane,WA,99205,
4633.0,SPIRIT LAKE HWY,SILVERLAKE,WA,98645,
65.0,Trina Marie Rd,Orondo,WA,98843,
2426.0,CRESTLINE ST,Bellingham,WA,98248,
313.0,N 50TH AVE,YAKIMA,WA,98908,
321.0,BALTIMORE WAY,VANCOUVER,WA,98664,
1004.0,S 10TH AVE,YAKIMA,WA,98902,
6108.0,N Post St,Spokane,WA,99205,
8712.0,NE MOUNTVIEW ST,VANCOUVER,WA,98664,
250.0,GAGE BLVD,Richland,WA,99352,3087.0
1508.0,PERRY LP,YAKIMA,WA,98902,
1004.0,N 34TH AVE UNIT 11,YAKIMA,WA,98902,
4701.0,NE 77TH AVE,VANCOUVER,WA,98662,
2025.0,N Ashland Ave,East Wenatchee,WA,98802,
17306.0,SE 15TH WAY,VANCOUVER,WA,98683,
123.0,N Kentucky Ave,East Wenatchee,WA,98802,
278.0,BARLOW POINT RD,LONGVIEW,WA,98632,
15015.0,NE 50TH ST,VANCOUVER,WA,98682,
3402.0,E Garnet Ave,Spokane,WA,99217,
2212.0,NW 10TH ST,BATTLE GROUND,WA,98604,
631.0,D ST,WASHOUGAL,WA,98671,
1935.0,ELECTRIC AVE,Bellingham,WA,98229,
3101.0,NE 166TH WAY,RIDGEFIELD,WA,98642,
4012.0,SEASONS PARKWAY,YAKIMA,WA,98901,
155.0,TERRACE PARK DR,YAKIMA,WA,98901,
804.0,W 26th Ave,Spokane,WA,99203,
0.0,N OF S FORK RD, ,WA, ,
1519.0,NE 2ND ST,BATTLE GROUND,WA,98604,
493.0,BEECHWOOD ST,WOODLAND,WA,98674,
4007.0,SE STRONG AVE,CAMAS,WA,98607,
13717.0,NE 84TH ST,VANCOUVER,WA,98682,
24.0,S Mandolin Ave,East Wenatchee,WA,98802,
2815.0,LUMMI SHORE RD,Bellingham,WA,98226,
952.0,E Thurston Ave,Spokane,WA,99203,
18905.0,NE 83RD ST,VANCOUVER,WA,98682,
4238.0,NORTHRIDGE WAY,Bellingham,WA,98226,
14101.0,HWY 410, ,WA, ,
411.0,S 98TH AVE,YAKIMA,WA,98908,
3508.0,SE 176TH AVE,VANCOUVER,WA,98683,
5925.0,NE 65TH CT,VANCOUVER,WA,98661,
16500.0,SE 1ST ST,VANCOUVER,WA,98684,
,LOWER ELWHA RD,PORT ANGELES,WA,98363,
13918.0,NW 9TH AVE,VANCOUVER,WA,98685,
347.0,31ST ST,Bellingham,WA,98225,
1906.0,PONDEROSA DR,Bellingham,WA,98229,
3202.0,E MCLOUGHLIN BLVD,VANCOUVER,WA,98661,
3631.0,NE EVERETT ST,CAMAS,WA,98607,
708.0,COUNTRY CLUB RD,Richland,WA,99352,
13217.0,NE 59TH ST,VANCOUVER,WA,98682,
3507.0,GALAXY PL,PORT ANGELES,WA,98362,
,CAPE FLATTERY RD,NEAH BAY,WA,98381,
4001.0,BELL AVE,YAKIMA,WA,98908,
2700.0,NE 68TH ST,VANCOUVER,WA,98665,
900.0,GOERIG ST,WOODLAND,WA,98674,
5209.0,S Lincoln Way,Spokane,WA,99224,
2470.0,BRIDGEMAN RD,SUNNYSIDE,WA,98944,
91.0,VILLAGE GREEN,SEQUIM,WA,98382,
14015.0,SE BELLA VISTA CIR,VANCOUVER,WA,98683,
3101.0,WATSON AVE,VANCOUVER,WA,98661,
1475.0,BADGER MOUNTAIN LOOP,Richland,WA,99352,
14302.0,NE 107TH ST,VANCOUVER,WA,98682,
13405.0,NW 40TH AVE,VANCOUVER,WA,98685,
19603.0,SE 31ST WAY,CAMAS,WA,98607,
1219.0,13th St,Snohomish,WA,98290,
1812.0,E 37th Ave,Spokane,WA,99203,
11515.0,NE 130TH AVE,VANCOUVER,WA,98682,
201.0,W Francis Ave,Spokane,WA,99205,
2908.0,LORRAINE ELLIS CT,Bellingham,WA,98225,
2208.0,SE 158TH CT,VANCOUVER,WA,98683,
634.0,K ST,WASHOUGAL,WA,98671,
200.0,WALDRON ST,Richland,WA,99354,30.0
9510.0,NE 3RD ST,VANCOUVER,WA,98664,
8102.0,NE 37TH AVE,VANCOUVER,WA,98665,
2176.0,28TH ST,Bellingham,WA,98225,
113.0,S BREAKERPOINT PL,PORT ANGELES,WA,98363,
2022.0,E Hartson Ave,Spokane,WA,99202,
131.0,N 44TH PL,RIDGEFIELD,WA,98642,
2424.0,NW LARKSPUR CT,CAMAS,WA,98607,
1929.0,238TH ST SE,BOTHELL,WA,98021,
128.0,JAMES ST,LONGVIEW,WA,98632,
0.0,WICKERSHAM RD/SUMMITVIEW EXT,YAKIMA,WA,98908,
809.0,WILLARD AVE,Richland,WA,99352,
4610.0,NE 58TH ST,VANCOUVER,WA,98661,
10601.0,SE EVERGREEN HWY,VANCOUVER,WA,98664,
840.0,W PARK DR,Bellingham,WA,98264,
1425.0,24TH AVE,LONGVIEW,WA,98632,
4620.0,LAKE TERRELL RD,Bellingham,WA,98248,
306.0,S 9TH AVE,KELSO,WA,98626,
3006.0,S 79TH AVE,YAKIMA,WA,98903,
391.0,CEDAR AVE,WOODLAND,WA,98674,
203.0,WILLIAMS FINNEY RD,KELSO,WA,98626,
3208.0,NE 122ND AVE,VANCOUVER,WA,98682,
306.0,Ferry Ave,Coulee Dam,WA,99116,
,E ENNIS CUT-OFF RD,PORT ANGELES,WA,98362,
1616.0,BAYON RD,Bellingham,WA,98225,
2133.0,YEW ST,Bellingham,WA,98229,
4318.0,NW FRUIT VALLEY RD,VANCOUVER,WA,98660,
3922.0,OCEAN BEACH HWY,LONGVIEW,WA,98632,
0.0,FORSELL RD, ,WA, ,
2009.0,S Inland Empire Way,Spokane,WA,99224,
13511.0,SE RIVERCREST DR,VANCOUVER,WA,98683,
252.0,STEELHEAD AVE,FORKS,WA,98331,
1317.0,E 13th Ave,Spokane,WA,99202,
6015.0,NE 55TH CIR,VANCOUVER,WA,98661,
9221.0,CAMPBELL RD,TOPPENISH,WA,98948,
1230.0,W Sinto Ave,Spokane,WA,99201,
9709.0,NE 161ST AVE,VANCOUVER,WA,98682,
260.0,HOUSE RD,SEQUIM,WA,98382,
19347.0,127TH AVE NE,BOTHELL,WA,98011,
325.0,N 25TH AVE,YAKIMA,WA,98902,
6806.0,WESTSIDE HWY,CASTLE ROCK,WA,98611,
2207.0,E Decatur Ave,Spokane,WA,99208,
803.0,E 7TH ST,LA CENTER,WA,98629,
1527.0,E FIRST ST,PORT ANGELES,WA,98362,
1030.0,LIBERTY ST,Bellingham,WA,98264,
1262.0,WHITE BLUFFS ST,Richland,WA,99352,
2000.0,E 5TH ST,VANCOUVER,WA,98661,
,CAMP HAYDEN RD,PORT ANGELES,WA,98363,
5226.0,SPIRIT LAKE HWY,TOUTLE,WA,98649,
1011.0,E TOLEDO ST,Bellingham,WA,98229,
1132.0,20TH ST,Bellingham,WA,98225,
905.0,S Pepper Tree Ln,Spokane,WA,99224,
1611.0,W Fairview Ave,Spokane,WA,99205,
200.0,7th St,Bridgeport,WA,98813,
1125.0,Cedar Ln,East Wenatchee,WA,98802,
12722.0,NE 180TH ST,BOTHELL,WA,98011,201.0
30100.0,NW 18TH PL,RIDGEFIELD,WA,98642,
301.0,W HUMPHREY ST,YACOLT,WA,98675,
2935.0,S CEDAR RIDGE DR,RIDGEFIELD,WA,98642,
243.0,RAINBOW WAY,KELSO,WA,98626,
9411.0,N Seminole St,Spokane,WA,99208,
5006.0,MANOR DRIVE,YAKIMA,WA,98901,
1206.0,N SHEPHERD RD,WASHOUGAL,WA,98671,
1124.0,E 39th Ave,Spokane,WA,99203,
1228.0,E 37th Ave,Spokane,WA,99203,
951.0,S OAK RD,RIDGEFIELD,WA,98642,
1704.0,W Mansfield Ave,Spokane,WA,99205,
1410.0,OCEAN BEACH HWY,LONGVIEW,WA,98632,
1309.0,COTTONWOOD DR,Richland,WA,99354,
5922.0,N Milton St,Spokane,WA,99205,
8807.0,VINUP RD,Bellingham,WA,98264,
107.0,S 1ST ST,YAKIMA,WA,98901,
1906.0,LINCOLN AVE,VANCOUVER,WA,98660,
796.0,SE FAIRWINDS LOOP,VANCOUVER,WA,98661,
5292.0,N ST,WASHOUGAL,WA,98671,
2405.0,DONOVAN AVE,Bellingham,WA,98225,
22727.0,9TH AVE SE,BOTHELL,WA,98021,
173.0,SIXTH ST,CLALLAM BAY,WA,98326,
345.0,PINE MOUNTAIN DR,YAKIMA,WA,98903,
1514.0,LARRABEE AVE,Bellingham,WA,98225,
2510.0,NEVADA ST,Bellingham,WA,98226,
814.0,W EIGHTH ST,PORT ANGELES,WA,98363,
560.0,OLD COWICHE RD,COWICHE,WA,98923,
