NUMBER,STREET,CITY,STATE,POSTCODE,UNIT
1103.0,VENTURE PLACE,ONALASKA,WI,54650,
12440.0,W EDGERTON AVENUE,CITY OF NEW BERLIN,WI,53151,
9250.0,W IRVINE DRIVE,TOWN OF OJIBWA,WI,54862,
,HWY 128,SPRING VALLEY,WI,54767,
111.0,W GILMAN STREET,MADISON,WI,53703,
12980.0,W BLUEMOUND ROAD,VILLAGE OF ELM GROVE,WI,53122,
1710.0,GOLDEN OAK LANE,MADISON,WI,53711,
401.0,LAKEWOOD TERRACE,MARSHALL,WI,53559,
1010.0,HATHAWAY DRIVE,MADISON,WI,53711,
1251.0,CEDAR STREET,OSHKOSH,WI,54901,
421.0,W COLLEGE AVENUE,WAUKESHA,WI,53186,
,CASTLE COMBE COURT,WAUKESHA,WI,53188,
,BRAVE ISLAND COURT,KESHENA,WI,54135,
536.0,4TH AVENUE,CLEAR LAKE,WI,54005,
811.0,WISCONSIN AVENUE,CITY OF AMERY,WI,54001,
6947.0,CTH D,AMHERST,WI,54406,
2738.0,LAKELAND AVENUE,MADISON,WI,53704,
,SARATOGA DRIVE,WAUKESHA,WI,53186,
11704.0,LIBERTY ROAD,VILLAGE OF BUTTERNUT,WI,54514,
,IMPERIAL DRIVE,PEWAUKEE,WI,53072,
,EVERGREEN ROAD,TOWN OF IXONIA,WI,53036,
,VALLEY VIEW DRIVE,VILLAGE OF MENOMONEE FALLS,WI,53051,
2222.0,E JOHNSON STREET,MADISON,WI,53704,
0.0,GELLINGS ROAD,TOWN OF CONOVER,WI,54519,
806.0,BAVARIAN COURT,OSHKOSH,WI,54901,
3247.0,ECHO DELLS AVENUE,CITY OF STEVENS POINT,WI,54481,
3700.0,STH 16,CITY OF LA CROSSE,WI,54603,
408.0,SUNSET DRIVE,VILLAGE OF DEFOREST,WI,53532,
5010.0,MARSH ROAD,VILLAGE OF MCFARLAND,WI,53558,
80.0,WASHINGTON PLACE,MADISON,WI,53703,
,DORIS COURT,VILLAGE OF MENOMONEE FALLS,WI,53051,
810.0,RIVERWALK DRIVE,WAUKESHA,WI,53188,
4694.0,INDIAN BEND ROAD,OSHKOSH,WI,54904,
7493.0,OAK STREET W,WEBSTER,WI,54893,
,STH 108,MINDORO,WI,54644,
1209.0,FERRY STREET,CITY OF LA CROSSE,WI,54601,
121.0,E 2ND STREET,CITY OF BLACK RIVER FALLS,WI,54615,
9173.0,PIONEER ROAD,NEENAH,WI,54956,
2703.0,ESSER STREET,CROSS PLAINS,WI,53528,
4808.0,HOB STREET,MADISON,WI,53716,
,TROY ROAD,CITY OF LA CROSSE,WI,54601,
13967.0,MALLARD LANE,TOWN OF LAC DU FLAMBEAU,WI,54538,
229.0,BROADWAY STREET,CITY OF AMERY,WI,54001,
203.0,FOREST AVENUE,CITY OF PHILLIPS,WI,54555,
237.0,LAKE STREET,PEWAUKEE,WI,53072,
,STONE BANK ROAD,OCONOMOWOC,WI,53066,
999.0,GLENWAY ROAD,OREGON,WI,53575,
2806.0,SAINT LOUIS ROAD,TOWN OF PHELPS,WI,54554,
,PERSHING AVENUE,VILLAGE OF MENOMONEE FALLS,WI,53051,
,J JONES ROAD,BANGOR,WI,54614,
5289.0,HOWARD AVENUE,CITY OF STEVENS POINT,WI,54481,
526.0,W 11TH AVENUE,OSHKOSH,WI,54902,
,POPLAR AVENUE,VILLAGE OF SUSSEX,WI,53089,
124.0,W NEWHALL AVENUE,WAUKESHA,WI,53186,
27200.0,MITCHELL HOLLOW ROAD,BELMONT,WI,53510,
,PELSDORF AVENUE,VILLAGE OF GRANTON,WI,54436,
308.0,SWANTON ROAD,MADISON,WI,53714,
,KELLY DRIVE,CITY OF MUSKEGO,WI,53150,
,MILKWEED LANE,PEWAUKEE,WI,53072,
1802.0,LAKE POINT DRIVE,MADISON,WI,53713,
412.0,AUSTIN STREET,SPARTA,WI,54656,
1155.0,WILLIAMSON STREET,MADISON,WI,53703,
1501.0,STEENSLAND DRIVE,MADISON,WI,53704,
10.0,MAPLE WOOD LANE,MADISON,WI,53704,
2743.0,PHEASANT RUN,COTTAGE GROVE,WI,53527,
21.0,TURNWOOD CIRCLE,VERONA,WI,53593,
3470.0,115TH STREET,VILLAGE OF FREDERIC,WI,54837,
6392.0,LAKESHORE ROAD,WINNECONNE,WI,54986,
1602.0,REDWOOD LANE,MADISON,WI,53711,
,EAST LINE ROAD,GILLETT,WI,54124,
5365.0,S BRENNAN DRIVE,CITY OF NEW BERLIN,WI,53146,
23916.0,STH 35,SIREN,WI,54872,
306.0,N BROOKS STREET,MADISON,WI,53715,
334.0,KENT LANE,MADISON,WI,53713,
165.0,S OAKWOOD ROAD,OSHKOSH,WI,54904,
8483.0,MILLER ROAD,VERONA,WI,53593,
601.0,TAMARACK TRAIL,VILLAGE OF HOLMEN,WI,54636,
,CTH O,PRENTICE,WI,54556,
2644.0,61ST AVENUE,OSCEOLA,WI,54020,
13281.0,W CTH C,VILLAGE OF EXELAND,WI,54835,
349.0,GREENMEADOW DRIVE,WAUKESHA,WI,53188,
23945.0,CTH OO,TOMAH,WI,54660,
305.0,PARK STREET,VILLAGE OF HOLMEN,WI,54636,
20324.0,CTH AA,SPARTA,WI,54656,
2302.0,UNIVERSITY AVENUE,MADISON,WI,53726,
,HERAM ROAD,VILLAGE OF HOLMEN,WI,54636,
2058.0,CREST COURT,OSHKOSH,WI,54904,
54982.0,SCENIC VIEW ROAD,VILLAGE OF GAYS MILLS,WI,54631,
103.0,2ND AVENUE,CITY OF AMERY,WI,54001,
409.0,N THOMPSON DRIVE,MADISON,WI,53714,
1210.0,PINE STREET,SUN PRAIRIE,WI,53590,
360.0,CTH NN  E,MUKWONAGO,WI,53149,
1840.0,ROCKY RIDGE ROAD,CUSTER,WI,54423,
6731.0,PARK EDGE DRIVE,MADISON,WI,53719,
2355.0,S 170TH STREET,CITY OF NEW BERLIN,WI,53151,
2415.0,SPRING ROSE ROAD,VERONA,WI,53593,
3810.0,ST CLAIR STREET,MADISON,WI,53711,
,OAKMONT COURT E,PEWAUKEE,WI,53072,
,FAIRWAY DRIVE,CITY OF FORT ATKINSON,WI,53538,
22303.0,TRUMAN ROAD,DARLINGTON,WI,53530,
28704.0,MCKENZIE ROAD,SPOONER,WI,54801,
372.0,30TH AVENUE,CLEAR LAKE,WI,54005,
3601.0,S 147TH STREET,CITY OF NEW BERLIN,WI,53151,
112.0,HARRISON STREET,NEENAH,WI,54956,
202.0,ROYAL COURT,CITY OF APPLETON,WI,54915,
2559.0,UNIVERSITY AVENUE,MADISON,WI,53705,
7756.0,CARRINGTON DRIVE,MADISON,WI,53719,
2490.0,HICKORY LANE,OSHKOSH,WI,54901,
23.0,N GRANT STREET,GLIDDEN,WI,54527,
1305.0,BEAR PASS,MUKWONAGO,WI,53149,
3526.0,INTERNATIONAL LANE,MADISON,WI,53704,
,SANDHILL AVENUE,VILLAGE OF GRANTON,WI,54436,
3554.0,W SHADY LANE,NEENAH,WI,54956,
2640.0,NAGAWICKA AVENUE,DELAFIELD,WI,53018,
1742.0,TAFT AVENUE,OSHKOSH,WI,54902,
7027.0,FAWN LANE,SUN PRAIRIE,WI,53590,
139.0,S GRAND AVENUE,WAUKESHA,WI,53186,
688.0,MOODY ROAD,ST. CROIX FALLS,WI,54024,
2225.0,STATE STREET,CITY OF LA CROSSE,WI,54601,
14955.0,FERRY ROAD,GRANTSBURG,WI,54840,
4839.0,BOOT LAKE ROAD,TOWN OF PHELPS,WI,54554,
224.0,NINTH STREET,MENASHA,WI,54952,
12955.0,W WOODFIELD LANE,CITY OF NEW BERLIN,WI,53151,
13717.0,RED ROCK ROAD,DARLINGTON,WI,53530,
201.0,N WALBRIDGE AVENUE,MADISON,WI,53714,
627.0,TWELFTH STREET,MENASHA,WI,54952,
1650.0,RAINBOW DRIVE,OSHKOSH,WI,54902,
1442.0,HANOVER PLACE,VILLAGE OF WAUNAKEE,WI,53597,
324.0,W MILWAUKEE STREET,CITY OF STOUGHTON,WI,53589,
42902.0,MYERS LANE,BOSCOBEL,WI,53805,
1005.0,STANFORD DRIVE,VILLAGE OF WAUNAKEE,WI,53597,
649.0,TAMARACK WAY,VERONA,WI,53593,
,CHERRYWOOD DRIVE,CITY OF MUSKEGO,WI,53150,
20800.0,SWENSON DRIVE,WAUKESHA,WI,53186,
1211.0,W WISCONSIN AVENUE,OCONOMOWOC,WI,53066,
,BADGER AVENUE,UNITY,WI,54488,
,W KENYON ROAD,CITY OF BLACK RIVER FALLS,WI,54615,
350.0,S HAMILTON STREET,MADISON,WI,53703,
100.0,WISCONSIN AVENUE,MADISON,WI,53703,
613.0,BRIAN'S ROAD,TOWN OF LA POINTE,WI,54850,
408.0,S 1ST STREET,WINNECONNE,WI,54986,
1912.0,ATWOOD AVENUE,MADISON,WI,53704,
1521.0,LOSEY BOULEVARD S,CITY OF LA CROSSE,WI,54601,
1115.0,ENTERPRISE DRIVE,VERONA,WI,53593,
503.0,EAGLE HEIGHTS,MADISON,WI,53705,
2321.0,GENEVA STREET,OSHKOSH,WI,54901,
4512.0,N HEWITTS POINT ROAD,OCONOMOWOC,WI,53066,
,BLUEBIRD DRIVE,VILLAGE OF MERRILLAN,WI,54754,
2782.0,CROSS COUNTRY CIRCLE,VERONA,WI,53593,
246.0,E CHURCH STREET,JEFFERSON,WI,53549,
695.0,KELLY AVENUE,VILLAGE OF DRESSER,WI,54009,
54496.0,SMITH ROAD,VILLAGE OF FERRYVILLE,WI,54628,
361.0,GRANDVIEW AVENUE,MENASHA,WI,54952,
14.0,WALLINGFORD CIRCLE,MADISON,WI,53717,
15.0,STURBRIDGE CIRCLE,MADISON,WI,53717,
619.0,W MIFFLIN STREET,MADISON,WI,53703,
6867.0,4TH STREET,CITY OF STEVENS POINT,WI,54482,
5663.0,DORCAS CIRCLE,OREGON,WI,53575,
301.0,NORRIS COURT,MADISON,WI,53703,
,COLLEGE AVENUE,CITY OF MUSKEGO,WI,53150,
1746.0,OCONTO DRIVE,SUN PRAIRIE,WI,53590,
3330.0,S CATAMOUNT DRIVE,CITY OF NEW BERLIN,WI,53146,
7866.0,N HIGHLAND AVENUE,HAYWARD,WI,54843,
29722.0,ARBUTUS DRIVE,DANBURY,WI,54830,
318.0,E MARY STREET,DARLINGTON,WI,53530,
403.0,E SHERMAN AVENUE,CITY OF FORT ATKINSON,WI,53538,
,WOODLAND HILL DRIVE,DELAFIELD,WI,53018,
,HAGEN ROAD,CITY OF LA CROSSE,WI,54601,
5090.0,N 126TH STREET,BUTLER,WI,53007,
6411.0,E DECORAH AVENUE,OSHKOSH,WI,54902,
1.0,FREDERICK CIRCLE,MADISON,WI,53711,
2020.0,CONTINENTAL LANE,CROSS PLAINS,WI,53528,
21050.0,BLACK WALNUT LANE,BROOKFIELD,WI,53045,
,BLACKHAWK ISL ROAD,CITY OF FORT ATKINSON,WI,53538,
3257.0,STH 35,VILLAGE OF FREDERIC,WI,54837,
1524.0,HELMINSKI ROAD,TOWN OF ARBOR VITAE,WI,54568,
1713.0,NORTHFIELD PLACE,MADISON,WI,53704,
7604.0,CASTLE AVENUE,SPARTA,WI,54656,
5437.0,PATRIOT DRIVE,MADISON,WI,53718,
15904.0,HANOVER ROAD,SPARTA,WI,54656,
1196.0,FOSTER STREET,RIVER FALLS,WI,54022,
2805.0,E WASHINGTON AVENUE,MADISON,WI,53704,
1529.0,STH 27,SPARTA,WI,54656,
1515.0,S 9 STREET,WATERTOWN,WI,53094,
712.0,MAIN STREET E,ASHLAND,WI,54806,
,POND ROAD,CITY OF FORT ATKINSON,WI,53538,
813.0,OAK RIDGE DRIVE,WAUKESHA,WI,53188,
2970.0,MILWAUKEE STREET,MADISON,WI,53704,
824.0,WINNEBAGO AVENUE,OSHKOSH,WI,54901,
704.0,FREMONT STREET,LAKE MILLS,WI,53551,
26543.0,CTH EW,VILLAGE OF WARRENS,WI,54666,
5831.0,LUPINE LANE,MADISON,WI,53718,
1818.0,WYATT AVENUE,CITY OF STEVENS POINT,WI,54481,
,SCHOOL SECTION LAKE ROAD,VILLAGE OF DOUSMAN,WI,53118,
,PHEASANT RUN,WAUKESHA,WI,53189,
4756.0,MURPHY ROAD,OREGON,WI,53575,
,KESHENA LAKE ROAD,KESHENA,WI,54135,
405.0,S PARK STREET,MADISON,WI,53715,
,OXFORD STREET,VILLAGE OF MENOMONEE FALLS,WI,53051,
,MAPLE ROAD,CITY OF NEILLSVILLE,WI,54456,
40.0,BAGLEY COURT,MADISON,WI,53705,
1031.0,MILLS STREET,BLACK EARTH,WI,53515,
1147.0,JOHNSON CREEK ROAD,TOWN OF ARBOR VITAE,WI,54568,
13080.0,W RADISSON DRIVE,CITY OF NEW BERLIN,WI,53151,
,PANTHER CREEK ROAD,VILLAGE OF GRANTON,WI,54436,
727.0,LAFAYETTE STREET,WATERTOWN,WI,53094,
,MANCHESTER DRIVE,VILLAGE OF MENOMONEE FALLS,WI,53051,
1925.0,MADERA STREET,WAUKESHA,WI,53189,
3509.0,MAMMOTH TRAIL,MADISON,WI,53719,
709.0,ORION TRAIL,MADISON,WI,53718,
1243.0,FOX RIVER COURT,MUKWONAGO,WI,53149,
7092.0,PATTON ROAD,VILLAGE OF DEFOREST,WI,53532,
6305.0,NELSON LAKE ROAD,CITY OF EAGLE RIVER,WI,54521,
1374.0,MARICOPA DRIVE,OSHKOSH,WI,54904,
,ASH DRIVE,VILLAGE OF MENOMONEE FALLS,WI,53051,
2228.0,GEORGE STREET,CITY OF LA CROSSE,WI,54603,
3913.0,MAMMOTH TRAIL,MADISON,WI,53719,
611.0,CHERRY LANE S,VILLAGE OF HOLMEN,WI,54636,
,TOWNSHIP CORNERS ROAD,KENNAN,WI,54537,
219.0,W NEWHALL AVENUE,WAUKESHA,WI,53186,
20720.0,STH 11,SHULLSBURG,WI,53586,
1400.0,LONGWOOD AVENUE,VILLAGE OF ELM GROVE,WI,53122,
511.0,E CAPITOL DRIVE,HARTLAND,WI,53029,
612.0,ROBERT STREET S,GRANTSBURG,WI,54840,
1111.0,E 2ND STREET,CITY OF NEILLSVILLE,WI,54456,
125.0,HAZEL STREET,NEENAH,WI,54956,
810.0,GRANDVIEW DRIVE,VILLAGE OF ELM GROVE,WI,53122,
1519.0,BUTLER DRIVE,WAUKESHA,WI,53186,
2205.0,CARLING DRIVE,MADISON,WI,53711,
1250.0,CLIFF SHADE ROAD,VILLAGE OF HOLMEN,WI,54636,
29443.0,CTH PC,VILLAGE OF CASHTON,WI,54619,
711.0,VINE AVENUE,OSHKOSH,WI,54901,
5198.0,PHEASANT BRANCH ROAD,VILLAGE OF WAUNAKEE,WI,53597,
800.0,TAYCO STREET,MENASHA,WI,54952,
730.0,S CALHOUN ROAD,BROOKFIELD,WI,53005,
,MUSSER HEIGHTS LANE,CITY OF PHILLIPS,WI,54555,
13975.0,W LINFIELD DRIVE,CITY OF NEW BERLIN,WI,53151,
,BARK RIVER ROAD,HARTLAND,WI,53029,
705.0,REDLAND DRIVE,MADISON,WI,53714,
5515.0,FANTAIL AVENUE,SPARTA,WI,54656,
125.0,JEFFERSON AVENUE,OMRO,WI,54963,
,SOUTHERN DRIVE,VILLAGE OF WEST SALEM,WI,54669,
4689.0,MURPHY COURT,MIDDLETON,WI,53562,
1230.0,N THOMPSON ROAD,SUN PRAIRIE,WI,53590,
1021.0,JOHNSON STREET,ONALASKA,WI,54650,
343.0,W HARRISON STREET,SHULLSBURG,WI,53586,
3606.0,S PENINSULA ROAD,WEBSTER,WI,54893,
21875.0,FOXHAVEN RUN,WAUKESHA,WI,53186,
556.0,STATE STREET,MADISON,WI,53703,
,STH 21,BERLIN,WI,54923,
4170.0,N 166TH STREET,BROOKFIELD,WI,53005,
303.0,MEMORIAL DRIVE,CITY OF FORT ATKINSON,WI,53538,
2715.0,BIRCHWOOD PASS,CROSS PLAINS,WI,53528,
545.0,BAY VIEW ROAD,MUKWONAGO,WI,53149,
1926.0,HAWKS RIDGE DRIVE,VERONA,WI,53593,
181.0,120TH STREET,VILLAGE OF DEER PARK,WI,54007,
2101.0,KENSINGTON DRIVE,WAUKESHA,WI,53188,
5127.0,SOUTHWIND DRIVE,WINNECONNE,WI,54986,
1710.0,KENNETH STREET,MADISON,WI,53711,
206.0,SKI COURT,MADISON,WI,53713,
615.0,W JOHNSON STREET,MADISON,WI,53706,
19501.0,W GREENFIELD AVENUE,CITY OF NEW BERLIN,WI,53146,
249.0,ENTERPRISE ROAD,DELAFIELD,WI,53018,
801.0,BRAXTON PLACE,MADISON,WI,53715,
376.0,SUNSHINE DRIVE,HARTLAND,WI,53029,
412.0,THERESA STREET,WATERTOWN,WI,53094,
9121.0,WATERSIDE STREET,MIDDLETON,WI,53562,
919.0,SPRING STREET,MADISON,WI,53715,
,CTH NZ,NESHKORO,WI,54960,
,MEADOWLARK LANE,HARTLAND,WI,53029,
,MORAINE VIEW DRIVE,DELAFIELD,WI,53018,
,WHITE FLOWER COURT,KESHENA,WI,54135,
2216.0,HENRY STREET,NEENAH,WI,54956,
2431.0,MAPLEWOOD DRIVE,PLOVER,WI,54467,
1511.0,DEERWOOD DRIVE,NEENAH,WI,54956,
155.0,E WILSON STREET,MADISON,WI,53703,
103.0,W MAIN STREET,EAGLE,WI,53119,
252.0,S MORELAND BOULEVARD,WAUKESHA,WI,53188,
301.0,NEWCASTLE WAY,MADISON,WI,53704,
214.0,E MILW AVENUE,CITY OF FORT ATKINSON,WI,53538,
1164.0,BARTOSH LANE,RIVER FALLS,WI,54022,
202.0,ACEWOOD BOULEVARD,MADISON,WI,53714,
3924.0,SUNSET DRIVE,MOSINEE,WI,54455,
612.0,CLUB HOUSE DRIVE,ASHLAND,WI,54806,
8162.0,STAGECOACH ROAD,CROSS PLAINS,WI,53528,
1.0,KESSEL COURT,MADISON,WI,53711,
646.0,ORION TRAIL,MADISON,WI,53718,
172.0,N BROOKFIELD ROAD,BROOKFIELD,WI,53045,
18580.0,TAMARACK DRIVE,BROOKFIELD,WI,53045,
1612.0,MURRAY AVENUE,WAUKESHA,WI,53186,
425.0,TROY DRIVE,MADISON,WI,53704,
2115.0,CTH D,TOWN OF LAC DU FLAMBEAU,WI,54538,
765.0,138TH STREET,CITY OF AMERY,WI,54001,
350.0,W WILSON STREET,MADISON,WI,53703,
519.0,MULBERRY STREET,LAKE MILLS,WI,53551,
,VISTA DRIVE,HARTLAND,WI,53029,
1210.0,MCKENNA BOULEVARD,MADISON,WI,53719,
7259.0,W OLD SAUK ROAD,MIDDLETON,WI,53562,
8301.0,MANSION HILL AVENUE,MADISON,WI,53719,
341.0,E LINDEN DRIVE,JEFFERSON,WI,53549,
14131.0,LONGS POINT LANE,TOWN OF LAC DU FLAMBEAU,WI,54538,
,APPLETON AVENUE,VILLAGE OF MENOMONEE FALLS,WI,53051,
740.0,BALTZELL STREET,MADISON,WI,53711,
5.0,ALAMOSA COURT,MADISON,WI,53719,
149.0,WIMBLEDON LANE,VILLAGE OF HOLMEN,WI,54636,
,BLACK OAK COURT W,WAUKESHA,WI,53189,
927.0,BROOKWOOD COURT,OSHKOSH,WI,54902,
110.0,FARLEY AVENUE,MADISON,WI,53705,
314.0,238TH STREET,OSCEOLA,WI,54020,
532.0,LIBERTY STREET,CITY OF LA CROSSE,WI,54603,
,MEADOWBROOK ROAD,PEWAUKEE,WI,53072,
20180.0,W LINCOLN AVENUE,CITY OF NEW BERLIN,WI,53146,
,GOLDEN LAKE PARK CIRCLE,OCONOMOWOC,WI,53066,
,SYLVAN TRAIL,WAUKESHA,WI,53188,
10370.0,BRATTLIE ROAD,VILLAGE OF MOUNT HOREB,WI,53572,
1814.0,LIBERTY STREET,CITY OF LA CROSSE,WI,54603,
2214.0,CASS STREET,CITY OF LA CROSSE,WI,54601,
630.0,LAKE STREET,RIVER FALLS,WI,54022,
730.0,RIVERS EDGE STREET,PRENTICE,WI,54556,
909.0,CHAPEL HILL ROAD,MADISON,WI,53711,
4114.0,MONONA DRIVE,MADISON,WI,53716,
525.0,LIBERTY STREET,CITY OF LA CROSSE,WI,54603,
,CTH E,WATERTOWN,WI,53094,
1109.0,PAINTED POST DRIVE,MADISON,WI,53716,
,ROAD GG,VILLAGE OF DOUSMAN,WI,53118,
73.0,GOLF COURSE ROAD,MADISON,WI,53704,
6708.0,SCHROEDER ROAD,MADISON,WI,53711,
8980.0,CTH Y,VILLAGE OF SAUK CITY,WI,53583,
785.0,UNIVERSITY AVENUE,MADISON,WI,53715,
432.0,MAIN STREET,DELAFIELD,WI,53018,
4601.0,PFLAUM ROAD,MADISON,WI,53718,
2920.0,ROBINSDALE AVENUE,CITY OF LA CROSSE,WI,54601,
1625.0,MIEROW LANE,BROOKFIELD,WI,53045,
2333.0,PEBBLE VALLEY ROAD,WAUKESHA,WI,53188,
500.0,LARUM LANE,CITY OF STOUGHTON,WI,53589,
,CTH EE,MUKWONAGO,WI,53149,
,HWY 10,MAIDEN ROCK,WI,54750,
465.0,W RAVENSWOOD HILLS CIRCLE,BROOKFIELD,WI,53045,
6235.0,CHARING CROSS LANE,MIDDLETON,WI,53562,
1510.0,S 9 STREET,WATERTOWN,WI,53094,
4710.0,MARTHA LANE,MADISON,WI,53714,
4113.0,ODANA ROAD,MADISON,WI,53711,
422.0,N HIGH STREET,CITY OF FORT ATKINSON,WI,53538,
,RIEBER LANE,MELROSE,WI,54642,
,STH 162,BANGOR,WI,54614,
612.0,N BRISTOL STREET,SUN PRAIRIE,WI,53590,
6949.0,KIPPLEY ROAD,VILLAGE OF SAUK CITY,WI,53583,
,SHERIDAN DRIVE,VILLAGE OF MENOMONEE FALLS,WI,53051,
2791.0,JENSSEN ROAD,VILLAGE OF FREDERIC,WI,54837,
714.0,WILLOW RUN STREET,COTTAGE GROVE,WI,53527,
0.0,W FAWN LAKE ROAD,TOWN OF MANITOWISH WATERS,WI,54545,
109.0,MAY STREET,TOMAH,WI,54660,
3072.0,23RD STREET S,CITY OF LA CROSSE,WI,54601,
,N RIDGEVIEW CIRCLE,VILLAGE OF SUSSEX,WI,53089,
1467.0,COWLING BAY ROAD,NEENAH,WI,54956,
440.0,W JOHNSON STREET,MADISON,WI,53703,
24235.0,CLAM LAKE DRIVE,SIREN,WI,54872,
313.0,W BRISTOL STREET,MELROSE,WI,54642,
615.0,W JOHNSON STREET,MADISON,WI,53706,
502.0,N FRANCES STREET,MADISON,WI,53703,
,CTH G,VILLAGE OF WILD ROSE,WI,54984,
2034.0,BAKER ROAD,BALSAM LAKE,WI,54810,
,WILL ROAD,JEFFERSON,WI,53549,
9052.0,N STH 27,HAYWARD,WI,54843,
5927.0,OAK HOLLOW DRIVE,VILLAGE OF MCFARLAND,WI,53558,
4704.0,SHORE ACRES ROAD,MADISON,WI,53716,
2264.0,GOLF VIEW DRIVE,RIVER FALLS,WI,54022,
2926.0,SACHS STREET,MADISON,WI,53704,
5.0,KINGSWOOD CIRCLE,VERONA,WI,53593,
710.0,LEONARD STREET,MADISON,WI,53711,
12525.0,W HICKORY ROAD,CITY OF NEW BERLIN,WI,53151,
223.0,PARK STREET,VILLAGE OF WALES,WI,53183,
0.0,N GUNLOCK LAKE ROAD,TOWN OF LAC DU FLAMBEAU,WI,54548,
,CTH G,WATERTOWN,WI,53094,
1190.0,APPLE COURT,OSHKOSH,WI,54902,
6516.0,WHITTLESEY ROAD,MIDDLETON,WI,53562,
4580.0,CAMP 2 ROAD,STAR LAKE,WI,54521,
4715.0,SHEBOYGAN AVENUE,MADISON,WI,53705,
1337.0,BOUNDARY ROAD,MIDDLETON,WI,53562,
11464.0,W ORIOLE LANE,HAYWARD,WI,54843,
2545.0,COACH HOUSE DRIVE,BROOKFIELD,WI,53045,
10260.0,AKRON AVENUE,ALMOND,WI,54909,
,ROGER DRIVE,CITY OF MUSKEGO,WI,53150,
2306.0,BRENTWOOD PARKWAY,MADISON,WI,53704,
790.0,S SPRINGDALE ROAD,WAUKESHA,WI,53186,
6314.0,DYLYN DRIVE,MADISON,WI,53719,
,SYLVESTER ROAD,VILLAGE OF HOLMEN,WI,54636,
12415.0,LA FAVE ROAD,TOWN OF BOULDER JUNCTION,WI,54545,
315.0,S PARK BOULEVARD,BROOKFIELD,WI,53005,
1918.0,70TH AVENUE,VILLAGE OF DRESSER,WI,54009,
1660.0,MONROE STREET,MADISON,WI,53711,
58.0,BARTON ROAD,OSHKOSH,WI,54904,
3630.0,CALVERT ROAD,CITY OF LA CROSSE,WI,54601,
206.0,S THIRD STREET W,CITY OF FORT ATKINSON,WI,53538,
5664.0,TALL OAKS ROAD,VILLAGE OF WAUNAKEE,WI,53597,
2533.0,PRAIRIE STREET,CITY OF STEVENS POINT,WI,54481,
4901.0,PAGE LANE,BLACK EARTH,WI,53515,
1.0,WHITEFISH COURT,MADISON,WI,53718,
137.0,E WILSON STREET,MADISON,WI,53703,
4340.0,PILGRIM ROAD,BROOKFIELD,WI,53005,
102.0,VENUS WAY,MADISON,WI,53718,
309.0,W WASHINGTON AVENUE,MADISON,WI,53703,
0.0,N FARMING ROAD,TOWN OF ARBOR VITAE,WI,54568,
2583.0,N EAST SHORE DRIVE,BIRCHWOOD,WI,54817,
2642.0,VAN HISE AVENUE,MADISON,WI,53705,
,S MINNOW LAKE ROAD,CITY OF PHILLIPS,WI,54555,
710.0,S GAMMON ROAD,MADISON,WI,53719,
2040.0,LINCOLN AVENUE,CITY OF STEVENS POINT,WI,54481,
,COUNTRY LANE,VILLAGE OF MENOMONEE FALLS,WI,53051,
1147.0,IRVING PLACE,WAUKESHA,WI,53188,
360.0,W WASHINGTON AVENUE,MADISON,WI,53703,
3650.0,OLD VINEYARD ROAD,CITY OF LA CROSSE,WI,54601,
,CENTURY ROAD,GREENWOOD,WI,54437,
3959.0,S CAMROSE AVENUE,CITY OF NEW BERLIN,WI,53151,
141.0,N BLANDING WOODS ROAD,ST. CROIX FALLS,WI,54024,
435.0,6TH AVENUE S,CITY OF PARK FALLS,WI,54552,
2472.0,ST ALBERT THE GREAT DRIVE,SUN PRAIRIE,WI,53590,
403.0,10TH AVENUE,OSCEOLA,WI,54020,
523.0,WINGRA STREET,MADISON,WI,53715,
,S MOUND ROAD,CITY OF NEILLSVILLE,WI,54456,
613.0,WOODVIEW DRIVE,SUN PRAIRIE,WI,53590,
605.0,MARK DRIVE,VERONA,WI,53593,
4901.0,LIEN ROAD,MADISON,WI,53704,
5400.0,MORMON COULEE ROAD,CITY OF LA CROSSE,WI,54601,
404.0,S L STREET,SPARTA,WI,54656,
1325.0,PARKSIDE COURT,OSHKOSH,WI,54901,
430.0,E VERONA AVENUE,VERONA,WI,53593,
,635TH STREET,ELLSWORTH,WI,54011,
5623.0,KALAS STREET,MADISON,WI,53716,
16893.0,HELMET ROAD,TOMAH,WI,54660,
2010.0,ASHLAND STREET,OSHKOSH,WI,54901,
1105.0,MCKENNA BOULEVARD,MADISON,WI,53719,
1702.0,HIDDEN HILL DRIVE,VERONA,WI,53593,
4222.0,MANDRAKE ROAD,MADISON,WI,53704,
202.0,WILSON STREET,VILLAGE OF MOUNT HOREB,WI,53572,
,RIVERLANDS CIRCLE,VILLAGE OF MENOMONEE FALLS,WI,53051,
10867.0,W TOWN HALL ROAD,HAYWARD,WI,54843,
615.0,W SMITH AVENUE,OSHKOSH,WI,54901,
3500.0,OAK HILL LANE,CITY OF EAGLE RIVER,WI,54521,
187.0,WILSON AVENUE,VILLAGE OF DOUSMAN,WI,53118,
4306.0,CRITCHELL TERRACE,MADISON,WI,53711,
1513.0,PARKSIDE DRIVE,MADISON,WI,53704,
414.0,W OVERLOOK DRIVE,ELLSWORTH,WI,54011,
122.0,N OAKRIDGE DRIVE,VILLAGE OF NORTH PRAIRIE,WI,53153,
5886.0,WOODLAND DRIVE,VILLAGE OF WAUNAKEE,WI,53597,
1516.0,WHEELER ROAD,MADISON,WI,53704,
5242.0,ESKER DRIVE,MADISON,WI,53704,
,TERRACE DRIVE,VILLAGE OF NASHOTAH,WI,53058,
,LAKE PARK DRIVE,VILLAGE OF MENOMONEE FALLS,WI,53051,
226.0,W WILSON AVENUE,VILLAGE OF ELMWOOD,WI,54740,
1665.0,BARBER ROAD,BLUE MOUNDS,WI,53517,
1118.0,PERCH LAKE ROAD,CITY OF EAGLE RIVER,WI,54521,
14.0,S GARDENS WAY,MADISON,WI,53711,
2811.0,WINDHURST DRIVE,OSHKOSH,WI,54904,
4664.0,N CTH W,WINTER,WI,54896,
416.0,W WASHINGTON AVENUE,MADISON,WI,53703,
1202.0,REDWOOD STREET,ONALASKA,WI,54650,
30196.0,W DES MOINES LAKE ROAD,DANBURY,WI,54830,
33166.0,LARRY LANE,PRAIRIE DU CHIEN,WI,53821,
503.0,BETHESDA COURT,WAUKESHA,WI,53186,
3607.0,N OGDEN AVENUE,RADISSON,WI,54867,
151.0,LAKEWOOD BOULEVARD,MADISON,WI,53704,
609.0,DOWNING DRIVE,WAUKESHA,WI,53186,
161.0,RODNEY COURT,MADISON,WI,53715,
1114.0,130TH STREET,CITY OF AMERY,WI,54001,
318.0,4TH STREET,NEENAH,WI,54956,
,WEATHERWOOD CIRCLE,CITY OF MUSKEGO,WI,53150,
409.0,N MIDVALE BOULEVARD,MADISON,WI,53705,
538.0,GRANDVIEW COURT,PEWAUKEE,WI,53072,
,STH 21,WAUTOMA,WI,54982,
1025.0,SUNDT LANE,CITY OF STOUGHTON,WI,53589,
1598.0,NELSON COURT,NEENAH,WI,54956,
211.0,N PRAIRIE AVENUE,WAUKESHA,WI,53186,
565.0,KENSINGTON SQUARE,CITY OF STOUGHTON,WI,53589,
119.0,HIGHLAND AVENUE,HARTLAND,WI,53029,
2487.0,170TH STREET,LUCK,WI,54853,
4221.0,VENETIAN LANE,MADISON,WI,53718,
8.0,HOLLYWOOD DRIVE,MADISON,WI,53713,
404.0,W OAK STREET,COTTAGE GROVE,WI,53527,
1602.0,DROTNING ROAD,CITY OF STOUGHTON,WI,53589,
5239.0,S GUERIN PASS,CITY OF NEW BERLIN,WI,53151,
6963.0,SILVER DAWN DRIVE,MADISON,WI,53718,
,SQUIRE LANE,MUKWONAGO,WI,53149,
,4TH AVENUE,HANCOCK,WI,54943,
441.0,RIVER HILLS ROAD N,RIVER FALLS,WI,54022,
5236.0,BERRY ROAD,TOWN OF LAND O'LAKES,WI,54540,
555.0,S MIDVALE BOULEVARD,MADISON,WI,53711,
12967.0,N LODGE ROAD,HAYWARD,WI,54843,
,BELLEVIEW AVENUE,OCONOMOWOC,WI,53066,
,LAKESHORE DRIVE,VILLAGE OF BUTTERNUT,WI,54514,
,860TH STREET,ELLSWORTH,WI,54011,
1110.0,DANIEL COURT,NEENAH,WI,54956,
7234.0,CTH O,TOMAH,WI,54660,
,JERICHO DRIVE,EAGLE,WI,53119,
1108.0,CARTER COURT,VERONA,WI,53593,
6935.0,COUNTRY LANE,MADISON,WI,53719,
4406.0,MARYLAND DRIVE,MADISON,WI,53704,
,HWY 12,CITY OF BLACK RIVER FALLS,WI,54615,
0.0,TOMAHAWK LANE,TOWN OF ST. GERMAIN,WI,54558,
4151.0,FERNDALE LANE,CITY OF LA CROSSE,WI,54601,
900.0,SMEDAL DRIVE,CITY OF STOUGHTON,WI,53589,
,WAMBOLD ROAD,MUKWONAGO,WI,53149,
2338.0,KRAUSE ROAD,ONALASKA,WI,54650,
1165.0,WHITE ROCK AVENUE,WAUKESHA,WI,53186,
5224.0,PRESERVATION PLACE,SUN PRAIRIE,WI,53590,
902.0,N HIGH POINT ROAD,MADISON,WI,53717,
1302.0,N WHITEFISH LAKE LANE,TOWN OF LAC DU FLAMBEAU,WI,54548,
1001.0,DRESEN COURT,VILLAGE OF WAUNAKEE,WI,53597,
1020.0,SUMMIT AVENUE,WAUKESHA,WI,53188,
3595.0,N BIRCH LANE,RADISSON,WI,54867,
245.0,S MAIN STREET,LUCK,WI,54853,
11515.0,N EAGLE LANE,HAYWARD,WI,54843,
225.0,N 9TH STREET,CITY OF EAGLE RIVER,WI,54521,
15365.0,W KINGSWAY DRIVE,CITY OF NEW BERLIN,WI,53151,
12630.0,W GLENDALE AVENUE,BUTLER,WI,53007,
308.0,S EATON AVENUE,GREENWOOD,WI,54437,
2221.0,SIMS PLACE,CITY OF LA CROSSE,WI,54601,
841.0,CALLISTO DRIVE,MADISON,WI,53718,
8336.0,KEMPF ROAD,WINNECONNE,WI,54986,
519.0,STATE STREET,MADISON,WI,53703,
717.0,E WABASH AVENUE,WAUKESHA,WI,53186,
14140.0,W NORTH OAK COURT,CITY OF NEW BERLIN,WI,53151,
226.0,SWANTON ROAD,MADISON,WI,53714,
7321.0,WHITACRE ROAD,MADISON,WI,53717,
5756.0,SANDPIPER DRIVE,CITY OF STEVENS POINT,WI,54482,
,SPARROW AVENUE,LOYAL,WI,54446,
491.0,WHITE TAIL DRIVE,SUN PRAIRIE,WI,53590,
,CEDAR ROAD,CITY OF LA CROSSE,WI,54601,
766.0,SHADY LANE,OCONOMOWOC,WI,53066,
110.0,CORRINA BOULEVARD,WAUKESHA,WI,53186,
12765.0,W HAMPTON AVENUE,BUTLER,WI,53007,
1818.0,ELLEN AVENUE,MADISON,WI,53716,
7237.0,TEMPE DRIVE,MADISON,WI,53719,
5230.0,N N MAIN STREET,WINTER,WI,54896,
5505.0,MONONA PASS,MADISON,WI,53716,
,WOODS EDGE COURT,PEWAUKEE,WI,53072,
,EVERGREEN LANE,VILLAGE OF MERRILLAN,WI,54754,
12942.0,W CTH OO,HAYWARD,WI,54843,
913.0,BRIAR HILL DRIVE,WAUKESHA,WI,53188,
1219.0,20TH STREET S,CITY OF LA CROSSE,WI,54601,
12860.0,W WEATHER CREEK DRIVE,CITY OF NEW BERLIN,WI,53151,
3814.0,GALA WAY,COTTAGE GROVE,WI,53527,
,MERLIN LANE,WAUKESHA,WI,53189,
,DEER HAVEN DRIVE,PEWAUKEE,WI,53072,
1210.0,WILLIAMS DRIVE,MUKWONAGO,WI,53149,
2807.0,JUNCTION ROAD,ASHLAND,WI,54806,
6805.0,BLUFF POINT DRIVE,MADISON,WI,53718,
,PERRY ROAD,CITY OF FORT ATKINSON,WI,53538,
3392.0,SWINBURNE DRIVE,VILLAGE OF MCFARLAND,WI,53558,
1328.0,WAPOGASSET COURT,CITY OF AMERY,WI,54001,
2710.0,HORSESHOE BEND,HARTLAND,WI,53029,
1690.0,DRUM CORPS DRIVE,MENASHA,WI,54952,
1800.0,PORTAGE STREET,CITY OF STEVENS POINT,WI,54481,
136.0,ALPINE MEADOWS COURT,OREGON,WI,53575,
357.0,N SHERMAN AVENUE,MADISON,WI,53704,
777.0,UNIVERSITY AVENUE,MADISON,WI,53715,
3810.0,HILLCREST DRIVE,MADISON,WI,53705,
412.0,S 10 STREET,WATERTOWN,WI,53094,
6235.0,S KARRINGTON LANE,CITY OF NEW BERLIN,WI,53151,
412.0,OAK AVENUE N,ONALASKA,WI,54650,
2581.0,SMITH'S CROSSING,SUN PRAIRIE,WI,53590,
2610.0,S STOUGHTON ROAD,MADISON,WI,53716,
2101.0,CARVER STREET,MADISON,WI,53713,
,CTH FF ROAD,HIXTON,WI,54635,
6137.0,S GULL TRAIL,DANBURY,WI,54830,
862.0,S MAIN STREET,OREGON,WI,53575,
1429.0,S CARRIAGE LANE,CITY OF NEW BERLIN,WI,53151,
53.0,HAWKS LANDING,VERONA,WI,53593,
10905.0,W CALLAHAN LAKE ROAD,HAYWARD,WI,54843,
338.0,MARK STREET N,VILLAGE OF WEST SALEM,WI,54669,
207.0,SHORE CIRCLE,OCONOMOWOC,WI,53066,
114.0,E PUERNER STREET,JEFFERSON,WI,53549,
124.0,ENGELKE DRIVE,BELMONT,WI,53510,
10802.0,W ELM CREEK ROAD,RADISSON,WI,54867,
19.0,MOCKINGBIRD LANE,MADISON,WI,53704,
5301.0,BRODY DRIVE,MADISON,WI,53705,
19055.0,HI VIEW DRIVE,BROOKFIELD,WI,53045,
874.0,LORINDA AVENUE,OMRO,WI,54963,
50.0,SCHROEDER COURT,MADISON,WI,53711,
1231.0,OLDE APPLE LANE,OSHKOSH,WI,54904,
7761.0,SUMMERFIELD DRIVE,VERONA,WI,53593,
229.0,NAUTILUS DRIVE,MADISON,WI,53705,
5477.0,GARDEN AVENUE,SPARTA,WI,54656,
110.0,S HENRY STREET,MADISON,WI,53703,
,S FISH LAKE ROAD,HANCOCK,WI,54943,
372.0,STERLING DRIVE,OREGON,WI,53575,
211.0,LINCOLN AVENUE,MUKWONAGO,WI,53149,
124.0,N WASHINGTON STREET,ST. CROIX FALLS,WI,54024,
976.0,BIRCH DRIVE,MOSINEE,WI,54455,
12840.0,W WEATHERSTONE BOULEVARD,CITY OF NEW BERLIN,WI,53151,
,CTH E,VILLAGE OF REDGRANITE,WI,54970,
3670.0,CHAPEL ROAD,BROOKFIELD,WI,53045,
1903.0,LOFTSGORDON AVENUE,MADISON,WI,53704,
5019.0,SHEBOYGAN AVENUE,MADISON,WI,53705,
,QUAIL RUN,VILLAGE OF SUSSEX,WI,53089,
190.0,S GRANT STREET,GLIDDEN,WI,54527,
1203.0,W BENT AVENUE,OSHKOSH,WI,54901,
5177.0,HORSE SHOE BEND,BENTON,WI,53803,
1386.0,ARBOR VITAE LANE,TOWN OF ARBOR VITAE,WI,54568,
,SIDNEY AVENUE,CITY OF NEILLSVILLE,WI,54456,
2028.0,N GLENDALE ROAD,OCONOMOWOC,WI,53066,
925.0,SUMMIT AVENUE,CITY OF STOUGHTON,WI,53589,
,PERTZSCH DRIVE,ONALASKA,WI,54650,
4710.0,N 148TH STREET,BROOKFIELD,WI,53005,
8544.0,W DIVISION STREET,SPARTA,WI,54656,
2301.0,AVIATION DRIVE,WAUKESHA,WI,53188,
360.0,W WASHINGTON AVENUE,MADISON,WI,53703,
3529.0,RAPIDS TRAIL,WAUKESHA,WI,53189,
1797.0,PINEWOOD ROAD,ST. CROIX FALLS,WI,54024,
0.0,N RAILROAD STREET,CITY OF EAGLE RIVER,WI,54521,
515.0,W MAIN STREET,MADISON,WI,53703,
10370.0,VILLAGE ROAD,GRATIOT,WI,53541,
227.0,SCHOOL ROAD,SUN PRAIRIE,WI,53590,
451.0,W WILSON STREET,MADISON,WI,53703,
,JUSTIN ROAD,CITY OF LA CROSSE,WI,54601,
1601.0,E BOOT LAKE ROAD,TOWN OF PHELPS,WI,54554,
918.0,DEMING WAY,MADISON,WI,53717,
29974.0,KLONDIKE AVENUE,KENDALL,WI,54638,
106.0,BRADFORD LANE,MADISON,WI,53714,
,BIG BEND DRIVE,BIG BEND,WI,53103,
504.0,EIGHTH STREET,VILLAGE OF WAUNAKEE,WI,53597,
1156.0,BEYER COURT,JEFFERSON,WI,53549,
3091.0,SUNNYSIDE STREET,CITY OF STOUGHTON,WI,53589,
,E PINE STREET,RIVER FALLS,WI,54022,
8110.0,MID TOWN ROAD,MADISON,WI,53719,
7670.0,DENVER ROAD,TOMAH,WI,54660,
,POPPLE RIVER ROAD,THORP,WI,54771,
17020.0,JUDITH LANE,BROOKFIELD,WI,53005,
1610.0,GATEWAY STREET,MIDDLETON,WI,53562,
14240.0,RIDGEWOOD ROAD,BROOKFIELD,WI,53005,
137.0,N FRANKLIN STREET,MADISON,WI,53703,
3910.0,HIGHLAND SHORE LANE,OSHKOSH,WI,54904,
300.0,WRIGHT ROAD,VILLAGE OF JOHNSON CREEK,WI,53038,
,APPLEWOOD LANE,MUKWONAGO,WI,53149,
721.0,PRINCETON COURT,HARTLAND,WI,53029,
1003.0,MEADOW LANE,NEENAH,WI,54956,
2979.0,OLLIE BELL ROAD,BENTON,WI,53803,
,180TH AVENUE,HAGER CITY,WI,54014,
301.0,DIVISION STREET,CITY OF STEVENS POINT,WI,54481,
14152.0,REX ROAD LANE,TOWN OF LAC DU FLAMBEAU,WI,54538,
1304.0,GEORGE STREET,CITY OF LA CROSSE,WI,54603,
13960.0,GARFIELD AVENUE,VILLAGE OF ELM GROVE,WI,53122,
4200.0,MAIN STREET,CITY OF STEVENS POINT,WI,54481,
627.0,PINE STREET,OMRO,WI,54963,
2846.0,LITTLE PINES ROAD,TOWN OF LAC DU FLAMBEAU,WI,54538,
2609.0,FAIRFIELD PLACE,MADISON,WI,53704,
2661.0,NORTHERN ROAD,CITY OF APPLETON,WI,54914,
2705.0,HAVENWOOD DRIVE,OSHKOSH,WI,54904,
,CTH A ROAD,CITY OF BLACK RIVER FALLS,WI,54615,
203.0,220TH AVENUE,COMSTOCK,WI,54826,
3200.0,S PINEWOOD CREEK COURT,CITY OF NEW BERLIN,WI,53151,
,ERIKA ROAD,VILLAGE OF MENOMONEE FALLS,WI,53051,
3812.0,CREEKSIDE LANE,VILLAGE OF HOLMEN,WI,54636,
,526TH AVENUE,CITY OF PRESCOTT,WI,54021,
105.0,DOTTIE COURT,VILLAGE OF WEST SALEM,WI,54669,
2714.0,MEADOWBROOK ROAD,WAUKESHA,WI,53188,
50.0,WHITCOMB CIRCLE,MADISON,WI,53711,
8703.0,W WEST FORK AVENUE,HAYWARD,WI,54843,
505.0,W MOHAWK TRAIL,VILLAGE OF DEFOREST,WI,53532,
6845.0,LITTLEMORE DRIVE,MADISON,WI,53718,
4560.0,N 161ST STREET,BROOKFIELD,WI,53005,
141.0,DENHARDT AVENUE,NEENAH,WI,54956,
820.0,N GAMMON ROAD,MADISON,WI,53717,
1049.0,ASPEN VALLEY DRIVE,ONALASKA,WI,54650,
,CORNFLOWER COURT,VILLAGE OF MENOMONEE FALLS,WI,53051,
,PENNINGTON ROAD,PRENTICE,WI,54556,
,DEBACK DRIVE,CITY OF MUSKEGO,WI,53150,
537.0,PAWLING STREET,MADISON,WI,53704,
9.0,WAUNONA WOODS COURT,MADISON,WI,53713,
,CTH J,PLAINFIELD,WI,54966,
6085.0,W BIG PORTAGE LAKE ROAD,TOWN OF LAND O'LAKES,WI,54540,
2708.0,SIMONIS STREET,CITY OF STEVENS POINT,WI,54481,
809.0,SPAHN DRIVE,VILLAGE OF WAUNAKEE,WI,53597,
1908.0,KAREN LANE,CITY OF STEVENS POINT,WI,54481,
5810.0,CRABAPPLE LANE,MADISON,WI,53711,
3726.0,NAKOMA ROAD,MADISON,WI,53711,
11270.0,N FORK DIKE ROAD,GRANTSBURG,WI,54840,
20413.0,W GOOD HOPE ROAD,VILLAGE OF LANNON,WI,53046,
5105.0,STAGE HOUSE TRAIL,MADISON,WI,53714,
,APPLETON AVENUE,VILLAGE OF MENOMONEE FALLS,WI,53051,
5555.0,TANCHO DRIVE,MADISON,WI,53718,
,32ND DRIVE,BERLIN,WI,54923,
,OGEMA PRENTICE ROAD,TOWN OF OGEMA,WI,54459,
,CTH N,NESHKORO,WI,54960,
101.0,RIVERSIDE DRIVE,MADISON,WI,53704,
1231.0,EASTMAN STREET,OSHKOSH,WI,54901,
5829.0,LITTLE PORTAGE LAKE ROAD,TOWN OF LAND O'LAKES,WI,54540,
409.0,LEMIRA AVENUE,WAUKESHA,WI,53188,
,MARKET DRIVE,VILLAGE OF MENOMONEE FALLS,WI,53051,
3002.0,LAKE MENDOTA DRIVE,MADISON,WI,53705,
,SCHULTZ LANE,ONALASKA,WI,54650,
607.0,WOOD LAWN WAY,VERONA,WI,53593,
1430.0,S RIVER ROAD,CITY OF NEW BERLIN,WI,53151,
217.0,S PRAIRIE AVENUE,DEERFIELD,WI,53531,
2814.0,WARNER STREET,MADISON,WI,53713,
7132.0,TREE LANE,MADISON,WI,53717,
7785.0,JACKPINE AVENUE,SPARTA,WI,54656,
417.0,MULBERRY DRIVE,DELAFIELD,WI,53018,
213.0,LINDEN COURT,NEENAH,WI,54956,
,CARMEN AVENUE,VILLAGE OF MENOMONEE FALLS,WI,53051,
0.0,CTH G,CITY OF EAGLE RIVER,WI,54521,
5934.0,WOODLAND DRIVE,VILLAGE OF WAUNAKEE,WI,53597,
,SWANSON COURT,VILLAGE OF SUSSEX,WI,53089,
2166.0,N HOFFMAN ROAD,VILLAGE OF EXELAND,WI,54835,
9.0,BLACK OAK CIRCLE,MADISON,WI,53711,
812.0,WOODROW STREET,MADISON,WI,53711,
607.0,EAGLE HEIGHTS,MADISON,WI,53705,
3020.0,WIS AVENUE,PLOVER,WI,54467,
3312.0,NORTH STONE CREEK CIRCLE,MADISON,WI,53719,
10231.0,110TH STREET S,CITY OF WISCONSIN RAPIDS,WI,54494,
2024.0,INNSBROOKE DRIVE,SUN PRAIRIE,WI,53590,
585.0,MOORLAND ROAD,MADISON,WI,53713,
103.0,N MAPLE STREET,WATERTOWN,WI,53094,
,BADGER LANE,VILLAGE OF WILD ROSE,WI,54984,
,HIXTON ROAD,FAIRCHILD,WI,54741,
5145.0,GRANDWOOD PLACE W,CITY OF LA CROSSE,WI,54601,
20860.0,GEORGE HUNT CIRCLE,WAUKESHA,WI,53186,
2972.0,BAILEY ROAD,SUN PRAIRIE,WI,53590,
20984.0,CTH P,VILLAGE OF ONTARIO,WI,54651,
1728.0,PARK STREET,MIDDLETON,WI,53562,
,CENTER ROAD,VILLAGE OF DORCHESTER,WI,54425,
12700.0,W EUCLID AVENUE,CITY OF NEW BERLIN,WI,53151,
3509.0,CLIFFSIDE DRIVE,CITY OF LA CROSSE,WI,54601,
225.0,BAY VIEW ROAD,MUKWONAGO,WI,53149,
313.0,N MEADOW LANE,MADISON,WI,53705,
4040.0,FELLAND ROAD,MADISON,WI,53718,
1397.0,RAMSEY ROAD,CITY OF STOUGHTON,WI,53589,
7927.0,CTH K,OMRO,WI,54963,
543.0,SPRUCE STREET E,ONALASKA,WI,54650,
288.0,CASE AVENUE,CITY OF PARK FALLS,WI,54552,
7906.0,STH 188,VILLAGE OF SAUK CITY,WI,53583,
29.0,TRANSPORT COURT,MADISON,WI,53704,
,RIVERVIEW DRIVE,COLGATE,WI,53017,
,ROCK CREEK ROAD,TOWN OF WILLARD,WI,54493,
,STH 21 AND 73,WAUTOMA,WI,54982,
,MARCY ROAD,VILLAGE OF MENOMONEE FALLS,WI,53051,
,CTH K,CITY OF PHILLIPS,WI,54555,
538.0,W WASHINGTON AVENUE,MADISON,WI,53703,
0.0,EAGLE HEIGHTS,MADISON,WI,53705,
602.0,SAWYER TERRACE,MADISON,WI,53705,
1606.0,JEFFERSON AVENUE,WAUKESHA,WI,53186,
614.0,E JOHNSON STREET,MADISON,WI,53703,
715.0,IDLEWILD STREET,BALSAM LAKE,WI,54824,
,CTH I,TOWN OF OGEMA,WI,54459,
6733.0,PARK EDGE DRIVE,MADISON,WI,53719,
,610TH AVENUE,ELLSWORTH,WI,54011,
4001.0,DREXEL AVENUE,MADISON,WI,53716,
,535TH STREET,SPRING VALLEY,WI,54767,
,CTH K,HARTLAND,WI,53029,
,CINDY LANE,HARTLAND,WI,53029,
5409.0,ESTHER BEACH ROAD,MADISON,WI,53713,
21130.0,HEATHERVIEW DRIVE,BROOKFIELD,WI,53045,
,PLAIN VIEW PARKWAY,VILLAGE OF SUSSEX,WI,53089,
1343.0,MEADOWCREEK DRIVE,PEWAUKEE,WI,53072,
,EDDY ROAD,VILLAGE OF CURTISS,WI,54422,
2112.0,OREGON STREET,OSHKOSH,WI,54902,
7707.0,NORTH BROOKLINE DRIVE,MADISON,WI,53719,
194.0,W SPIDER LAKE ROAD,TOWN OF MANITOWISH WATERS,WI,54545,
3817.0,BUSSE STREET,MADISON,WI,53714,
233.0,SUNSET DRIVE,MENASHA,WI,54952,
722.0,N GRAND AVENUE,WAUKESHA,WI,53186,
616.0,N CARROLL STREET,MADISON,WI,53703,
21740.0,S WEATHER EDGE CIRCLE,VILLAGE OF LANNON,WI,53046,
665.0,S MAIN STREET,OREGON,WI,53575,
1576.0,BRUCE STREET,NEENAH,WI,54956,
718.0,GILLETTE STREET,CITY OF LA CROSSE,WI,54603,
4090.0,SAND PIT ROAD,OSHKOSH,WI,54904,
732.0,15TH STREET S,CITY OF LA CROSSE,WI,54601,
972.0,SUNNYVIEW ROAD,OSHKOSH,WI,54901,
7424.0,WAYSIDE ROAD,MIDDLETON,WI,53562,
5373.0,CTH TT,MARSHALL,WI,53559,
507.0,E HURON STREET,OMRO,WI,54963,
7710.0,RADCLIFFE DRIVE,MADISON,WI,53719,
18.0,ROSEMARY AVENUE,MADISON,WI,53714,
,PILGRIM ROAD,VILLAGE OF MENOMONEE FALLS,WI,53051,
,CHILI ROAD,CHILI,WI,54420,
520.0,SHREVE LANE,NEENAH,WI,54956,
13300.0,OAKHURST DRIVE,VILLAGE OF ELM GROVE,WI,53122,
,HUNTINGTON STREET,HARTLAND,WI,53029,
3130.0,MITCHELL STREET,MADISON,WI,53704,
505.0,WESTWOOD COURT,MADISON,WI,53714,
515.0,MCHUGH ROAD,VILLAGE OF HOLMEN,WI,54636,
5067.0,GREEDER ROAD,WEBSTER,WI,54893,
13.0,SAYNER COURT,MADISON,WI,53717,
,RD,SPENCER,WI,54479,
,CTH T,MINDORO,WI,54644,
,JACOBSON DRIVE,VILLAGE OF MENOMONEE FALLS,WI,53051,
1112.0,13TH STREET S,CITY OF LA CROSSE,WI,54601,
,STH 89,JEFFERSON,WI,53549,
304.0,W MAIN STREET,CITY OF THORP,WI,54771,
8782.0,CTH E,TOMAH,WI,54660,
1514.0,FREMONT AVENUE,MADISON,WI,53704,
139.0,W CANDISE STREET,JEFFERSON,WI,53549,
620.0,N CARROLL STREET,MADISON,WI,53703,
,PERIWINKLE COURT,WAUKESHA,WI,53189,
520.0,MAJESTIC VIEW LANE,OCONOMOWOC,WI,53066,
31040.0,TOWER ROAD,DANBURY,WI,54830,
,SILVER MEADOWS DRIVE,VILLAGE OF MENOMONEE FALLS,WI,53051,
22968.0,HERITAGE AVENUE,TOMAH,WI,54660,
,WOODVIEW DRIVE,ONALASKA,WI,54650,
3321.0,LOGAN DRIVE,OSHKOSH,WI,54901,
,TIPP STREET,VILLAGE OF MENOMONEE FALLS,WI,53051,
3325.0,BUSINESS PARK DRIVE,CITY OF STEVENS POINT,WI,54482,
28488.0,GREMLIN AVENUE,TOMAH,WI,54660,
307.0,N SPLINTER STREET,CITY OF CUBA CITY,WI,53807,
9304.0,SILVERSTONE LANE,VERONA,WI,53593,
,OVERLAND ROAD,VILLAGE OF SUSSEX,WI,53089,
5510.0,MEADOWOOD DRIVE,MADISON,WI,53711,
,564TH AVENUE,CITY OF PRESCOTT,WI,54021,
7525.0,TREE LANE,MADISON,WI,53717,
601.0,WILSON STREET,NEENAH,WI,54956,
4681.0,CTH B,VILLAGE OF FREDERIC,WI,54871,
207.0,CALLAWAY COURT,CITY OF LA CROSSE,WI,54603,
,BOMA ROAD,CITY OF LA CROSSE,WI,54601,
,MAPLEWOOD LANE,WAUKESHA,WI,53186,
,STH 86,TOWN OF OGEMA,WI,54459,
1522.0,ERIN LANE,WAUKESHA,WI,53188,
1329.0,MONICA LANE,MADISON,WI,53704,
906.0,SUNFLOWER WAY,CITY OF AMERY,WI,54001,
1935.0,LITTLE BLAKE LAKE LANE,LUCK,WI,54853,
614.0,EMERSON STREET,MADISON,WI,53715,
512.0,WESTLAWN AVENUE,MUKWONAGO,WI,53149,
16155.0,W STRATTON DRIVE,CITY OF NEW BERLIN,WI,53151,
1068.0,AMERICAN DRIVE,NEENAH,WI,54956,
210.0,N ELIAS STREET,VILLAGE OF WALES,WI,53183,
911.0,LONDON STREET,MENASHA,WI,54952,
2012.0,N LOST LAKE ROAD,DANBURY,WI,54830,
0.0,HELMINSKI ROAD,TOWN OF ARBOR VITAE,WI,54568,
1110.0,ROLLING OAKS DRIVE,ONALASKA,WI,54650,
115.0,STATE STREET,CITY OF NEILLSVILLE,WI,54456,
3160.0,RIDGEWAY AVENUE,MADISON,WI,53704,
1098.0,LONGFELLOW DRIVE,OCONOMOWOC,WI,53066,
510.0,S FOURTH STREET E,CITY OF FORT ATKINSON,WI,53538,
1515.0,RUSH AVENUE,OSHKOSH,WI,54902,
,TOWN HALL ROAD,VILLAGE OF MENOMONEE FALLS,WI,53051,
0.0,SELLERY HALL,MADISON,WI,53706,
1830.0,NORTHRIDGE COURT,MENASHA,WI,54952,
224.0,JANE COURT,NEENAH,WI,54956,
3133.0,N BASS LAKE ROAD,CITY OF EAGLE RIVER,WI,54521,
505.0,GRANUM STREET,VILLAGE OF HOLMEN,WI,54636,
5068.0,WASHINGTON STREET,BUTTE DES MORTS,WI,54927,
,SCHNEIDER DRIVE,VILLAGE OF MENOMONEE FALLS,WI,53051,
330.0,E COLUMBIAN AVENUE,NEENAH,WI,54956,
214.0,N 9TH AVENUE,WINNECONNE,WI,54986,
66.0,E WAUKAU AVENUE,OSHKOSH,WI,54902,
,MARGARET ROAD,VILLAGE OF MENOMONEE FALLS,WI,53051,
,HIDDEN HOLLOW,DELAFIELD,WI,53018,
,BRYN MAWR COURT,WAUKESHA,WI,53188,
1757.0,108TH STREET,BALSAM LAKE,WI,54810,
606.0,BIG LAKE COURT,OSCEOLA,WI,54020,
0.0,E MCKINLEY,CITY OF EAGLE RIVER,WI,54521,
,EASY STREET,CITY OF MUSKEGO,WI,53150,
200.0,S 3 STREET,WATERTOWN,WI,53094,
641.0,N PLEASANT VIEW ROAD,MIDDLETON,WI,53562,
2105.0,LA CROSSE STREET,CITY OF LA CROSSE,WI,54601,
808.0,E PARK AVENUE,LUCK,WI,54853,
541.0,MT VERNON STREET,OSHKOSH,WI,54901,
,MAPLEWOOD ROAD,VILLAGE OF NASHOTAH,WI,53058,
10341.0,CTH WW,CITY OF WISCONSIN RAPIDS,WI,54494,
4262.0,E STH 70,CITY OF EAGLE RIVER,WI,54521,
616.0,SCHOOL COURT,MENASHA,WI,54952,
,JAMES DRIVE,MUKWONAGO,WI,53149,
,AUTUMNS REST COURT,HELENVILLE,WI,53137,
2670.0,7TH STREET S,CITY OF LA CROSSE,WI,54601,
203.0,E SHERMAN AVENUE,CITY OF FORT ATKINSON,WI,53538,
6622.0,OFFSHORE DRIVE,MADISON,WI,53705,
,CTH W,WAUTOMA,WI,54982,
7601.0,CARRINGTON DRIVE,MADISON,WI,53719,
4440.0,N 161ST STREET,BROOKFIELD,WI,53005,
,THUNDERBIRD LANE,VILLAGE OF MERRILLAN,WI,54754,
502.0,THIRD STREET,ARGYLE,WI,53504,
98.0,NORTHPORT DRIVE,MADISON,WI,53704,
310.0,E HOLTON STREET,TOMAH,WI,54660,
15105.0,FROEDTERT DRIVE,VILLAGE OF ELM GROVE,WI,53122,
,N HELENVILLE ROAD,HELENVILLE,WI,53137,
,BEACH COURT,VILLAGE OF CAMBRIDGE,WI,53523,
2337.0,E JOHNSON STREET,MADISON,WI,53704,
7577.0,MALLARD LANE,LARSEN,WI,54947,
596.0,GRAND CANYON DRIVE,MADISON,WI,53719,
,MCINTOSH ROAD,MELROSE,WI,54642,
17.0,HARRISON STREET,MADISON,WI,53726,
5875.0,BROOK TRAIL,CITY OF EAGLE RIVER,WI,54521,
1435.0,140TH AVENUE,BALSAM LAKE,WI,54810,
,CTH M,THORP,WI,54771,
909.0,LOUISE ROAD,NEENAH,WI,54956,
964.0,BEECH COURT,SUN PRAIRIE,WI,53590,
4210.0,CHEROKEE DRIVE,BROOKFIELD,WI,53045,
,BAY COURT,CITY OF MUSKEGO,WI,53150,
1110.0,GAMMON LANE,MADISON,WI,53719,
203.0,W NORTH STREET,JEFFERSON,WI,53549,
301.0,S LIVINGSTON STREET,MADISON,WI,53703,
2545.0,FOX RIVER PARKWAY,WAUKESHA,WI,53189,
7841.0,COURTYARD DRIVE,MADISON,WI,53719,
1103.0,PARKSIDE COURT,NEENAH,WI,54956,
100.0,E MAIN STREET,WAUKESHA,WI,53186,
3715.0,STILLWATER CIRCLE,WAUKESHA,WI,53189,
16279.0,W MILLER ROAD,HAYWARD,WI,54843,
5710.0,RUSSETT ROAD,MADISON,WI,53711,
6515.0,OLYMPIC 76,TOWN OF LAND O'LAKES,WI,54540,
2519.0,NORTHVIEW ROAD,WAUKESHA,WI,53188,
5401.0,N PARK DRIVE,BUTLER,WI,53007,
35123.0,REVAI ROAD,CITY OF MELLEN,WI,54546,
1121.0,BAXTER STREET,WAUKESHA,WI,53186,
501.0,S MIDVALE BOULEVARD,MADISON,WI,53711,
1639.0,GERSHWIN LANE,NEENAH,WI,54956,
9293.0,CTH N,SAYNER,WI,54560,
8201.0,MAYO DRIVE,MADISON,WI,53719,
2009.0,GRANDVIEW COURT,WAUKESHA,WI,53188,
11116.0,W STH 27/70,RADISSON,WI,54867,
821.0,W JOHNSON STREET,MADISON,WI,53706,
,MEADOW LANE,VILLAGE OF SUSSEX,WI,53089,
2394.0,BIG LAKE AVENUE,ST. CROIX FALLS,WI,54024,
1123.0,CHAPPLE AVENUE,ASHLAND,WI,54806,
723.0,STATE STREET,MADISON,WI,53703,
,STH 73,GREENWOOD,WI,54437,
615.0,W JOHNSON STREET,MADISON,WI,53706,
67553.0,SLOUGHS LANE,ASHLAND,WI,54806,
,LOCUST STREET,VILLAGE OF SUSSEX,WI,53089,
126.0,E MECHANIC STREET,JEFFERSON,WI,53549,
3019.0,HERITAGE LANE,VILLAGE OF HOLMEN,WI,54650,
1106.0,19TH STREET S,CITY OF LA CROSSE,WI,54601,
3828.0,GARFOOT ROAD,VILLAGE OF MOUNT HOREB,WI,53572,
650.0,RIVERVIEW COURT,JEFFERSON,WI,53549,
1.0,S PINCKNEY STREET,MADISON,WI,53703,
211.0,OAKBROOK DRIVE,LAKE MILLS,WI,53551,
501.0,WALTER STREET,CITY OF STEVENS POINT,WI,54481,
4566.0,AMERICAN WAY,COTTAGE GROVE,WI,53527,
,CTH KK,PLAINFIELD,WI,54966,
103.0,ORCHARD LANE,VILLAGE OF MOUNT HOREB,WI,53572,
414.0,N PINCKNEY STREET,MADISON,WI,53703,
11238.0,EMERSON ROAD,TOMAH,WI,54660,
,SUNNY HILL DRIVE,CITY OF MUSKEGO,WI,53150,
508.0,CTH J,CITY OF STEVENS POINT,WI,54482,
,RINDAHL VALLEY ROAD,CITY OF OSSEO,WI,54758,
226.0,S FORREST STREET,CITY OF STOUGHTON,WI,53589,
1342.0,EMERALD TERRACE,SUN PRAIRIE,WI,53590,
413.0,N SHERMAN AVENUE,MADISON,WI,53704,
1168.0,DRAGER ROAD,CITY OF EAGLE RIVER,WI,54521,
345.0,PEWAUKEE ROAD,PEWAUKEE,WI,53072,
340.0,STANLEY COURT,NEENAH,WI,54956,
10290.0,SCHOOL STREET,GRATIOT,WI,53541,
3449.0,RICHARD STREET,MADISON,WI,53714,
535.0,W MAIN STREET,SUN PRAIRIE,WI,53590,
2450.0,KINGSTON PLACE,OSHKOSH,WI,54904,
,HWY 35,MAIDEN ROCK,WI,54750,
505.0,N FRANCES STREET,MADISON,WI,53703,
306.0,S CROCKER AVENUE,GREENWOOD,WI,54437,
1266.0,LORI DRIVE,NEENAH,WI,54956,
5416.0,UPLAND TRAIL,MIDDLETON,WI,53562,
316.0,MAIN STREET E,ASHLAND,WI,54806,
777.0,UNIVERSITY AVENUE,MADISON,WI,53715,
615.0,JOE STREET,CITY OF STEVENS POINT,WI,54482,
59520.0,OLD STATE HWY 60,PRAIRIE DU CHIEN,WI,53821,
2539.0,USH 12,VILLAGE OF WARRENS,WI,54666,
700.0,E DIVISION STREET,CITY OF NEILLSVILLE,WI,54456,
421.0,WALTON PLACE,MADISON,WI,53704,
,435TH AVENUE,CITY OF PRESCOTT,WI,54021,
7415.0,ELMWOOD AVENUE,MIDDLETON,WI,53562,
,FAIRGROUND AVENUE,CITY OF OWEN,WI,54460,
2501.0,WIS AVENUE,PLOVER,WI,54467,
,803RD STREET,HAGER CITY,WI,54014,
414.0,3RD AVENUE S,CITY OF PARK FALLS,WI,54552,
4005.0,FELLAND ROAD,MADISON,WI,53718,
,KESHENA LAKE ROAD,KESHENA,WI,54135,
115.0,N MAIN STREET,VILLAGE OF NORTH PRAIRIE,WI,53153,
202.0,GREENBRIAR AVENUE,CITY OF STEVENS POINT,WI,54481,
1338.0,MANASSAS TRAIL,MADISON,WI,53718,
2201.0,DARWIN ROAD,MADISON,WI,53704,
14.0,MARSH COURT,MADISON,WI,53718,
0.0,SAINT CLAIR ROAD,TOWN OF LAND O'LAKES,WI,54540,
1800.0,KENSINGTON DRIVE,WAUKESHA,WI,53188,
,CTH E,WATERTOWN,WI,53094,
,MALLARD LANE,OCONOMOWOC,WI,53066,
2435.0,DARWIN ROAD,MADISON,WI,53704,
,RIPLEY ROAD,VILLAGE OF CAMBRIDGE,WI,53523,
516.0,W VETERANS STREET,TOMAH,WI,54660,
643.0,NELSON STREET N,GRANTSBURG,WI,54840,
15762.0,PINE MEADOWS LANE,HAYWARD,WI,54843,
5500.0,OAKWOOD AVENUE,CITY OF STEVENS POINT,WI,54482,
17155.0,W SHADOW DRIVE,CITY OF NEW BERLIN,WI,53151,
,LEE PLACE,VILLAGE OF MENOMONEE FALLS,WI,53051,
348.0,WISCONSIN AVENUE,WAUKESHA,WI,53186,
6230.0,FOX RUN,VILLAGE OF DEFOREST,WI,53532,
1704.0,21ST STREET S,CITY OF LA CROSSE,WI,54601,
,STH 182,CITY OF PARK FALLS,WI,54552,
18975.0,INNSWOOD ROAD,VILLAGE OF NORWALK,WI,54648,
2201.0,ALLIED DRIVE,MADISON,WI,53711,
3543.0,95TH STREET,VILLAGE OF FREDERIC,WI,54837,
12994.0,WAGNER LANE,TOWN OF LAC DU FLAMBEAU,WI,54548,
515.0,SILVERWOOD LANE,NEENAH,WI,54956,
13705.0,W GRANGE AVENUE,CITY OF NEW BERLIN,WI,53151,
6049.0,OTTER DRIVE,CITY OF EAGLE RIVER,WI,54521,
1009.0,KINGS LYNN ROAD,CITY OF STOUGHTON,WI,53589,
0.0,LAKE STREET,TOWN OF PRESQUE ISLE,WI,54557,
14075.0,GAUTHIER LANE,TOWN OF LAC DU FLAMBEAU,WI,54538,
2351.0,FIESTA COURT,NEENAH,WI,54956,
139.0,CTH CB,NEENAH,WI,54956,
5505.0,VALLEY DRIVE,VILLAGE OF MCFARLAND,WI,53558,
1105.0,S THOMPSON DRIVE,MADISON,WI,53716,
224.0,WALNUT STREET,OREGON,WI,53575,
