NUMBER,STREET,CITY,STATE,POSTCODE,UNIT
414,ELM ST,Laramie,WY,82082,
1131,STAFFORD,Natrona,WY,82609,
2720,PLAYER DR,Natrona,WY,82601,
618,S  3 WEST,RIVERTON,WY,82501,
542,CENTER ST,Natrona,WY,82601,
1131,PRAIRIE RIVER DR,Natrona,WY,82604,
3871,WALDEN RD,Laramie,WY,82007,
755,ST MARY ST,Natrona,WY,82601,
1873,LAUVER LN,Laramie,WY,82009,
5808,CALUMET DR,Laramie,WY,82001,
733,LANDMARK DR,Natrona,WY,82609,
2033,42ND ST,Natrona,WY,82604,
3201,S GREELEY HWY,Laramie,WY,82007,
150,S  FORK RD,FORT WASHAKIE,WY,82514,
100,EAST 23RD AVENUE,TORRINGTON,WY,82240,
1705,KIT CARSON AVE,Natrona,WY,82604,
4849,CHALK BLUFF RD,Laramie,WY,82007,
2620,SARATOGA RD,Natrona,WY,82604,
1508,W LEISHER RD,Laramie,WY,82007,
2605,SKYLARK DR,Natrona,WY,82604,
1815,CAREY AVE,Laramie,WY,82001,
2866,BOOTS DR,Natrona,WY,82609,
401,WAGON CIR,RIVERTON,WY,82501,
4361,12TH ST,Natrona,WY,82609,
1680,KICKAPOO LOOP,Laramie,WY,82005,
14314,US HIGHWAY 20-26,Natrona,WY,82604,
414,PENNSYLVANIA AVE,Natrona,WY,82609,
4017,MEDICINE MAN TRL,Laramie,WY,82001,
410,SEYMOUR AVE,Laramie,WY,82007,
3234,BUENA VISTA ROAD,TORRINGTON,WY,82240,
134,LINCOLN,LANDER,WY,82520,
145,H ST,Natrona,WY,82601,
520,MAIN STREET,LINGLE,WY,82223,
5060,ANTELOPE DR,Natrona,WY,82601,
1936,GLENDO,Natrona,WY,82604,
7545,TAXIWAY,Natrona,WY,82604,
3112,8TH ST,Natrona,WY,82609,
7405,BOOKER RD,Laramie,WY,82005,
5,WIND RIVER CT,DUBOIS,WY,82513,
7213,BRAEHILL RD,Laramie,WY,82009,
32,BRECCIA DR,DUBOIS,WY,82513,
493,UNION PASS RD,DUBOIS,WY,82513,
410,VALLEY VIEW DRIVE,TORRINGTON,WY,82240,
202,E 8TH AVE,Laramie,WY,82001,
2112,ROAD 144,LUSK,WY,82225,
5555,VIEW POINT LN,Natrona,WY,82636,
350,SWEETWATER,LANDER,WY,82520,
7093,SUNDANCE LOOP,Laramie,WY,82009,
4825,BB BROOKS BLVD,Natrona,WY,82601,
4011,RAMSBURY DR,Natrona,WY,82609,
1132,CRIBBON AVE,Laramie,WY,82007,
8922,HWY 789,HUDSON,WY,82515,
401,MILLER ST,Laramie,WY,82082,
,EAST C STREET,TORRINGTON,WY,82240,
301,WEST 10TH STREET,LINGLE,WY,82223,
390,N  6,LANDER,WY,82520,
1717,EAST F STREET,TORRINGTON,WY,82240,
2050,1ST STREET LN,Natrona,WY,82609,
3064,BRUHN WAY,Natrona,WY,82609,
7615,FOX TAIL RD,Laramie,WY,82007,
1319,MEADOW DR,Laramie,WY,82001,
7501,KENNEDI LEA LN,Laramie,WY,82009,
3234,ACACIA DR,Laramie,WY,82001,
8504,AZTEC DR,Laramie,WY,82009,
1721,PINYON PKY,Natrona,WY,82609,
28,BEGONIA,Natrona,WY,82604,
316,W 6TH AVE,Laramie,WY,82001,
1609,WILLOW DR,Laramie,WY,82001,
1200,E RIDING CLUB RD,Laramie,WY,82009,
941,GLENARM ST,Natrona,WY,82601,
4611,24TH ST,Natrona,WY,82609,
1458,TRENT CT,Laramie,WY,82009,
3111,HEIGHTS BLVD,Natrona,WY,82604,
2120,KALINA TRL,Natrona,WY,82601,
3737,HYNDS BLVD,Laramie,WY,82001,
860,S  3,LANDER,WY,82520,
616,GRAPE ST,Laramie,WY,82007,
2319,STEVE AVE,Laramie,WY,82007,
,EAST F STREET,TORRINGTON,WY,82240,
625,EAGLE CIR,Natrona,WY,82636,
121,4TH AVE,Natrona,WY,82644,
3806,DELL RANGE BLVD,Laramie,WY,82009,
2815,CENTRAL AVE,Laramie,WY,82001,
7097,BARBED WIRE WAY,Natrona,WY,82601,
112,COLUMBUS DR,Laramie,WY,82007,
540,YELLOWSTONE HWY,Natrona,WY,82601,
4396,COUNTRY SIDE CT,Natrona,WY,82604,
5502,ALEX RANCH RD,Laramie,WY,82007,
3430,MICRO RD,Natrona,WY,82601,
14,DEER VALLEY DR,LANDER,WY,82520,
751,CAMINO DEL FLORES,Natrona,WY,82601,
4708,HOPE ROAD,TORRINGTON,WY,82240,
3400,S GREELEY HWY,Laramie,WY,82007,
3530,8TH ST,Natrona,WY,82609,
650,N  9,LANDER,WY,82520,
3245,ACACIA DR,Laramie,WY,82001,
1108,MARIE LN,Laramie,WY,82009,
5000,FORT RUSSELL WAY,Laramie,WY,82005,
60,E  MAIN,ATLANTIC CITY,WY,82520,
829,STERLING DR,Laramie,WY,82009,
38250,MIDWEST GAS PLANT RD,Natrona,WY,82643,
164,RIO VERDE CIR,Laramie,WY,82001,
1909,EAST D STREET,TORRINGTON,WY,82223,
502,W RIDING CLUB RD,Laramie,WY,82009,
3535,ASPEN LN,Natrona,WY,82604,
13,JOHNSTOWN SPUR,KINNEAR,WY,82516,
730,HIRST ST,Laramie,WY,82009,
1210,N  6,LANDER,WY,82520,
2159,RICHARD ST,Natrona,WY,82601,
4800,SAM HOWELL RD,Natrona,WY,82604,
566,QUIEN SABE RD,SHOSHONI,WY,82649,
3577,ROAD 212,Laramie,WY,82009,
7808,ROAD 41,TORRINGTON,WY,82240,
5762,HWY 26,DUBOIS,WY,82513,
603,ANGIE ST,Laramie,WY,82007,
7395,GREY CLOUD RD,Natrona,WY,82604,
1973,SAGE RD,Natrona,WY,82604,
1280,W JEFFERSON RD,Laramie,WY,82007,
1425,FAIRVIEW DR,DUBOIS,WY,82513,
505,WILLIAMS ST,Laramie,WY,82007,
1011,W 21ST ST,Laramie,WY,82001,
1015,WATERFORD,Natrona,WY,82609,
524,QUEENS RD,Laramie,WY,82007,
1014,MONROE AVE,Laramie,WY,82001,
2734,BELLAIRE DR,Natrona,WY,82604,
1718,EAST L STREET,TORRINGTON,WY,82240,
641,7TH ST,Natrona,WY,82636,
5017,MINUTEMAN DR,Laramie,WY,82005,
7221,ROAD 33,LINGLE,WY,82223,
5525,FREDERICK DR,Laramie,WY,82009,
1837,ANDOVER DR,Laramie,WY,82001,
5520,WALNUT ST,Natrona,WY,82601,
2722,SHUMWAY AVE,Natrona,WY,82609,
1421,W JEFFERSON RD,Laramie,WY,82007,
24,HEREFORD LN,FORT WASHAKIE,WY,82514,
66,FUR TRAPPER LN,RIVERTON,WY,82501,
4012,REED AVE,Laramie,WY,82001,
3173,INDIAN SCOUT DR,Natrona,WY,82604,
102,W  BELL AV,RIVERTON,WY,82501,
5134,SYCAMORE RD,Laramie,WY,82009,
819,VALLEY VIEW DR,Laramie,WY,82009,
5023,WINDMILL RD,Laramie,WY,82009,
410,APPLETREE LN,Laramie,WY,82009,
4502,STATE HIGHWAY 161,YODER,WY,82244,
681,LANDER MOUNTAIN RD,LANDER,WY,82520,
1936,CONWELL ST,Natrona,WY,82601,
1321,V-1 RD,LANDER,WY,82520,
3101,SNYDER AVE,Laramie,WY,82001,
622,E 17TH ST,Laramie,WY,82001,
826,VANCE DR,LANDER,WY,82520,
1126,W MILT-ROSE DR,Laramie,WY,82053,
217,W 5TH ST,Laramie,WY,82007,
2014,CAROB AVE,Laramie,WY,82007,
4931,CENTER ST,Natrona,WY,82601,
551,MILTON AVE,Natrona,WY,82601,
1432,PINECREST,RIVERTON,WY,82501,
1830,INCA TRL,Natrona,WY,82601,
1508,S GREELEY HWY,Laramie,WY,82007,
6806,WINDSOR BLVD,Laramie,WY,82009,
2760,ROBERTSON RD,Natrona,WY,82604,
3515,CRIBBON AVE,Laramie,WY,82001,
3645,ROAD 150,Laramie,WY,82009,
70,CALVERT LN,LANDER,WY,82520,
1960,N  FEDERAL BLVD,RIVERTON,WY,82501,
1412,S GREELEY HWY,Laramie,WY,82007,
320,WEST 27TH AVENUE,TORRINGTON,WY,82932,
1024,MELTON ST,Laramie,WY,82009,
1019,GABEL ST,LANDER,WY,82520,
6973,SHARROCK RD,Natrona,WY,82604,
1120,CENTER ST,Natrona,WY,82601,
608,W 27TH ST,Laramie,WY,82001,
323,ROAD 102,Laramie,WY,82059,
260,LEAVITT ST,Natrona,WY,82636,
9020,WILDFLOWER DR,Laramie,WY,82009,
229,LATHROP RD,Natrona,WY,82636,
308,VALLEY VIEW DRIVE,TORRINGTON,WY,82240,
1810,MIRACLE DR,Natrona,WY,82609,
3001,CAPITOL AVE,Laramie,WY,82001,
716,E  JEFFERSON AV,RIVERTON,WY,82501,
1012,W 22ND ST,Laramie,WY,82001,
1229,POPLAR ST,Natrona,WY,82601,
9400,SANDPIPER ST,Natrona,WY,82636,
4398,ROAD 213,Laramie,WY,82060,
2335,APACHE ST,Laramie,WY,82009,
1055,SURREY CT,Natrona,WY,82609,
1944,KEARNEY AVE,Natrona,WY,82604,
,01ST AVE,LAGRANGE,WY,2840,
468,ROAD 102,Laramie,WY,82059,
3812,POLK AVE,Laramie,WY,82001,
1149,CHERRY ST,Natrona,WY,82604,
116,MARIGOLD,Natrona,WY,82604,
4460,PARKVIEW CT,RIVERTON,WY,82501,
16,ORIOLE LN,RIVERTON,WY,82501,
3297,ANDY RD,Natrona,WY,82601,
532,DURBIN ST,Natrona,WY,82601,
14496,US HIGHWAY 20-26,Natrona,WY,82604,
109,2ND ST,Natrona,WY,82601,
298,MARKET,LANDER,WY,82520,
5727,HWY 26,DUBOIS,WY,82513,
1130,5TH ST,Natrona,WY,82636,
1119,E CARLSON ST,Laramie,WY,82009,
4330,HURON AVE,Laramie,WY,82001,
1008,BEVERLY ST,Natrona,WY,82601,
6010,KLIPSTEIN RD,Laramie,WY,82009,
10,CAMEAHWAIT CIR,RIVERTON,WY,82501,
1922,E LINCOLNWAY,Laramie,WY,82001,
2242,CRESCENT AVE,Natrona,WY,82604,
4201,YELLOWSTONE HWY,Natrona,WY,82644,
714,VISTA LN,Laramie,WY,82009,
4114,E 6TH ST,Laramie,WY,82001,
6700,ELMWOOD AVE,Laramie,WY,82007,
19,ASPEN LN,DUBOIS,WY,82513,
5180,REO ST,Natrona,WY,82644,
6814,GRAND TETON CT,Laramie,WY,82009,
2010,S SECOND AVE,Laramie,WY,82007,
5,S  FORK RD,FORT WASHAKIE,WY,82514,
850,PIONEER AV,RIVERTON,WY,82501,
3380,LINDEN WAY,Natrona,WY,82604,
5864,KENOSHA ST,Laramie,WY,82001,
404,E  4,SHOSHONI,WY,82649,
680,6TH ST,Natrona,WY,82636,
76,DAHLIA,Natrona,WY,82604,
27,BOULDER FLATS SPUR,LANDER,WY,82520,
807,BEECH AVE,Laramie,WY,82082,
715,MIDWEST AVE,Natrona,WY,82601,
2304,STEVE AVE,Laramie,WY,82007,
5211,COLUMBIA DR,Laramie,WY,82009,
1510,BITTERROOT DR,RIVERTON,WY,82501,
514,RIVERVIEW AVE,Natrona,WY,82644,
375,1,LYSITE,WY,82642,
600,W 27TH ST,Laramie,WY,82001,
455,SULLIVAN ST,Natrona,WY,82643,
6,WARM SPRINGS RD,DUBOIS,WY,82513,
620,N  PAVILLION RD,PAVILLION,WY,82523,
3311,COFFMAN AVE,Natrona,WY,82604,
323,GREAT PLAINS RD,ARAPAHOE,WY,82510,
129,6TH ST,Natrona,WY,82601,
908,RICHARDSON CT,Laramie,WY,82001,
31,YORK VALLEY RD,LANDER,WY,82520,
38,LESEBERG AV,DUBOIS,WY,82513,
1838,FREMONT AVE,Laramie,WY,82001,
6711,HR RANCH RD,Laramie,WY,82007,
2208,SUNFLOWER,Natrona,WY,82604,
1191,HWY 287,LANDER,WY,82520,
4440,OAK ST,Natrona,WY,82601,
305,SECOND ST,Laramie,WY,82054,
2590,FALLING STAR LOOP,Laramie,WY,82009,
2815,THOMAS RD,Laramie,WY,82009,
4431,HAVASU DR,Natrona,WY,82604,
2664,SAND BUTTE RD,PAVILLION,WY,82523,
112,UNIVERSITY CT,Natrona,WY,82609,
1006,PLUM ST,Laramie,WY,82007,
7007,BOMAR DR,Laramie,WY,82009,
810,ARTESIAN RD,Laramie,WY,82007,
343,MCKINLEY ST,Natrona,WY,82601,
1650,ROAD 142,Laramie,WY,82060,
9528,HWY 26,CROWHEART,WY,82512,
216,W 8TH ST,Laramie,WY,82007,
870,HOBSON,LANDER,WY,82520,
1301,WILKINS CIR,Natrona,WY,82604,
4420,BROOK CT,Laramie,WY,82009,
688,S  OHIO AV,HUDSON,WY,82515,
124,CURTIS ST,Natrona,WY,82636,
171,DAHLIA,Natrona,WY,82604,
,N  1,DUBOIS,WY,82513,
114,E  MONROE AV,RIVERTON,WY,82501,
6740,FAITH DR,Laramie,WY,82009,
1807,SPRING CT,Laramie,WY,82009,
5107,BUICK ST,Natrona,WY,82644,
914,DAVID ST,Natrona,WY,82601,
1950,SUMMIT DR,Natrona,WY,82604,
500,04TH AVENUE,LAGRANGE,WY,82221,
570,PATTON AVE,Laramie,WY,82007,
1821,22ND ST,Natrona,WY,82601,
5825,ROAD 49,TORRINGTON,WY,82240,
,ROAD 47,TORRINGTON,WY,62025,
86,MORRIE AVE,Laramie,WY,82007,
1614,E 15TH ST,Laramie,WY,82001,
4500,THIRTY THREE MILE RD,Natrona,WY,82604,
1627,WILLOW DR,Laramie,WY,82001,
811,RIDGELAND ST,Laramie,WY,82009,
1250,CENTER ST,Natrona,WY,82601,
712,N  BROADWAY AV,RIVERTON,WY,82501,
10352,COLUMBINE CIR,Natrona,WY,82601,
,3RD ST,Natrona,WY,82636,
3406,SCHLAGER RD,Natrona,WY,82604,
3848,ROAD 55,TORRINGTON,WY,82240,
328,MORGAN AVE,Natrona,WY,82644,
1247,MADISON AVE,Laramie,WY,82001,
18,ROAD 102,Laramie,WY,82059,
,US HIGHWAY 85,TORRINGTON,WY,80524,
565,EUGENE,LANDER,WY,82520,
1616,TAFT AVE,Laramie,WY,82001,
227,KIMBALL ST,Natrona,WY,82601,
715,DALLAS RD,Laramie,WY,82007,
81,SACAJAWEA CIR,FORT WASHAKIE,WY,82514,
1807,CHESTNUT ST,Natrona,WY,82601,
930,COTTONWOOD ST,Natrona,WY,82643,
3829,ATKIN ST,Laramie,WY,82001,
5,SHIPTON LN,FORT WASHAKIE,WY,82514,
215,HACIENDA CT,Laramie,WY,82007,
1704,BEGONIA,Natrona,WY,82604,
4019,SUMMERSET DR,Laramie,WY,82053,
505,WILLIAMS ST,Laramie,WY,82007,
1507,STILLWATER AVE,Laramie,WY,82009,
1112,CONCERTO LN,Laramie,WY,82007,
6244,ROAD 215,Laramie,WY,82082,
8466,HWY 26,CROWHEART,WY,82512,
2100,SEVEN MILE RD,Natrona,WY,82604,
2363,HANWAY AVE,Natrona,WY,82604,
813,CAHILL DR,Laramie,WY,82001,
812,RAINBOW DR,RIVERTON,WY,82501,
3119,HYNDS BLVD,Laramie,WY,82001,
6785,ZERO RD,Natrona,WY,82604,
1119,N  2,LANDER,WY,82520,
1015,CARDIFF,Natrona,WY,82609,
3001,FOOTHILLS RD,Laramie,WY,82009,
601,E LINCOLNWAY,Laramie,WY,82001,
6117,LARAMIE ST,Laramie,WY,82001,
1002,MELROSE ST,Natrona,WY,82601,
1442,PENNSYLVANIA AVE,Natrona,WY,82609,
1315,BOXELDER ST,Natrona,WY,82604,
509,BLAIR ST,Laramie,WY,82082,
1776,OTTO RD,Laramie,WY,82001,
1910,E 21ST ST,Laramie,WY,82001,
705,GARDENIA DR,Laramie,WY,82009,
608,TAGGART DR,Laramie,WY,82007,
6,CIMARRON LN,DUBOIS,WY,82513,
9511,POWDERHOUSE RD,Laramie,WY,82009,
481,S  ILLINOIS AV,HUDSON,WY,82515,
848,S  OKLAHOMA AV,HUDSON,WY,82515,
12360,HWY 26,RIVERTON,WY,82501,
338,JOHNSTOWN VALLEY RD,KINNEAR,WY,82516,
560,WESTSHORE RD,Natrona,WY,82601,
345,S  9,LANDER,WY,82520,
967,WASHAKIE,LANDER,WY,82520,
6,PINNACLE LN,DUBOIS,WY,82513,
750,52ND ST,Natrona,WY,82601,
5147,ROAD 152,Laramie,WY,82081,
410,GOODSTEIN DR,Natrona,WY,82601,
2760,ROBERTSON RD,Natrona,WY,82604,
241,WEST 26TH AVENUE,TORRINGTON,WY,82240,
4722,CACTUS WAY,Laramie,WY,82009,
4005,GOLDEN CT,Laramie,WY,82001,
332,ZINNIA,Natrona,WY,82604,
2140,VALE PL,Natrona,WY,82604,
,ROAD 76,LINGLE,WY,82223,
901,W 27TH ST,Laramie,WY,82001,
4626,VALLEY VIEW RD,RIVERTON,WY,82501,
65,RED BARN LN,DUBOIS,WY,82513,
250,TRIGOOD DR,Natrona,WY,82609,
1213,MCKINLEY ST,Natrona,WY,82601,
1196,GASSER RD,RIVERTON,WY,82501,
5123,ATLANTIC DR,Laramie,WY,82001,
9352,JAMES COLE CT,Laramie,WY,82009,
2700,7TH ST,Natrona,WY,82609,
8204,STAGECOACH RD,Laramie,WY,82009,
1110,SWORD ST,Natrona,WY,82644,
2201,E 19TH ST,Laramie,WY,82001,
2161,COLMAN CIR,Natrona,WY,82604,
175,OLD WIND RIVER HWY,FORT WASHAKIE,WY,82514,
1977,A ST,Natrona,WY,82601,
3420,CHANDELLE BLVD,RIVERTON,WY,82501,
404,ELIZABETH DR,RIVERTON,WY,82501,
3771,DANCING WOLF DR,Natrona,WY,82604,
6824,ROAD 53E,TORRINGTON,WY,82240,
4763,WINDMILL RD,Laramie,WY,82009,
4714,US HIGHWAY 26-85,TORRINGTON,WY,82240,
3510,BEVANS ST,Laramie,WY,82001,
601,DAVID CT,Laramie,WY,82007,
1301,SUNSET BLVD,Natrona,WY,82601,
18250,PRONGHORN DR,Natrona,WY,82601,
218,S GREELEY HWY,Laramie,WY,82007,
18,CHAMBERS DR,LANDER,WY,82520,
24000,LAKESHORE DR,Natrona,WY,82604,
2929,PHEASANT DR,Natrona,WY,82604,
4574,BIG CHIEF RD,Laramie,WY,82053,
3092,COUNTRY LN,Natrona,WY,82636,
2801,SARATOGA RD,Natrona,WY,82604,
5430,OAK ST,Natrona,WY,82601,
776,BADGER LN,Natrona,WY,82644,
4800,YELLOWSTONE HWY,Natrona,WY,82644,
321,WASHAKIE,LANDER,WY,82520,
571,SEMINOE ST,Natrona,WY,82609,
5110,LINDEN WAY,Laramie,WY,82009,
325,MCKINLEY ST,Natrona,WY,82601,
4,ABSAROKA CT,DUBOIS,WY,82513,
3792,DANCING WOLF DR,Natrona,WY,82604,
2844,12TH ST,Natrona,WY,82609,
5402,CHRISTENSEN RD,Laramie,WY,82009,
3987,BLUE SKY RD,Laramie,WY,82054,
783,CANYON,LANDER,WY,82520,
205,N GREELEY HWY,Laramie,WY,82007,
1104,WASHINGTON ST,Natrona,WY,82601,
4500,E 13TH ST,Laramie,WY,82001,
1111,HARMONY RD,Natrona,WY,82601,
315,DALCOUR DR,Laramie,WY,82009,
1244,DEERBROOKE TRL,Laramie,WY,82009,
351,FOREST DR,Natrona,WY,82609,
2330,WALNUT DR,RIVERTON,WY,82501,
3806,VICTORIA DR,Laramie,WY,82009,
958,W 6TH ST,Laramie,WY,82007,
301,E  MADISON AV,RIVERTON,WY,82501,
5151,NEWLAND AVE,Laramie,WY,82009,
1608,SUMMERSET DR,Laramie,WY,82001,
7015,TUMBLEWEED DR,Laramie,WY,82009,
4381,VALLEY RD,Natrona,WY,82604,
120,E 4TH AVE,Laramie,WY,82001,
732,CENTER ST,Natrona,WY,82643,
3183,LOST SPRINGS RD,Natrona,WY,82604,
4332,COFFMAN CT,Natrona,WY,82604,
1908,ROAD 217,Laramie,WY,82009,
24000,LAKESHORE DR,Natrona,WY,82604,
1024,W  MONROE AV,RIVERTON,WY,82501,
1125,LUCKY CT,Laramie,WY,82001,
5041,VALLEY RD,Natrona,WY,82601,
208,4TH AVE,Laramie,WY,82050,
714,BONANZA TRL,Laramie,WY,82009,
9911,BELL LN,Laramie,WY,82009,
2584,FALLING STAR LOOP,Laramie,WY,82009,
208,EAST 29TH AVENUE,TORRINGTON,WY,82240,
7077,RIVERSIDE DR,Natrona,WY,82604,
1223,ALYSSA WAY,Laramie,WY,82009,
33,RED CEDAR RD,LANDER,WY,82520,
401,NORTH FORK RD,FORT WASHAKIE,WY,82514,
4361,SUNRISE DR,Natrona,WY,82604,
940,WATERFORD,Natrona,WY,82609,
6612,CHEROKEE LN,Natrona,WY,82604,
,ROAD 41,TORRINGTON,WY,82240,
1033,BEVERLY ST,Natrona,WY,82609,
10,DAHLIA,Natrona,WY,82604,
5,HOLLYHOCK CT,RIVERTON,WY,82501,
,ROAD 40,TORRINGTON,WY,82060,
1125,W JEFFERSON RD,Laramie,WY,82007,
285,N  MISSOURI AV,HUDSON,WY,82515,
897,ROAD 156,Laramie,WY,82082,
1285,ROAD 141,Laramie,WY,82060,
4220,SALT CREEK HWY,Natrona,WY,82601,
4223,12TH ST,Natrona,WY,82609,
3505,8TH ST,Natrona,WY,82609,
,ROAD 62,TORRINGTON,WY,80237,
920,TALBOT CT,Laramie,WY,82001,
1035,JACKSON ST,Natrona,WY,82601,
1668,WESTRIDGE CIR,Natrona,WY,82604,
193,4TH AVE,Natrona,WY,82644,
4406,SOUTH PASS TRL,Laramie,WY,82007,
518,E 17TH ST,Laramie,WY,82001,
2517,WEST D STREET,TORRINGTON,WY,82240,
3432,CAMPFIRE TRL,Laramie,WY,82001,
34,CRUMP LN,LANDER,WY,82520,
1040,CORNWALL,Natrona,WY,82609,
352,CIRCLE DR,Natrona,WY,82601,
1640,CLIFTON CT,Natrona,WY,82609,
2909,SNYDER AVE,Laramie,WY,82001,
511,15TH ST,Natrona,WY,82601,
1020,ILLINOIS RD,Laramie,WY,82009,
715,TUNDRA DR,RIVERTON,WY,82501,
680,CLIFF,LANDER,WY,82520,
1590,SQUAW CREEK RD,LANDER,WY,82520,
1425,MAPLE ST,Natrona,WY,82604,
2589,SENECA AVE,Laramie,WY,82005,
1811,GETTYSBURG DR,Laramie,WY,82001,
6490,ROAD 51,TORRINGTON,WY,82240,
2015,FAIRDALE AVE,Natrona,WY,82601,
1865,JOHNSTONE RD,Natrona,WY,82604,
3478,PLATEAU ST,Natrona,WY,82601,
1039,JACKSON ST,Natrona,WY,82601,
2218,43RD ST,Natrona,WY,82604,
612,JULIANNA RD,Laramie,WY,82007,
801,W 25TH ST,Laramie,WY,82001,
802,VANCE DR,LANDER,WY,82520,
4940,POINT BLF,Laramie,WY,82009,
5247,WEBB CREEK RD,Natrona,WY,82604,
3405,PLATEAU ST,Natrona,WY,82601,
75,MISSOURI VALLEY RD,SHOSHONI,WY,82649,
56,BURRIS-LENORE RD,CROWHEART,WY,82512,
63,BACHELOR CREEK CT,DUBOIS,WY,82513,
4821,18TH ST,Natrona,WY,82609,
1994,COUGAR DR,PAVILLION,WY,82523,
190,WYOMING BLVD,Natrona,WY,82609,
3,COOLIDGE DR,LANDER,WY,82520,
56,BURLINGTON,LYSITE,WY,82642,
742,WHIPSAW DR,Natrona,WY,82636,
392,TWO VALLEY RD,SHOSHONI,WY,82649,
2243,MISSOURI VALLEY RD,PAVILLION,WY,82523,
,US HIGHWAY 26-85,TORRINGTON,WY,82240,
229,PLATTE AVE,Natrona,WY,82644,
1623,STAR BRIGHT DR,Laramie,WY,82009,
10555,NORTH PARK AVE,Natrona,WY,82636,
60,FAR VIEW CIR,RIVERTON,WY,82501,
1037,DUNDEE,Natrona,WY,82609,
2120,E LINCOLNWAY,Laramie,WY,82001,
16,ROCKING CHAIR RD,DUBOIS,WY,82513,
4990,MARMON AVE,Natrona,WY,82604,
1015,E 24TH ST,Laramie,WY,82001,
5051,YELLOWSTONE HWY,Natrona,WY,82604,
2561,RAINBOW DR,Natrona,WY,82604,
5022,SAGEBRUSH AVE,Laramie,WY,82009,
4708,VOLUNTEER AVE,Laramie,WY,82001,
5003,E VILLA CIR,Laramie,WY,82009,
1854,CHESHIRE DR,Laramie,WY,82001,
3923,HAYES AVE,Laramie,WY,82001,
1100,ROSEBUD RD,Laramie,WY,82001,
2486,CHANNELL DR,Laramie,WY,82009,
3938,FOX,Natrona,WY,82604,
1934,AMHERST AVE,Natrona,WY,82601,
414,PENDELL BLVD,Natrona,WY,82644,
5621,SUNSET DR,Laramie,WY,82009,
3540,SQUAW CREEK RD,Natrona,WY,82604,
2663,OIL DR,Natrona,WY,82604,
1634,BRIGHAM YOUNG AVE,Natrona,WY,82604,
2521,BEVERLY ST,Natrona,WY,82609,
6102,SHANNON AVE,Laramie,WY,82009,
1236,BOXELDER ST,Natrona,WY,82604,
2634,WEST E STREET,TORRINGTON,WY,82240,
3524,ROAD 215,Laramie,WY,82009,
1720,CLIFTON CT,Natrona,WY,82609,
4849,2ND ST,Natrona,WY,82609,
1805,MEADOWLAND DR,Laramie,WY,82009,
152,HONEYSUCKLE,Natrona,WY,82604,
505,WILLIAMS ST,Laramie,WY,82007,
208,HOPKINS STREET,YODER,WY,82244,
112,FENWAY ST,Natrona,WY,82601,
1403,E MAIN ST,RIVERTON,WY,82501,
816,W 1ST AVE,Laramie,WY,82001,
380,W  MAIN,ATLANTIC CITY,WY,82520,
716,TAFT AVE,Laramie,WY,82001,
918,CAHILL DR,Laramie,WY,82001,
718,N  FIRST,RIVERTON,WY,82501,
1216,COUNTRY CLUB AVE,Laramie,WY,82001,
,ROAD 22,LAGRANGE,WY,82082,
14608,US HIGHWAY 20-26,Natrona,WY,82604,
1855,CY AVE,Natrona,WY,82604,
1520,ELKHORN VALLEY DR,Natrona,WY,82609,
703,MCKINLEY ST,Natrona,WY,82601,
306,DUNOIR RD,DUBOIS,WY,82513,
,ROAD 37,LINGLE,WY,20500,
,US HIGHWAY 26,LINGLE,WY,82223,
7818,STAGECOACH RD,Laramie,WY,82009,
700,HEREFORD LN,Natrona,WY,82601,
1706,COPPERVILLE RD,Laramie,WY,82001,
1841,SHUMWAY AVE,Natrona,WY,82601,
7250,CUTHILL RD,Natrona,WY,82636,
2451,7TH ST,Natrona,WY,82609,
3507,PALEN RD,Laramie,WY,82007,
1655,WESTRIDGE DR,Natrona,WY,82604,
2718,VAN LENNEN AVE,Laramie,WY,82001,
2129,MCKINLEY ST,Natrona,WY,82601,
,ROAD 32,HAWK SPRINGS,WY,82221,
2970,COTTON CREEK PL,Natrona,WY,82604,
4300,DRAYTON WAY,Natrona,WY,82609,
4933,SCENIC RTE,Natrona,WY,82609,
604,ROAD 103,Laramie,WY,82059,
10,ROAD 153,Laramie,WY,82054,
307,MERCANTILE,DUBOIS,WY,82513,
2302,E FOX FARM RD,Laramie,WY,82007,
385,BOCAGE DR,Laramie,WY,82009,
7937,YELLOWSTONE RD,Laramie,WY,82009,
4324,POLK AVE,Laramie,WY,82001,
5273,HENNING LOOP,Natrona,WY,82609,
,ROAD 37,LAGRANGE,WY,82221,
3903,DORSET,Natrona,WY,82609,
7262,MESQUITE LN,Natrona,WY,82604,
7026,HWY 26,DUBOIS,WY,82513,
145,DURBIN ST,Natrona,WY,82601,
445,MIDDLE FORK LN,LANDER,WY,82520,
,ROAD 27,LINGLE,WY,82223,
3375,ROAD 132,Laramie,WY,82009,
12511,GOOSE EGG RD,Natrona,WY,82604,
1408,MADISON AVE,Laramie,WY,82001,
1618,DRY CREEK RD,Natrona,WY,82604,
1842,SHATTUCK AVE,Natrona,WY,82601,
4526,HIGHWAY ST,Natrona,WY,82644,
13700,STEWART RD,Laramie,WY,82009,
1955,NEWTON DR,Laramie,WY,82001,
381,ZINNIA,Natrona,WY,82604,
3707,CHARLES ST,Laramie,WY,82001,
1359,ONYX CT,Natrona,WY,82644,
2242,7TH ST,Natrona,WY,82609,
34,DODRILL RD,RIVERTON,WY,82501,
1065,BEAUMONT DR,Natrona,WY,82601,
4848,LAFAYETTE ST,Natrona,WY,82604,
108,S  INDIANA AV,HUDSON,WY,82515,
2086,E FOUR MILE RD,Laramie,WY,82009,
2912,PHEASANT DR,Natrona,WY,82604,
1733,MILTON DR,Laramie,WY,82001,
15,GLICK RD,FORT WASHAKIE,WY,82514,
1720,LOGAN AVE,Laramie,WY,82001,
2816,E 12TH ST,Laramie,WY,82001,
4361,ROAD 215,Laramie,WY,82060,
109,E  JACKSON AV,RIVERTON,WY,82501,
13760,US HIGHWAY 20-26,Natrona,WY,82604,
,SILVER SPRINGS ROAD,JAY EM,WY,82219,
2326,CRESTVIEW DRIVE,TORRINGTON,WY,82240,
5160,BEL VISTA DR,Natrona,WY,82601,
,RIDGE ROAD,FORT LARAMIE,WY,82201,
2610,THOMAS RD,Laramie,WY,82009,
,ROAD 100,FORT LARAMIE,WY,90220,
935,WASHAKIE,LANDER,WY,82520,
4713,GLEN DR,Natrona,WY,82604,
519,SOUTH FORK RD,Laramie,WY,82007,
4511,CARMEL DR,Laramie,WY,82009,
4629,SPUR DR,Laramie,WY,82001,
354,BEECH ST,Natrona,WY,82601,
909,W  RAMSHORN,DUBOIS,WY,82513,
351,EAST 03RD AVENUE,TORRINGTON,WY,82240,
551,FOREST DR,Natrona,WY,82609,
4227,HOPE CT,Laramie,WY,82001,
218,S GREELEY HWY,Laramie,WY,82007,
15,GOLDENEYE DR,DUBOIS,WY,82513,
413,SPIRE DR,RIVERTON,WY,82501,
260,4TH AVE,Natrona,WY,82604,
111,COLEMAN LN,Natrona,WY,82644,
1801,PINION DR,Laramie,WY,82001,
132,S  INDIANA AV,HUDSON,WY,82515,
1150,GABEL ST,LANDER,WY,82520,
965,CANTRELL RD,Natrona,WY,82601,
77,BUCKHORN FLATS RD,RIVERTON,WY,82501,
4738,GREYBULL AVE,Laramie,WY,82009,
164,INDIAN PAINTBRUSH,Natrona,WY,82604,
353,WESTSHORE VILLAGE DR,Natrona,WY,82601,
12430,GARBUTT RD,Natrona,WY,82604,
8129,NIGHTHAWK CT,Natrona,WY,82636,
1315,CYPRESS ST,Natrona,WY,82604,
596,ETHETE RD,ETHETE,WY,82520,
12525,TOMAHAWK RD,Natrona,WY,82601,
5708,DELL RANGE BLVD,Laramie,WY,82009,
508,E  LINCOLN AV,RIVERTON,WY,82501,
138,RAY LAKE RD,LANDER,WY,82520,
3214,BEVANS ST,Laramie,WY,82001,
15229,BATES CREEK LN,Natrona,WY,82604,
2850,GARDEN CREEK RD,Natrona,WY,82601,
256,LEWIS ST,Natrona,WY,82643,
5419,LA VISTA CT,Laramie,WY,82001,
4015,AMBER TRL,Laramie,WY,82001,
811,57TH ST,Natrona,WY,82601,
6813,WILLSHIRE BLVD,Laramie,WY,82009,
1655,BELLAIRE DR,Natrona,WY,82604,
25726,LAKEVIEW RD,Natrona,WY,82604,
1803,CHESHIRE DR,Laramie,WY,82001,
2419,NUCLEAR DR,Natrona,WY,82604,
3810,LARAMIE ST,Laramie,WY,82001,
708,W JEFFERSON RD,Laramie,WY,82007,
410,E 21ST ST,Laramie,WY,82001,
3301,DEAN PAUL DR,Laramie,WY,82009,
24000,LAKESHORE DR,Natrona,WY,82604,
300,DERR AVE,Laramie,WY,82007,
631,MORGAN AVE,Natrona,WY,82644,
2956,THOMAS RD,Laramie,WY,82009,
1320,LUKER DR,Natrona,WY,82609,
1049,ELM ST,Natrona,WY,82601,
730,CROSS,LANDER,WY,82520,
3241,BOXELDER DR,Laramie,WY,82001,
300,E PROSSER RD,Laramie,WY,82007,
2201,MAIN STREET,TORRINGTON,WY,69361,
721,54TH ST,Natrona,WY,82601,
4521,NEWMARKET CIR,Natrona,WY,82609,
8540,JADE ST,Natrona,WY,82636,
675,N  9,LANDER,WY,82520,
1109,E  MAIN,RIVERTON,WY,82501,
904,BRIAR CT,Laramie,WY,82007,
1245,19TH ST,Natrona,WY,82601,
801,E LINCOLNWAY,Laramie,WY,82001,
2609,MONROE CT,RIVERTON,WY,82501,
2314,COFFMAN AVE,Natrona,WY,82604,
1634,KIT CARSON AVE,Natrona,WY,82604,
5040,HILLTOP AVE,Laramie,WY,82009,
5091,RIGAL RD,Natrona,WY,82601,
1348,JESSI DR,Laramie,WY,82009,
4713,RANCH HOUSE WAY,Laramie,WY,82001,
2418,DIVISION AVE,Laramie,WY,82007,
1250,CENTER ST,Natrona,WY,82601,
1500,E 13TH ST,Laramie,WY,82001,
3549,MEADOWLARK DR,Natrona,WY,82604,
553,HANCOCK DR,LANDER,WY,82520,
313,N  2 EAST,RIVERTON,WY,82501,
4911,18TH ST,Natrona,WY,82609,
505,WILLIAMS ST,Laramie,WY,82007,
5550,US HIGHWAY 26,TORRINGTON,WY,82240,
526,MACARTHUR AVE,Laramie,WY,82007,
1250,HAZELWOOD DR,Natrona,WY,82609,
114,BIRCH,DUBOIS,WY,82513,
3062,SCHLAGER RD,Natrona,WY,82604,
1700,1ST ST,Natrona,WY,82604,
12220,EL RIO RD,Natrona,WY,82604,
84,BLACKFOOT AV,RIVERTON,WY,82501,
860,RECLUSE CT,Natrona,WY,82609,
1139,WOLCOTT ST,Natrona,WY,82601,
618,K ST,Natrona,WY,82601,
1136,FREDEN BLVD,Natrona,WY,82644,
2521,VAN LENNEN AVE,Laramie,WY,82001,
1243,ROAD 149,Laramie,WY,82053,
6810,ELMWOOD AVE,Laramie,WY,82007,
3305,FRONTIER ST,Laramie,WY,82001,
1106,NEBRASKA AVE,Natrona,WY,82609,
1254,TAN DR,RIVERTON,WY,82501,
16036,LONGHORN DR,Natrona,WY,82601,
179,ROSEWOOD AV,LANDER,WY,82520,
405,N  2 EAST,RIVERTON,WY,82501,
929,MCGOVERN AVE,Laramie,WY,82001,
4850,BEL VISTA DR,Natrona,WY,82601,
225,DESMET DR,Laramie,WY,82007,
579,BLUE SKY HWY,LANDER,WY,82520,
5201,ATLANTIC DR,Laramie,WY,82001,
3633,CROOK DRIVE,TORRINGTON,WY,82240,
2513,WATERFORD,Natrona,WY,82609,
825,YVONNE DR,RIVERTON,WY,82501,
200,WOLCOTT ST,Natrona,WY,82601,
4748,SAGEBRUSH AVE,Laramie,WY,82009,
3939,CRIBBON AVE,Laramie,WY,82001,
320,W  PARK AV,RIVERTON,WY,82501,
3182,LOST SPRINGS RD,Natrona,WY,82604,
1962,ROAD 120,Laramie,WY,82009,
336,EAST 24TH AVENUE,TORRINGTON,WY,82050,
3905,TAM-O-SHANTER DR,RIVERTON,WY,82501,
67,TAPPAY DR,FORT WASHAKIE,WY,82514,
3140,CY AVE,Natrona,WY,82604,
1255,ROAD 228,Laramie,WY,82009,
808,N  16 EAST,RIVERTON,WY,82501,
132,WILSON ST,Natrona,WY,82601,
8720,OTTO RD,Laramie,WY,82001,
1314,W 18TH ST,Laramie,WY,82001,
150,KORNEGAY CT,Laramie,WY,82009,
813,SUNRIDGE DR,Laramie,WY,82007,
4611,21ST ST,Natrona,WY,82609,
5163,ROAD 202,Laramie,WY,82054,
4603,LIONS PARK DR,Laramie,WY,82001,
1820,HORSE CREEK RD,Laramie,WY,82009,
4621,SHELL BEACH AVE,Laramie,WY,82009,
5733,SYCAMORE RD,Laramie,WY,82009,
,BIGHORN STREET,TORRINGTON,WY,82240,
2542,EAST D STREET,TORRINGTON,WY,82240,
1982,BOYSEN,Natrona,WY,82604,
610,JOHNSON AVE,Natrona,WY,82644,
6228,NORTHVIEW DR,Laramie,WY,82009,
,STATE HIGHWAY 157,LINGLE,WY,82223,
92,BLACKFOOT AV,RIVERTON,WY,82501,
18500,BOLTON CREEK RD,Natrona,WY,82604,
1116,FOYER AVE,Laramie,WY,82001,
293,BLACKMORE RD,Natrona,WY,82636,
1602,E LINCOLNWAY,Laramie,WY,82001,
401,W  RAMSHORN,DUBOIS,WY,82513,
2421,4TH ST,Natrona,WY,82609,
150,KENWOOD ST,Natrona,WY,82601,
219,S  2 WEST,RIVERTON,WY,82501,
907,E LINCOLNWAY,Laramie,WY,82001,
4612,E 6TH ST,Laramie,WY,82001,
626,EAST 06TH AVENUE,TORRINGTON,WY,82240,
8333,HWY 26,CROWHEART,WY,82512,
1055,DABICH,LANDER,WY,82520,
1230,17TH ST,Natrona,WY,82601,
10501,CRYSTAL MOUNTAIN RD,Laramie,WY,82009,
1085,BLACK BLVD,LANDER,WY,82520,
10350,CASPER MOUNTAIN RD,Natrona,WY,82601,
1670,WYODAK LOOP,Laramie,WY,82005,
602,GOPP CT,Laramie,WY,82007,
1702,JAZZ DR,Laramie,WY,82007,
2336,MUGHO RD,Laramie,WY,82009,
1217,SHERMAN MOUNTAIN LOOP,Laramie,WY,82009,
1017,E  JACKSON AV,RIVERTON,WY,82501,
4411,DAVID ST,Natrona,WY,82601,
701,E 8TH ST,Laramie,WY,82007,
2938,I-25 SERVICE RD,Laramie,WY,82009,
9230,MOHICAN RD,Natrona,WY,82601,
24000,LAKESHORE DR,Natrona,WY,82604,
8181,SOUTHWOOD ST,Natrona,WY,82604,
1942,EAST D STREET,TORRINGTON,WY,82240,
566,BROOKS AVE,Natrona,WY,82644,
236,LEAVITT ST,Natrona,WY,82636,
911,STOETZEL AVE,Laramie,WY,82082,
240,S AVENUE B-6,Laramie,WY,82007,
2209,E 12TH ST,Laramie,WY,82001,
1520,SUNNY HILL DR,Laramie,WY,82001,
6005,APPIAN WAY,Natrona,WY,82636,
108,VALLEY CIR,RIVERTON,WY,82501,
6358,BUCKBOARD RD,Natrona,WY,82604,
3205,DILLON AVE,Laramie,WY,82001,
223,W 8TH AVE,Laramie,WY,82001,
3014,2ND ST,Natrona,WY,82609,
1704,BURLINGTON AVE,Natrona,WY,82601,
4176,ROAD 74J,TORRINGTON,WY,82240,
,S  1,DUBOIS,WY,82513,
900,RIDGELAND ST,Laramie,WY,82009,
530,WYOMING BLVD,Natrona,WY,82644,
70,SHAMROCK DR,Natrona,WY,82601,
2960,HARRIS RANCH ROAD,JAY EM,WY,82229,
229,LATHROP RD,Natrona,WY,82636,
100,APPLEWOOD CT,Laramie,WY,82009,
7429,LEGACY PKWY,Laramie,WY,82009,
602,WEST DALE BLVD,Laramie,WY,82009,
104,OPAL DR,RIVERTON,WY,82501,
732,WHIPSAW DR,Natrona,WY,82636,
4037,GEM TRL,Laramie,WY,82001,
3855,MEDICINE MAN TRL,Laramie,WY,82001,
1810,CAREY AVE,Laramie,WY,82001,
932,STEVENS DR,Laramie,WY,82001,
1920,E PERSHING BLVD,Laramie,WY,82001,
929,13TH ST,Natrona,WY,82601,
303,WEBBWOOD RD,RIVERTON,WY,82501,
2730,ARDON LN,Natrona,WY,82609,
4536,COUNTRY SIDE CT,Natrona,WY,82604,
1941,LINDA VISTA DR,Natrona,WY,82609,
111,FOREST DR,Natrona,WY,82609,
1019,E 6TH ST,Laramie,WY,82007,
138,H ST,Natrona,WY,82601,
613,MIDWEST AVE,Natrona,WY,82644,
2210,ROAD 224,Laramie,WY,82009,
4450,CARDINAL CT,Natrona,WY,82604,
631,KRAFT LOOP,Natrona,WY,82601,
543,E POWELL RD,Laramie,WY,82009,
717,W 25TH ST,Laramie,WY,82001,
356,MORTIMORE LN,LANDER,WY,82520,
331,ARBOR LN,Laramie,WY,82009,
234,LENNOX ST,Natrona,WY,82601,
82,PARQUE CREEK RD,DUBOIS,WY,82513,
61490,TURKEY TRACK RD,Natrona,WY,82604,
4112,SADDLE RIDGE TRL,Laramie,WY,82001,
258,LENNOX ST,Natrona,WY,82601,
1929,MANDAN TRL,Natrona,WY,82601,
,EAST F STREET,TORRINGTON,WY,82240,
1102,HOFFMAN ST,Natrona,WY,82644,
3629,CAMPFIRE TRL,Laramie,WY,82001,
2018,PINEY CREEK RD,Natrona,WY,82604,
3400,S GREELEY HWY,Laramie,WY,82007,
1111,MIRACLE PKWY,Laramie,WY,82009,
3634,LINCOLN STREET,TORRINGTON,WY,82240,
5801,CAMPSTOOL RD,Laramie,WY,82007,
20,CHICO DR,LANDER,WY,82520,
10070,HOPI RD,Natrona,WY,82601,
560,S  2,LANDER,WY,82520,
225,S HOUSE AVE,Laramie,WY,82007,
1005,CAHILL DR,Laramie,WY,82001,
1172,PRAIRIE BREEZE LN,Laramie,WY,82053,
1223,MARIE LN,Laramie,WY,82009,
1714,FENWAY ST,Natrona,WY,82601,
504,MILLER ST,Laramie,WY,82082,
372,BEATRICE ST,Natrona,WY,82604,
219,URBIGKEIT RD,CROWHEART,WY,82512,
1704,HOT SPRINGS AVE,Laramie,WY,82001,
2216,CRESCENT AVE,Natrona,WY,82604,
825,RIDGELAND ST,Laramie,WY,82009,
229,LATHROP RD,Natrona,WY,82636,
3010,BADWATER RD,LYSITE,WY,82642,
1425,PINE ST,Natrona,WY,82604,
105,MCKINLEY ST,Natrona,WY,82601,
800,EAST 03RD  AVENUE,TORRINGTON,WY,32163,
91,TROUT CREEK RD,FORT WASHAKIE,WY,82514,
3116,JACKSON ST,Laramie,WY,82009,
502,MECKEM,DUBOIS,WY,82513,
1916,MAIN STREET,TORRINGTON,WY,82240,
2525,FREEDOM DR,Laramie,WY,82005,
1191,GRANITE SPRINGS RD,Laramie,WY,82009,
30,WYOMING,LYSITE,WY,82642,
4905,OREGON TRL,Natrona,WY,82644,
7620,MICHELLE JOY HEIGHTS,Laramie,WY,82009,
16550,STATE HIGHWAY 220,Natrona,WY,82604,
6752,LOST TRAIL DR,Natrona,WY,82601,
8290,BULL RUN,Natrona,WY,82636,
1500,AVENUE C,Laramie,WY,82007,
5304,CARTER RD,Laramie,WY,82001,
1804,BURLINGTON AVE,Natrona,WY,82601,
512,LITTLE VALLEY TRL,Laramie,WY,82007,
2071,LACY DR,Laramie,WY,82009,
901,W  MAIN,RIVERTON,WY,82501,
449,COPPER AVE,Natrona,WY,82636,
6290,ROAD 211,Laramie,WY,82082,
2250,PHILLIPS LN,Natrona,WY,82604,
3238,OLD FAITHFUL RD,Laramie,WY,82001,
406,HORSE CREEK RD,DUBOIS,WY,82513,
222,HOWARD ST,Natrona,WY,82643,
2950,EAST D STREET,TORRINGTON,WY,82240,
1010,GETTYSBURG DR,Laramie,WY,82001,
21,SUNSHINE DR,LANDER,WY,82520,
2030,FONTENELLE,Natrona,WY,82604,
5805,10TH CAVALRY AVE,Laramie,WY,82005,
11194,ORCHARD DR,Laramie,WY,82009,
412,E CARLSON ST,Laramie,WY,82009,
1014,W 27TH ST,Laramie,WY,82001,
922,E 18TH ST,Laramie,WY,82001,
4722,GARNET WAY,Laramie,WY,82009,
,S  1,DUBOIS,WY,82513,
608,KILLARNEY DR,Laramie,WY,82009,
92,ELKHORN DR,RIVERTON,WY,82501,
3736,SUNRISE HILLS DR,Laramie,WY,82009,
,PINE RIDGE ROAD,FORT LARAMIE,WY,80513,
3400,S GREELEY HWY,Laramie,WY,82007,
3463,ROAD 203,Laramie,WY,82007,
1235,ELM ST,Natrona,WY,82601,
516,CHIMNEY ROCK LOOP,Laramie,WY,82059,
62,SIDEWINDER RD,RIVERTON,WY,82501,
5303,SESLAR AVE,Laramie,WY,82009,
2924,BELMONT RD,Natrona,WY,82604,
2624,6TH ST,Natrona,WY,82609,
1065,DABICH,LANDER,WY,82520,
2322,3RD ST,Natrona,WY,82609,
13900,STATE HIGHWAY 487,Natrona,WY,82604,
24,SADDLE RIDGE LN,RIVERTON,WY,82501,
700,RENDEZVOUS RD,RIVERTON,WY,82501,
7705,COMMERCE DR,Natrona,WY,82604,
12021,HWY 789,SHOSHONI,WY,82649,
822,ARAPAHO ST,Laramie,WY,82009,
3204,HOLLAND CT,Laramie,WY,82009,
55,MAZET RD,RIVERTON,WY,82501,
,KASPIERE ROAD,FORT LARAMIE,WY,82214,
5024,ATLANTIC DR,Laramie,WY,82001,
41,FORT WARREN AVE,Laramie,WY,82005,
4017,VAN BUREN AVE,Laramie,WY,82001,
1878,BRECK AVE,Natrona,WY,82601,
1930,KINGSBURY DR,Natrona,WY,82609,
520,PIONEER AV,RIVERTON,WY,82501,
306,JACKSON ST,Natrona,WY,82601,
1702,GETTYSBURG DR,Laramie,WY,82001,
1825,ELK AVE,Natrona,WY,82601,
51,BUCKHORN FLATS RD,RIVERTON,WY,82501,
309,N  4 WEST,RIVERTON,WY,82501,
254,REMINGTON RANCH RD,Laramie,WY,82054,
6739,COLUMBIA RIVER RD,Natrona,WY,82604,
1556,PAINTBRUSH LP,LANDER,WY,82514,
237,PRAIRIE HILLS DR,Laramie,WY,82009,
3730,2ND ST,Natrona,WY,82609,
650,SIMKINS AVE,Laramie,WY,82082,
838,JEFFERSON ST,Natrona,WY,82601,
,COUNTY LINE ROAD,FORT LARAMIE,WY,77474,
127,COLORADO AVE,Natrona,WY,82609,
609,W 3RD ST,Laramie,WY,82007,
2212,BAILEY CT,Laramie,WY,82001,
510,PATTON AVE,Laramie,WY,82007,
3,HI DR,DUBOIS,WY,82513,
6129,KEVIN AVE,Laramie,WY,82009,
527,EUGENE,LANDER,WY,82520,
1028,MISSOURI VALLEY RD,RIVERTON,WY,82501,
1180,SIERRA VISTA,Natrona,WY,82636,
2334,MCCANN AVE,Laramie,WY,82001,
151,EIGHT MILE RD,RIVERTON,WY,82501,
3725,CLEVELAND AVE,Laramie,WY,82001,
727,JEFFERSON ST,Natrona,WY,82601,
1314,SYCAMORE ST,Natrona,WY,82604,
324,S  BROADWAY AV,RIVERTON,WY,82501,
920,W RIDING CLUB RD,Laramie,WY,82009,
4960,KING ARTHUR WAY,Laramie,WY,82009,
1408,ADAMS AVE,Laramie,WY,82001,
5763,MOKI,Natrona,WY,82604,
2,COTTONWOOD DR,SHOSHONI,WY,82649,
1010,PIONEER AVE,Natrona,WY,82644,
22250,STATE HIGHWAY 220,Natrona,WY,82604,
387,INDIAN PAINTBRUSH,Natrona,WY,82604,
3673,CONVERSE STREET,TORRINGTON,WY,69361,
5314,MOUNTAIN WAY,Natrona,WY,82601,
1521,E 19TH ST,Laramie,WY,82001,
,ROAD 33,VETERAN,WY,33556,
45,JOHN R'S TR,DUBOIS,WY,82513,
4611,E 6TH ST,Laramie,WY,82001,
1508,MONROE CT,Laramie,WY,82001,
155,CUSTER,LANDER,WY,82520,
3962,FARTHING RD,Laramie,WY,82001,
1510,WILLOW DR,Laramie,WY,82001,
625,BELLVUE,LANDER,WY,82520,
821,CENTENNIAL DR,Laramie,WY,82001,
505,WILLIAMS ST,Laramie,WY,82007,
4770,LINDEN WAY,Laramie,WY,82009,
3400,S GREELEY HWY,Laramie,WY,82007,
,ROAD 19,YODER,WY,83221,
19,GAS HILLS RD,GAS HILLS,WY,82501,
1195,CARRIAGE LN,Natrona,WY,82609,
2250,MITCHELL ST,Natrona,WY,82601,
711,LA HACIENDA,Natrona,WY,82601,
135,PENNSYLVANIA AVE,Natrona,WY,82609,
711,GREEN,RIVERTON,WY,82501,
236,E  BELL AV,RIVERTON,WY,82501,
3209,FRONTIER ST,Laramie,WY,82001,
1610,WILSON ST,Natrona,WY,82601,
1600,TROJAN DR,Natrona,WY,82609,
4851,SMOKE RISE RD,Natrona,WY,82604,
1070,VIRGINIA RD,Laramie,WY,82009,
4366,MOONBEAM RD,Natrona,WY,82604,
300,E PROSSER RD,Laramie,WY,82007,
706,WELLINGTON CT,RIVERTON,WY,82501,
6424,ELMWOOD AVE,Laramie,WY,82007,
4496,ROAD 207,Laramie,WY,82054,
117,2ND AVE,Laramie,WY,82050,
4211,CONVERSE AVE,Laramie,WY,82001,
922,E  JACKSON AV,RIVERTON,WY,82501,
237,DESMET DR,Laramie,WY,82007,
512,BARBER,DUBOIS,WY,82513,
925,NEW BEDFORD DR,Laramie,WY,82009,
5941,CEDAR ST,Natrona,WY,82601,
16053,DOGIE RD,Natrona,WY,82601,
2317,MANDAN TRL,Natrona,WY,82601,
2946,MOCKINGBIRD TRL,Natrona,WY,82604,
1668,RANCH LOOP,Laramie,WY,82009,
2400,45TH AVE,Natrona,WY,82604,
1145,LINCOLN ST,Natrona,WY,82601,
55,ASH ST,Natrona,WY,82635,
8799,AGATE ST,Natrona,WY,82636,
1395,GOODRICH DR,LANDER,WY,82520,
1203,TAFT AVE,Laramie,WY,82001,
3484,HANCOCK LN,Laramie,WY,82007,
5520,YELLOWSTONE RD,Laramie,WY,82009,
760,LANDMARK DR,Natrona,WY,82609,
1851,CONVERSE AVE,Laramie,WY,82001,
